{"type":"FeatureCollection","name":"LFAC AVISO","bbox":[1.944919167,50.9573425,1.964513889,50.965622222],"metadata":{"schema":"vSMR AVISO","schema_version":2,"geometry_mode":"shared","airport":"LFAC","coordinate_reference_system":"WGS84","coordinate_order":"longitude, latitude","default_color_palette":"dark","color_palettes":["dark","light"],"background_colors":{"dark":"#434A4F","light":"#434A4F"},"runways":[{"ends":["06","24"],"headings":[59,239],"thresholds":[[1.945205833,50.958755833],[1.964313889,50.965435833]]}],"saved_active_runways":[],"saved_active_airport_modes":[],"airport_reference":[1.951388889,50.960832778],"feature_count":16,"style_count":8,"layer_counts":{"Guidance lines":6,"Labels":10},"category_counts":{"Apron Surface":1,"Gates":4,"Labels":1,"Runways":1,"Stopbars":1,"TWR-CTR":1,"Taxiways":7},"geometry_source":"local GNG","geometry_source_url":"","geometry_license":"GPL-3.0"},"styles":{"line.runwayconcrete.555555":{"name":"Runways","layer":"Guidance lines","object_type":"Line","paint":{"stroke":"#111318","stroke-opacity":1,"stroke-width":1,"palette-overrides":{"light":{"stroke":"#555555"}}},"feature_count":1},"line.taxiway.c0b631":{"name":"Taxiways","layer":"Guidance lines","object_type":"Line","paint":{"stroke":"#4E5A69","stroke-opacity":1,"stroke-width":1,"palette-overrides":{"light":{"stroke":"#C0B631"}}},"feature_count":1},"line.apronsurface.808080":{"name":"Apron Surface","layer":"Guidance lines","object_type":"Line","paint":{"stroke":"#808080","stroke-opacity":1,"stroke-width":1,"palette-overrides":{"light":{"stroke":"#808080"}}},"feature_count":1},"line.stopbar.7e0000":{"name":"Stopbars","layer":"Guidance lines","object_type":"Line","paint":{"stroke":"#7E0000","stroke-opacity":1,"stroke-width":1,"palette-overrides":{"light":{"stroke":"#7E0000"}}},"feature_count":1},"line.twr-ctr.000000":{"name":"TWR-CTR","layer":"Guidance lines","object_type":"Line","paint":{"stroke":"#000000","stroke-opacity":1,"stroke-width":1,"palette-overrides":{"light":{"stroke":"#000000"}}},"feature_count":1},"line.labels.808080":{"name":"Labels","layer":"Guidance lines","object_type":"Line","paint":{"stroke":"#808080","stroke-opacity":1,"stroke-width":1,"palette-overrides":{"light":{"stroke":"#808080"}}},"feature_count":1},"label.gates":{"name":"Gates","layer":"Labels","object_type":"Label","paint":{"text-color":"#CCCCCC","text-font":"Arial","text-size":12,"text-halo-color":"#000000","text-halo-width":1,"text-anchor":"center","zoomLevel":9},"feature_count":4},"label.taxiways":{"name":"Taxiways","layer":"Labels","object_type":"Label","paint":{"text-color":"#CCCCCC","text-font":"Arial","text-size":12,"text-halo-color":"#000000","text-halo-width":1,"text-anchor":"center","zoomLevel":7},"feature_count":6}},"vsmr_groups":[],"features":[{"type":"Feature","id":"LFAC-2f07faef6a554ef402b0","properties":{"airport":"LFAC","name":"TWR","layer":"Labels","category":"Gates","object_type":"Label","style_id":"label.gates","source_group":"LFAC Gates","vsmr_group_ids":[],"geometry_role":"text_label","text-field":"TWR"},"geometry":{"type":"Point","coordinates":[1.957472222,50.958945]}},{"type":"Feature","id":"LFAC-dfce85bead0d3479e491","properties":{"airport":"LFAC","name":"ACB","layer":"Labels","category":"Gates","object_type":"Label","style_id":"label.gates","source_group":"LFAC Gates","vsmr_group_ids":[],"geometry_role":"text_label","text-field":"ACB"},"geometry":{"type":"Point","coordinates":[1.959960278,50.959142778]}},{"type":"Feature","id":"LFAC-62853eb1ebbe13eeb64f","properties":{"airport":"LFAC","name":"Terminal","layer":"Labels","category":"Gates","object_type":"Label","style_id":"label.gates","source_group":"LFAC Gates","vsmr_group_ids":[],"geometry_role":"text_label","text-field":"Terminal"},"geometry":{"type":"Point","coordinates":[1.954738889,50.957806667]}},{"type":"Feature","id":"LFAC-c23e2ac794150ab9df0b","properties":{"airport":"LFAC","name":"H","layer":"Labels","category":"Gates","object_type":"Label","style_id":"label.gates","source_group":"LFAC Gates","vsmr_group_ids":[],"geometry_role":"text_label","text-field":"H"},"geometry":{"type":"Point","coordinates":[1.953061111,50.957747222]}},{"type":"Feature","id":"LFAC-bfcc47288f13122c8088","properties":{"airport":"LFAC","name":"LFAC Groundlayout","layer":"Guidance lines","category":"Runways","object_type":"Line","style_id":"line.runwayconcrete.555555","source_group":"LFAC Groundlayout","vsmr_group_ids":[],"geometry_role":"linework"},"geometry":{"type":"MultiLineString","coordinates":[[[1.959275,50.963454167],[1.964513889,50.965270278],[1.964211667,50.965622222],[1.945255,50.959000556],[1.945228333,50.959003056],[1.945211944,50.959014722],[1.945064444,50.959210556],[1.944919167,50.959168056],[1.945058333,50.958974722],[1.945005278,50.958953889],[1.945331667,50.958580278]],[[1.945818056,50.958750833],[1.951183611,50.960626944]]]}},{"type":"Feature","id":"LFAC-e9e32403b36e09aaa626","properties":{"airport":"LFAC","name":"LFAC Groundlayout","layer":"Guidance lines","category":"Taxiways","object_type":"Line","style_id":"line.taxiway.c0b631","source_group":"LFAC Groundlayout","vsmr_group_ids":[],"geometry_role":"linework"},"geometry":{"type":"MultiLineString","coordinates":[[[1.959278056,50.963454167],[1.959258889,50.963426111],[1.959225278,50.963395],[1.959204722,50.963365],[1.959191944,50.963336667],[1.959185556,50.963303611],[1.959188611,50.9632725],[1.959198333,50.963236389],[1.959206111,50.963212222],[1.959225278,50.963187222],[1.959260278,50.963145833],[1.959906944,50.962410833],[1.959928333,50.962379167],[1.959949722,50.962353333],[1.959969444,50.962316389],[1.959989167,50.962278333],[1.959998056,50.962242222],[1.960010556,50.962196111],[1.960008611,50.962145833],[1.960003333,50.962104167],[1.959994444,50.962067222],[1.95998,50.962026667],[1.959965833,50.961979444],[1.959953889,50.961950556],[1.959939444,50.961925833],[1.959936944,50.961901667],[1.959943333,50.961840278],[1.959948611,50.961790556],[1.959953889,50.96175],[1.959963056,50.961686944],[1.959966389,50.961575278],[1.9599775,50.961294722],[1.960014722,50.960324167],[1.960025,50.960055],[1.960023611,50.960011667],[1.960020556,50.959978889],[1.960014444,50.959949167],[1.959998889,50.959893333],[1.959966944,50.959794167],[1.959888889,50.959579444]],[[1.945821667,50.958752778],[1.945802778,50.958735833],[1.945783611,50.958716667],[1.94576,50.9586975],[1.945735278,50.958673333],[1.945716111,50.958651389],[1.945702778,50.958626667],[1.945690278,50.958599167],[1.945685833,50.958577222],[1.945688056,50.958549444],[1.945690278,50.958526111],[1.945701667,50.958499167],[1.945712778,50.958478611],[1.945731944,50.958456111],[1.946423333,50.957672778],[1.946448333,50.957654167],[1.94648,50.957629444],[1.946513889,50.957605],[1.946559167,50.957578889],[1.946609722,50.957558056],[1.94666,50.9575375],[1.946726667,50.957516111],[1.946782222,50.957501111],[1.946851389,50.957488333],[1.946925833,50.957479722],[1.947007778,50.957475556],[1.947090833,50.957481944],[1.94716,50.9574875],[1.947231667,50.957503056],[1.947306111,50.957521389],[1.947397778,50.957553056],[1.947678056,50.957648611],[1.947925278,50.9577375],[1.949821389,50.958398889],[1.952292222,50.959261667],[1.952373889,50.959293056],[1.952441111,50.959325833],[1.952485556,50.959363333],[1.9525125,50.959399722],[1.9525375,50.959442222],[1.952543056,50.959483333],[1.9525375,50.959519722],[1.952523889,50.9595525],[1.952491111,50.959594722],[1.952339167,50.959775278],[1.951927778,50.960245],[1.951686111,50.960520833],[1.951648889,50.960556111],[1.951619722,50.960579444],[1.951571944,50.960602778],[1.951526667,50.960618056],[1.951476389,50.960634722],[1.9514125,50.960641389],[1.951340833,50.960643056],[1.951277222,50.960636389],[1.951216111,50.960629722],[1.951168333,50.960621389]],[[1.945331944,50.958582222],[1.945358611,50.958563611],[1.945379444,50.958559167],[1.945396667,50.958548333],[1.945430556,50.95851],[1.945668611,50.958241944],[1.946232222,50.957607222],[1.946262778,50.957578889],[1.946301944,50.957548056],[1.946354167,50.957515],[1.946410556,50.957483056],[1.946471389,50.957451944],[1.9465425,50.957422778],[1.946633056,50.957393056],[1.946707778,50.9573725],[1.946794167,50.957356111],[1.946860833,50.957349167],[1.946939722,50.957344444],[1.947026111,50.9573425],[1.947101111,50.957343056],[1.947145833,50.957348333],[1.947250556,50.957360833],[1.947319444,50.957373611],[1.947375278,50.957387778],[1.9474575,50.957410833],[1.947685833,50.957494167],[1.952471111,50.959165556],[1.952525278,50.9591825],[1.9525725,50.959194444],[1.952621111,50.959194444],[1.952664444,50.959194444],[1.9527075,50.959188611],[1.952750833,50.95918],[1.952794167,50.959168056],[1.952836944,50.959151389],[1.952882778,50.959127778],[1.952921944,50.959103056],[1.952943056,50.959079444],[1.952964167,50.959050833]],[[1.951925278,50.960883056],[1.951891944,50.960856667],[1.951871111,50.960838333],[1.951857222,50.960820833],[1.951846111,50.960798056],[1.951839167,50.960769167],[1.951835,50.960736111],[1.951826667,50.960708056],[1.951828056,50.960680833],[1.951835,50.960645],[1.951848889,50.960616944],[1.951871111,50.960585556],[1.952570278,50.959783333],[1.952616667,50.959725833],[1.952653889,50.959688889],[1.952683333,50.959660556],[1.952722222,50.959626389],[1.952763889,50.959603889],[1.952818056,50.959583333],[1.952873889,50.959563889],[1.952934444,50.959551111],[1.952997778,50.959544444],[1.953063056,50.959547222],[1.953120556,50.959551944],[1.953163889,50.959563611],[1.953245833,50.959590833],[1.953695278,50.959748611],[1.9573875,50.96105],[1.959416389,50.961751667],[1.959490278,50.961784444],[1.959559722,50.961821389],[1.959685278,50.961913611],[1.959724444,50.961961111],[1.959758889,50.962022222],[1.959777778,50.962071389],[1.959789444,50.962121389],[1.959788056,50.962173333],[1.959786389,50.9622125],[1.959773611,50.962249722],[1.9597575,50.962281667],[1.9597475,50.962306111],[1.959412222,50.962698333],[1.959214722,50.962922778],[1.959040556,50.963113889],[1.959008611,50.963145],[1.958963333,50.963171667],[1.958922778,50.963190833],[1.958871944,50.963206389],[1.958813611,50.963215556],[1.958752778,50.963221111],[1.958690278,50.963223056],[1.958648056,50.963221944],[1.958620278,50.963221944],[1.958585556,50.963213889],[1.958543333,50.963198333]],[[1.953221944,50.959148056],[1.953188889,50.959180833],[1.953153889,50.959223889],[1.953140278,50.959270278],[1.953148056,50.959310556],[1.953161667,50.959353333],[1.953183056,50.959388889],[1.953216111,50.959412222],[1.953270556,50.959440278],[1.953326667,50.959462222],[1.956586944,50.960600833],[1.956640833,50.960615833],[1.956691389,50.960624444],[1.956731944,50.960626944],[1.9567775,50.960625278],[1.956811667,50.960622222],[1.956852222,50.960615],[1.956892778,50.960606944],[1.956929444,50.960595833],[1.956954722,50.960583889],[1.956991389,50.960566389],[1.957025833,50.960542222],[1.957063611,50.960505556],[1.957288056,50.960244444],[1.957299167,50.9602225],[1.957308889,50.960202222],[1.95732,50.960181111],[1.957327222,50.960158333],[1.95733,50.960130278],[1.957327222,50.960103889],[1.957324167,50.9600775],[1.957318611,50.960041667],[1.957303333,50.9600125],[1.957286667,50.959980833],[1.95726,50.959951944],[1.957238889,50.959929722],[1.957214444,50.959906667],[1.95719,50.959889167],[1.957158889,50.959871667],[1.957125556,50.959853333],[1.957094444,50.959838056],[1.956107222,50.959499444],[1.956055278,50.959494444],[1.956009167,50.959495556],[1.955969167,50.959499444],[1.955913333,50.959505556],[1.955879444,50.959511944],[1.955849444,50.959523333],[1.955811389,50.959537222],[1.955783333,50.959557222]],[[1.956140278,50.959177778],[1.956136111,50.959221667],[1.956140278,50.959261389],[1.956157778,50.959295556],[1.956188056,50.959326944],[1.956216389,50.959355833],[1.956257778,50.959378889],[1.956322778,50.959410556],[1.9565575,50.959496667],[1.957228333,50.959729167],[1.957322222,50.959760278],[1.957387222,50.959790556],[1.957440278,50.959821667],[1.957481111,50.959853056],[1.957520556,50.959883056],[1.957549444,50.959919722],[1.957571667,50.959963889],[1.957590556,50.960005833],[1.9576025,50.960043333],[1.957614444,50.960099444],[1.957616667,50.960139722],[1.957604444,50.960177222],[1.957599167,50.960217222],[1.957586944,50.960249167],[1.957565833,50.96029],[1.957539444,50.960331944],[1.957499167,50.9603775],[1.957460556,50.960423889],[1.957351667,50.960551944],[1.957324444,50.960605556],[1.957305556,50.960662778],[1.957318333,50.9607425],[1.957339444,50.960790556],[1.957371111,50.9608275],[1.957415278,50.960871389],[1.957463889,50.960903333],[1.957518611,50.96093],[1.957628333,50.9609725],[1.957780278,50.961025556],[1.959570833,50.961651111],[1.959637778,50.961679722],[1.959695278,50.961696111],[1.959743056,50.961703611],[1.959781389,50.961694722],[1.9598125,50.961687222],[1.959833889,50.961669167],[1.959853056,50.961648056],[1.959855556,50.961628333],[1.959858056,50.961596667],[1.959884167,50.961031944],[1.959920556,50.960058611],[1.959916667,50.959999167],[1.95991,50.959971667],[1.959905,50.959948889],[1.959899722,50.959926944],[1.959890833,50.9599],[1.959868889,50.959838333],[1.959778056,50.959593611]]]}},{"type":"Feature","id":"LFAC-16b2b368694a17836ce3","properties":{"airport":"LFAC","name":"LFAC Groundlayout","layer":"Guidance lines","category":"Apron Surface","object_type":"Line","style_id":"line.apronsurface.808080","source_group":"LFAC Groundlayout","vsmr_group_ids":[],"geometry_role":"linework"},"geometry":{"type":"MultiLineString","coordinates":[[[1.959777222,50.9595925],[1.959619722,50.959171389],[1.959385556,50.958548333],[1.959356667,50.958554444],[1.959323889,50.958561944],[1.959283333,50.958576389],[1.959254167,50.958597222],[1.959233056,50.958619167],[1.959240833,50.958643333],[1.9591575,50.958655556],[1.9591575,50.95863],[1.959171111,50.958600833],[1.959190556,50.958573889],[1.959215556,50.958555833],[1.959250278,50.958536389],[1.959290833,50.958524167],[1.959333611,50.958516667],[1.959366389,50.958508333],[1.959350833,50.958457222],[1.959410833,50.958453333],[1.959584722,50.9589075],[1.959608056,50.958905],[1.959644722,50.959001389],[1.959735833,50.958986944],[1.959956111,50.959564722],[1.959889444,50.959574722],[1.959889444,50.959580556]],[[1.953221944,50.959148611],[1.953241667,50.959139167],[1.953275278,50.959126111],[1.953306667,50.959114167],[1.953333056,50.959105556],[1.953361389,50.959098333],[1.953391667,50.959093611],[1.953424167,50.9590925],[1.953456667,50.959093056],[1.953490278,50.959093611],[1.953509167,50.959095556],[1.953535556,50.959101667],[1.953572222,50.959112778],[1.955553611,50.959801111],[1.955744444,50.959590278],[1.955766667,50.959570278],[1.955785556,50.959556389]],[[1.952961667,50.959050278],[1.953601944,50.958323056],[1.953456667,50.957900556],[1.953243611,50.957820833],[1.953189444,50.957874167],[1.952901944,50.957780833],[1.953096111,50.957554167],[1.953288333,50.957619444],[1.953337778,50.957571389],[1.953790556,50.957733056],[1.953692222,50.957851944],[1.953658056,50.9579],[1.95365,50.957923889],[1.95366,50.957949167],[1.953694167,50.957965833],[1.953754444,50.957983333],[1.953810556,50.957983333],[1.953864722,50.957974444],[1.953910833,50.957963056],[1.953940833,50.957943056],[1.953973056,50.9579125],[1.953991111,50.957877222],[1.953999167,50.957846944],[1.953995,50.957817778],[1.953976944,50.957791389],[1.953953056,50.957768611],[1.953918889,50.957750833],[1.953906944,50.957743333],[1.953971111,50.95767],[1.954433889,50.957830556],[1.954321389,50.957953611],[1.95439,50.95798],[1.954374444,50.958001667],[1.954574444,50.958066667],[1.95459,50.958051944],[1.954657222,50.9580725],[1.954725833,50.958001389],[1.954789444,50.958024722],[1.954566667,50.958267222],[1.956355833,50.958905],[1.9565475,50.958679722],[1.957616944,50.959058056],[1.957568333,50.959127778],[1.956735,50.958843611],[1.956467778,50.958941944],[1.956926111,50.959103889],[1.956790556,50.959265556],[1.956217778,50.959077778],[1.956169167,50.959116944],[1.956138056,50.959158611],[1.956139167,50.959178889]]]}},{"type":"Feature","id":"LFAC-4b862b7940c12d446743","properties":{"airport":"LFAC","name":"LFAC Groundlayout","layer":"Guidance lines","category":"Stopbars","object_type":"Line","style_id":"line.stopbar.7e0000","source_group":"LFAC Groundlayout","vsmr_group_ids":[],"geometry_role":"linework"},"geometry":{"type":"MultiLineString","coordinates":[[[1.959753889,50.962295833],[1.959944444,50.962362222]],[[1.95986,50.961575],[1.959966111,50.961576389]],[[1.94624,50.957602222],[1.946419167,50.957675278]],[[1.952388889,50.959716389],[1.952570278,50.959781667]]]}},{"type":"Feature","id":"LFAC-5e2a377b642001610f50","properties":{"airport":"LFAC","name":"LFAC Groundlayout","layer":"Guidance lines","category":"TWR-CTR","object_type":"Line","style_id":"line.twr-ctr.000000","source_group":"LFAC Groundlayout","vsmr_group_ids":[],"geometry_role":"linework"},"geometry":{"type":"LineString","coordinates":[[1.957375833,50.958949722],[1.95755,50.959010556],[1.957564444,50.958999444],[1.957653333,50.959031944],[1.957696667,50.958981111],[1.957606389,50.958951667],[1.957428889,50.958888611],[1.957375833,50.958949722]]}},{"type":"Feature","id":"LFAC-44885f26b709bd787ef0","properties":{"airport":"LFAC","name":"LFAC Groundlayout","layer":"Guidance lines","category":"Labels","object_type":"Line","style_id":"line.labels.808080","source_group":"LFAC Groundlayout","vsmr_group_ids":[],"geometry_role":"linework"},"geometry":{"type":"MultiLineString","coordinates":[[[1.9635325,50.965215556],[1.963517778,50.965231111],[1.96359,50.965256389],[1.963581111,50.965266944],[1.963618056,50.965279444],[1.963630556,50.965268611],[1.963675556,50.965285833],[1.9636875,50.965272778],[1.963641389,50.965255556],[1.963674167,50.965218056],[1.963475556,50.965180556],[1.963462222,50.965195],[1.963617222,50.965223056],[1.963601389,50.965240833],[1.9635325,50.965215556]],[[1.963513056,50.965135556],[1.963588889,50.965161389],[1.963703333,50.965157222],[1.963727778,50.965166389],[1.963699167,50.965199722],[1.963738889,50.965213611],[1.963782222,50.965165556],[1.963718333,50.9651425],[1.963598889,50.965145833],[1.963568056,50.965134722],[1.963584167,50.965115278],[1.963604444,50.965121944],[1.963616389,50.9651075],[1.963556111,50.965085833],[1.963513056,50.965135556]],[[1.945808056,50.959035],[1.945953056,50.959085556],[1.945971667,50.959065556],[1.945825833,50.959015],[1.945808056,50.959035]],[[1.945756389,50.959035],[1.945981111,50.959113333],[1.946023889,50.959065556],[1.945797778,50.958987222],[1.945756389,50.959035]],[[1.945880833,50.9589525],[1.945939722,50.9589725],[1.945956667,50.958953056],[1.945895833,50.958931389],[1.945880833,50.9589525]],[[1.946016667,50.959017778],[1.946094167,50.958999722],[1.946068056,50.958990278],[1.9460175,50.958999722],[1.945978333,50.958986667],[1.946009167,50.9589525],[1.945870556,50.958904722],[1.9458275,50.958951944],[1.946016667,50.959017778]]]}},{"type":"Feature","id":"LFAC-b340c572406438b8fe12","properties":{"airport":"LFAC","name":"A","layer":"Labels","category":"Taxiways","object_type":"Label","style_id":"label.taxiways","source_group":"LFAC Taxiways","vsmr_group_ids":[],"geometry_role":"text_label","text-field":"A"},"geometry":{"type":"Point","coordinates":[1.946351667,50.958011667]}},{"type":"Feature","id":"LFAC-e0dee1f221753a14f295","properties":{"airport":"LFAC","name":"P1","layer":"Labels","category":"Taxiways","object_type":"Label","style_id":"label.taxiways","source_group":"LFAC Taxiways","vsmr_group_ids":[],"geometry_role":"text_label","text-field":"P1"},"geometry":{"type":"Point","coordinates":[1.949460556,50.958549167]}},{"type":"Feature","id":"LFAC-95370a1d6a443ee16fd5","properties":{"airport":"LFAC","name":"B","layer":"Labels","category":"Taxiways","object_type":"Label","style_id":"label.taxiways","source_group":"LFAC Taxiways","vsmr_group_ids":[],"geometry_role":"text_label","text-field":"B"},"geometry":{"type":"Point","coordinates":[1.952536667,50.960135]}},{"type":"Feature","id":"LFAC-011c41320ce25877a994","properties":{"airport":"LFAC","name":"P2","layer":"Labels","category":"Taxiways","object_type":"Label","style_id":"label.taxiways","source_group":"LFAC Taxiways","vsmr_group_ids":[],"geometry_role":"text_label","text-field":"P2"},"geometry":{"type":"Point","coordinates":[1.955791944,50.960756667]}},{"type":"Feature","id":"LFAC-70474fa88dfc05a43f3d","properties":{"airport":"LFAC","name":"C","layer":"Labels","category":"Taxiways","object_type":"Label","style_id":"label.taxiways","source_group":"LFAC Taxiways","vsmr_group_ids":[],"geometry_role":"text_label","text-field":"C"},"geometry":{"type":"Point","coordinates":[1.959786111,50.962825278]}},{"type":"Feature","id":"LFAC-c4eb080e7b92f480ef61","properties":{"airport":"LFAC","name":"D","layer":"Labels","category":"Taxiways","object_type":"Label","style_id":"label.taxiways","source_group":"LFAC Taxiways","vsmr_group_ids":[],"geometry_role":"text_label","text-field":"D"},"geometry":{"type":"Point","coordinates":[1.959591389,50.960725556]}}]}
