{"type":"FeatureCollection","name":"LFAD AVISO","bbox":[2.795666667,49.427694444,2.807833333,49.435805556],"metadata":{"schema":"vSMR AVISO","schema_version":2,"geometry_mode":"shared","airport":"LFAD","coordinate_reference_system":"WGS84","coordinate_order":"longitude, latitude","default_color_palette":"dark","color_palettes":["dark","light"],"background_colors":{"dark":"#434A4F","light":"#434A4F"},"runways":[{"ends":["05","23"],"headings":[46,226],"thresholds":[[2.797191944,49.429052778],[2.804174722,49.433157778]]}],"saved_active_runways":[],"saved_active_airport_modes":[],"airport_reference":[2.804721944,49.433610833],"feature_count":1,"style_count":1,"layer_counts":{"Guidance lines":1},"category_counts":{"Grass runways":1},"geometry_source":"local GNG/KMZ","geometry_source_url":"","geometry_license":"GPL-3.0"},"styles":{"line.runwaygrass.008000":{"name":"Grass runways","layer":"Guidance lines","object_type":"Line","paint":{"stroke":"#859A77","stroke-opacity":1,"stroke-width":1,"palette-overrides":{"light":{"stroke":"#008000"}}},"feature_count":1}},"vsmr_groups":[],"features":[{"type":"Feature","id":"LFAD-806d1161d9fbee784edc","properties":{"airport":"LFAD","name":"LFAD Groundlayout","layer":"Guidance lines","category":"Grass runways","object_type":"Line","style_id":"line.runwaygrass.008000","source_group":"LFAD Groundlayout","vsmr_group_ids":[],"geometry_role":"linework"},"geometry":{"type":"MultiLineString","coordinates":[[[2.798527778,49.427694444],[2.807833333,49.433194444]],[[2.795666667,49.430305556],[2.798527778,49.427694444]],[[2.804972222,49.435805556],[2.807833333,49.433194444]]]}}]}
