{"type":"FeatureCollection","name":"LFAQ AVISO","bbox":[2.6778425,49.967099444,2.710130278,49.973951944],"metadata":{"schema":"vSMR AVISO","schema_version":2,"geometry_mode":"shared","airport":"LFAQ","coordinate_reference_system":"WGS84","coordinate_order":"longitude, latitude","default_color_palette":"dark","color_palettes":["dark","light"],"background_colors":{"dark":"#434A4F","light":"#434A4F"},"runways":[{"ends":["08R","26L"],"headings":[84,264],"thresholds":[[2.678941944,49.967443889],[2.692832778,49.968185833]]},{"ends":["08","26"],"headings":[84,264],"thresholds":[[2.678696944,49.969324722],[2.709255833,49.970955833]]}],"saved_active_runways":[],"saved_active_airport_modes":[],"airport_reference":[2.692499722,49.969999722],"feature_count":15,"style_count":9,"layer_counts":{"Guidance lines":7,"Labels":8},"category_counts":{"Apron Surface":1,"Gates":4,"Grass runways":1,"Labels":1,"Runways":1,"Stopbars":1,"TWR-CTR":1,"Taxiways":5},"geometry_source":"local GNG","geometry_source_url":"","geometry_license":"GPL-3.0"},"styles":{"line.runwayconcrete.555555":{"name":"Runways","layer":"Guidance lines","object_type":"Line","paint":{"stroke":"#111318","stroke-opacity":1,"stroke-width":1,"palette-overrides":{"light":{"stroke":"#555555"}}},"feature_count":1},"line.runwaygrass.008000":{"name":"Grass runways","layer":"Guidance lines","object_type":"Line","paint":{"stroke":"#859A77","stroke-opacity":1,"stroke-width":1,"palette-overrides":{"light":{"stroke":"#008000"}}},"feature_count":1},"line.taxiway.c0b631":{"name":"Taxiways","layer":"Guidance lines","object_type":"Line","paint":{"stroke":"#4E5A69","stroke-opacity":1,"stroke-width":1,"palette-overrides":{"light":{"stroke":"#C0B631"}}},"feature_count":1},"line.apronsurface.808080":{"name":"Apron Surface","layer":"Guidance lines","object_type":"Line","paint":{"stroke":"#808080","stroke-opacity":1,"stroke-width":1,"palette-overrides":{"light":{"stroke":"#808080"}}},"feature_count":1},"line.stopbar.7e0000":{"name":"Stopbars","layer":"Guidance lines","object_type":"Line","paint":{"stroke":"#7E0000","stroke-opacity":1,"stroke-width":1,"palette-overrides":{"light":{"stroke":"#7E0000"}}},"feature_count":1},"line.twr-ctr.000000":{"name":"TWR-CTR","layer":"Guidance lines","object_type":"Line","paint":{"stroke":"#000000","stroke-opacity":1,"stroke-width":1,"palette-overrides":{"light":{"stroke":"#000000"}}},"feature_count":1},"line.labels.808080":{"name":"Labels","layer":"Guidance lines","object_type":"Line","paint":{"stroke":"#808080","stroke-opacity":1,"stroke-width":1,"palette-overrides":{"light":{"stroke":"#808080"}}},"feature_count":1},"label.gates":{"name":"Gates","layer":"Labels","object_type":"Label","paint":{"text-color":"#CCCCCC","text-font":"Arial","text-size":12,"text-halo-color":"#000000","text-halo-width":1,"text-anchor":"center","zoomLevel":9},"feature_count":4},"label.taxiways":{"name":"Taxiways","layer":"Labels","object_type":"Label","paint":{"text-color":"#CCCCCC","text-font":"Arial","text-size":12,"text-halo-color":"#000000","text-halo-width":1,"text-anchor":"center","zoomLevel":7},"feature_count":4}},"vsmr_groups":[],"features":[{"type":"Feature","id":"LFAQ-9a9ad4faefe13501ea75","properties":{"airport":"LFAQ","name":"TWR","layer":"Labels","category":"Gates","object_type":"Label","style_id":"label.gates","source_group":"LFAQ Gates","vsmr_group_ids":[],"geometry_role":"text_label","text-field":"TWR"},"geometry":{"type":"Point","coordinates":[2.689651944,49.972953056]}},{"type":"Feature","id":"LFAQ-6894e41f05abc7c23aa3","properties":{"airport":"LFAQ","name":"ACB","layer":"Labels","category":"Gates","object_type":"Label","style_id":"label.gates","source_group":"LFAQ Gates","vsmr_group_ids":[],"geometry_role":"text_label","text-field":"ACB"},"geometry":{"type":"Point","coordinates":[2.690346944,49.972925]}},{"type":"Feature","id":"LFAQ-f7bf4adb0c6252af4fe5","properties":{"airport":"LFAQ","name":"Hangars ACB","layer":"Labels","category":"Gates","object_type":"Label","style_id":"label.gates","source_group":"LFAQ Gates","vsmr_group_ids":[],"geometry_role":"text_label","text-field":"Hangars ACB"},"geometry":{"type":"Point","coordinates":[2.690618611,49.972946111]}},{"type":"Feature","id":"LFAQ-b2427a0900a583f4d2ab","properties":{"airport":"LFAQ","name":"Hangars Airbus","layer":"Labels","category":"Gates","object_type":"Label","style_id":"label.gates","source_group":"LFAQ Gates","vsmr_group_ids":[],"geometry_role":"text_label","text-field":"Hangars Airbus"},"geometry":{"type":"Point","coordinates":[2.697793333,49.973551667]}},{"type":"Feature","id":"LFAQ-0dd464aabe729d698957","properties":{"airport":"LFAQ","name":"LFAQ Groundlayout","layer":"Guidance lines","category":"Runways","object_type":"Line","style_id":"line.runwayconcrete.555555","source_group":"LFAQ Groundlayout","vsmr_group_ids":[],"geometry_role":"linework"},"geometry":{"type":"MultiLineString","coordinates":[[[2.708235278,49.970709722],[2.708292222,49.970705278],[2.708346389,49.970702778],[2.7084075,49.970698333],[2.708461667,49.970689722],[2.708509444,49.970682222],[2.708558611,49.970671944],[2.708599722,49.970659167],[2.708966667,49.970546667],[2.708988889,49.970541667],[2.709005556,49.97054],[2.709024444,49.970539722],[2.709040833,49.970541667],[2.709058056,49.970545833],[2.709090833,49.970558333],[2.709138889,49.970583333],[2.709180556,49.970607778],[2.709213889,49.970632222],[2.709231111,49.9706475],[2.709259722,49.970677222],[2.709281111,49.970706389],[2.709294167,49.970731667],[2.709305278,49.970755833],[2.709313611,49.970768611],[2.709336111,49.970771944],[2.709379722,49.970771944],[2.710130278,49.970805556],[2.710084167,49.971202222],[2.699064167,49.970615278]],[[2.692709444,49.9702775],[2.697773889,49.9705475]],[[2.692244167,49.970253611],[2.690617778,49.970167778]],[[2.690485833,49.970160278],[2.679746389,49.969585833],[2.679679722,49.969589167],[2.679610556,49.9695925],[2.679559722,49.969598333],[2.679490556,49.969609167],[2.679429167,49.969622778],[2.679316944,49.969657222],[2.679216389,49.969685556],[2.67911,49.969721111],[2.679028611,49.969744167],[2.678985833,49.969753611],[2.678958056,49.969757222],[2.678932778,49.969752778],[2.678912778,49.969748611],[2.678880556,49.969736389],[2.678832778,49.969710833],[2.678787222,49.969678056],[2.678755278,49.969656667],[2.678726111,49.969623333],[2.678700833,49.969590833],[2.678679444,49.969554722],[2.6786675,49.969534167],[2.678585,49.969524167],[2.6778425,49.969484722],[2.677894167,49.96909],[2.690533889,49.969767222]],[[2.690660556,49.969775278],[2.692338611,49.969865833]]]}},{"type":"Feature","id":"LFAQ-d6b5740220580b93ec2d","properties":{"airport":"LFAQ","name":"LFAQ Groundlayout","layer":"Guidance lines","category":"Grass runways","object_type":"Line","style_id":"line.runwaygrass.008000","source_group":"LFAQ Groundlayout","vsmr_group_ids":[],"geometry_role":"linework"},"geometry":{"type":"MultiLineString","coordinates":[[[2.690614444,49.968444444],[2.678908333,49.967802778],[2.679000556,49.967099444],[2.692878889,49.967838889],[2.692785833,49.968543333]],[[2.692563611,49.968534444],[2.690933056,49.968454444]]]}},{"type":"Feature","id":"LFAQ-e8378e133ce8ef9c7f65","properties":{"airport":"LFAQ","name":"LFAQ Groundlayout","layer":"Guidance lines","category":"Taxiways","object_type":"Line","style_id":"line.taxiway.c0b631","source_group":"LFAQ Groundlayout","vsmr_group_ids":[],"geometry_role":"linework"},"geometry":{"type":"MultiLineString","coordinates":[[[2.692243889,49.970253611],[2.692280278,49.970266389],[2.692311111,49.970278056],[2.692334444,49.970288889],[2.692356111,49.970305833],[2.692376111,49.970322778],[2.692391667,49.970343056],[2.692398611,49.970353889],[2.692403056,49.970371389],[2.692403056,49.970394722],[2.6924025,49.970425],[2.692291667,49.971328056],[2.692185278,49.972141667],[2.692173333,49.972167778],[2.692153611,49.97219],[2.692131944,49.972210278],[2.692104722,49.972227778],[2.692078611,49.972241667],[2.692044167,49.972256111],[2.692014167,49.972265556],[2.691983611,49.972271944],[2.691944722,49.972276667],[2.691912222,49.972277778],[2.691877778,49.972278333],[2.691836389,49.972280833],[2.691783056,49.972288333],[2.691732778,49.972300833],[2.691673611,49.972320833],[2.691624722,49.972346389],[2.691585,49.972369167],[2.691550833,49.972401667],[2.691524167,49.97243],[2.691503611,49.972453056],[2.691491667,49.972486111],[2.691482778,49.972520556]],[[2.690661944,49.969774444],[2.690811944,49.968628611],[2.690844167,49.968514167],[2.690866111,49.968488611],[2.690890556,49.968467222],[2.690930278,49.968453056]],[[2.692766944,49.969887222],[2.692749722,49.9698725],[2.692728056,49.969865],[2.692710833,49.969854444],[2.692694722,49.969845556],[2.692676389,49.969833056],[2.692666667,49.969820556],[2.692656944,49.969809444],[2.692650278,49.969795556],[2.692645,49.969781667],[2.692640556,49.969767222],[2.692769444,49.968769167],[2.692786667,49.9685425]],[[2.692343056,49.969865278],[2.692360278,49.969853333],[2.69239,49.969840556],[2.692417222,49.969825556],[2.692441944,49.969809722],[2.692459167,49.969792222],[2.692475278,49.969776111],[2.692486389,49.969755556],[2.692495,49.969730833],[2.692557778,49.969246389],[2.692560278,49.968756111],[2.692566389,49.968535]],[[2.690533611,49.9697675],[2.690544444,49.969760833],[2.690548611,49.969753056],[2.690551111,49.969742778],[2.690564444,49.969606389],[2.690624444,49.969159167],[2.690696944,49.968632222],[2.690696944,49.968581944],[2.690690556,49.968549444],[2.690682222,49.968518333],[2.690665278,49.968491389],[2.69064,49.968468333],[2.690614167,49.968443889]],[[2.690486667,49.970159722],[2.690489167,49.970184722],[2.690488056,49.970225],[2.690179722,49.972602778]],[[2.690293333,49.972604167],[2.690611667,49.970167778]],[[2.699065556,49.970615833],[2.699029167,49.970621111],[2.698975278,49.970640556],[2.698923056,49.970661111],[2.698875556,49.9706825],[2.698826944,49.970707778],[2.698787778,49.970731667],[2.698733333,49.970771389],[2.698694722,49.970809444],[2.698659444,49.970848056],[2.698634444,49.970879167],[2.698612222,49.97091],[2.698593056,49.970945556],[2.698576389,49.970983611],[2.698558889,49.971024167],[2.698523889,49.971128889],[2.698503889,49.971183611],[2.698488056,49.971239444],[2.698476111,49.971310278],[2.698462778,49.971373889],[2.698460833,49.971478611],[2.698450833,49.971554722],[2.698448056,49.971616389],[2.698441944,49.971669444],[2.698458333,49.97175],[2.698483056,49.971796667],[2.698523333,49.971836944],[2.698563333,49.971867778],[2.698603333,49.971892222],[2.698658889,49.971915556],[2.698704722,49.971929167],[2.698771389,49.971941389],[2.698834444,49.9719475],[2.698916667,49.971951111],[2.699021667,49.9719575],[2.699191389,49.971970833],[2.699203056,49.971988056],[2.699204722,49.972016389],[2.699204722,49.972049444],[2.69919,49.972176111],[2.699080556,49.972171111],[2.698889444,49.972163611],[2.698808889,49.972159167],[2.698749167,49.972160833],[2.698679722,49.972168611],[2.698623889,49.972181944],[2.698572778,49.972197222],[2.698531389,49.972211944],[2.698495278,49.9722275],[2.698463333,49.972247778],[2.698437778,49.972267222],[2.698416111,49.972286667],[2.698398056,49.972308333],[2.698377222,49.972344444],[2.698365833,49.972377222],[2.698359167,49.972410556]],[[2.697773611,49.970548611],[2.697802222,49.970558611],[2.697833611,49.970575],[2.697872778,49.970596667],[2.697919444,49.970623889],[2.697953333,49.970648056],[2.697987778,49.970675],[2.698016389,49.970702222],[2.698055833,49.970743889],[2.698076667,49.970776111],[2.698095278,49.970805278],[2.698111111,49.970832778],[2.698124722,49.970864722],[2.698136111,49.970895556],[2.698147222,49.970939722],[2.698155,49.970988056],[2.69816,49.971033889],[2.698162778,49.971079722],[2.698162778,49.971123889],[2.698166944,49.971201667],[2.698163333,49.971266667],[2.698158611,49.971321944],[2.698148056,49.971400556],[2.698136111,49.971460278],[2.6981225,49.971513611],[2.698111944,49.971560833],[2.698096389,49.971606389],[2.698074444,49.971654444],[2.698049444,49.971689722],[2.698013333,49.971727778],[2.697978056,49.971761389],[2.697941944,49.9717925],[2.697904722,49.971820556],[2.697868611,49.971848889],[2.697828056,49.971876944],[2.697774444,49.971911111],[2.697719722,49.971939444],[2.697670833,49.971968056],[2.697620556,49.971995],[2.697566944,49.972025],[2.697488889,49.972070833],[2.697366111,49.972135278],[2.697276667,49.972185],[2.697182778,49.972235833],[2.697105556,49.9722775],[2.696991944,49.972338056]],[[2.692715278,49.970278333],[2.692689167,49.970295278],[2.692638889,49.970313333],[2.6926075,49.970325556],[2.692586667,49.970338333],[2.692570833,49.970358611],[2.692560278,49.970385556],[2.692547778,49.970432778],[2.692539444,49.970491389],[2.692426389,49.9714275],[2.692328333,49.972146111],[2.692343889,49.9721875],[2.692364722,49.972223889],[2.692401944,49.972258056],[2.692445556,49.972286111],[2.692508611,49.972301667],[2.692581389,49.972315278],[2.692662222,49.972320556],[2.692767222,49.972325556],[2.692906111,49.972330833],[2.693019167,49.972335],[2.693103056,49.972344444],[2.693163056,49.97236],[2.693217778,49.972380833],[2.693261667,49.972404722],[2.6933175,49.972446111],[2.69335,49.972475],[2.69337,49.972500278],[2.693384444,49.972524722],[2.693394722,49.972552778],[2.6934025,49.972581111],[2.693404722,49.972610556],[2.6933975,49.972646944],[2.6933875,49.972683889],[2.693373056,49.972713611],[2.693357222,49.972736944],[2.693331111,49.972764722],[2.693303611,49.972794444],[2.693273333,49.972826111],[2.693263333,49.9728475],[2.693254722,49.972870556],[2.693261944,49.972893889],[2.693297778,49.972909444]]]}},{"type":"Feature","id":"LFAQ-752410b0295d77f4d9f9","properties":{"airport":"LFAQ","name":"LFAQ Groundlayout","layer":"Guidance lines","category":"Apron Surface","object_type":"Line","style_id":"line.apronsurface.808080","source_group":"LFAQ Groundlayout","vsmr_group_ids":[],"geometry_role":"linework"},"geometry":{"type":"MultiLineString","coordinates":[[[2.692195556,49.972826944],[2.692354722,49.972826111],[2.692457778,49.972828889],[2.692536667,49.972834167],[2.692600833,49.972839444],[2.692804444,49.972857778],[2.692930833,49.972875],[2.692967222,49.972876389],[2.692996944,49.972874167],[2.693026667,49.972869167],[2.693056389,49.972857222],[2.693086111,49.972838889],[2.693128056,49.972801944],[2.69316,49.972773056],[2.693186389,49.972741667],[2.6932325,49.972686667],[2.693247222,49.972660556],[2.693255278,49.972633611],[2.693258056,49.972608056],[2.693257222,49.972585833],[2.693248333,49.972564722],[2.693234722,49.972538333],[2.693212222,49.972513333],[2.693178056,49.972485],[2.693141944,49.972463056],[2.693099167,49.972448056],[2.693070833,49.972439167],[2.693028056,49.972436667],[2.692845556,49.972422222],[2.692786111,49.972419167],[2.691963056,49.972378889],[2.691898333,49.972375833],[2.691838333,49.972381944],[2.69178,49.972392222],[2.691737222,49.972408333],[2.691701111,49.972429722],[2.6916725,49.972453056],[2.691647222,49.972478333],[2.691634722,49.972506944],[2.691631111,49.972543333],[2.691619167,49.972615278],[2.691608889,49.972663889],[2.691605833,49.972704444],[2.691598611,49.9727425],[2.691603056,49.972769167],[2.691617778,49.972788889],[2.691644167,49.972801389],[2.691676667,49.972813611],[2.691709167,49.972824167],[2.691750556,49.972827778],[2.692195556,49.972826944]],[[2.693301111,49.972911111],[2.696409167,49.973077222],[2.6964425,49.973068611],[2.696463611,49.973057222],[2.696492222,49.973042778],[2.696512222,49.97303],[2.696520556,49.973013056],[2.69662,49.972317778],[2.696990833,49.972338611]],[[2.698359167,49.972411944],[2.6987,49.972428333],[2.698600556,49.973190278],[2.698416111,49.973182778],[2.698403333,49.973264444],[2.697538056,49.9732225],[2.697525278,49.973298333],[2.697089722,49.973278889],[2.697073889,49.973310833],[2.696990556,49.973306389],[2.696992778,49.973236944],[2.697037778,49.973233889],[2.697042222,49.973205],[2.697028333,49.973199444],[2.696996944,49.973195278],[2.696426389,49.973166667],[2.696414167,49.973254722],[2.696372222,49.973253611],[2.696375556,49.973232222],[2.696231944,49.973225278],[2.696223333,49.973259167],[2.696025278,49.973248056],[2.696026944,49.973214167],[2.695636389,49.973191667],[2.695604722,49.973213056],[2.695613611,49.973125],[2.69392,49.973032222],[2.693895556,49.973043889],[2.693871111,49.973059444],[2.693856389,49.9730775],[2.69385,49.97311],[2.693833611,49.973282778],[2.693440833,49.973262778],[2.693458889,49.9732525],[2.693466944,49.973235556],[2.69348,49.973137222],[2.693473611,49.9731225],[2.693457222,49.973110833],[2.693436111,49.973103611],[2.693411667,49.973106667],[2.693351944,49.973138611],[2.693325833,49.973321111],[2.693247222,49.973951944],[2.693134444,49.973945833],[2.693230556,49.973214722],[2.693220278,49.973200556],[2.693121944,49.973126944],[2.693101944,49.973118333],[2.693081667,49.973116667],[2.693056111,49.9731175],[2.693026389,49.973121944],[2.6929875,49.973131389],[2.6929525,49.973146111],[2.692925556,49.973167778],[2.692772222,49.973314722],[2.692759167,49.973341667],[2.692744722,49.973371111],[2.692744722,49.973394167],[2.692757778,49.973419167],[2.692857222,49.973544167],[2.692865278,49.973568333],[2.692862222,49.973590278],[2.692857222,49.9736175],[2.6928475,49.973639722],[2.692839167,49.9736575],[2.692816389,49.973680556],[2.692765833,49.973659722],[2.692690833,49.973743611],[2.692734722,49.9737625],[2.692711944,49.973778056],[2.6926875,49.973792222],[2.692654722,49.973802222],[2.692611389,49.973812222],[2.692578611,49.9738175],[2.692540278,49.973818333],[2.692491944,49.973816667],[2.692451111,49.973808889],[2.692420833,49.973798889],[2.692394722,49.973786944],[2.692372222,49.973775278],[2.692359167,49.97376],[2.692339444,49.973735556],[2.692325,49.973715278],[2.692310556,49.973695833],[2.692298889,49.973671389],[2.6922975,49.973651111],[2.692298889,49.973631667],[2.692302778,49.973607222],[2.692313333,49.973591111],[2.692342222,49.973552222],[2.692191667,49.973483889],[2.692403889,49.973277778],[2.692544444,49.973334722],[2.692564167,49.973329167],[2.692579722,49.973315556],[2.692916111,49.973004167],[2.692929167,49.9729875],[2.692933056,49.9729725],[2.692925278,49.972955],[2.692909722,49.972940833],[2.692894167,49.972925833],[2.692873611,49.972915278],[2.692853056,49.972913611],[2.692753333,49.972900278],[2.692686389,49.972891944],[2.692629444,49.972886111],[2.692576389,49.972883611],[2.692484722,49.972881111],[2.692476944,49.972886944],[2.692476944,49.972910278],[2.6923025,49.972908611],[2.692115833,49.972907222],[2.692115833,49.972890833],[2.692031667,49.972887778],[2.692026944,49.972906111],[2.691152222,49.972901389],[2.691152222,49.972871667],[2.690608611,49.972852778],[2.690587222,49.972858889],[2.690560833,49.972872778],[2.690558333,49.972899167],[2.690536667,49.973059444],[2.690483889,49.973057778],[2.690508056,49.972866667],[2.690508056,49.9728575],[2.690491111,49.972848056],[2.690443333,49.972846667],[2.690430556,49.972847778],[2.690415278,49.972854167],[2.690411111,49.972863056],[2.690009722,49.9728325],[2.689991389,49.972932222],[2.689887778,49.972927778],[2.689892222,49.972873611],[2.689804444,49.972869722],[2.689821667,49.9727725],[2.689826111,49.972693889],[2.69001,49.972690556],[2.690056667,49.972672778],[2.690113056,49.972644444],[2.690136944,49.972635],[2.690156944,49.972620278],[2.690178333,49.972602222]],[[2.690293889,49.972603889],[2.690308611,49.972626111],[2.690327222,49.972641111],[2.690357778,49.972663889],[2.690382778,49.972684722],[2.690410833,49.972704167],[2.690425556,49.972729167],[2.690443333,49.972740556],[2.690474722,49.972753333],[2.690531111,49.972780278],[2.690571944,49.972797778],[2.690588611,49.972803611],[2.690618889,49.972806944],[2.690808056,49.972815833],[2.690829167,49.972813056],[2.690846944,49.972806389],[2.690857222,49.972798333],[2.690864722,49.972780278],[2.690870833,49.972647778],[2.690875,49.972638889],[2.690892778,49.972635],[2.690955278,49.972626667],[2.69104,49.972611944],[2.691340833,49.972555],[2.691430833,49.9725375],[2.691483056,49.972520278]],[[2.691187222,49.972821111],[2.691355278,49.97282],[2.691377778,49.972814167],[2.691398889,49.972803611],[2.691421389,49.972787222],[2.691438056,49.972768056],[2.691451389,49.972743889],[2.691469444,49.972598056],[2.69145,49.972589444],[2.691428889,49.972586389],[2.691395833,49.972591389],[2.690989444,49.972666667],[2.690959167,49.972659722],[2.690939722,49.972659722],[2.690921667,49.972664722],[2.690912778,49.972783333],[2.690917222,49.972798889],[2.690930833,49.972808333],[2.690947222,49.972815278],[2.690972778,49.972817222],[2.691187222,49.972821111]]]}},{"type":"Feature","id":"LFAQ-3484171297bd0897d4c7","properties":{"airport":"LFAQ","name":"LFAQ Groundlayout","layer":"Guidance lines","category":"Stopbars","object_type":"Line","style_id":"line.stopbar.7e0000","source_group":"LFAQ Groundlayout","vsmr_group_ids":[],"geometry_role":"linework"},"geometry":{"type":"MultiLineString","coordinates":[[[2.692279167,49.971423333],[2.692425278,49.971430278]],[[2.690349444,49.971304167],[2.690462778,49.971311111]],[[2.6918875,49.972376667],[2.691881944,49.972278056]],[[2.692786667,49.972418333],[2.692798333,49.972326111]],[[2.692819167,49.972883333],[2.692826389,49.9728625]],[[2.693234444,49.973217222],[2.693284722,49.973220278]],[[2.6939175,49.973029444],[2.693921389,49.972988056]],[[2.696461667,49.973060556],[2.6967925,49.973078333]],[[2.697539444,49.973178889],[2.6975425,49.973139444]],[[2.690626667,49.969161667],[2.690741667,49.969166667]],[[2.692557778,49.969265],[2.692703056,49.969270278]],[[2.698016667,49.971726944],[2.698458333,49.971748889]]]}},{"type":"Feature","id":"LFAQ-46efe91c8e89fc75fb50","properties":{"airport":"LFAQ","name":"LFAQ Groundlayout","layer":"Guidance lines","category":"TWR-CTR","object_type":"Line","style_id":"line.twr-ctr.000000","source_group":"LFAQ Groundlayout","vsmr_group_ids":[],"geometry_role":"linework"},"geometry":{"type":"LineString","coordinates":[[2.689636944,49.973053889],[2.689662778,49.973058611],[2.689689444,49.973055556],[2.6897075,49.973045278],[2.6897175,49.973030278],[2.689716667,49.973011667],[2.689696389,49.972995556],[2.689675278,49.972989444],[2.689646944,49.972991111],[2.689630556,49.972999444],[2.689618889,49.973009167],[2.6896125,49.973019167],[2.689616389,49.973033889],[2.689621944,49.973043333],[2.689636944,49.973053889]]}},{"type":"Feature","id":"LFAQ-767347eff30641a50fe0","properties":{"airport":"LFAQ","name":"LFAQ Groundlayout","layer":"Guidance lines","category":"Labels","object_type":"Line","style_id":"line.labels.808080","source_group":"LFAQ Groundlayout","vsmr_group_ids":[],"geometry_role":"linework"},"geometry":{"type":"MultiLineString","coordinates":[[[2.708345556,49.970996944],[2.708602222,49.970969444],[2.708605278,49.970951667],[2.708394444,49.970975833],[2.708398889,49.970936111],[2.708352778,49.970933333],[2.708345556,49.970996944]],[[2.679405278,49.969427778],[2.679568056,49.969436667],[2.679570278,49.969414722],[2.679407778,49.969405278],[2.679405278,49.969427778]],[[2.679358333,49.969443056],[2.679606944,49.969453611],[2.679615833,49.969400278],[2.679365556,49.969386944],[2.679358333,49.969443056]],[[2.679513889,49.969338056],[2.679579444,49.969341111],[2.679581944,49.969319167],[2.6795175,49.969316111],[2.679513889,49.969338056]],[[2.6794675,49.969352222],[2.679622778,49.969359444],[2.679629444,49.969305278],[2.679421111,49.969294444],[2.679356944,49.969331667],[2.67939,49.969334444],[2.679429722,49.969311389],[2.679471944,49.969313333],[2.6794675,49.969352222]],[[2.708359444,49.970893889],[2.708433333,49.970896944],[2.708541111,49.970864722],[2.708571944,49.970866667],[2.708568333,49.970904722],[2.708611111,49.970907222],[2.70862,49.970851667],[2.708542778,49.970848056],[2.708433889,49.970881111],[2.708406944,49.970879444],[2.708408889,49.970858056],[2.708432778,49.970858056],[2.708434444,49.970842778],[2.708367222,49.97084],[2.708359444,49.970893889]]]}},{"type":"Feature","id":"LFAQ-317142b0a6f52689e30f","properties":{"airport":"LFAQ","name":"B","layer":"Labels","category":"Taxiways","object_type":"Label","style_id":"label.taxiways","source_group":"LFAQ Taxiways","vsmr_group_ids":[],"geometry_role":"text_label","text-field":"B"},"geometry":{"type":"Point","coordinates":[2.692069167,49.971423889]}},{"type":"Feature","id":"LFAQ-9eb8524abdda01a309e6","properties":{"airport":"LFAQ","name":"X","layer":"Labels","category":"Taxiways","object_type":"Label","style_id":"label.taxiways","source_group":"LFAQ Taxiways","vsmr_group_ids":[],"geometry_role":"text_label","text-field":"X"},"geometry":{"type":"Point","coordinates":[2.690530833,49.970230556]}},{"type":"Feature","id":"LFAQ-a8a899dee9c77e18e0a6","properties":{"airport":"LFAQ","name":"E","layer":"Labels","category":"Taxiways","object_type":"Label","style_id":"label.taxiways","source_group":"LFAQ Taxiways","vsmr_group_ids":[],"geometry_role":"text_label","text-field":"E"},"geometry":{"type":"Point","coordinates":[2.697450556,49.971711667]}},{"type":"Feature","id":"LFAQ-6e0753c1b6c2582a750a","properties":{"airport":"LFAQ","name":"S","layer":"Labels","category":"Taxiways","object_type":"Label","style_id":"label.taxiways","source_group":"LFAQ Taxiways","vsmr_group_ids":[],"geometry_role":"text_label","text-field":"S"},"geometry":{"type":"Point","coordinates":[2.692353611,49.969269444]}}]}
