{"type":"FeatureCollection","name":"LFAT AVISO","bbox":[1.607886389,50.510421667,1.633860278,50.526934444],"metadata":{"schema":"vSMR AVISO","schema_version":2,"geometry_mode":"shared","airport":"LFAT","coordinate_reference_system":"WGS84","coordinate_order":"longitude, latitude","default_color_palette":"dark","color_palettes":["dark","light"],"background_colors":{"dark":"#434A4F","light":"#434A4F"},"runways":[{"ends":["13","31"],"headings":[133,313],"thresholds":[[1.612471944,50.523977778],[1.629882778,50.513452778]]}],"saved_active_runways":[],"saved_active_airport_modes":[],"airport_reference":[1.627499722,50.514721944],"feature_count":38,"style_count":10,"layer_counts":{"Airfield surfaces":9,"Buildings and structures":8,"Guidance lines":2,"Labels":13,"Surface markings":4,"Terrain":2},"category_counts":{"Buildings":8,"Grass":2,"Hard Surface 2":2,"Hard Surface 3":2,"Hard Surface 4":4,"Runway Border":1,"Runways":1,"Stopbars":4,"Taxiways":14},"geometry_source":"local GNG","geometry_source_url":"","geometry_license":"GPL-3.0"},"styles":{"polygon.grassurface.00512f":{"name":"Grass","layer":"Terrain","object_type":"Area","paint":{"fill":"#010D19","fill-opacity":1,"palette-overrides":{"light":{"fill":"#00512F"}}},"feature_count":2},"polygon.hardsurface4.969393":{"name":"Hard Surface 4","layer":"Airfield surfaces","object_type":"Area","paint":{"fill":"#152841","fill-opacity":1,"palette-overrides":{"light":{"fill":"#969393"}}},"feature_count":4},"polygon.hardsurface3.8a807f":{"name":"Hard Surface 3","layer":"Airfield surfaces","object_type":"Area","paint":{"fill":"#222D3C","fill-opacity":1,"palette-overrides":{"light":{"fill":"#8A807F"}}},"feature_count":2},"polygon.hardsurface2.595e5b":{"name":"Hard Surface 2","layer":"Airfield surfaces","object_type":"Area","paint":{"fill":"#2F3949","fill-opacity":1,"palette-overrides":{"light":{"fill":"#595E5B"}}},"feature_count":2},"polygon.runwayconcrete.555555":{"name":"Runways","layer":"Airfield surfaces","object_type":"Area","paint":{"fill":"#111318","fill-opacity":1,"palette-overrides":{"light":{"fill":"#555555"}}},"feature_count":1},"polygon.building.394446":{"name":"Buildings","layer":"Buildings and structures","object_type":"Area","paint":{"fill":"#475570","fill-opacity":1,"palette-overrides":{"light":{"fill":"#394446"}}},"feature_count":8},"polygon.stopbar.7e0000":{"name":"Stopbars","layer":"Surface markings","object_type":"Area","paint":{"fill":"#7E0000","fill-opacity":1,"palette-overrides":{"light":{"fill":"#7E0000"}}},"feature_count":4},"line.taxiway.c0b631":{"name":"Taxiways","layer":"Guidance lines","object_type":"Line","paint":{"stroke":"#4E5A69","stroke-opacity":1,"stroke-width":1,"palette-overrides":{"light":{"stroke":"#C0B631"}}},"feature_count":1},"line.runwayborder.808080":{"name":"Runway Border","layer":"Guidance lines","object_type":"Line","paint":{"stroke":"#808080","stroke-opacity":1,"stroke-width":1,"palette-overrides":{"light":{"stroke":"#808080"}}},"feature_count":1},"label.taxiways":{"name":"Taxiways","layer":"Labels","object_type":"Label","paint":{"text-color":"#CCCCCC","text-font":"Arial","text-size":12,"text-halo-color":"#000000","text-halo-width":1,"text-anchor":"center","zoomLevel":7},"feature_count":13}},"vsmr_groups":[],"features":[{"type":"Feature","id":"LFAT-a42461dab8e74c457a44","properties":{"airport":"LFAT","name":"LFAT AVISO","layer":"Terrain","category":"Grass","object_type":"Area","style_id":"polygon.grassurface.00512f","source_group":"LFAT AVISO","vsmr_group_ids":[],"geometry_role":"filled_region"},"geometry":{"type":"Polygon","coordinates":[[[1.609299722,50.526846667],[1.609183056,50.526888056],[1.609083333,50.526910833],[1.608971667,50.526930833],[1.608908056,50.526934444],[1.608849167,50.526932222],[1.6088575,50.526881111],[1.608485833,50.52684],[1.607886389,50.526493611],[1.607909444,50.526463333],[1.607989167,50.5263875],[1.608102778,50.526296944],[1.608795,50.525881111],[1.6097225,50.525318889],[1.611876667,50.52399],[1.611931667,50.523958056],[1.611989444,50.523920833],[1.612051111,50.523880278],[1.612126667,50.523824167],[1.612196111,50.523764167],[1.6122725,50.523698056],[1.612335,50.523621944],[1.612386944,50.5235525],[1.6124475,50.523465556],[1.612488056,50.5233775],[1.612515556,50.523279722],[1.6125325,50.523194167],[1.612539722,50.523116111],[1.612536944,50.523039167],[1.612524722,50.522955833],[1.612503056,50.522880833],[1.612467222,50.522801944],[1.612426111,50.522726111],[1.612373889,50.522632778],[1.612296667,50.522540833],[1.612236389,50.522478056],[1.612154722,50.522408333],[1.612064722,50.522340833],[1.611915278,50.522238056],[1.611787778,50.522146667],[1.611693056,50.522076111],[1.611639722,50.522011111],[1.611613611,50.5219775],[1.611601111,50.521951389],[1.615348333,50.519736944],[1.6148675,50.519398056],[1.615641944,50.518959167],[1.615437222,50.518794444],[1.616586111,50.518156944],[1.617703333,50.517538056],[1.618249722,50.517229167],[1.618372222,50.517160833],[1.618426389,50.51713],[1.618478056,50.517101389],[1.618501944,50.516964722],[1.618079444,50.516919444],[1.618053056,50.516902222],[1.618030556,50.516879167],[1.618013611,50.516863056],[1.618096389,50.516366389],[1.618402778,50.514799444],[1.618531944,50.513906667],[1.618540278,50.513718056],[1.618542778,50.513651667],[1.618549722,50.513601667],[1.618561667,50.513563056],[1.618578333,50.513515833],[1.618609722,50.513456667],[1.618636111,50.513404167],[1.618650833,50.513364444],[1.618674722,50.513308611],[1.618703889,50.513272778],[1.618731111,50.513251667],[1.618765,50.513240833],[1.618809722,50.513233889],[1.618886111,50.51324],[1.6190025,50.513241389],[1.619051111,50.513251667],[1.619080278,50.513266944],[1.619120556,50.513281944],[1.619179722,50.513286389],[1.619423056,50.513295833],[1.622613889,50.512317222],[1.623687778,50.512737778],[1.625005278,50.512538333],[1.625139167,50.512614722],[1.625218611,50.512648056],[1.625278056,50.512662778],[1.625349167,50.512665],[1.625448889,50.512648889],[1.626005278,50.512539444],[1.6262325,50.512483333],[1.62633,50.512473611],[1.626440556,50.512466667],[1.626613611,50.512452778],[1.626823889,50.512433889],[1.627082222,50.512404722],[1.627301944,50.512375278],[1.627418056,50.512363333],[1.627521111,50.512366944],[1.627726944,50.512403056],[1.627856111,50.512430833],[1.627923056,50.512441944],[1.62798,50.512442778],[1.628371111,50.512454444],[1.6284125,50.512449722],[1.628458333,50.512439167],[1.628486667,50.512428056],[1.629041944,50.512017778],[1.629964167,50.511431111],[1.630583611,50.511063611],[1.631074722,50.510782222],[1.631064167,50.510772222],[1.631377222,50.510592222],[1.6317025,50.510421667],[1.632584444,50.510948333],[1.633860278,50.511717778],[1.625868056,50.516696389],[1.621674722,50.5192375],[1.621558889,50.519311389],[1.6214775,50.519373056],[1.621390278,50.519458611],[1.621296667,50.519538056],[1.621168056,50.519638889],[1.620640833,50.519956111],[1.614286389,50.523803889],[1.610765556,50.525941944],[1.610259722,50.5263],[1.609909722,50.526525],[1.609695556,50.52665],[1.609536667,50.526743889],[1.609417222,50.526805833],[1.609299722,50.526846667]]]}},{"type":"Feature","id":"LFAT-7c92d78891870e890bf7","properties":{"airport":"LFAT","name":"LFAT AVISO","layer":"Airfield surfaces","category":"Hard Surface 4","object_type":"Area","style_id":"polygon.hardsurface4.969393","source_group":"LFAT AVISO","vsmr_group_ids":[],"geometry_role":"filled_region"},"geometry":{"type":"Polygon","coordinates":[[[1.626905278,50.514981111],[1.626915,50.514952778],[1.626917778,50.514926667],[1.626915,50.514904722],[1.626908611,50.514885833],[1.626896389,50.514862222],[1.626881944,50.514843056],[1.626863056,50.514825],[1.626840556,50.514806944],[1.626814444,50.514790833],[1.626772778,50.514773056],[1.624835833,50.514080278],[1.625097222,50.513765556],[1.627139167,50.514490833],[1.627319167,50.514555],[1.627378611,50.514574722],[1.627420556,50.514584722],[1.627453889,50.514589444],[1.627495833,50.514591667],[1.6275325,50.514591111],[1.627571667,50.514585278],[1.627609722,50.514573056],[1.627648611,50.514558333],[1.627715,50.514529444],[1.626827778,50.515065],[1.626868889,50.515028889],[1.626891667,50.515003333],[1.626905278,50.514981111]]]}},{"type":"Feature","id":"LFAT-f581de4331e022b24479","properties":{"airport":"LFAT","name":"LFAT AVISO","layer":"Airfield surfaces","category":"Hard Surface 4","object_type":"Area","style_id":"polygon.hardsurface4.969393","source_group":"LFAT AVISO","vsmr_group_ids":[],"geometry_role":"filled_region"},"geometry":{"type":"Polygon","coordinates":[[[1.628907222,50.512761944],[1.628949722,50.512769722],[1.6289775,50.512773611],[1.629006667,50.512773889],[1.629039167,50.512768889],[1.629088056,50.512758611],[1.629130833,50.512746667],[1.629170278,50.512731944],[1.629206111,50.512716667],[1.629241667,50.5126975],[1.630146389,50.512006944],[1.630185278,50.511976944],[1.6302025,50.511958056],[1.630216111,50.511938889],[1.630222778,50.511919167],[1.630222778,50.511899444],[1.630219722,50.511871389],[1.630208333,50.511838889],[1.630193889,50.511813056],[1.630173611,50.51179],[1.630144722,50.511765278],[1.630108889,50.5117425],[1.629841111,50.511605278],[1.630561389,50.51107],[1.631256389,50.511437222],[1.630687778,50.511863889],[1.630643611,50.511898333],[1.630623056,50.511916111],[1.630610556,50.511929444],[1.630602222,50.511944722],[1.630597778,50.511961111],[1.630597778,50.511975556],[1.630601389,50.511992778],[1.630610278,50.51201],[1.630621944,50.512025],[1.630644444,50.512042222],[1.631154167,50.5123875],[1.630896389,50.512545833],[1.630893611,50.512530833],[1.630887222,50.512504167],[1.630874722,50.5124775],[1.630859167,50.512456111],[1.630830833,50.512426389],[1.630740556,50.512365556],[1.630605556,50.512273611],[1.630579167,50.512254444],[1.630549722,50.512240278],[1.630508889,50.512226111],[1.630473333,50.512213611],[1.630434444,50.512205278],[1.630404722,50.512200278],[1.630381111,50.512199167],[1.630350278,50.512202222],[1.630307778,50.512210833],[1.630218333,50.512235833],[1.63019,50.512245556],[1.630165833,50.512256944],[1.629423056,50.51282],[1.629380278,50.512850556],[1.629354444,50.512872222],[1.629331111,50.512893333],[1.629307778,50.512918611],[1.629291389,50.512940833],[1.629280556,50.512962222],[1.629276111,50.512984722],[1.629274444,50.513012222],[1.6292775,50.513035833],[1.629281389,50.513051944],[1.629293056,50.513070556],[1.629330556,50.513124722],[1.628598333,50.512666944],[1.628705833,50.512701389],[1.628778056,50.512724722],[1.628849444,50.512747778],[1.628907222,50.512761944]]]}},{"type":"Feature","id":"LFAT-bf033253e60cc8213ef4","properties":{"airport":"LFAT","name":"LFAT AVISO","layer":"Airfield surfaces","category":"Hard Surface 4","object_type":"Area","style_id":"polygon.hardsurface4.969393","source_group":"LFAT AVISO","vsmr_group_ids":[],"geometry_role":"filled_region"},"geometry":{"type":"Polygon","coordinates":[[[1.612666667,50.524108333],[1.612561667,50.524180278],[1.612529722,50.5242075],[1.612509167,50.524233056],[1.612483611,50.524271389],[1.612466944,50.524292778],[1.6124325,50.524325],[1.612373889,50.5243875],[1.612335556,50.524441667],[1.612289722,50.524497778],[1.612255278,50.524535],[1.612228611,50.524573056],[1.612178889,50.524614444],[1.612103611,50.524663056],[1.612023333,50.524705278],[1.611958056,50.524731944],[1.611881667,50.524761111],[1.611821667,50.524775833],[1.611763056,50.524773333],[1.611710833,50.524769167],[1.611666111,50.5247675],[1.611625278,50.524771667],[1.611571944,50.524781389],[1.611529722,50.524798333],[1.611496667,50.524819444],[1.610443611,50.525457222],[1.610409167,50.525488611],[1.610373056,50.525524167],[1.610339444,50.525573611],[1.610325556,50.525607778],[1.610308056,50.525673611],[1.610299444,50.525735556],[1.610283056,50.525815833],[1.610273333,50.525871111],[1.610253611,50.525902778],[1.610231944,50.5259275],[1.610190278,50.525962778],[1.609201389,50.526562222],[1.609108056,50.526617778],[1.6090475,50.526640278],[1.60899,50.526654444],[1.608930833,50.526664722],[1.608876111,50.526670278],[1.608805278,50.526671111],[1.6087475,50.526665556],[1.608695833,50.526654444],[1.608624722,50.526631667],[1.608565833,50.526598889],[1.608200833,50.526361111],[1.608194722,50.526346111],[1.608199167,50.526332778],[1.608211111,50.526317778],[1.612305278,50.523862222],[1.612666667,50.524108333]]]}},{"type":"Feature","id":"LFAT-98d37fe5bb1733e676a1","properties":{"airport":"LFAT","name":"LFAT AVISO","layer":"Airfield surfaces","category":"Hard Surface 4","object_type":"Area","style_id":"polygon.hardsurface4.969393","source_group":"LFAT AVISO","vsmr_group_ids":[],"geometry_role":"filled_region"},"geometry":{"type":"Polygon","coordinates":[[[1.621555,50.5144575],[1.621763333,50.514462222],[1.621815,50.514467222],[1.621853611,50.514478611],[1.621888333,50.514498333],[1.621911389,50.514523611],[1.621915278,50.514559722],[1.621874167,50.514832222],[1.621861389,50.514858333],[1.621840833,50.514878889],[1.621815,50.514884444],[1.62151,50.514867778],[1.621527222,50.514821944],[1.621539167,50.514831667],[1.621556389,50.514836389],[1.621685,50.514843333],[1.621714167,50.514841667],[1.621740556,50.514834722],[1.621766944,50.514819444],[1.621791667,50.514790556],[1.621806111,50.514763889],[1.621810833,50.514751111],[1.621815278,50.514736667],[1.621631111,50.514723333],[1.621650278,50.514588333],[1.6218025,50.514596944],[1.621800556,50.514617222],[1.621834444,50.514619444],[1.621838056,50.514589444],[1.621827222,50.514564722],[1.621806111,50.514537778],[1.621770556,50.514518611],[1.621727222,50.514503889],[1.621570556,50.5144925],[1.621561667,50.514498333],[1.621556111,50.514508889],[1.621547222,50.514506111],[1.621555,50.5144575]]]}},{"type":"Feature","id":"LFAT-89d168a16d256516fa0b","properties":{"airport":"LFAT","name":"LFAT AVISO","layer":"Airfield surfaces","category":"Hard Surface 3","object_type":"Area","style_id":"polygon.hardsurface3.8a807f","source_group":"LFAT AVISO","vsmr_group_ids":[],"geometry_role":"filled_region"},"geometry":{"type":"Polygon","coordinates":[[[1.620710833,50.515550556],[1.621521389,50.516119722],[1.621512222,50.516124722],[1.621488611,50.516114722],[1.621444167,50.516101389],[1.621401111,50.516093056],[1.621358333,50.516088611],[1.621270833,50.516082778],[1.620598333,50.516043889],[1.619218056,50.515952778],[1.619096667,50.516743333],[1.619300556,50.516755556],[1.619286389,50.516845278],[1.61908,50.516835278],[1.619064444,50.516868333],[1.619002222,50.516874167],[1.619001111,50.516867222],[1.618835,50.516887778],[1.618850556,50.5169425],[1.618724444,50.516955278],[1.61876,50.516663889],[1.618832222,50.516167778],[1.618852778,50.5161675],[1.61887,50.516165556],[1.618878333,50.516160833],[1.618883889,50.516146944],[1.618896667,50.5160325],[1.618913333,50.515884167],[1.618911944,50.515881111],[1.618907222,50.515879722],[1.618870278,50.515877778],[1.619004167,50.515100278],[1.619035833,50.514926389],[1.619091389,50.514533056],[1.619213056,50.514538889],[1.6192325,50.5143675],[1.619255,50.514214722],[1.619300556,50.513916667],[1.619373889,50.513925],[1.619429167,50.513926389],[1.619480556,50.513921389],[1.619538889,50.513912222],[1.619588889,50.513901111],[1.619643056,50.513880556],[1.619702778,50.513856667],[1.619750278,50.513829444],[1.619792778,50.5138],[1.619828611,50.513771389],[1.619856111,50.513736667],[1.619883611,50.513695],[1.619901944,50.51366],[1.619913611,50.513630833],[1.619918611,50.513600833],[1.619920833,50.513561667],[1.619914444,50.513520833],[1.619906111,50.513491667],[1.619891944,50.51346],[1.619871111,50.513426111],[1.619843056,50.513394167],[1.619815278,50.513365],[1.619783611,50.513342778],[1.61974,50.513313889],[1.619708056,50.513293056],[1.619676667,50.513276944],[1.619650556,50.513265],[1.619610833,50.513254444],[1.619903333,50.513163611],[1.619919722,50.513162778],[1.620850833,50.513491389],[1.620906944,50.513510833],[1.620973611,50.513528889],[1.620710833,50.515550556]]]}},{"type":"Feature","id":"LFAT-7f5748629e45a8bf76b2","properties":{"airport":"LFAT","name":"LFAT AVISO","layer":"Airfield surfaces","category":"Hard Surface 3","object_type":"Area","style_id":"polygon.hardsurface3.8a807f","source_group":"LFAT AVISO","vsmr_group_ids":[],"geometry_role":"filled_region"},"geometry":{"type":"Polygon","coordinates":[[[1.624965833,50.513184722],[1.624900556,50.513203056],[1.624863611,50.5132175],[1.62483,50.513235833],[1.624795556,50.513253611],[1.624757222,50.513274722],[1.624728611,50.5132975],[1.624705278,50.513324722],[1.6246875,50.513350278],[1.624673056,50.513376944],[1.624663611,50.513407222],[1.624655833,50.513432778],[1.624654722,50.513456389],[1.624656667,50.513474167],[1.624660833,50.513494444],[1.624668889,50.513513889],[1.624678889,50.513533056],[1.624699167,50.513561111],[1.624719167,50.513585556],[1.624745278,50.51361],[1.624770833,50.513630556],[1.624800556,50.513648889],[1.624829167,50.513664167],[1.624876111,50.513684444],[1.624933056,50.513706389],[1.625102222,50.513766667],[1.624839167,50.514081944],[1.624160556,50.5138475],[1.624017222,50.513803056],[1.623901667,50.513776389],[1.623801111,50.513753611],[1.623703889,50.513733056],[1.623623056,50.513716111],[1.623555833,50.513701944],[1.623481667,50.513689167],[1.623396944,50.513677778],[1.623295833,50.513663056],[1.623196389,50.513651667],[1.623104167,50.513641111],[1.623016667,50.513633333],[1.622944722,50.513627778],[1.622871389,50.513621944],[1.622786389,50.513617778],[1.6227,50.513614722],[1.622617222,50.513611389],[1.622528333,50.513610278],[1.622457222,50.513609167],[1.622380278,50.513610556],[1.622303333,50.513613056],[1.622211111,50.513617222],[1.6221225,50.5136225],[1.622031389,50.513630833],[1.621950833,50.513638611],[1.621877222,50.513644722],[1.6217925,50.513652778],[1.621615556,50.513499722],[1.621695556,50.513482778],[1.6217475,50.513468056],[1.621787778,50.513451944],[1.621821667,50.513436944],[1.621854444,50.51342],[1.621883333,50.513398056],[1.62191,50.513373333],[1.621937778,50.513345833],[1.621955,50.513316667],[1.621964444,50.513284722],[1.621971389,50.513258611],[1.621974722,50.513228611],[1.621973333,50.513198056],[1.621963889,50.513168611],[1.621951667,50.5131425],[1.621934444,50.513114722],[1.621913056,50.513090833],[1.621890278,50.513068611],[1.621861667,50.5130475],[1.621823056,50.513025],[1.621789444,50.513008056],[1.621749444,50.512990833],[1.621155556,50.512780833],[1.621769167,50.512586667],[1.622233056,50.512747222],[1.622521389,50.512498889],[1.623374444,50.512835278],[1.623352778,50.512867778],[1.623330278,50.512896111],[1.623314167,50.512922778],[1.623303056,50.512949444],[1.623294167,50.512970556],[1.623286389,50.512990278],[1.623282778,50.513005],[1.623336944,50.513013333],[1.623404722,50.513022778],[1.623477222,50.513031111],[1.623547222,50.513038611],[1.623608056,50.513042778],[1.623673333,50.513046389],[1.623750556,50.513053889],[1.623822778,50.513058333],[1.6239075,50.513061389],[1.623985,50.513064167],[1.624066111,50.513066111],[1.624148889,50.513065556],[1.6242325,50.513064167],[1.624314444,50.513061111],[1.624396944,50.513058889],[1.6244675,50.513055556],[1.624533889,50.513051389],[1.624596944,50.513046944],[1.624671389,50.513041111],[1.624741111,50.513034444],[1.624907778,50.513017778],[1.624965833,50.513184722]]]}},{"type":"Feature","id":"LFAT-3b82db0b56f6ff5f9c2d","properties":{"airport":"LFAT","name":"LFAT AVISO","layer":"Airfield surfaces","category":"Hard Surface 2","object_type":"Area","style_id":"polygon.hardsurface2.595e5b","source_group":"LFAT AVISO","vsmr_group_ids":[],"geometry_role":"filled_region"},"geometry":{"type":"Polygon","coordinates":[[[1.628587222,50.512941667],[1.6284275,50.512834444],[1.628381667,50.512805556],[1.628348333,50.512782778],[1.6283275,50.512770278],[1.628300833,50.512758889],[1.628260278,50.512745278],[1.628220556,50.512736111],[1.628184722,50.512730556],[1.628146944,50.512727778],[1.628097222,50.512730833],[1.627991667,50.512743333],[1.624966944,50.513185833],[1.621851667,50.513645833],[1.621786111,50.513655],[1.621729444,50.513664167],[1.621687778,50.513671944],[1.621649167,50.513683889],[1.621607778,50.513701944],[1.621567222,50.513723056],[1.6215325,50.513743611],[1.621501389,50.513767222],[1.621474444,50.513793056],[1.621451389,50.513821111],[1.6214275,50.513858056],[1.621412778,50.51389],[1.621406389,50.513924167],[1.621391667,50.514057778],[1.621366667,50.514207222],[1.621327222,50.514414167],[1.62133,50.514425278],[1.621336944,50.514436111],[1.621345,50.514444444],[1.621361667,50.514448889],[1.621556944,50.514455833],[1.621554167,50.514505278],[1.621572222,50.5145175],[1.6216,50.514524722],[1.621634722,50.514534444],[1.621654167,50.514550278],[1.621655556,50.514586389],[1.621634722,50.514722222],[1.621622222,50.514754722],[1.621601389,50.514781944],[1.621579167,50.514798889],[1.621550278,50.514805833],[1.621533611,50.514811944],[1.621529444,50.514823611],[1.62151,50.514868333],[1.6213375,50.514856111],[1.621307222,50.51486],[1.621281667,50.514869167],[1.621264722,50.514883889],[1.621169722,50.515442222],[1.621158611,50.5155225],[1.621156389,50.515544167],[1.6211575,50.515557222],[1.621161944,50.515570278],[1.621173333,50.5155825],[1.621749444,50.515983333],[1.621509444,50.516123889],[1.620916944,50.5157275],[1.620645,50.515711667],[1.620901667,50.513985],[1.620925556,50.513833889],[1.620936944,50.513757778],[1.620946111,50.513680278],[1.620968611,50.513527222],[1.621014722,50.513538333],[1.621062778,50.513548611],[1.621098611,50.513554444],[1.621129444,50.513559167],[1.621158889,50.513560278],[1.621187222,50.513558889],[1.621268333,50.513548889],[1.621441389,50.513525],[1.621793333,50.513472222],[1.624908333,50.513016667],[1.627838333,50.512585],[1.627959722,50.512568333],[1.628043333,50.512558056],[1.628109722,50.512553611],[1.628169722,50.512552778],[1.628228333,50.512556944],[1.628286389,50.512563056],[1.628338056,50.512573056],[1.628394167,50.512590556],[1.628471944,50.512618611],[1.628581944,50.512658889],[1.628650556,50.512686667],[1.628724167,50.512724167],[1.628838611,50.512793056],[1.628587222,50.512941667]]]}},{"type":"Feature","id":"LFAT-3e686671900e592615f3","properties":{"airport":"LFAT","name":"LFAT AVISO","layer":"Airfield surfaces","category":"Hard Surface 2","object_type":"Area","style_id":"polygon.hardsurface2.595e5b","source_group":"LFAT AVISO","vsmr_group_ids":[],"geometry_role":"filled_region"},"geometry":{"type":"Polygon","coordinates":[[[1.612486111,50.522613333],[1.612352778,50.522321944],[1.612336389,50.522274444],[1.612321389,50.5222375],[1.612315556,50.522205278],[1.612314444,50.522179444],[1.612315833,50.522151111],[1.612321111,50.522119722],[1.612331667,50.522088611],[1.612348889,50.522057222],[1.612366111,50.522026944],[1.612389444,50.521999167],[1.612427778,50.521965278],[1.612499444,50.521918889],[1.614070278,50.520961944],[1.616828889,50.519305556],[1.6194125,50.517766111],[1.620265833,50.517255833],[1.6210875,50.516769722],[1.621257222,50.5166675],[1.621316111,50.516630278],[1.621361944,50.516602222],[1.621403333,50.516570278],[1.621456389,50.516530556],[1.621500278,50.51649],[1.621531389,50.516455278],[1.6215575,50.516420833],[1.621575278,50.516389167],[1.621586389,50.516351111],[1.621589167,50.516310833],[1.621588611,50.516274722],[1.621586667,50.51624],[1.621581389,50.516208889],[1.621576667,50.516187222],[1.621571111,50.516171667],[1.621558611,50.516156667],[1.6215425,50.516140556],[1.621525556,50.516131667],[1.621509167,50.516123611],[1.621745278,50.515980556],[1.622635833,50.516597222],[1.622483056,50.516686944],[1.622099722,50.516421667],[1.622095,50.516419167],[1.622090556,50.516418611],[1.622085556,50.516418889],[1.619031667,50.518231667],[1.617293056,50.519267222],[1.616479722,50.519747778],[1.616436389,50.519775556],[1.6163975,50.519801111],[1.616366111,50.519825],[1.616337778,50.519846944],[1.616316111,50.51987],[1.616299167,50.519890556],[1.616288056,50.519908611],[1.616284444,50.519925556],[1.616284167,50.519946667],[1.6162875,50.519971667],[1.616296944,50.519998333],[1.616312778,50.520024444],[1.616333333,50.520050556],[1.616362778,50.520079722],[1.616393889,50.520105278],[1.61644,50.520135556],[1.616605556,50.520244722],[1.616414167,50.520363056],[1.616246944,50.520252222],[1.616163611,50.520198611],[1.616132222,50.520180556],[1.616096667,50.520164444],[1.616055278,50.520150278],[1.616006944,50.520139444],[1.6159575,50.520135278],[1.615910833,50.520135833],[1.615876667,50.520138333],[1.615846389,50.520145556],[1.615816389,50.520156944],[1.615772222,50.520178056],[1.615719444,50.520210278],[1.614257778,50.521090833],[1.613141389,50.5217675],[1.61275,50.522002222],[1.612699722,50.522033889],[1.612668333,50.522055556],[1.612638611,50.522081389],[1.612616389,50.522109722],[1.612603333,50.522128333],[1.612595278,50.522156667],[1.6125925,50.522182778],[1.612605,50.522226111],[1.612746111,50.522568056],[1.612486111,50.522613333]]]}},{"type":"Feature","id":"LFAT-90feec1fe3d8005e844d","properties":{"airport":"LFAT","name":"LFAT AVISO","layer":"Terrain","category":"Grass","object_type":"Area","style_id":"polygon.grassurface.00512f","source_group":"LFAT AVISO","vsmr_group_ids":[],"geometry_role":"filled_region"},"geometry":{"type":"Polygon","coordinates":[[[1.621285833,50.514770833],[1.621321111,50.514534722],[1.621329722,50.514521944],[1.621348056,50.514516667],[1.621378056,50.514513056],[1.621399167,50.514516667],[1.621419167,50.514526389],[1.6214275,50.514540833],[1.621428889,50.514601389],[1.621414722,50.514733889],[1.621400556,50.514762778],[1.621383611,50.514778056],[1.621360833,50.514788889],[1.621338333,50.514791667],[1.621315556,50.514790556],[1.621295833,50.5147825],[1.621285833,50.514770833]]]}},{"type":"Feature","id":"LFAT-0c4ec877a88fccc66613","properties":{"airport":"LFAT","name":"LFAT AVISO","layer":"Airfield surfaces","category":"Runways","object_type":"Area","style_id":"polygon.runwayconcrete.555555","source_group":"LFAT AVISO","vsmr_group_ids":[],"geometry_role":"filled_region"},"geometry":{"type":"Polygon","coordinates":[[[1.6288375,50.512791944],[1.629665833,50.513345556],[1.630761944,50.512687222],[1.630802778,50.512661111],[1.630839722,50.512628056],[1.630864167,50.512598333],[1.630884722,50.51257],[1.6308975,50.512540833],[1.631153333,50.512386944],[1.631593611,50.512679167],[1.630073333,50.513592222],[1.612665,50.524109722],[1.6122975,50.523865278],[1.612498333,50.523730556],[1.612558889,50.523688333],[1.612607222,50.523642778],[1.612646389,50.523593333],[1.612676389,50.523536944],[1.612701389,50.523487222],[1.612721111,50.523426944],[1.612733056,50.523385556],[1.612735556,50.523341389],[1.612741389,50.523293889],[1.612738889,50.523247222],[1.6127375,50.523213333],[1.612730556,50.523173889],[1.612716944,50.523135833],[1.612485833,50.5226125],[1.612745833,50.522566944],[1.612962778,50.523073056],[1.612985556,50.523110833],[1.613004444,50.523134722],[1.613025,50.523153889],[1.613051944,50.523171111],[1.613086667,50.523186944],[1.613125833,50.523199167],[1.613165278,50.523208611],[1.613208889,50.523213056],[1.613259444,50.5232125],[1.61332,50.5232075],[1.613364722,50.523201389],[1.617032778,50.520986667],[1.617121389,50.520930833],[1.617154167,50.520910833],[1.617169444,50.520898056],[1.617170556,50.520892778],[1.617166111,50.520885556],[1.617060556,50.520798611],[1.616412778,50.5203625],[1.616604167,50.520243333],[1.617150556,50.52061],[1.6172175,50.520650833],[1.617253056,50.520670278],[1.6172875,50.520684722],[1.617321111,50.520693889],[1.617347222,50.520698611],[1.617383889,50.520699444],[1.617426389,50.520698611],[1.617470833,50.520694444],[1.617508889,50.520688611],[1.617541111,50.520677222],[1.6175675,50.520664167],[1.622855,50.517466111],[1.622896111,50.517436111],[1.622956944,50.517378333],[1.622987222,50.517345833],[1.623015,50.517310833],[1.623033333,50.517280833],[1.623049444,50.517251944],[1.623063056,50.517225833],[1.6230675,50.517202778],[1.623063056,50.517184444],[1.623052778,50.517156111],[1.623035278,50.517122778],[1.623015278,50.517090833],[1.622988611,50.517058611],[1.6229575,50.517026111],[1.622891111,50.516973611],[1.622481944,50.516686667],[1.622634722,50.516596389],[1.623037778,50.516871389],[1.6230925,50.516905278],[1.623127222,50.516922778],[1.623162222,50.516935556],[1.623203611,50.516948056],[1.623246111,50.516958611],[1.623290278,50.516966111],[1.623332778,50.516971667],[1.62337,50.516975278],[1.623409722,50.516976944],[1.623446389,50.516976944],[1.623499722,50.516975833],[1.623560278,50.5169675],[1.623615278,50.516957222],[1.623668889,50.516943056],[1.623729167,50.516921667],[1.623777222,50.516902222],[1.623821111,50.516880833],[1.62874,50.513906944],[1.628808889,50.513865556],[1.6288375,50.5138375],[1.628875,50.513793611],[1.628912778,50.51375],[1.628933333,50.513718333],[1.628945,50.513691389],[1.628951389,50.513658889],[1.6289525,50.513631667],[1.628948333,50.513609444],[1.628891111,50.513361389],[1.6288725,50.513267222],[1.628858056,50.513198889],[1.628852222,50.513173333],[1.628835833,50.513142222],[1.628817222,50.513116111],[1.628785278,50.513083889],[1.628751111,50.513051667],[1.628719444,50.513028056],[1.628585833,50.512940833],[1.6288375,50.512791944]]]}},{"type":"Feature","id":"LFAT-859481f2f4c05b675fd4","properties":{"airport":"LFAT","name":"LFAT AVISO","layer":"Buildings and structures","category":"Buildings","object_type":"Area","style_id":"polygon.building.394446","source_group":"LFAT AVISO","vsmr_group_ids":[],"geometry_role":"filled_region"},"geometry":{"type":"Polygon","coordinates":[[[1.618912778,50.51381],[1.619203889,50.513826667],[1.619136389,50.514228889],[1.619312778,50.514239444],[1.619288611,50.514381389],[1.6191125,50.51437],[1.619092222,50.514541389],[1.618801389,50.514523611],[1.618824444,50.514375],[1.618720556,50.514368611],[1.618750833,50.514181944],[1.618853611,50.514189167],[1.618912778,50.51381]]]}},{"type":"Feature","id":"LFAT-29e5d82fd6d010d4d362","properties":{"airport":"LFAT","name":"LFAT AVISO","layer":"Buildings and structures","category":"Buildings","object_type":"Area","style_id":"polygon.building.394446","source_group":"LFAT AVISO","vsmr_group_ids":[],"geometry_role":"filled_region"},"geometry":{"type":"Polygon","coordinates":[[[1.618997222,50.513421111],[1.619180556,50.513428333],[1.619215,50.5133325],[1.619375833,50.513335833],[1.6192675,50.513756944],[1.618941944,50.513738611],[1.618997222,50.513421111]]]}},{"type":"Feature","id":"LFAT-e742db600ede94acce95","properties":{"airport":"LFAT","name":"LFAT AVISO","layer":"Buildings and structures","category":"Buildings","object_type":"Area","style_id":"polygon.building.394446","source_group":"LFAT AVISO","vsmr_group_ids":[],"geometry_role":"filled_region"},"geometry":{"type":"Polygon","coordinates":[[[1.618574167,50.514957778],[1.619046667,50.5149875],[1.619024444,50.515118056],[1.618906111,50.515114444],[1.618828056,50.5151125],[1.6188275,50.515063611],[1.618557222,50.515049167],[1.618574167,50.514957778]]]}},{"type":"Feature","id":"LFAT-3888c82a695aa850b349","properties":{"airport":"LFAT","name":"LFAT AVISO","layer":"Buildings and structures","category":"Buildings","object_type":"Area","style_id":"polygon.building.394446","source_group":"LFAT AVISO","vsmr_group_ids":[],"geometry_role":"filled_region"},"geometry":{"type":"Polygon","coordinates":[[[1.618482222,50.515155],[1.6189925,50.515186944],[1.618901111,50.515869167],[1.618433056,50.5158475],[1.618471944,50.515585833],[1.618483611,50.515535833],[1.618681389,50.515535833],[1.618715556,50.515330556],[1.618439444,50.515312778],[1.618482222,50.515155]]]}},{"type":"Feature","id":"LFAT-bcc7f9f2138c5028a391","properties":{"airport":"LFAT","name":"LFAT AVISO","layer":"Buildings and structures","category":"Buildings","object_type":"Area","style_id":"polygon.building.394446","source_group":"LFAT AVISO","vsmr_group_ids":[],"geometry_role":"filled_region"},"geometry":{"type":"Polygon","coordinates":[[[1.61853,50.5162],[1.618847222,50.516223333],[1.618782778,50.516669722],[1.618457222,50.516652778],[1.61853,50.5162]]]}},{"type":"Feature","id":"LFAT-f2de692f78c346c9ff34","properties":{"airport":"LFAT","name":"LFAT AVISO","layer":"Buildings and structures","category":"Buildings","object_type":"Area","style_id":"polygon.building.394446","source_group":"LFAT AVISO","vsmr_group_ids":[],"geometry_role":"filled_region"},"geometry":{"type":"Polygon","coordinates":[[[1.618633889,50.516979722],[1.618642778,50.516888611],[1.618456667,50.516884167],[1.618457222,50.516831667],[1.618111944,50.516809444],[1.618121389,50.516665556],[1.618765,50.516719167],[1.6187225,50.516975],[1.618633889,50.516979722]]]}},{"type":"Feature","id":"LFAT-f1cc5cb67c7557dac7fb","properties":{"airport":"LFAT","name":"LFAT AVISO","layer":"Buildings and structures","category":"Buildings","object_type":"Area","style_id":"polygon.building.394446","source_group":"LFAT AVISO","vsmr_group_ids":[],"geometry_role":"filled_region"},"geometry":{"type":"Polygon","coordinates":[[[1.617731389,50.515763056],[1.618011944,50.515775833],[1.617931389,50.516289444],[1.617663889,50.516270278],[1.617731389,50.515763056]]]}},{"type":"Feature","id":"LFAT-cce5e726c20da5eae241","properties":{"airport":"LFAT","name":"LFAT AVISO","layer":"Buildings and structures","category":"Buildings","object_type":"Area","style_id":"polygon.building.394446","source_group":"LFAT AVISO","vsmr_group_ids":[],"geometry_role":"filled_region"},"geometry":{"type":"Polygon","coordinates":[[[1.61759,50.516368611],[1.617965833,50.5163975],[1.617900833,50.516819167],[1.617543333,50.516805],[1.61759,50.516368611]]]}},{"type":"Feature","id":"LFAT-b7cd285c600c3c147673","properties":{"airport":"LFAT","name":"LFAT AVISO","layer":"Surface markings","category":"Stopbars","object_type":"Area","style_id":"polygon.stopbar.7e0000","source_group":"LFAT AVISO","vsmr_group_ids":[],"geometry_role":"filled_region"},"geometry":{"type":"Polygon","coordinates":[[[1.628582222,50.512940278],[1.628836667,50.512790278],[1.628855556,50.512802222],[1.628601944,50.512953611],[1.628582222,50.512940278]]]}},{"type":"Feature","id":"LFAT-c2ae80112dce76ed6866","properties":{"airport":"LFAT","name":"LFAT AVISO","layer":"Surface markings","category":"Stopbars","object_type":"Area","style_id":"polygon.stopbar.7e0000","source_group":"LFAT AVISO","vsmr_group_ids":[],"geometry_role":"filled_region"},"geometry":{"type":"Polygon","coordinates":[[[1.622628056,50.516591389],[1.622645833,50.516605833],[1.622494167,50.516694167],[1.622474722,50.516681111],[1.622628056,50.516591389]]]}},{"type":"Feature","id":"LFAT-80d703bcb5a445d99b8f","properties":{"airport":"LFAT","name":"LFAT AVISO","layer":"Surface markings","category":"Stopbars","object_type":"Area","style_id":"polygon.stopbar.7e0000","source_group":"LFAT AVISO","vsmr_group_ids":[],"geometry_role":"filled_region"},"geometry":{"type":"Polygon","coordinates":[[[1.616601944,50.520243611],[1.616615833,50.520253056],[1.616424444,50.520371111],[1.616408333,50.520360556],[1.616601944,50.520243611]]]}},{"type":"Feature","id":"LFAT-738c97fd23ca71ce2efa","properties":{"airport":"LFAT","name":"LFAT AVISO","layer":"Surface markings","category":"Stopbars","object_type":"Area","style_id":"polygon.stopbar.7e0000","source_group":"LFAT AVISO","vsmr_group_ids":[],"geometry_role":"filled_region"},"geometry":{"type":"Polygon","coordinates":[[[1.614025278,50.520987778],[1.614040833,50.520979167],[1.614231389,50.5211075],[1.614213889,50.521118056],[1.614025278,50.520987778]]]}},{"type":"Feature","id":"LFAT-899e561a33b15c89b9c1","properties":{"airport":"LFAT","name":"LFAT Groundlayout AVISO","layer":"Guidance lines","category":"Taxiways","object_type":"Line","style_id":"line.taxiway.c0b631","source_group":"LFAT Groundlayout AVISO","vsmr_group_ids":[],"geometry_role":"linework"},"geometry":{"type":"MultiLineString","coordinates":[[[1.619086111,50.515616944],[1.620625,50.515710278]],[[1.619112778,50.515389444],[1.620623889,50.515478056]],[[1.619161667,50.5151575],[1.620674722,50.5152475]],[[1.619194167,50.514928889],[1.620721111,50.515015278]],[[1.619223333,50.514691667],[1.620743889,50.514778889]],[[1.619663889,50.513925278],[1.620814722,50.514346111]],[[1.619864444,50.513723056],[1.620851389,50.514070556]],[[1.619883056,50.513446944],[1.620888889,50.513808611]]]}},{"type":"Feature","id":"LFAT-475c54fcd76a2a0d0db7","properties":{"airport":"LFAT","name":"LFAT Groundlayout AVISO","layer":"Guidance lines","category":"Runway Border","object_type":"Line","style_id":"line.runwayborder.808080","source_group":"LFAT Groundlayout AVISO","vsmr_group_ids":[],"geometry_role":"linework"},"geometry":{"type":"MultiLineString","coordinates":[[[1.631041667,50.512771389],[1.630838333,50.512895833]],[[1.6308175,50.512883056],[1.630732222,50.5129575],[1.630855278,50.5129075]],[[1.630429444,50.513141944],[1.630223056,50.513266389]],[[1.630205,50.513254722],[1.630120556,50.513327778],[1.630241111,50.513278333]],[[1.629690556,50.51333],[1.630082778,50.513587222]]]}},{"type":"Feature","id":"LFAT-60fa1b3db5e491773870","properties":{"airport":"LFAT","name":"13","layer":"Labels","category":"Taxiways","object_type":"Label","style_id":"label.taxiways","source_group":"LFAT Taxiways","vsmr_group_ids":[],"geometry_role":"text_label","text-field":"13"},"geometry":{"type":"Point","coordinates":[1.6130425,50.523573889]}},{"type":"Feature","id":"LFAT-202856e2c71dab5b348d","properties":{"airport":"LFAT","name":"31","layer":"Labels","category":"Taxiways","object_type":"Label","style_id":"label.taxiways","source_group":"LFAT Taxiways","vsmr_group_ids":[],"geometry_role":"text_label","text-field":"31"},"geometry":{"type":"Point","coordinates":[1.629386389,50.513734167]}},{"type":"Feature","id":"LFAT-f4357c6728a293b224e5","properties":{"airport":"LFAT","name":"T1","layer":"Labels","category":"Taxiways","object_type":"Label","style_id":"label.taxiways","source_group":"LFAT Taxiways","vsmr_group_ids":[],"geometry_role":"text_label","text-field":"T1"},"geometry":{"type":"Point","coordinates":[1.616898056,50.520027778]}},{"type":"Feature","id":"LFAT-2b54b0039cb81ab801ec","properties":{"airport":"LFAT","name":"T2","layer":"Labels","category":"Taxiways","object_type":"Label","style_id":"label.taxiways","source_group":"LFAT Taxiways","vsmr_group_ids":[],"geometry_role":"text_label","text-field":"T2"},"geometry":{"type":"Point","coordinates":[1.622932778,50.516416944]}},{"type":"Feature","id":"LFAT-8d99ef8014a7904e7ac8","properties":{"airport":"LFAT","name":"T3","layer":"Labels","category":"Taxiways","object_type":"Label","style_id":"label.taxiways","source_group":"LFAT Taxiways","vsmr_group_ids":[],"geometry_role":"text_label","text-field":"T3"},"geometry":{"type":"Point","coordinates":[1.628196111,50.513097778]}},{"type":"Feature","id":"LFAT-37eedc69421d57b49a0e","properties":{"airport":"LFAT","name":"T3","layer":"Labels","category":"Taxiways","object_type":"Label","style_id":"label.taxiways","source_group":"LFAT Taxiways","vsmr_group_ids":[],"geometry_role":"text_label","text-field":"T3"},"geometry":{"type":"Point","coordinates":[1.625044722,50.513075556]}},{"type":"Feature","id":"LFAT-761c3511b070b8a940b4","properties":{"airport":"LFAT","name":"P1","layer":"Labels","category":"Taxiways","object_type":"Label","style_id":"label.taxiways","source_group":"LFAT Taxiways","vsmr_group_ids":[],"geometry_role":"text_label","text-field":"P1"},"geometry":{"type":"Point","coordinates":[1.614484167,50.521261111]}},{"type":"Feature","id":"LFAT-943438bad722b75c2c90","properties":{"airport":"LFAT","name":"P2","layer":"Labels","category":"Taxiways","object_type":"Label","style_id":"label.taxiways","source_group":"LFAT Taxiways","vsmr_group_ids":[],"geometry_role":"text_label","text-field":"P2"},"geometry":{"type":"Point","coordinates":[1.6194125,50.517874722]}},{"type":"Feature","id":"LFAT-7a16049110ee4875b05c","properties":{"airport":"LFAT","name":"X","layer":"Labels","category":"Taxiways","object_type":"Label","style_id":"label.taxiways","source_group":"LFAT Taxiways","vsmr_group_ids":[],"geometry_role":"text_label","text-field":"X"},"geometry":{"type":"Point","coordinates":[1.625413611,50.514084722]}},{"type":"Feature","id":"LFAT-bb874d4405e1ff9ce20c","properties":{"airport":"LFAT","name":"X","layer":"Labels","category":"Taxiways","object_type":"Label","style_id":"label.taxiways","source_group":"LFAT Taxiways","vsmr_group_ids":[],"geometry_role":"text_label","text-field":"X"},"geometry":{"type":"Point","coordinates":[1.626586944,50.514488333]}},{"type":"Feature","id":"LFAT-e9d7aa6eea2b4cd53669","properties":{"airport":"LFAT","name":"X","layer":"Labels","category":"Taxiways","object_type":"Label","style_id":"label.taxiways","source_group":"LFAT Taxiways","vsmr_group_ids":[],"geometry_role":"text_label","text-field":"X"},"geometry":{"type":"Point","coordinates":[1.630475833,50.511483056]}},{"type":"Feature","id":"LFAT-448555d5d5a9804ba3a3","properties":{"airport":"LFAT","name":"X","layer":"Labels","category":"Taxiways","object_type":"Label","style_id":"label.taxiways","source_group":"LFAT Taxiways","vsmr_group_ids":[],"geometry_role":"text_label","text-field":"X"},"geometry":{"type":"Point","coordinates":[1.609354722,50.526013056]}},{"type":"Feature","id":"LFAT-7780a942ff1374139410","properties":{"airport":"LFAT","name":"X","layer":"Labels","category":"Taxiways","object_type":"Label","style_id":"label.taxiways","source_group":"LFAT Taxiways","vsmr_group_ids":[],"geometry_role":"text_label","text-field":"X"},"geometry":{"type":"Point","coordinates":[1.611869167,50.524443056]}}]}
