{"type":"FeatureCollection","name":"LFAV AVISO","bbox":[3.451583333,50.321916667,3.471611111,50.332138889],"metadata":{"schema":"vSMR AVISO","schema_version":2,"geometry_mode":"shared","airport":"LFAV","coordinate_reference_system":"WGS84","coordinate_order":"longitude, latitude","default_color_palette":"dark","color_palettes":["dark","light"],"background_colors":{"dark":"#434A4F","light":"#434A4F"},"runways":[{"ends":["11L","29R"],"headings":[109,289],"thresholds":[[3.457588889,50.327705833],[3.465713889,50.325735833]]},{"ends":["11","29"],"headings":[110,290],"thresholds":[[3.452310833,50.327985833],[3.470943889,50.323452778]]},{"ends":["06","24"],"headings":[60,240],"thresholds":[[3.455588889,50.327641944],[3.463280833,50.330321944]]}],"saved_active_runways":[],"saved_active_airport_modes":[],"airport_reference":[3.465555833,50.324721944],"feature_count":2,"style_count":2,"layer_counts":{"Guidance lines":2},"category_counts":{"Grass runways":1,"Runways":1},"geometry_source":"local GNG/KMZ","geometry_source_url":"","geometry_license":"GPL-3.0"},"styles":{"line.runwaygrass.008000":{"name":"Grass runways","layer":"Guidance lines","object_type":"Line","paint":{"stroke":"#859A77","stroke-opacity":1,"stroke-width":1,"palette-overrides":{"light":{"stroke":"#008000"}}},"feature_count":1},"line.runwayconcrete.555555":{"name":"Runways","layer":"Guidance lines","object_type":"Line","paint":{"stroke":"#111318","stroke-opacity":1,"stroke-width":1,"palette-overrides":{"light":{"stroke":"#555555"}}},"feature_count":1}},"vsmr_groups":[],"features":[{"type":"Feature","id":"LFAV-8f0fec2f4dd5107a80dd","properties":{"airport":"LFAV","name":"LFAV Groundlayout","layer":"Guidance lines","category":"Grass runways","object_type":"Line","style_id":"line.runwaygrass.008000","source_group":"LFAV Groundlayout","vsmr_group_ids":[],"geometry_role":"linework"},"geometry":{"type":"MultiLineString","coordinates":[[[3.457,50.326222222],[3.465111111,50.324305556]],[[3.458388889,50.329388889],[3.457,50.326222222]],[[3.4665,50.3275],[3.465111111,50.324305556]],[[3.455777778,50.329638889],[3.463583333,50.332138889]],[[3.457611111,50.326583333],[3.465416667,50.329083333]],[[3.455777778,50.329638889],[3.457611111,50.326583333]],[[3.463583333,50.332138889],[3.465416667,50.329083333]]]}},{"type":"Feature","id":"LFAV-5ef6e46908ddc7c097aa","properties":{"airport":"LFAV","name":"LFAV Groundlayout","layer":"Guidance lines","category":"Runways","object_type":"Line","style_id":"line.runwayconcrete.555555","source_group":"LFAV Groundlayout","vsmr_group_ids":[],"geometry_role":"linework"},"geometry":{"type":"MultiLineString","coordinates":[[[3.453,50.329583333],[3.471611111,50.325083333]],[[3.451583333,50.326416667],[3.470194444,50.321916667]],[[3.453,50.329583333],[3.451583333,50.326416667]],[[3.471611111,50.325083333],[3.470194444,50.321916667]]]}}]}
