{"type":"FeatureCollection","name":"LFBA AVISO","bbox":[0.580364722,44.170223333,0.605591667,44.177995],"metadata":{"schema":"vSMR AVISO","schema_version":2,"geometry_mode":"shared","airport":"LFBA","coordinate_reference_system":"WGS84","coordinate_order":"longitude, latitude","default_color_palette":"dark","color_palettes":["dark","light"],"background_colors":{"dark":"#434A4F","light":"#434A4F"},"runways":[{"ends":["11","29"],"headings":[111,291],"thresholds":[[0.582343889,44.177141944],[0.600871944,44.171705833]]}],"saved_active_runways":[],"saved_active_airport_modes":[],"airport_reference":[0.590555833,44.174721944],"feature_count":32,"style_count":9,"layer_counts":{"Guidance lines":7,"Labels":25},"category_counts":{"Apron Surface":1,"Centerlines":1,"Gates":17,"Labels":1,"Runways":1,"Stopbars":1,"TWR-CTR":1,"Taxiways":9},"geometry_source":"local GNG","geometry_source_url":"","geometry_license":"GPL-3.0"},"styles":{"line.runwayconcrete.555555":{"name":"Runways","layer":"Guidance lines","object_type":"Line","paint":{"stroke":"#111318","stroke-opacity":1,"stroke-width":1,"palette-overrides":{"light":{"stroke":"#555555"}}},"feature_count":1},"line.taxiway.c0b631":{"name":"Taxiways","layer":"Guidance lines","object_type":"Line","paint":{"stroke":"#4E5A69","stroke-opacity":1,"stroke-width":1,"palette-overrides":{"light":{"stroke":"#C0B631"}}},"feature_count":1},"line.apronsurface.808080":{"name":"Apron Surface","layer":"Guidance lines","object_type":"Line","paint":{"stroke":"#808080","stroke-opacity":1,"stroke-width":1,"palette-overrides":{"light":{"stroke":"#808080"}}},"feature_count":1},"line.stopbar.7e0000":{"name":"Stopbars","layer":"Guidance lines","object_type":"Line","paint":{"stroke":"#7E0000","stroke-opacity":1,"stroke-width":1,"palette-overrides":{"light":{"stroke":"#7E0000"}}},"feature_count":1},"line.twr-ctr.000000":{"name":"TWR-CTR","layer":"Guidance lines","object_type":"Line","paint":{"stroke":"#000000","stroke-opacity":1,"stroke-width":1,"palette-overrides":{"light":{"stroke":"#000000"}}},"feature_count":1},"line.centerlines.ffff00":{"name":"Centerlines","layer":"Guidance lines","object_type":"Line","paint":{"stroke":"#FFFF00","stroke-opacity":1,"stroke-width":1,"palette-overrides":{"light":{"stroke":"#FFFF00"}}},"feature_count":1},"line.labels.808080":{"name":"Labels","layer":"Guidance lines","object_type":"Line","paint":{"stroke":"#808080","stroke-opacity":1,"stroke-width":1,"palette-overrides":{"light":{"stroke":"#808080"}}},"feature_count":1},"label.gates":{"name":"Gates","layer":"Labels","object_type":"Label","paint":{"text-color":"#CCCCCC","text-font":"Arial","text-size":12,"text-halo-color":"#000000","text-halo-width":1,"text-anchor":"center","zoomLevel":9},"feature_count":17},"label.taxiways":{"name":"Taxiways","layer":"Labels","object_type":"Label","paint":{"text-color":"#CCCCCC","text-font":"Arial","text-size":12,"text-halo-color":"#000000","text-halo-width":1,"text-anchor":"center","zoomLevel":7},"feature_count":8}},"vsmr_groups":[],"features":[{"type":"Feature","id":"LFBA-c404722e3f668d30dadd","properties":{"airport":"LFBA","name":"ACB","layer":"Labels","category":"Gates","object_type":"Label","style_id":"label.gates","source_group":"LFBA Gates","vsmr_group_ids":[],"geometry_role":"text_label","text-field":"ACB"},"geometry":{"type":"Point","coordinates":[0.596688611,44.175622222]}},{"type":"Feature","id":"LFBA-54463fe95a0ea15ae760","properties":{"airport":"LFBA","name":"D1","layer":"Labels","category":"Gates","object_type":"Label","style_id":"label.gates","source_group":"LFBA Gates","vsmr_group_ids":[],"geometry_role":"text_label","text-field":"D1"},"geometry":{"type":"Point","coordinates":[0.596448611,44.175054444]}},{"type":"Feature","id":"LFBA-e60866c5e8334bc937a4","properties":{"airport":"LFBA","name":"D2","layer":"Labels","category":"Gates","object_type":"Label","style_id":"label.gates","source_group":"LFBA Gates","vsmr_group_ids":[],"geometry_role":"text_label","text-field":"D2"},"geometry":{"type":"Point","coordinates":[0.596521667,44.175160833]}},{"type":"Feature","id":"LFBA-572f1c445b713c0978f8","properties":{"airport":"LFBA","name":"D3","layer":"Labels","category":"Gates","object_type":"Label","style_id":"label.gates","source_group":"LFBA Gates","vsmr_group_ids":[],"geometry_role":"text_label","text-field":"D3"},"geometry":{"type":"Point","coordinates":[0.596572222,44.175261944]}},{"type":"Feature","id":"LFBA-e1c7ba716d2245810cd9","properties":{"airport":"LFBA","name":"C1","layer":"Labels","category":"Gates","object_type":"Label","style_id":"label.gates","source_group":"LFBA Gates","vsmr_group_ids":[],"geometry_role":"text_label","text-field":"C1"},"geometry":{"type":"Point","coordinates":[0.595679722,44.175190833]}},{"type":"Feature","id":"LFBA-eb1f219bf3c0e87f8ebc","properties":{"airport":"LFBA","name":"C2","layer":"Labels","category":"Gates","object_type":"Label","style_id":"label.gates","source_group":"LFBA Gates","vsmr_group_ids":[],"geometry_role":"text_label","text-field":"C2"},"geometry":{"type":"Point","coordinates":[0.595755833,44.175308889]}},{"type":"Feature","id":"LFBA-06f797c78037d3aa9155","properties":{"airport":"LFBA","name":"C3","layer":"Labels","category":"Gates","object_type":"Label","style_id":"label.gates","source_group":"LFBA Gates","vsmr_group_ids":[],"geometry_role":"text_label","text-field":"C3"},"geometry":{"type":"Point","coordinates":[0.595811111,44.175427222]}},{"type":"Feature","id":"LFBA-8a2e85a466f9b762d9f6","properties":{"airport":"LFBA","name":"C4","layer":"Labels","category":"Gates","object_type":"Label","style_id":"label.gates","source_group":"LFBA Gates","vsmr_group_ids":[],"geometry_role":"text_label","text-field":"C4"},"geometry":{"type":"Point","coordinates":[0.595884167,44.175539722]}},{"type":"Feature","id":"LFBA-29c5766cad542db300dc","properties":{"airport":"LFBA","name":"B1","layer":"Labels","category":"Gates","object_type":"Label","style_id":"label.gates","source_group":"LFBA Gates","vsmr_group_ids":[],"geometry_role":"text_label","text-field":"B1"},"geometry":{"type":"Point","coordinates":[0.595131944,44.175338611]}},{"type":"Feature","id":"LFBA-5e9513cc1312cd144f26","properties":{"airport":"LFBA","name":"B2","layer":"Labels","category":"Gates","object_type":"Label","style_id":"label.gates","source_group":"LFBA Gates","vsmr_group_ids":[],"geometry_role":"text_label","text-field":"B2"},"geometry":{"type":"Point","coordinates":[0.595227778,44.175510833]}},{"type":"Feature","id":"LFBA-20b18bbaf1500a6c6380","properties":{"airport":"LFBA","name":"A1","layer":"Labels","category":"Gates","object_type":"Label","style_id":"label.gates","source_group":"LFBA Gates","vsmr_group_ids":[],"geometry_role":"text_label","text-field":"A1"},"geometry":{"type":"Point","coordinates":[0.593985556,44.1757125]}},{"type":"Feature","id":"LFBA-1629bd84052e41597fb5","properties":{"airport":"LFBA","name":"A3","layer":"Labels","category":"Gates","object_type":"Label","style_id":"label.gates","source_group":"LFBA Gates","vsmr_group_ids":[],"geometry_role":"text_label","text-field":"A3"},"geometry":{"type":"Point","coordinates":[0.594660556,44.175511667]}},{"type":"Feature","id":"LFBA-5aa32b0a445b34282be6","properties":{"airport":"LFBA","name":"A2","layer":"Labels","category":"Gates","object_type":"Label","style_id":"label.gates","source_group":"LFBA Gates","vsmr_group_ids":[],"geometry_role":"text_label","text-field":"A2"},"geometry":{"type":"Point","coordinates":[0.594441667,44.175918611]}},{"type":"Feature","id":"LFBA-7a7c9dee880053bf17c9","properties":{"airport":"LFBA","name":"N1","layer":"Labels","category":"Gates","object_type":"Label","style_id":"label.gates","source_group":"LFBA Gates","vsmr_group_ids":[],"geometry_role":"text_label","text-field":"N1"},"geometry":{"type":"Point","coordinates":[0.592161944,44.176928889]}},{"type":"Feature","id":"LFBA-e3d77864b36fb9a6860e","properties":{"airport":"LFBA","name":"N2","layer":"Labels","category":"Gates","object_type":"Label","style_id":"label.gates","source_group":"LFBA Gates","vsmr_group_ids":[],"geometry_role":"text_label","text-field":"N2"},"geometry":{"type":"Point","coordinates":[0.592226944,44.177053333]}},{"type":"Feature","id":"LFBA-62f84fec097171ea93eb","properties":{"airport":"LFBA","name":"TWR","layer":"Labels","category":"Gates","object_type":"Label","style_id":"label.gates","source_group":"LFBA Gates","vsmr_group_ids":[],"geometry_role":"text_label","text-field":"TWR"},"geometry":{"type":"Point","coordinates":[0.593676944,44.176437222]}},{"type":"Feature","id":"LFBA-be2d36294fc300fcfaec","properties":{"airport":"LFBA","name":"Terminal","layer":"Labels","category":"Gates","object_type":"Label","style_id":"label.gates","source_group":"LFBA Gates","vsmr_group_ids":[],"geometry_role":"text_label","text-field":"Terminal"},"geometry":{"type":"Point","coordinates":[0.594043333,44.176268611]}},{"type":"Feature","id":"LFBA-4787409dfb8dc8e0557a","properties":{"airport":"LFBA","name":"LFBA Groundlayout","layer":"Guidance lines","category":"Runways","object_type":"Line","style_id":"line.runwayconcrete.555555","source_group":"LFBA Groundlayout","vsmr_group_ids":[],"geometry_role":"linework"},"geometry":{"type":"MultiLineString","coordinates":[[[0.591075556,44.174727222],[0.595275278,44.173496111]],[[0.595893333,44.1733125],[0.601727778,44.1716],[0.601745278,44.171608333],[0.601764444,44.171628056],[0.601791944,44.171647778],[0.6018175,44.171664722],[0.601846389,44.17167],[0.601875833,44.171679167],[0.601909444,44.171683056],[0.601940278,44.171683056],[0.601975278,44.171679167],[0.602004722,44.171672222],[0.602027222,44.171664167],[0.602048333,44.171651944],[0.602070556,44.171635833],[0.602086111,44.171619722],[0.602094444,44.171605833],[0.602104167,44.171583611],[0.602104167,44.1715625],[0.602108611,44.171542222],[0.602105556,44.171528611],[0.602101667,44.171515556],[0.602098889,44.1715025],[0.602105278,44.171492222],[0.602121389,44.171486389],[0.604614444,44.170751389],[0.604638889,44.170751389],[0.604669722,44.170746944],[0.6047125,44.170741111],[0.604751389,44.170741111],[0.604792222,44.170743889],[0.604831111,44.170748333],[0.604868056,44.170752778],[0.604896944,44.1707625],[0.604926389,44.1707675],[0.604955833,44.1707775],[0.604983611,44.170785278],[0.605014444,44.170796389],[0.605046389,44.170805556],[0.605077222,44.1708175],[0.605109444,44.170826389],[0.605141389,44.170833611],[0.605172222,44.170836389],[0.60521,44.1708375],[0.605247778,44.170841389],[0.605291111,44.170836389],[0.605331389,44.170829444],[0.605365,44.170821389],[0.605398611,44.170810278],[0.605432222,44.170799444],[0.60546,44.170785278],[0.605483889,44.170770278],[0.605499444,44.170757222],[0.605516944,44.170741667],[0.605528333,44.170728056],[0.605542222,44.170714444],[0.605551111,44.170699167],[0.605563889,44.170681944],[0.605575278,44.170662778],[0.605578889,44.170640278],[0.605586389,44.170623889],[0.605587778,44.170602222],[0.605589167,44.170581389],[0.605591667,44.170557778],[0.605588889,44.170536944],[0.605586389,44.170511667],[0.605575,44.170489722],[0.605432222,44.170223333],[0.580364722,44.177585833],[0.580512222,44.177831389],[0.580528889,44.177855278],[0.580547778,44.177880833],[0.5805725,44.177903056],[0.580602778,44.177926944],[0.580633056,44.177946389],[0.5806675,44.177963611],[0.580714167,44.177977222],[0.580768333,44.1779875],[0.580806944,44.177992778],[0.580853611,44.177994167],[0.580900556,44.177995],[0.580942222,44.177993611],[0.580970278,44.177986944],[0.581005833,44.177978611],[0.581043333,44.177965278],[0.581071389,44.177951667],[0.581100556,44.177934444],[0.581131667,44.177913611],[0.581160833,44.177886667],[0.581183889,44.177864444],[0.581196111,44.177840556],[0.581207222,44.177821111],[0.581216111,44.177797222],[0.581233056,44.177772222],[0.581244167,44.177747222],[0.581262222,44.177723333],[0.581285556,44.177688056],[0.581303611,44.177667222],[0.581319167,44.177651111],[0.581338333,44.177635],[0.581355,44.177618889],[0.581375278,44.177605278],[0.581396389,44.177590833],[0.581415556,44.177580556],[0.581438889,44.177568333],[0.581463611,44.177557222],[0.581485833,44.177544444],[0.581511667,44.177532222],[0.589449444,44.175206389]],[[0.589819722,44.175096944],[0.590381667,44.174932222]]]}},{"type":"Feature","id":"LFBA-f07f57fef49d771303fc","properties":{"airport":"LFBA","name":"LFBA Groundlayout","layer":"Guidance lines","category":"Taxiways","object_type":"Line","style_id":"line.taxiway.c0b631","source_group":"LFBA Groundlayout","vsmr_group_ids":[],"geometry_role":"linework"},"geometry":{"type":"MultiLineString","coordinates":[[[0.595894444,44.173312222],[0.595876389,44.173328889],[0.595858056,44.173343333],[0.595841944,44.173355],[0.595827778,44.173369444],[0.595810833,44.173386944],[0.595799722,44.173405556],[0.595784444,44.173426667],[0.595778333,44.173451389],[0.5957725,44.173473056],[0.5957725,44.173495556],[0.595774444,44.173518611],[0.595780556,44.173538056],[0.595788611,44.173557778],[0.595798611,44.173578611],[0.595809722,44.173610556],[0.595821944,44.17363],[0.596436944,44.174723611]],[[0.589451944,44.175205278],[0.589481389,44.175204444],[0.589506389,44.175205278],[0.5895225,44.175209167],[0.589543056,44.175214722],[0.589561667,44.175223333],[0.589578889,44.175236389],[0.589606111,44.175253611],[0.589671111,44.175308889],[0.590712222,44.176426389],[0.591372222,44.176224444],[0.591413056,44.176215833],[0.591453333,44.176217222],[0.591498333,44.176223889],[0.591535278,44.176235556],[0.591560833,44.176250556],[0.591585,44.1762725],[0.591859167,44.176678611]],[[0.58982,44.175096944],[0.589797222,44.175115],[0.589782222,44.175128056],[0.589769722,44.1751425],[0.589757778,44.175158889],[0.589754444,44.175180556],[0.589750278,44.175202222],[0.589751944,44.175221944],[0.589755278,44.175241389],[0.589761944,44.175262222],[0.589774722,44.175283889],[0.589781389,44.175296111],[0.590613333,44.176180556],[0.590640833,44.176207778],[0.590668056,44.176221389],[0.590695278,44.176231944],[0.590723333,44.176239444],[0.590753611,44.176245278],[0.590791389,44.176243889],[0.590824722,44.176239444],[0.590860278,44.176229722],[0.591136389,44.176150833],[0.591258889,44.176115556],[0.591289722,44.176101667],[0.591314444,44.176089167],[0.591333056,44.176076389],[0.591345278,44.176061111],[0.591356667,44.176046944],[0.591365833,44.176031389],[0.591372222,44.176014444],[0.591375278,44.175996111],[0.591376389,44.175980556],[0.591373056,44.175965833],[0.591363889,44.175947222],[0.591351667,44.175926667],[0.590781667,44.175083056],[0.590769167,44.17506],[0.590753056,44.175044167],[0.590733889,44.175025556],[0.590718611,44.175011944],[0.590699722,44.174999722],[0.590679444,44.1749875],[0.590656667,44.174976389],[0.590634722,44.174964722],[0.590610833,44.174956667],[0.590588889,44.174947778],[0.590552778,44.174939444],[0.590513611,44.174935556],[0.590480278,44.174932778],[0.590446111,44.174930556],[0.590414722,44.174930556],[0.590379444,44.174932778]],[[0.592092778,44.176587222],[0.592028889,44.176575278],[0.591978333,44.176518889],[0.591828611,44.176316111],[0.591805833,44.176279444],[0.591791111,44.176255],[0.591777222,44.176230833],[0.591768056,44.176209722],[0.591763611,44.1761875],[0.591771667,44.176165556],[0.591780556,44.176143333],[0.591796667,44.176125278],[0.591816111,44.1761075],[0.591842222,44.176091944],[0.591876667,44.176077222],[0.591925556,44.176061667],[0.592286111,44.175956944],[0.592929167,44.175768333],[0.59337,44.175637778],[0.593422778,44.1756275],[0.59346,44.175628333],[0.593494444,44.175635],[0.593522222,44.175646389],[0.5935525,44.175658611],[0.593573611,44.175671111]],[[0.591077778,44.174726389],[0.591057222,44.174748611],[0.591033611,44.174768889],[0.591009722,44.174791111],[0.5909925,44.174812778],[0.590975278,44.174836667],[0.590963611,44.17486],[0.590953889,44.174883056],[0.590948333,44.174908611],[0.590948333,44.174931111],[0.590950556,44.174960278],[0.590954722,44.174986667],[0.590961389,44.175010556],[0.590968889,44.175033889],[0.591085,44.175228333],[0.591351667,44.175611111],[0.591507778,44.175836111],[0.591534444,44.175869722],[0.591559722,44.175890278],[0.591593889,44.175908333],[0.5916225,44.1759225],[0.5916675,44.175932778],[0.591714167,44.175941667],[0.591755278,44.175945556],[0.591812778,44.175944444],[0.591859444,44.175932778],[0.592568333,44.175726667],[0.594555278,44.175143333],[0.595843056,44.174769444],[0.595919167,44.174747222],[0.595954444,44.1747275],[0.595983889,44.174700833],[0.596026667,44.174667222],[0.596052222,44.174639167],[0.596073611,44.174604167],[0.596081389,44.174563611],[0.596087222,44.17453],[0.596087222,44.174483611],[0.596078333,44.174453056],[0.596066944,44.174430278],[0.595634444,44.173655278],[0.595621389,44.173631111],[0.595605,44.173610278],[0.59559,44.173589444],[0.595571667,44.173573889],[0.595548056,44.173555278],[0.595524444,44.17354],[0.595495278,44.173528333],[0.595467222,44.173516667],[0.595435,44.173508056],[0.59541,44.173501944],[0.595376667,44.173496667],[0.595333611,44.173494167],[0.5953025,44.173493611],[0.595276667,44.173495833]]]}},{"type":"Feature","id":"LFBA-7b4827f1d63b591a0ba7","properties":{"airport":"LFBA","name":"LFBA Groundlayout","layer":"Guidance lines","category":"Apron Surface","object_type":"Line","style_id":"line.apronsurface.808080","source_group":"LFBA Groundlayout","vsmr_group_ids":[],"geometry_role":"linework"},"geometry":{"type":"MultiLineString","coordinates":[[[0.591856944,44.176676111],[0.591860278,44.176710833],[0.591855833,44.176729444],[0.591850556,44.176744167],[0.591843056,44.176760278],[0.591835556,44.176774167],[0.591819444,44.176788889],[0.5918,44.176802778],[0.591716111,44.176849722],[0.591763333,44.1768875],[0.591785,44.176888333],[0.592068889,44.177183056],[0.592037778,44.1772],[0.592221389,44.177404722],[0.592268333,44.177388056],[0.592561944,44.177696667],[0.592534444,44.177721944],[0.592581389,44.177763889],[0.593183889,44.177475],[0.592494722,44.176720278],[0.592472222,44.176704167],[0.592463056,44.1766875],[0.592476944,44.176673889],[0.592503333,44.176662778],[0.592711944,44.176596944],[0.592733611,44.176595833],[0.592756944,44.176622778],[0.592861111,44.176798889],[0.593145833,44.1767175],[0.593125556,44.176684167],[0.592984167,44.176725278],[0.592923333,44.176623889],[0.593309167,44.176501389],[0.593288611,44.176469167],[0.593290833,44.1764425],[0.593309167,44.176421944],[0.593449722,44.176378333],[0.593470278,44.176375],[0.593489444,44.176378333],[0.593503056,44.176385556],[0.593513333,44.176400278],[0.5935225,44.176410833],[0.593606667,44.176384167],[0.593633889,44.176393056],[0.593708889,44.176371944],[0.593692778,44.176344167],[0.593685,44.176326944],[0.593687222,44.176313889],[0.593701944,44.176304167],[0.593724722,44.176296111],[0.593955278,44.176225],[0.593965833,44.176235],[0.593975278,44.176246111],[0.593983611,44.176240833],[0.593993333,44.176231111],[0.594051111,44.176212222],[0.594044722,44.176199444],[0.594176111,44.1761625],[0.594186667,44.1761625],[0.594190833,44.17617],[0.594215,44.176216111],[0.594391667,44.176163889],[0.594358333,44.176105278],[0.594676389,44.176013333],[0.594665,44.175990278],[0.594817778,44.175943611],[0.594834167,44.175968611],[0.595306389,44.175828889],[0.595663056,44.1757275],[0.595769167,44.175896111],[0.595916111,44.175853889],[0.596051389,44.17608],[0.596117222,44.176058333],[0.596365833,44.176487222],[0.596289722,44.176508889],[0.5964875,44.176850556],[0.596431667,44.176868889],[0.5964875,44.176963333],[0.596715556,44.176905278],[0.5968725,44.176061944],[0.596477222,44.175854722],[0.596335278,44.175600278],[0.597039722,44.175403889],[0.596989167,44.175382222],[0.596908056,44.175356667],[0.596821667,44.175349444],[0.596791389,44.175353056],[0.596438056,44.174722778]],[[0.593571111,44.175668611],[0.593598333,44.175697222],[0.593615278,44.175723333],[0.593636389,44.175756111],[0.593665278,44.175802778],[0.593709167,44.175875278],[0.593871111,44.1761775],[0.593877222,44.176193611],[0.593865278,44.176209722],[0.593848889,44.176223611],[0.593807222,44.176236389],[0.593165833,44.1764275],[0.5931375,44.176431389],[0.593111111,44.176431389],[0.593088056,44.1764225],[0.593059722,44.176416111],[0.593024167,44.176416111],[0.5929925,44.176423611],[0.592951667,44.176428889],[0.592916111,44.17643],[0.592879167,44.176437778],[0.592845278,44.176449167],[0.592813611,44.176461944],[0.592795833,44.176482222],[0.592786944,44.1765],[0.5927975,44.176525278],[0.592806389,44.176538056],[0.592430556,44.176645278],[0.592401389,44.176649722],[0.592384444,44.176644167],[0.592093889,44.176587222]]]}},{"type":"Feature","id":"LFBA-7d31449e70b22b6c4898","properties":{"airport":"LFBA","name":"LFBA Groundlayout","layer":"Guidance lines","category":"Stopbars","object_type":"Line","style_id":"line.stopbar.7e0000","source_group":"LFBA Groundlayout","vsmr_group_ids":[],"geometry_role":"linework"},"geometry":{"type":"MultiLineString","coordinates":[[[0.595995556,44.174300833],[0.596170278,44.174251944]],[[0.590283333,44.175964444],[0.590369167,44.175921944]],[[0.591207778,44.175711389],[0.5913775,44.175650833]],[[0.591841389,44.176650278],[0.59203,44.176575278]]]}},{"type":"Feature","id":"LFBA-52f33adf18b944e19b0e","properties":{"airport":"LFBA","name":"LFBA Groundlayout","layer":"Guidance lines","category":"TWR-CTR","object_type":"Line","style_id":"line.twr-ctr.000000","source_group":"LFBA Groundlayout","vsmr_group_ids":[],"geometry_role":"linework"},"geometry":{"type":"LineString","coordinates":[[0.59364,44.176418056],[0.593709444,44.176398056],[0.593745556,44.176422778],[0.593745556,44.176458611],[0.593674444,44.176477778],[0.593636944,44.176453333],[0.59364,44.176418056]]}},{"type":"Feature","id":"LFBA-41d41cc0445d71c428be","properties":{"airport":"LFBA","name":"LFBA Groundlayout","layer":"Guidance lines","category":"Centerlines","object_type":"Line","style_id":"line.centerlines.ffff00","source_group":"LFBA Groundlayout","vsmr_group_ids":[],"geometry_role":"linework"},"geometry":{"type":"MultiLineString","coordinates":[[[0.592358889,44.177013889],[0.592590833,44.176929444]],[[0.596088889,44.175155833],[0.596365278,44.175073889]],[[0.596134444,44.175271667],[0.596438056,44.175178056]],[[0.596201111,44.175369722],[0.59649,44.1752825]],[[0.595551667,44.175223611],[0.595622222,44.175205278]],[[0.595618889,44.175340278],[0.595688611,44.175321667]],[[0.595681667,44.175458611],[0.595749444,44.1754375]],[[0.595743889,44.175574167],[0.595813333,44.175555278]],[[0.595226111,44.175319167],[0.595353889,44.175285278]],[[0.595326111,44.175488333],[0.595424444,44.175461667]],[[0.5939175,44.175789722],[0.594215278,44.175704444]],[[0.594585,44.175599167],[0.594930556,44.175495833]],[[0.594122778,44.175967222],[0.5947775,44.175769167]],[[0.592266111,44.176902222],[0.592502222,44.176811667]]]}},{"type":"Feature","id":"LFBA-acd0b91554325da16dcb","properties":{"airport":"LFBA","name":"LFBA Groundlayout","layer":"Guidance lines","category":"Labels","object_type":"Line","style_id":"line.labels.808080","source_group":"LFBA Groundlayout","vsmr_group_ids":[],"geometry_role":"linework"},"geometry":{"type":"MultiLineString","coordinates":[[[0.600125,44.172010556],[0.600299722,44.171958889],[0.600322778,44.171909444],[0.600296111,44.171914444],[0.600276667,44.171946389],[0.600243611,44.171955278],[0.600222778,44.171920833],[0.600091944,44.171959444],[0.600125,44.172010556]],[[0.58294,44.176991389],[0.582948611,44.177006111],[0.583119444,44.176955278],[0.583123889,44.176959722],[0.583148056,44.176953333],[0.583159722,44.176944722],[0.583151111,44.176928889],[0.58294,44.176991389]],[[0.582910278,44.176941667],[0.582919444,44.176956667],[0.583091944,44.176905556],[0.583096389,44.176910833],[0.583122222,44.176902222],[0.583130278,44.176893056],[0.583121111,44.176879444],[0.582910278,44.176941667]],[[0.600070556,44.171922778],[0.600149167,44.171900278],[0.600207222,44.1718425],[0.600223611,44.171837778],[0.600244444,44.171872222],[0.600281667,44.171861389],[0.600255,44.171808333],[0.600191667,44.171827222],[0.600128056,44.171886667],[0.6001,44.171894722],[0.600088333,44.171875],[0.600106667,44.171868889],[0.600098056,44.171853889],[0.600041111,44.171871111],[0.600070556,44.171922778]],[[0.600152222,44.171983056],[0.600204167,44.171968056],[0.600193333,44.171949722],[0.600141389,44.171964167],[0.600152222,44.171983056]]]}},{"type":"Feature","id":"LFBA-c3d9c386f62b96fe87e4","properties":{"airport":"LFBA","name":"N","layer":"Labels","category":"Taxiways","object_type":"Label","style_id":"label.taxiways","source_group":"LFBA Taxiways","vsmr_group_ids":[],"geometry_role":"text_label","text-field":"N"},"geometry":{"type":"Point","coordinates":[0.591388333,44.176483056]}},{"type":"Feature","id":"LFBA-cfd22ca6c2619b3e2d6d","properties":{"airport":"LFBA","name":"W","layer":"Labels","category":"Taxiways","object_type":"Label","style_id":"label.taxiways","source_group":"LFBA Taxiways","vsmr_group_ids":[],"geometry_role":"text_label","text-field":"W"},"geometry":{"type":"Point","coordinates":[0.589994722,44.176049167]}},{"type":"Feature","id":"LFBA-95fc0abbb5e8aaffe1f2","properties":{"airport":"LFBA","name":"M","layer":"Labels","category":"Taxiways","object_type":"Label","style_id":"label.taxiways","source_group":"LFBA Taxiways","vsmr_group_ids":[],"geometry_role":"text_label","text-field":"M"},"geometry":{"type":"Point","coordinates":[0.590917222,44.175753056]}},{"type":"Feature","id":"LFBA-03f1495d2fd4081d362f","properties":{"airport":"LFBA","name":"E","layer":"Labels","category":"Taxiways","object_type":"Label","style_id":"label.taxiways","source_group":"LFBA Taxiways","vsmr_group_ids":[],"geometry_role":"text_label","text-field":"E"},"geometry":{"type":"Point","coordinates":[0.595778889,44.174341944]}},{"type":"Feature","id":"LFBA-b450add4f06c52fd67e7","properties":{"airport":"LFBA","name":"Club House","layer":"Labels","category":"Taxiways","object_type":"Label","style_id":"label.taxiways","source_group":"LFBA Taxiways","vsmr_group_ids":[],"geometry_role":"text_label","text-field":"Club House"},"geometry":{"type":"Point","coordinates":[0.595258333,44.175955278]}},{"type":"Feature","id":"LFBA-c96eacb5ae61ffc4c0dd","properties":{"airport":"LFBA","name":"Velivoles","layer":"Labels","category":"Taxiways","object_type":"Label","style_id":"label.taxiways","source_group":"LFBA Taxiways","vsmr_group_ids":[],"geometry_role":"text_label","text-field":"Velivoles"},"geometry":{"type":"Point","coordinates":[0.593066944,44.177234167]}},{"type":"Feature","id":"LFBA-f755d36ca7ab5bef5e72","properties":{"airport":"LFBA","name":"Parking","layer":"Labels","category":"Taxiways","object_type":"Label","style_id":"label.taxiways","source_group":"LFBA Taxiways","vsmr_group_ids":[],"geometry_role":"text_label","text-field":"Parking"},"geometry":{"type":"Point","coordinates":[0.592496667,44.177308889]}},{"type":"Feature","id":"LFBA-243d9a2b32a05afff694","properties":{"airport":"LFBA","name":"Parking","layer":"Labels","category":"Taxiways","object_type":"Label","style_id":"label.taxiways","source_group":"LFBA Taxiways","vsmr_group_ids":[],"geometry_role":"text_label","text-field":"Parking"},"geometry":{"type":"Point","coordinates":[0.595205278,44.1757725]}}]}
