{"type":"FeatureCollection","name":"LFBE AVISO","bbox":[0.502059722,44.816827222,0.541977222,44.833963611],"metadata":{"schema":"vSMR AVISO","schema_version":2,"geometry_mode":"shared","airport":"LFBE","coordinate_reference_system":"WGS84","coordinate_order":"longitude, latitude","default_color_palette":"dark","color_palettes":["dark","light"],"background_colors":{"dark":"#434A4F","light":"#434A4F"},"runways":[{"ends":["09R","27L"],"headings":[93,273],"thresholds":[[0.508660833,44.824232778],[0.518366944,44.823710833]]},{"ends":["09","27"],"headings":[93,273],"thresholds":[[0.507513889,44.825130833],[0.529577778,44.823941944]]}],"saved_active_runways":[],"saved_active_airport_modes":[],"airport_reference":[0.520555833,44.824443889],"feature_count":35,"style_count":7,"layer_counts":{"Airfield surfaces":7,"Buildings and structures":3,"Labels":24,"Terrain":1},"category_counts":{"Buildings":3,"Gates":22,"Grass":1,"Hard Surface 2":3,"Hard Surface 3":2,"Runways":2,"Taxiways":2},"geometry_source":"local GNG/KMZ","geometry_source_url":"","geometry_license":"GPL-3.0"},"styles":{"polygon.grassurface.00512f":{"name":"Grass","layer":"Terrain","object_type":"Area","paint":{"fill":"#010D19","fill-opacity":1,"palette-overrides":{"light":{"fill":"#00512F"}}},"feature_count":1},"polygon.hardsurface3.8a807f":{"name":"Hard Surface 3","layer":"Airfield surfaces","object_type":"Area","paint":{"fill":"#222D3C","fill-opacity":1,"palette-overrides":{"light":{"fill":"#8A807F"}}},"feature_count":2},"polygon.hardsurface2.595e5b":{"name":"Hard Surface 2","layer":"Airfield surfaces","object_type":"Area","paint":{"fill":"#2F3949","fill-opacity":1,"palette-overrides":{"light":{"fill":"#595E5B"}}},"feature_count":3},"polygon.runwayconcrete.555555":{"name":"Runways","layer":"Airfield surfaces","object_type":"Area","paint":{"fill":"#111318","fill-opacity":1,"palette-overrides":{"light":{"fill":"#555555"}}},"feature_count":2},"polygon.building.394446":{"name":"Buildings","layer":"Buildings and structures","object_type":"Area","paint":{"fill":"#475570","fill-opacity":1,"palette-overrides":{"light":{"fill":"#394446"}}},"feature_count":3},"label.gates":{"name":"Gates","layer":"Labels","object_type":"Label","paint":{"text-color":"#CCCCCC","text-font":"Arial","text-size":12,"text-halo-color":"#000000","text-halo-width":1,"text-anchor":"center","zoomLevel":9},"feature_count":22},"label.taxiways":{"name":"Taxiways","layer":"Labels","object_type":"Label","paint":{"text-color":"#CCCCCC","text-font":"Arial","text-size":12,"text-halo-color":"#000000","text-halo-width":1,"text-anchor":"center","zoomLevel":7},"feature_count":2}},"vsmr_groups":[],"features":[{"type":"Feature","id":"LFBE-46d17f99c0aa5425f1a4","properties":{"airport":"LFBE","name":"LFBE AVISO","layer":"Terrain","category":"Grass","object_type":"Area","style_id":"polygon.grassurface.00512f","source_group":"LFBE AVISO","vsmr_group_ids":[],"geometry_role":"filled_region"},"geometry":{"type":"Polygon","coordinates":[[[0.503746667,44.822034167],[0.504861389,44.818529167],[0.518526389,44.818001111],[0.541977222,44.816827222],[0.539969444,44.827128611],[0.527446944,44.833963611],[0.524892222,44.831811111],[0.5218125,44.830616944],[0.513217778,44.827772778],[0.511108333,44.827178056],[0.509210556,44.827139722],[0.507273611,44.827506111],[0.506128611,44.827971944],[0.5046425,44.828225556],[0.502813056,44.827810278],[0.502205,44.827267778],[0.502059722,44.826856667],[0.503746667,44.822034167]]]}},{"type":"Feature","id":"LFBE-86865c3df37b9c107dcd","properties":{"airport":"LFBE","name":"LFBE AVISO","layer":"Airfield surfaces","category":"Hard Surface 3","object_type":"Area","style_id":"polygon.hardsurface3.8a807f","source_group":"LFBE AVISO","vsmr_group_ids":[],"geometry_role":"filled_region"},"geometry":{"type":"Polygon","coordinates":[[[0.510001111,44.822511667],[0.511216389,44.822447778],[0.511233611,44.822356111],[0.513092778,44.822491111],[0.5130575,44.822849722],[0.512341667,44.822797222],[0.512301944,44.822797222],[0.512286389,44.82281],[0.512278333,44.822823889],[0.512279444,44.822845833],[0.512294722,44.823025],[0.510063056,44.823149444],[0.510001111,44.822511667]]]}},{"type":"Feature","id":"LFBE-c3d45d4c6e893e6284cc","properties":{"airport":"LFBE","name":"LFBE AVISO","layer":"Airfield surfaces","category":"Hard Surface 3","object_type":"Area","style_id":"polygon.hardsurface3.8a807f","source_group":"LFBE AVISO","vsmr_group_ids":[],"geometry_role":"filled_region"},"geometry":{"type":"Polygon","coordinates":[[[0.513870556,44.822833056],[0.513992222,44.822841111],[0.5140225,44.822836111],[0.514046944,44.822825833],[0.5142975,44.822700556],[0.514470278,44.822577222],[0.514512222,44.822486667],[0.515355556,44.822083056],[0.515535,44.822266111],[0.516511111,44.822199167],[0.516518611,44.822236111],[0.517389167,44.822181111],[0.517405833,44.822197778],[0.517423889,44.822227778],[0.517436667,44.822254444],[0.517449444,44.822300556],[0.517499167,44.822746389],[0.513848333,44.822941667],[0.513870556,44.822833056]]]}},{"type":"Feature","id":"LFBE-a49dacbf19a0f71c04d7","properties":{"airport":"LFBE","name":"LFBE AVISO","layer":"Airfield surfaces","category":"Hard Surface 2","object_type":"Area","style_id":"polygon.hardsurface2.595e5b","source_group":"LFBE AVISO","vsmr_group_ids":[],"geometry_role":"filled_region"},"geometry":{"type":"Polygon","coordinates":[[[0.506378333,44.825399167],[0.506296944,44.825415833],[0.5062275,44.825439722],[0.506160833,44.825468056],[0.506096944,44.825505],[0.5060525,44.825537778],[0.506012778,44.825579167],[0.505977778,44.82562],[0.505937778,44.825673333],[0.505882222,44.825723889],[0.505829167,44.825763333],[0.505766111,44.825793889],[0.505691944,44.825821389],[0.505605,44.825841389],[0.505522778,44.82585],[0.505443056,44.825852222],[0.505359167,44.825845833],[0.505283611,44.825832778],[0.505215,44.825810278],[0.505151944,44.825784444],[0.505086111,44.825749167],[0.505036389,44.825713333],[0.504995278,44.825676111],[0.504955833,44.825623889],[0.504925556,44.825575556],[0.504905278,44.825508889],[0.504898611,44.8254725],[0.506553333,44.825384167],[0.506378333,44.825399167]]]}},{"type":"Feature","id":"LFBE-04d9e0539e9f8529ecb1","properties":{"airport":"LFBE","name":"LFBE AVISO","layer":"Airfield surfaces","category":"Hard Surface 2","object_type":"Area","style_id":"polygon.hardsurface2.595e5b","source_group":"LFBE AVISO","vsmr_group_ids":[],"geometry_role":"filled_region"},"geometry":{"type":"Polygon","coordinates":[[[0.532679444,44.824015],[0.532678611,44.824061389],[0.532661111,44.824121667],[0.532630556,44.824179444],[0.532585556,44.824235],[0.532518889,44.824290556],[0.53244,44.824338889],[0.532345556,44.824376667],[0.532250278,44.824403056],[0.532149167,44.824412778],[0.532072778,44.824416667],[0.531509167,44.824440833],[0.531436667,44.824441667],[0.531347222,44.824430278],[0.531261389,44.824409722],[0.531188611,44.824381389],[0.531112222,44.824336667],[0.531054722,44.824290278],[0.531006944,44.824244722],[0.530945556,44.824197222],[0.530871111,44.824158056],[0.530779167,44.824122778],[0.530647222,44.824091944],[0.530494722,44.824094722],[0.532678333,44.823976111],[0.532679444,44.824015]]]}},{"type":"Feature","id":"LFBE-b42e72f91af94ca59069","properties":{"airport":"LFBE","name":"LFBE AVISO","layer":"Airfield surfaces","category":"Hard Surface 2","object_type":"Area","style_id":"polygon.hardsurface2.595e5b","source_group":"LFBE AVISO","vsmr_group_ids":[],"geometry_role":"filled_region"},"geometry":{"type":"Polygon","coordinates":[[[0.5061725,44.825012778],[0.506288611,44.824983333],[0.506359722,44.824951389],[0.506433611,44.824890556],[0.506468889,44.824838611],[0.506483333,44.824801389],[0.506485,44.824737778],[0.506476667,44.824648056],[0.506385278,44.823816389],[0.506380833,44.823758056],[0.506388889,44.823712778],[0.506405556,44.823663889],[0.506430556,44.823625],[0.506467222,44.823590556],[0.506511944,44.823556111],[0.506568056,44.823530278],[0.506645278,44.823506389],[0.5067475,44.823491944],[0.506846667,44.823485],[0.506989444,44.823475278],[0.509784722,44.823328056],[0.509872222,44.823322778],[0.509932222,44.8233175],[0.509981944,44.823303333],[0.510016667,44.82329],[0.510042222,44.823258333],[0.5100575,44.8232275],[0.510065278,44.823203056],[0.510061111,44.823143889],[0.512295556,44.823022778],[0.512299444,44.823054167],[0.512305556,44.823079722],[0.512317222,44.823105556],[0.512335,44.823130833],[0.512356944,44.823145556],[0.512394444,44.823163611],[0.512439722,44.8231775],[0.512478611,44.8231825],[0.513443056,44.823128889],[0.513485278,44.823123056],[0.513515278,44.823112222],[0.513844444,44.822939722],[0.517503889,44.8227425],[0.517513889,44.822807222],[0.517517222,44.822843056],[0.517523056,44.822861944],[0.517535833,44.822881111],[0.517566111,44.822895],[0.517606111,44.822897222],[0.517943611,44.822884722],[0.518039444,44.822881667],[0.518596944,44.822850833],[0.520501667,44.822747778],[0.520621111,44.823875833],[0.520633889,44.823952778],[0.520644444,44.823991667],[0.520656389,44.824026667],[0.52067,44.824056944],[0.520695833,44.8240875],[0.520729167,44.824118889],[0.520758333,44.824141944],[0.520803333,44.824163889],[0.520842778,44.8241825],[0.520885278,44.824193611],[0.520935278,44.824204444],[0.520990278,44.824211944],[0.520030556,44.824263333],[0.520095278,44.824244722],[0.5201475,44.824225],[0.520211111,44.824191111],[0.520265556,44.82415],[0.520290278,44.824110556],[0.520310833,44.824075278],[0.520318611,44.824031389],[0.5203175,44.823986389],[0.520307778,44.823895833],[0.520255278,44.823366667],[0.520246389,44.823310833],[0.520231944,44.823243889],[0.5202175,44.823184444],[0.520198333,44.823119167],[0.520179444,44.823080556],[0.520146111,44.823040556],[0.520094444,44.822997222],[0.520043056,44.822967222],[0.519989444,44.822947222],[0.519902778,44.822922778],[0.51989,44.822920833],[0.507629444,44.823577778],[0.507418611,44.823588333],[0.507278611,44.823598333],[0.507157222,44.823608611],[0.507059722,44.823619444],[0.506977778,44.823633333],[0.506916389,44.823651944],[0.506877778,44.823667778],[0.506835278,44.823695278],[0.506806667,44.823715],[0.506776111,44.823745556],[0.506756389,44.823773056],[0.506737778,44.823823333],[0.506732222,44.823873056],[0.506727778,44.823928333],[0.506728611,44.823986667],[0.5068,44.824726667],[0.506807778,44.824769722],[0.506828611,44.824811667],[0.506856389,44.824841944],[0.506889722,44.824873889],[0.506933056,44.824901111],[0.506973056,44.824920278],[0.507017778,44.824936389],[0.507063611,44.824946667],[0.507100556,44.824954722],[0.507230278,44.824957222],[0.505942222,44.825025],[0.5061725,44.825012778]]]}},{"type":"Feature","id":"LFBE-eb2d9e043c3c40dc6f0f","properties":{"airport":"LFBE","name":"LFBE AVISO","layer":"Airfield surfaces","category":"Runways","object_type":"Area","style_id":"polygon.runwayconcrete.555555","source_group":"LFBE AVISO","vsmr_group_ids":[],"geometry_role":"filled_region"},"geometry":{"type":"Polygon","coordinates":[[[0.5048625,44.8250825],[0.532661667,44.823577222],[0.532688889,44.8239775],[0.504895556,44.825475278],[0.5048625,44.8250825]]]}},{"type":"Feature","id":"LFBE-ecddb23e153757b62cc3","properties":{"airport":"LFBE","name":"LFBE AVISO","layer":"Airfield surfaces","category":"Runways","object_type":"Area","style_id":"polygon.runwayconcrete.555555","source_group":"LFBE AVISO","vsmr_group_ids":[],"geometry_role":"filled_region"},"geometry":{"type":"Polygon","coordinates":[[[0.508645,44.823981111],[0.51833,44.823453056],[0.518384722,44.823981111],[0.508698889,44.824508056],[0.508645,44.823981111]]]}},{"type":"Feature","id":"LFBE-2a8491c9625c59817e47","properties":{"airport":"LFBE","name":"LFBE AVISO","layer":"Buildings and structures","category":"Buildings","object_type":"Area","style_id":"polygon.building.394446","source_group":"LFBE AVISO","vsmr_group_ids":[],"geometry_role":"filled_region"},"geometry":{"type":"Polygon","coordinates":[[[0.513532778,44.822256667],[0.513748333,44.822180556],[0.514863333,44.822161944],[0.514886667,44.82217],[0.515130833,44.8220525],[0.5152675,44.822183056],[0.515016944,44.822316944],[0.514995833,44.822299167],[0.514801111,44.822406944],[0.514803056,44.822504444],[0.514608056,44.822501667],[0.5146025,44.822488333],[0.514203333,44.822497778],[0.5142025,44.822569444],[0.513544722,44.822575],[0.513532778,44.822256667]]]}},{"type":"Feature","id":"LFBE-2b6663af1e006f9e98a5","properties":{"airport":"LFBE","name":"LFBE AVISO","layer":"Buildings and structures","category":"Buildings","object_type":"Area","style_id":"polygon.building.394446","source_group":"LFBE AVISO","vsmr_group_ids":[],"geometry_role":"filled_region"},"geometry":{"type":"Polygon","coordinates":[[[0.51635,44.822071944],[0.516366389,44.822236944],[0.515971389,44.822263333],[0.515942222,44.822165278],[0.515944444,44.822085833],[0.516319444,44.822060556],[0.51635,44.822071944]]]}},{"type":"Feature","id":"LFBE-dd4cec38b174983ee54e","properties":{"airport":"LFBE","name":"LFBE AVISO","layer":"Buildings and structures","category":"Buildings","object_type":"Area","style_id":"polygon.building.394446","source_group":"LFBE AVISO","vsmr_group_ids":[],"geometry_role":"filled_region"},"geometry":{"type":"Polygon","coordinates":[[[0.511616667,44.822409722],[0.511207778,44.822378889],[0.511218333,44.822345556],[0.510978611,44.822340278],[0.510978889,44.822364167],[0.510831111,44.822356944],[0.510806667,44.8222875],[0.510840278,44.822214167],[0.511308611,44.822245833],[0.5113175,44.822210278],[0.511798889,44.822239722],[0.511809722,44.822215],[0.513103056,44.822312222],[0.513076944,44.822506389],[0.511748056,44.822414444],[0.511616667,44.822409722]]]}},{"type":"Feature","id":"LFBE-0f11a43ab9b1a71409a7","properties":{"airport":"LFBE","name":"P-Aviation Generale","layer":"Labels","category":"Gates","object_type":"Label","style_id":"label.gates","source_group":"LFBE Gates","vsmr_group_ids":[],"geometry_role":"text_label","text-field":"P-Aviation Generale"},"geometry":{"type":"Point","coordinates":[0.510076944,44.822175833]}},{"type":"Feature","id":"LFBE-e506eb88a5ebcc520e79","properties":{"airport":"LFBE","name":"Terminal","layer":"Labels","category":"Gates","object_type":"Label","style_id":"label.gates","source_group":"LFBE Gates","vsmr_group_ids":[],"geometry_role":"text_label","text-field":"Terminal"},"geometry":{"type":"Point","coordinates":[0.512891111,44.82239]}},{"type":"Feature","id":"LFBE-65c4806dafe2abf6a423","properties":{"airport":"LFBE","name":"TWR","layer":"Labels","category":"Gates","object_type":"Label","style_id":"label.gates","source_group":"LFBE Gates","vsmr_group_ids":[],"geometry_role":"text_label","text-field":"TWR"},"geometry":{"type":"Point","coordinates":[0.514651111,44.822396111]}},{"type":"Feature","id":"LFBE-16ccc9dcf31759337221","properties":{"airport":"LFBE","name":"Air CD","layer":"Labels","category":"Gates","object_type":"Label","style_id":"label.gates","source_group":"LFBE Gates","vsmr_group_ids":[],"geometry_role":"text_label","text-field":"Air CD"},"geometry":{"type":"Point","coordinates":[0.517225556,44.821965556]}},{"type":"Feature","id":"LFBE-fd5b9ff5d3aa18004928","properties":{"airport":"LFBE","name":"ACB","layer":"Labels","category":"Gates","object_type":"Label","style_id":"label.gates","source_group":"LFBE Gates","vsmr_group_ids":[],"geometry_role":"text_label","text-field":"ACB"},"geometry":{"type":"Point","coordinates":[0.511926944,44.822330833]}},{"type":"Feature","id":"LFBE-8cd46fe83266083eff5c","properties":{"airport":"LFBE","name":"RFFS","layer":"Labels","category":"Gates","object_type":"Label","style_id":"label.gates","source_group":"LFBE Gates","vsmr_group_ids":[],"geometry_role":"text_label","text-field":"RFFS"},"geometry":{"type":"Point","coordinates":[0.511160278,44.822310278]}},{"type":"Feature","id":"LFBE-3092a34193ae1c56b71b","properties":{"airport":"LFBE","name":"C3","layer":"Labels","category":"Gates","object_type":"Label","style_id":"label.gates","source_group":"LFBE Gates","vsmr_group_ids":[],"geometry_role":"text_label","text-field":"C3"},"geometry":{"type":"Point","coordinates":[0.510334444,44.822581389]}},{"type":"Feature","id":"LFBE-8da81c98bae87196dc9c","properties":{"airport":"LFBE","name":"C2","layer":"Labels","category":"Gates","object_type":"Label","style_id":"label.gates","source_group":"LFBE Gates","vsmr_group_ids":[],"geometry_role":"text_label","text-field":"C2"},"geometry":{"type":"Point","coordinates":[0.510706944,44.823074167]}},{"type":"Feature","id":"LFBE-78d0d800a3f14f6d241b","properties":{"airport":"LFBE","name":"C1","layer":"Labels","category":"Gates","object_type":"Label","style_id":"label.gates","source_group":"LFBE Gates","vsmr_group_ids":[],"geometry_role":"text_label","text-field":"C1"},"geometry":{"type":"Point","coordinates":[0.511296667,44.823067222]}},{"type":"Feature","id":"LFBE-e00e7f812533c4b3799c","properties":{"airport":"LFBE","name":"B2","layer":"Labels","category":"Gates","object_type":"Label","style_id":"label.gates","source_group":"LFBE Gates","vsmr_group_ids":[],"geometry_role":"text_label","text-field":"B2"},"geometry":{"type":"Point","coordinates":[0.511560556,44.822743611]}},{"type":"Feature","id":"LFBE-f8646550eaf4e39fe9ae","properties":{"airport":"LFBE","name":"B1","layer":"Labels","category":"Gates","object_type":"Label","style_id":"label.gates","source_group":"LFBE Gates","vsmr_group_ids":[],"geometry_role":"text_label","text-field":"B1"},"geometry":{"type":"Point","coordinates":[0.511563611,44.822596667]}},{"type":"Feature","id":"LFBE-977885fa317aeef978b5","properties":{"airport":"LFBE","name":"A4","layer":"Labels","category":"Gates","object_type":"Label","style_id":"label.gates","source_group":"LFBE Gates","vsmr_group_ids":[],"geometry_role":"text_label","text-field":"A4"},"geometry":{"type":"Point","coordinates":[0.511961111,44.823000833]}},{"type":"Feature","id":"LFBE-f3a2fefee223646a1d2c","properties":{"airport":"LFBE","name":"A3","layer":"Labels","category":"Gates","object_type":"Label","style_id":"label.gates","source_group":"LFBE Gates","vsmr_group_ids":[],"geometry_role":"text_label","text-field":"A3"},"geometry":{"type":"Point","coordinates":[0.511934722,44.822869167]}},{"type":"Feature","id":"LFBE-ca142a5be896a84efc31","properties":{"airport":"LFBE","name":"A2","layer":"Labels","category":"Gates","object_type":"Label","style_id":"label.gates","source_group":"LFBE Gates","vsmr_group_ids":[],"geometry_role":"text_label","text-field":"A2"},"geometry":{"type":"Point","coordinates":[0.511916389,44.822748333]}},{"type":"Feature","id":"LFBE-d858191f62ddcd475b03","properties":{"airport":"LFBE","name":"A1","layer":"Labels","category":"Gates","object_type":"Label","style_id":"label.gates","source_group":"LFBE Gates","vsmr_group_ids":[],"geometry_role":"text_label","text-field":"A1"},"geometry":{"type":"Point","coordinates":[0.511921389,44.822606111]}},{"type":"Feature","id":"LFBE-8bbdda713eaf9d902a3e","properties":{"airport":"LFBE","name":"P-Aviation Commerciale","layer":"Labels","category":"Gates","object_type":"Label","style_id":"label.gates","source_group":"LFBE Gates","vsmr_group_ids":[],"geometry_role":"text_label","text-field":"P-Aviation Commerciale"},"geometry":{"type":"Point","coordinates":[0.516277222,44.822349167]}},{"type":"Feature","id":"LFBE-5d21cde56ad90a9b6bea","properties":{"airport":"LFBE","name":"Hangars","layer":"Labels","category":"Gates","object_type":"Label","style_id":"label.gates","source_group":"LFBE Gates","vsmr_group_ids":[],"geometry_role":"text_label","text-field":"Hangars"},"geometry":{"type":"Point","coordinates":[0.512431667,44.822395]}},{"type":"Feature","id":"LFBE-270dbf489f5944d56b17","properties":{"airport":"LFBE","name":"D1","layer":"Labels","category":"Gates","object_type":"Label","style_id":"label.gates","source_group":"LFBE Gates","vsmr_group_ids":[],"geometry_role":"text_label","text-field":"D1"},"geometry":{"type":"Point","coordinates":[0.514467778,44.822688611]}},{"type":"Feature","id":"LFBE-82464bc3e989efce9bd3","properties":{"airport":"LFBE","name":"D2","layer":"Labels","category":"Gates","object_type":"Label","style_id":"label.gates","source_group":"LFBE Gates","vsmr_group_ids":[],"geometry_role":"text_label","text-field":"D2"},"geometry":{"type":"Point","coordinates":[0.515302778,44.822861944]}},{"type":"Feature","id":"LFBE-8f7a0925f821d277ef18","properties":{"airport":"LFBE","name":"D3","layer":"Labels","category":"Gates","object_type":"Label","style_id":"label.gates","source_group":"LFBE Gates","vsmr_group_ids":[],"geometry_role":"text_label","text-field":"D3"},"geometry":{"type":"Point","coordinates":[0.516145,44.822559444]}},{"type":"Feature","id":"LFBE-c7f8f8e6d459f89dcbff","properties":{"airport":"LFBE","name":"D31","layer":"Labels","category":"Gates","object_type":"Label","style_id":"label.gates","source_group":"LFBE Gates","vsmr_group_ids":[],"geometry_role":"text_label","text-field":"D31"},"geometry":{"type":"Point","coordinates":[0.516024444,44.822822222]}},{"type":"Feature","id":"LFBE-9d90c340ac48197b23e8","properties":{"airport":"LFBE","name":"D4","layer":"Labels","category":"Gates","object_type":"Label","style_id":"label.gates","source_group":"LFBE Gates","vsmr_group_ids":[],"geometry_role":"text_label","text-field":"D4"},"geometry":{"type":"Point","coordinates":[0.517145556,44.822753333]}},{"type":"Feature","id":"LFBE-32ec1f376cbf8c026de9","properties":{"airport":"LFBE","name":"A","layer":"Labels","category":"Taxiways","object_type":"Label","style_id":"label.taxiways","source_group":"LFBE Taxiways","vsmr_group_ids":[],"geometry_role":"text_label","text-field":"A"},"geometry":{"type":"Point","coordinates":[0.506888333,44.8240225]}},{"type":"Feature","id":"LFBE-995b49fa59e180264240","properties":{"airport":"LFBE","name":"B","layer":"Labels","category":"Taxiways","object_type":"Label","style_id":"label.taxiways","source_group":"LFBE Taxiways","vsmr_group_ids":[],"geometry_role":"text_label","text-field":"B"},"geometry":{"type":"Point","coordinates":[0.519901389,44.82328]}}]}
