{"type":"FeatureCollection","name":"LFBG AVISO","bbox":[-0.327414444,45.646606667,-0.299533056,45.66637],"metadata":{"schema":"vSMR AVISO","schema_version":2,"geometry_mode":"shared","airport":"LFBG","coordinate_reference_system":"WGS84","coordinate_order":"longitude, latitude","default_color_palette":"dark","color_palettes":["dark","light"],"background_colors":{"dark":"#434A4F","light":"#434A4F"},"runways":[{"ends":["08","26"],"headings":[83,263],"thresholds":[[-0.322546944,45.661985833],[-0.303566944,45.663463889]]},{"ends":["05","23"],"headings":[49,229],"thresholds":[[-0.323027778,45.649213889],[-0.302791944,45.661260833]]}],"saved_active_runways":[],"saved_active_airport_modes":[],"airport_reference":[-0.3175,45.658332778],"feature_count":37,"style_count":8,"layer_counts":{"Guidance lines":6,"Labels":31},"category_counts":{"Apron Surface":1,"Gates":9,"Grass runways":1,"Labels":1,"Runways":1,"TWR-CTR":1,"Taxiways":23},"geometry_source":"local GNG","geometry_source_url":"","geometry_license":"GPL-3.0"},"styles":{"line.runwayconcrete.555555":{"name":"Runways","layer":"Guidance lines","object_type":"Line","paint":{"stroke":"#111318","stroke-opacity":1,"stroke-width":1,"palette-overrides":{"light":{"stroke":"#555555"}}},"feature_count":1},"line.taxiway.c0b631":{"name":"Taxiways","layer":"Guidance lines","object_type":"Line","paint":{"stroke":"#4E5A69","stroke-opacity":1,"stroke-width":1,"palette-overrides":{"light":{"stroke":"#C0B631"}}},"feature_count":1},"line.runwaygrass.008000":{"name":"Grass runways","layer":"Guidance lines","object_type":"Line","paint":{"stroke":"#859A77","stroke-opacity":1,"stroke-width":1,"palette-overrides":{"light":{"stroke":"#008000"}}},"feature_count":1},"line.apronsurface.808080":{"name":"Apron Surface","layer":"Guidance lines","object_type":"Line","paint":{"stroke":"#808080","stroke-opacity":1,"stroke-width":1,"palette-overrides":{"light":{"stroke":"#808080"}}},"feature_count":1},"line.twr-ctr.000000":{"name":"TWR-CTR","layer":"Guidance lines","object_type":"Line","paint":{"stroke":"#000000","stroke-opacity":1,"stroke-width":1,"palette-overrides":{"light":{"stroke":"#000000"}}},"feature_count":1},"line.labels.808080":{"name":"Labels","layer":"Guidance lines","object_type":"Line","paint":{"stroke":"#808080","stroke-opacity":1,"stroke-width":1,"palette-overrides":{"light":{"stroke":"#808080"}}},"feature_count":1},"label.gates":{"name":"Gates","layer":"Labels","object_type":"Label","paint":{"text-color":"#CCCCCC","text-font":"Arial","text-size":12,"text-halo-color":"#000000","text-halo-width":1,"text-anchor":"center","zoomLevel":9},"feature_count":9},"label.taxiways":{"name":"Taxiways","layer":"Labels","object_type":"Label","paint":{"text-color":"#CCCCCC","text-font":"Arial","text-size":12,"text-halo-color":"#000000","text-halo-width":1,"text-anchor":"center","zoomLevel":7},"feature_count":22}},"vsmr_groups":[],"features":[{"type":"Feature","id":"LFBG-03cf09e7041861675cc3","properties":{"airport":"LFBG","name":"P-A 400M","layer":"Labels","category":"Gates","object_type":"Label","style_id":"label.gates","source_group":"LFBG Gates","vsmr_group_ids":[],"geometry_role":"text_label","text-field":"P-A 400M"},"geometry":{"type":"Point","coordinates":[-0.303188333,45.664034722]}},{"type":"Feature","id":"LFBG-a9fc2a493ef006895b26","properties":{"airport":"LFBG","name":"P3","layer":"Labels","category":"Gates","object_type":"Label","style_id":"label.gates","source_group":"LFBG Gates","vsmr_group_ids":[],"geometry_role":"text_label","text-field":"P3"},"geometry":{"type":"Point","coordinates":[-0.316148056,45.664972222]}},{"type":"Feature","id":"LFBG-86331dd2b54e2fdd32fd","properties":{"airport":"LFBG","name":"P2","layer":"Labels","category":"Gates","object_type":"Label","style_id":"label.gates","source_group":"LFBG Gates","vsmr_group_ids":[],"geometry_role":"text_label","text-field":"P2"},"geometry":{"type":"Point","coordinates":[-0.3207225,45.663556944]}},{"type":"Feature","id":"LFBG-5821cde8bc641e9efe9e","properties":{"airport":"LFBG","name":"P1","layer":"Labels","category":"Gates","object_type":"Label","style_id":"label.gates","source_group":"LFBG Gates","vsmr_group_ids":[],"geometry_role":"text_label","text-field":"P1"},"geometry":{"type":"Point","coordinates":[-0.322669167,45.65343]}},{"type":"Feature","id":"LFBG-3f8ee339d60a9dba4bf3","properties":{"airport":"LFBG","name":"P-CIV","layer":"Labels","category":"Gates","object_type":"Label","style_id":"label.gates","source_group":"LFBG Gates","vsmr_group_ids":[],"geometry_role":"text_label","text-field":"P-CIV"},"geometry":{"type":"Point","coordinates":[-0.303217778,45.654671667]}},{"type":"Feature","id":"LFBG-c421e815a1d4438858f1","properties":{"airport":"LFBG","name":"Hangars","layer":"Labels","category":"Gates","object_type":"Label","style_id":"label.gates","source_group":"LFBG Gates","vsmr_group_ids":[],"geometry_role":"text_label","text-field":"Hangars"},"geometry":{"type":"Point","coordinates":[-0.32268,45.656050556]}},{"type":"Feature","id":"LFBG-c2de6e2b1a63e14f96cf","properties":{"airport":"LFBG","name":"Hangars","layer":"Labels","category":"Gates","object_type":"Label","style_id":"label.gates","source_group":"LFBG Gates","vsmr_group_ids":[],"geometry_role":"text_label","text-field":"Hangars"},"geometry":{"type":"Point","coordinates":[-0.323988611,45.653660833]}},{"type":"Feature","id":"LFBG-fcf061776760784dab42","properties":{"airport":"LFBG","name":"Hangar","layer":"Labels","category":"Gates","object_type":"Label","style_id":"label.gates","source_group":"LFBG Gates","vsmr_group_ids":[],"geometry_role":"text_label","text-field":"Hangar"},"geometry":{"type":"Point","coordinates":[-0.305176667,45.654229444]}},{"type":"Feature","id":"LFBG-b3cb79537c828ba1cd3f","properties":{"airport":"LFBG","name":"Espace Militaire","layer":"Labels","category":"Gates","object_type":"Label","style_id":"label.gates","source_group":"LFBG Gates","vsmr_group_ids":[],"geometry_role":"text_label","text-field":"Espace Militaire"},"geometry":{"type":"Point","coordinates":[-0.318047778,45.665850833]}},{"type":"Feature","id":"LFBG-c75670ede94b561f8477","properties":{"airport":"LFBG","name":"LFBG Groundlayout","layer":"Guidance lines","category":"Runways","object_type":"Line","style_id":"line.runwayconcrete.555555","source_group":"LFBG Groundlayout","vsmr_group_ids":[],"geometry_role":"linework"},"geometry":{"type":"MultiLineString","coordinates":[[[-0.317651111,45.662611944],[-0.323546111,45.662168333]],[[-0.323931389,45.662105],[-0.3248375,45.662041389],[-0.32486,45.661661389],[-0.323976389,45.661708889]],[[-0.323523333,45.661740833],[-0.318153889,45.662121111]],[[-0.317588333,45.662136389],[-0.313820556,45.6624175]],[[-0.313097222,45.662497222],[-0.305494722,45.66301]],[[-0.302950833,45.663231111],[-0.302370278,45.663256389]],[[-0.304656667,45.663053611],[-0.304221111,45.663078889]],[[-0.300809444,45.663788889],[-0.300837778,45.663354167]],[[-0.301675,45.6638725],[-0.304213889,45.663695]],[[-0.304801111,45.663633611],[-0.316956944,45.662673056]],[[-0.300951111,45.662604167],[-0.299881389,45.66323],[-0.299533056,45.662864722],[-0.30658,45.658618056]],[[-0.307374167,45.658126667],[-0.306994167,45.658392222]],[[-0.308941389,45.657329722],[-0.323378333,45.648631944]],[[-0.324185278,45.648100833],[-0.326843889,45.646606667],[-0.327223889,45.646872222],[-0.324630556,45.648445]],[[-0.3236525,45.648987778],[-0.316241667,45.653556389]],[[-0.315195556,45.654135],[-0.307005,45.659053889]]]}},{"type":"Feature","id":"LFBG-521490b9946a615ee046","properties":{"airport":"LFBG","name":"LFBG Groundlayout","layer":"Guidance lines","category":"Taxiways","object_type":"Line","style_id":"line.taxiway.c0b631","source_group":"LFBG Groundlayout","vsmr_group_ids":[],"geometry_role":"linework"},"geometry":{"type":"MultiLineString","coordinates":[[[-0.308963333,45.657306389],[-0.308550556,45.657450833],[-0.308378611,45.657390556],[-0.308223889,45.657210278],[-0.308241111,45.657041944],[-0.308344444,45.656813889],[-0.308619444,45.656152778],[-0.30874,45.655840278],[-0.308688333,45.655648056],[-0.30776,45.654578333]],[[-0.313073333,45.662497778],[-0.313178333,45.662468611],[-0.313241111,45.662387778],[-0.313335556,45.662175278],[-0.3133775,45.66197],[-0.314763889,45.657170556],[-0.314652222,45.657014167],[-0.314456389,45.657053333],[-0.314176944,45.65719],[-0.3055125,45.662346667],[-0.305172778,45.662635556],[-0.305083611,45.662801389],[-0.3051725,45.662988333],[-0.305528889,45.662988333]],[[-0.31518,45.6541475],[-0.315447222,45.654085278],[-0.315595556,45.654230556],[-0.315447222,45.654749444],[-0.315150278,45.656036111],[-0.315090833,45.656264444],[-0.3149425,45.656471944],[-0.314645556,45.656658611],[-0.305855556,45.661867778],[-0.305818611,45.661722222],[-0.306879444,45.6593375],[-0.306948056,45.659159722],[-0.3070075,45.659045556]],[[-0.306388889,45.659428889],[-0.306518889,45.659326667],[-0.306681667,45.659338056],[-0.306681667,45.659474444],[-0.305591389,45.661839167],[-0.3054125,45.662009722],[-0.305217222,45.6621575],[-0.30346,45.663169444],[-0.303248333,45.663215],[-0.302939167,45.6632375]],[[-0.3024325,45.663258611],[-0.302026111,45.663265],[-0.3017875,45.663189167],[-0.3015275,45.6630075],[-0.301440833,45.662825556],[-0.301375833,45.662628611],[-0.301462778,45.662325833]],[[-0.300846389,45.663359444],[-0.300938611,45.662613889]],[[-0.316273333,45.653541389],[-0.316062222,45.653838889],[-0.315788889,45.655342222],[-0.315763333,45.6555025],[-0.315890833,45.655627222],[-0.316094722,45.655591667],[-0.316324444,45.655556111],[-0.316528333,45.655395556],[-0.321935556,45.652328611],[-0.325223889,45.650342778],[-0.325358889,45.650154167],[-0.325223889,45.649979444],[-0.324973611,45.649763889],[-0.3240875,45.649063889],[-0.323933333,45.648969722],[-0.323740833,45.648969722],[-0.323606111,45.649023611]],[[-0.319461944,45.656952222],[-0.3185825,45.656952222],[-0.317980833,45.656952222],[-0.317286667,45.656855278],[-0.3165925,45.656628889],[-0.315990833,45.656305556],[-0.316175833,45.656046667],[-0.32321,45.651970278]],[[-0.317459167,45.662129167],[-0.317809722,45.661720556],[-0.318277222,45.660821944],[-0.319913611,45.658288889],[-0.3201475,45.657961944],[-0.319971944,45.657471667],[-0.319643333,45.657195],[-0.317310278,45.657133889],[-0.316114444,45.6570525],[-0.315472778,45.657174722],[-0.315006111,45.657562222],[-0.313781389,45.661985556],[-0.313693889,45.662271111],[-0.313868889,45.662413611]],[[-0.323333056,45.648642222],[-0.323382778,45.648398611],[-0.323233333,45.648085556],[-0.322685833,45.647598333],[-0.322038611,45.647076667],[-0.322386944,45.646833056],[-0.322934444,45.64732],[-0.323631389,45.647876667],[-0.32393,45.648120278],[-0.324178889,45.648015833]],[[-0.324676667,45.648433333],[-0.324477778,45.648641944],[-0.324676944,45.648955],[-0.325174722,45.649129167],[-0.327414444,45.649441944],[-0.327265278,45.64979],[-0.326319444,45.649581111],[-0.326070833,45.649929167],[-0.326170278,45.650346667],[-0.326070833,45.650764167],[-0.325573333,45.651286111],[-0.324528056,45.652051667]],[[-0.324328889,45.651738611],[-0.323632222,45.651773333],[-0.323881111,45.651495],[-0.325175,45.65066],[-0.325523333,45.650764167],[-0.324328889,45.651738611]],[[-0.318207778,45.6620725],[-0.318058333,45.661863889],[-0.318356944,45.661481111],[-0.320795833,45.657514444],[-0.321293611,45.657584167],[-0.3215925,45.658036389],[-0.321940833,45.6586975],[-0.322488611,45.659184444],[-0.322936667,45.65995],[-0.323335278,45.660993611],[-0.323484722,45.661759167]],[[-0.324032222,45.661689444],[-0.323833056,45.661132778],[-0.323534167,45.660436944],[-0.323235556,45.659775833],[-0.322836944,45.659045278],[-0.322189722,45.658419167],[-0.321741667,45.657827778],[-0.321642222,45.657514444]],[[-0.323504444,45.662133889],[-0.323722778,45.662405278],[-0.323868333,45.6626425],[-0.323795556,45.662829167],[-0.323577222,45.663066389],[-0.323310556,45.663236111]],[[-0.323944444,45.662110556],[-0.3239325,45.662201667],[-0.3239325,45.662300833],[-0.323968056,45.662408056],[-0.324027222,45.662507222],[-0.324039167,45.662623056],[-0.324027222,45.662755278],[-0.323956389,45.662871111],[-0.323790833,45.663069444],[-0.323554444,45.663243056],[-0.323353333,45.6634]],[[-0.317615833,45.662603056],[-0.317521667,45.662800556],[-0.317613611,45.663075556],[-0.317731389,45.663090278]],[[-0.316933611,45.662673333],[-0.317035556,45.662837222],[-0.317061111,45.663073056],[-0.316973611,45.663333333],[-0.316667222,45.6635625],[-0.316513889,45.663715556]],[[-0.312978889,45.665823333],[-0.305175833,45.665728056],[-0.304666944,45.665656944],[-0.304395556,45.665443611],[-0.304191944,45.665135278],[-0.304327778,45.664779722],[-0.304531389,45.664376667],[-0.304830278,45.663633889]],[[-0.304183056,45.663691111],[-0.30431,45.663763889],[-0.304425556,45.663876944],[-0.3044025,45.664014167],[-0.304009444,45.665031389],[-0.303986389,45.665144444],[-0.3040325,45.665289722],[-0.304194167,45.665483611],[-0.304390556,45.665604722],[-0.30446,45.665661111],[-0.304101667,45.665653056],[-0.303498333,45.66554],[-0.302985,45.665393333],[-0.302518333,45.66523],[-0.302121667,45.665050833],[-0.301748611,45.664855],[-0.301468611,45.664691944],[-0.301445278,45.66448],[-0.301468611,45.664186389],[-0.301468611,45.663974444],[-0.3016725,45.663865278]],[[-0.300811111,45.663780278],[-0.300839444,45.664039444],[-0.300886944,45.664325556],[-0.300925,45.664525],[-0.301096111,45.664744444],[-0.301371944,45.664917222],[-0.301733611,45.665116667],[-0.302104444,45.665276389],[-0.302705,45.665566944],[-0.303407222,45.665777222],[-0.304209722,45.665941111],[-0.305045833,45.666011111],[-0.313340278,45.666151944]],[[-0.306505278,45.658621111],[-0.306485833,45.658404444],[-0.306369722,45.658120278],[-0.306176111,45.657835833],[-0.305885556,45.657456667],[-0.305575833,45.657186111],[-0.305227222,45.656969444]],[[-0.307010278,45.6583825],[-0.306894444,45.658371111],[-0.306778333,45.658318889],[-0.3066875,45.658238056],[-0.306248889,45.6576075],[-0.306149722,45.657485833],[-0.306000833,45.657347222],[-0.305843611,45.6572025],[-0.305452222,45.656914444]],[[-0.3073475,45.658133611],[-0.308356667,45.6561725],[-0.308468889,45.655885278],[-0.308450278,45.655611389],[-0.308244722,45.655376389],[-0.307703333,45.654828056]]]}},{"type":"Feature","id":"LFBG-85111ee6a9d1930b8674","properties":{"airport":"LFBG","name":"LFBG Groundlayout","layer":"Guidance lines","category":"Grass runways","object_type":"Line","style_id":"line.runwaygrass.008000","source_group":"LFBG Groundlayout","vsmr_group_ids":[],"geometry_role":"linework"},"geometry":{"type":"LineString","coordinates":[[-0.312820556,45.653351389],[-0.319093333,45.649433611],[-0.318219167,45.648786944],[-0.309838333,45.654034167],[-0.310455278,45.654681389],[-0.312820556,45.653351389]]}},{"type":"Feature","id":"LFBG-047d82878e5e393def7c","properties":{"airport":"LFBG","name":"LFBG Groundlayout","layer":"Guidance lines","category":"Apron Surface","object_type":"Line","style_id":"line.apronsurface.808080","source_group":"LFBG Groundlayout","vsmr_group_ids":[],"geometry_role":"linework"},"geometry":{"type":"MultiLineString","coordinates":[[[-0.307761389,45.654586389],[-0.307559722,45.654551111],[-0.307427222,45.65456],[-0.307194167,45.654590833],[-0.306866389,45.654683333],[-0.306727778,45.654736111],[-0.305694167,45.655357222],[-0.305461944,45.655344167],[-0.305278333,45.655275833],[-0.304433611,45.654548333],[-0.303184444,45.655438333],[-0.304225278,45.656165833],[-0.305230556,45.656978889]],[[-0.323307778,45.663232778],[-0.323145556,45.663262222],[-0.318089722,45.663172222],[-0.3179225,45.66314],[-0.31784,45.663114444],[-0.317720833,45.663088889]],[[-0.316512778,45.663708611],[-0.313928611,45.665405833],[-0.3136,45.665635556],[-0.3134175,45.665775833],[-0.313216667,45.665801389],[-0.312968056,45.665821667]],[[-0.323351111,45.663394722],[-0.323014722,45.663485],[-0.322846111,45.6636325],[-0.322740833,45.663750278],[-0.32253,45.663809167],[-0.321981944,45.663809444],[-0.32194,45.664958611],[-0.318250556,45.664870278],[-0.316097222,45.666114722],[-0.315700833,45.666202222],[-0.313336111,45.666153611]],[[-0.319441111,45.656954722],[-0.319769444,45.656906944],[-0.3198925,45.656820833],[-0.320001944,45.656629722],[-0.32103,45.653989167],[-0.321218056,45.653707222],[-0.321540556,45.653444444],[-0.323179444,45.652054167],[-0.323210278,45.651969722]],[[-0.324538333,45.652044444],[-0.324341667,45.652168611],[-0.324393056,45.652330278],[-0.324315833,45.652599722],[-0.323904722,45.652959167],[-0.322208056,45.654253056],[-0.322053889,45.654594722],[-0.321925556,45.655061944],[-0.321668611,45.656283889],[-0.321668611,45.656930833],[-0.3216475,45.657530833]],[[-0.307704722,45.654831944],[-0.307514722,45.654698611],[-0.307177222,45.654749167],[-0.306887778,45.654816389],[-0.306526111,45.655018611],[-0.304934444,45.656063611],[-0.304861944,45.656232222],[-0.304934167,45.656451389],[-0.305078889,45.656603056],[-0.305451389,45.656921389]]]}},{"type":"Feature","id":"LFBG-ae5dece771d0fdb673fa","properties":{"airport":"LFBG","name":"LFBG Groundlayout","layer":"Guidance lines","category":"TWR-CTR","object_type":"Line","style_id":"line.twr-ctr.000000","source_group":"LFBG Groundlayout","vsmr_group_ids":[],"geometry_role":"linework"},"geometry":{"type":"LineString","coordinates":[[-0.318577778,45.658453333],[-0.318593889,45.65805],[-0.318140556,45.658043611],[-0.318131389,45.658444444],[-0.318577778,45.658453333]]}},{"type":"Feature","id":"LFBG-65123c9addbf97c56b20","properties":{"airport":"LFBG","name":"LFBG Groundlayout","layer":"Guidance lines","category":"Labels","object_type":"Line","style_id":"line.labels.808080","source_group":"LFBG Groundlayout","vsmr_group_ids":[],"geometry_role":"linework"},"geometry":{"type":"MultiLineString","coordinates":[[[-0.325151944,45.647710833],[-0.3252525,45.647788611],[-0.325350278,45.647726389],[-0.325273889,45.647665556],[-0.325346389,45.647622222],[-0.325424167,45.647674722],[-0.325446111,45.647660278],[-0.325352778,45.647595833],[-0.32524,45.647668333],[-0.3253075,45.647721944],[-0.325251667,45.647758056],[-0.325174167,45.647699167],[-0.325151944,45.647710833]],[[-0.325621667,45.647765],[-0.325416667,45.647892222],[-0.325318889,45.647817222],[-0.325519167,45.647693333],[-0.325621667,45.647765]],[[-0.325561944,45.647773333],[-0.325427222,45.647858333],[-0.325370556,45.6478175],[-0.325508611,45.647733889],[-0.325561944,45.647773333]],[[-0.300408333,45.662429722],[-0.300456111,45.662401111],[-0.300513056,45.662442778],[-0.300450556,45.662479444],[-0.300311111,45.662510278],[-0.300345556,45.662535833],[-0.300307222,45.662554167],[-0.300256667,45.662510278],[-0.300293056,45.662491944],[-0.300424167,45.662466667],[-0.300465278,45.662448611],[-0.300439722,45.662430278],[-0.300421944,45.662439722],[-0.300408333,45.662429722]],[[-0.300646111,45.662564444],[-0.300706389,45.662615556],[-0.300646111,45.662651667],[-0.300558056,45.662644167],[-0.300564444,45.662690833],[-0.300497778,45.662720833],[-0.300448333,45.662666667],[-0.300478333,45.662651667],[-0.300510556,45.662683333],[-0.300532222,45.662671111],[-0.300532222,45.662621667],[-0.300628889,45.662630556],[-0.300656944,45.662615556],[-0.300616111,45.6625825],[-0.300646111,45.662564444]],[[-0.323323333,45.662085833],[-0.323179722,45.662098889],[-0.323170556,45.662046944],[-0.323309444,45.662034167],[-0.323323333,45.662085833]],[[-0.323288611,45.662074444],[-0.323205278,45.6620825],[-0.323200556,45.66206],[-0.323281667,45.662050278],[-0.323288611,45.662074444]],[[-0.323154444,45.662003333],[-0.323198333,45.662],[-0.323196111,45.6619725],[-0.323151944,45.661975833],[-0.323154444,45.662003333]],[[-0.323222778,45.661994722],[-0.323279722,45.661991111],[-0.323276111,45.66197],[-0.323220833,45.661975],[-0.323222778,45.661994722]],[[-0.323140556,45.662016111],[-0.323299167,45.662001389],[-0.323295,45.661954722],[-0.323134167,45.661966389],[-0.323140556,45.662016111]],[[-0.302386667,45.663359167],[-0.302475278,45.663357778],[-0.302480278,45.663443333],[-0.302313889,45.663450278],[-0.302196389,45.663385278],[-0.302093611,45.663388611],[-0.302098333,45.663457222],[-0.302015,45.663457222],[-0.302010278,45.663361389],[-0.302196389,45.663351111],[-0.302318611,45.6634125],[-0.302401944,45.663412778],[-0.302401944,45.663378333],[-0.302348611,45.663378889],[-0.302347778,45.663358889],[-0.302386667,45.663359167]],[[-0.302153056,45.6636575],[-0.302062222,45.6636575],[-0.302062222,45.663618333],[-0.302155,45.663619722],[-0.302153056,45.6636575]],[[-0.302350278,45.663588889],[-0.3020225,45.663586944],[-0.302017778,45.663674444],[-0.302203333,45.663677778],[-0.302208056,45.663612778],[-0.3024,45.663615833],[-0.302427778,45.66367],[-0.302466389,45.663671944],[-0.302463889,45.663588889],[-0.302350278,45.663588889]]]}},{"type":"Feature","id":"LFBG-4dc90edcd745f2ded953","properties":{"airport":"LFBG","name":"A","layer":"Labels","category":"Taxiways","object_type":"Label","style_id":"label.taxiways","source_group":"LFBG Taxiways","vsmr_group_ids":[],"geometry_role":"text_label","text-field":"A"},"geometry":{"type":"Point","coordinates":[-0.301900833,45.662737778]}},{"type":"Feature","id":"LFBG-d2b4165bcaaade14c254","properties":{"airport":"LFBG","name":"F","layer":"Labels","category":"Taxiways","object_type":"Label","style_id":"label.taxiways","source_group":"LFBG Taxiways","vsmr_group_ids":[],"geometry_role":"text_label","text-field":"F"},"geometry":{"type":"Point","coordinates":[-0.309012778,45.660755833]}},{"type":"Feature","id":"LFBG-d760d4b9903c94dbd783","properties":{"airport":"LFBG","name":"B","layer":"Labels","category":"Taxiways","object_type":"Label","style_id":"label.taxiways","source_group":"LFBG Taxiways","vsmr_group_ids":[],"geometry_role":"text_label","text-field":"B"},"geometry":{"type":"Point","coordinates":[-0.306930278,45.660310556]}},{"type":"Feature","id":"LFBG-8f55e04d196cae62656a","properties":{"airport":"LFBG","name":"R","layer":"Labels","category":"Taxiways","object_type":"Label","style_id":"label.taxiways","source_group":"LFBG Taxiways","vsmr_group_ids":[],"geometry_role":"text_label","text-field":"R"},"geometry":{"type":"Point","coordinates":[-0.306673611,45.657425]}},{"type":"Feature","id":"LFBG-3ff862ee08050023d457","properties":{"airport":"LFBG","name":"Q","layer":"Labels","category":"Taxiways","object_type":"Label","style_id":"label.taxiways","source_group":"LFBG Taxiways","vsmr_group_ids":[],"geometry_role":"text_label","text-field":"Q"},"geometry":{"type":"Point","coordinates":[-0.309028056,45.656271667]}},{"type":"Feature","id":"LFBG-7c93a45165f85843cf2b","properties":{"airport":"LFBG","name":"C","layer":"Labels","category":"Taxiways","object_type":"Label","style_id":"label.taxiways","source_group":"LFBG Taxiways","vsmr_group_ids":[],"geometry_role":"text_label","text-field":"C"},"geometry":{"type":"Point","coordinates":[-0.316640833,45.654460556]}},{"type":"Feature","id":"LFBG-4849e0750bfd793cf777","properties":{"airport":"LFBG","name":"E","layer":"Labels","category":"Taxiways","object_type":"Label","style_id":"label.taxiways","source_group":"LFBG Taxiways","vsmr_group_ids":[],"geometry_role":"text_label","text-field":"E"},"geometry":{"type":"Point","coordinates":[-0.320083611,45.654251667]}},{"type":"Feature","id":"LFBG-81a0b0e55eaf941aec27","properties":{"airport":"LFBG","name":"D","layer":"Labels","category":"Taxiways","object_type":"Label","style_id":"label.taxiways","source_group":"LFBG Taxiways","vsmr_group_ids":[],"geometry_role":"text_label","text-field":"D"},"geometry":{"type":"Point","coordinates":[-0.324304444,45.649704444]}},{"type":"Feature","id":"LFBG-e5c2d22df9c6b5cba8b2","properties":{"airport":"LFBG","name":"H","layer":"Labels","category":"Taxiways","object_type":"Label","style_id":"label.taxiways","source_group":"LFBG Taxiways","vsmr_group_ids":[],"geometry_role":"text_label","text-field":"H"},"geometry":{"type":"Point","coordinates":[-0.318291389,45.657445556]}},{"type":"Feature","id":"LFBG-0cbd8cce0007bd276d53","properties":{"airport":"LFBG","name":"G","layer":"Labels","category":"Taxiways","object_type":"Label","style_id":"label.taxiways","source_group":"LFBG Taxiways","vsmr_group_ids":[],"geometry_role":"text_label","text-field":"G"},"geometry":{"type":"Point","coordinates":[-0.3152025,45.660098333]}},{"type":"Feature","id":"LFBG-1d04c33919b0c82bfb24","properties":{"airport":"LFBG","name":"J","layer":"Labels","category":"Taxiways","object_type":"Label","style_id":"label.taxiways","source_group":"LFBG Taxiways","vsmr_group_ids":[],"geometry_role":"text_label","text-field":"J"},"geometry":{"type":"Point","coordinates":[-0.319776944,45.660399722]}},{"type":"Feature","id":"LFBG-a21e5b4cbe22c8da5385","properties":{"airport":"LFBG","name":"K","layer":"Labels","category":"Taxiways","object_type":"Label","style_id":"label.taxiways","source_group":"LFBG Taxiways","vsmr_group_ids":[],"geometry_role":"text_label","text-field":"K"},"geometry":{"type":"Point","coordinates":[-0.322771667,45.660554444]}},{"type":"Feature","id":"LFBG-565ca6b7b7e5dbbbcaaa","properties":{"airport":"LFBG","name":"M","layer":"Labels","category":"Taxiways","object_type":"Label","style_id":"label.taxiways","source_group":"LFBG Taxiways","vsmr_group_ids":[],"geometry_role":"text_label","text-field":"M"},"geometry":{"type":"Point","coordinates":[-0.31512,45.664173889]}},{"type":"Feature","id":"LFBG-27cb61f0ff034aa74931","properties":{"airport":"LFBG","name":"N","layer":"Labels","category":"Taxiways","object_type":"Label","style_id":"label.taxiways","source_group":"LFBG Taxiways","vsmr_group_ids":[],"geometry_role":"text_label","text-field":"N"},"geometry":{"type":"Point","coordinates":[-0.309118889,45.66637]}},{"type":"Feature","id":"LFBG-917971ac2829260fe2ee","properties":{"airport":"LFBG","name":"P","layer":"Labels","category":"Taxiways","object_type":"Label","style_id":"label.taxiways","source_group":"LFBG Taxiways","vsmr_group_ids":[],"geometry_role":"text_label","text-field":"P"},"geometry":{"type":"Point","coordinates":[-0.305369444,45.664691944]}},{"type":"Feature","id":"LFBG-d51f837a2e36b5666ef7","properties":{"airport":"LFBG","name":"L","layer":"Labels","category":"Taxiways","object_type":"Label","style_id":"label.taxiways","source_group":"LFBG Taxiways","vsmr_group_ids":[],"geometry_role":"text_label","text-field":"L"},"geometry":{"type":"Point","coordinates":[-0.322988056,45.662943056]}},{"type":"Feature","id":"LFBG-00f5f6cd72c210e4e963","properties":{"airport":"LFBG","name":"X","layer":"Labels","category":"Taxiways","object_type":"Label","style_id":"label.taxiways","source_group":"LFBG Taxiways","vsmr_group_ids":[],"geometry_role":"text_label","text-field":"X"},"geometry":{"type":"Point","coordinates":[-0.323509444,45.663217222]}},{"type":"Feature","id":"LFBG-5f7db92d8b4eede05230","properties":{"airport":"LFBG","name":"X","layer":"Labels","category":"Taxiways","object_type":"Label","style_id":"label.taxiways","source_group":"LFBG Taxiways","vsmr_group_ids":[],"geometry_role":"text_label","text-field":"X"},"geometry":{"type":"Point","coordinates":[-0.323668056,45.663085278]}},{"type":"Feature","id":"LFBG-6ef9fd18a5f01a734eac","properties":{"airport":"LFBG","name":"X","layer":"Labels","category":"Taxiways","object_type":"Label","style_id":"label.taxiways","source_group":"LFBG Taxiways","vsmr_group_ids":[],"geometry_role":"text_label","text-field":"X"},"geometry":{"type":"Point","coordinates":[-0.323775833,45.6629775]}},{"type":"Feature","id":"LFBG-5bdae57a12b8f8fa329f","properties":{"airport":"LFBG","name":"X","layer":"Labels","category":"Taxiways","object_type":"Label","style_id":"label.taxiways","source_group":"LFBG Taxiways","vsmr_group_ids":[],"geometry_role":"text_label","text-field":"X"},"geometry":{"type":"Point","coordinates":[-0.32384,45.662237778]}},{"type":"Feature","id":"LFBG-9e8e2c27158bc26b0706","properties":{"airport":"LFBG","name":"X","layer":"Labels","category":"Taxiways","object_type":"Label","style_id":"label.taxiways","source_group":"LFBG Taxiways","vsmr_group_ids":[],"geometry_role":"text_label","text-field":"X"},"geometry":{"type":"Point","coordinates":[-0.323855833,45.662355]}},{"type":"Feature","id":"LFBG-c5bdc274766a15941304","properties":{"airport":"LFBG","name":"X","layer":"Labels","category":"Taxiways","object_type":"Label","style_id":"label.taxiways","source_group":"LFBG Taxiways","vsmr_group_ids":[],"geometry_role":"text_label","text-field":"X"},"geometry":{"type":"Point","coordinates":[-0.323928333,45.662505278]}}]}
