{"type":"FeatureCollection","name":"LFBH AVISO","bbox":[-1.212477222,46.173270556,-1.180936944,46.181788611],"metadata":{"schema":"vSMR AVISO","schema_version":2,"geometry_mode":"shared","airport":"LFBH","coordinate_reference_system":"WGS84","coordinate_order":"longitude, latitude","default_color_palette":"dark","color_palettes":["dark","light"],"background_colors":{"dark":"#434A4F","light":"#434A4F"},"runways":[{"ends":["09","27"],"headings":[92,272],"thresholds":[[-1.206918889,46.179555833],[-1.187863889,46.178993889]]}],"saved_active_runways":[],"saved_active_airport_modes":[],"airport_reference":[-1.195277778,46.179166944],"feature_count":69,"style_count":13,"layer_counts":{"Airfield surfaces":21,"Buildings and structures":19,"Guidance lines":2,"Labels":24,"Surface markings":2,"Terrain":1},"category_counts":{"Buildings":19,"Gates":13,"Grass":1,"Grass runways":1,"Hard Surface 2":2,"Hard Surface 3":6,"Hard Surface 4":6,"Runway Border":1,"Runways":1,"Stopbars":2,"Taxiway Orange":5,"Taxiways":12},"geometry_source":"local GNG","geometry_source_url":"","geometry_license":"GPL-3.0"},"styles":{"polygon.grassurface.00512f":{"name":"Grass","layer":"Terrain","object_type":"Area","paint":{"fill":"#010D19","fill-opacity":1,"palette-overrides":{"light":{"fill":"#00512F"}}},"feature_count":1},"polygon.hardsurface4.969393":{"name":"Hard Surface 4","layer":"Airfield surfaces","object_type":"Area","paint":{"fill":"#152841","fill-opacity":1,"palette-overrides":{"light":{"fill":"#969393"}}},"feature_count":6},"polygon.runwaygrass.008000":{"name":"Grass runways","layer":"Airfield surfaces","object_type":"Area","paint":{"fill":"#859A77","fill-opacity":1,"palette-overrides":{"light":{"fill":"#008000"}}},"feature_count":1},"polygon.hardsurface3.8a807f":{"name":"Hard Surface 3","layer":"Airfield surfaces","object_type":"Area","paint":{"fill":"#222D3C","fill-opacity":1,"palette-overrides":{"light":{"fill":"#8A807F"}}},"feature_count":6},"polygon.hardsurface2.595e5b":{"name":"Hard Surface 2","layer":"Airfield surfaces","object_type":"Area","paint":{"fill":"#2F3949","fill-opacity":1,"palette-overrides":{"light":{"fill":"#595E5B"}}},"feature_count":2},"polygon.runwayconcrete.555555":{"name":"Runways","layer":"Airfield surfaces","object_type":"Area","paint":{"fill":"#111318","fill-opacity":1,"palette-overrides":{"light":{"fill":"#555555"}}},"feature_count":1},"polygon.building.394446":{"name":"Buildings","layer":"Buildings and structures","object_type":"Area","paint":{"fill":"#475570","fill-opacity":1,"palette-overrides":{"light":{"fill":"#394446"}}},"feature_count":19},"polygon.stopbar.7e0000":{"name":"Stopbars","layer":"Surface markings","object_type":"Area","paint":{"fill":"#7E0000","fill-opacity":1,"palette-overrides":{"light":{"fill":"#7E0000"}}},"feature_count":2},"polygon.taxiwayorange.cc6d00":{"name":"Taxiway Orange","layer":"Airfield surfaces","object_type":"Area","paint":{"fill":"#CC8B00","fill-opacity":1,"palette-overrides":{"light":{"fill":"#CC6D00"}}},"feature_count":5},"line.runwayborder.808080":{"name":"Runway Border","layer":"Guidance lines","object_type":"Line","paint":{"stroke":"#808080","stroke-opacity":1,"stroke-width":1,"palette-overrides":{"light":{"stroke":"#808080"}}},"feature_count":1},"line.taxiway.c0b631":{"name":"Taxiways","layer":"Guidance lines","object_type":"Line","paint":{"stroke":"#4E5A69","stroke-opacity":1,"stroke-width":1,"palette-overrides":{"light":{"stroke":"#C0B631"}}},"feature_count":1},"label.gates":{"name":"Gates","layer":"Labels","object_type":"Label","paint":{"text-color":"#CCCCCC","text-font":"Arial","text-size":12,"text-halo-color":"#000000","text-halo-width":1,"text-anchor":"center","zoomLevel":9},"feature_count":13},"label.taxiways":{"name":"Taxiways","layer":"Labels","object_type":"Label","paint":{"text-color":"#CCCCCC","text-font":"Arial","text-size":12,"text-halo-color":"#000000","text-halo-width":1,"text-anchor":"center","zoomLevel":7},"feature_count":11}},"vsmr_groups":[],"features":[{"type":"Feature","id":"LFBH-3d1c3e41f1df124c3115","properties":{"airport":"LFBH","name":"LFBH AVISO","layer":"Terrain","category":"Grass","object_type":"Area","style_id":"polygon.grassurface.00512f","source_group":"LFBH AVISO","vsmr_group_ids":[],"geometry_role":"filled_region"},"geometry":{"type":"Polygon","coordinates":[[[-1.211774167,46.181076389],[-1.211882778,46.180964444],[-1.212003889,46.180813056],[-1.212068611,46.18073],[-1.212139167,46.180623333],[-1.212216944,46.180493333],[-1.212293889,46.180339722],[-1.212358333,46.1802],[-1.212402778,46.180058333],[-1.212445,46.179909167],[-1.212460278,46.179809722],[-1.212477222,46.179706111],[-1.212476389,46.179562778],[-1.212474167,46.179406944],[-1.212458056,46.179249167],[-1.2124375,46.179131389],[-1.212418333,46.179063056],[-1.212375,46.178936944],[-1.212325,46.178799722],[-1.212268889,46.178689167],[-1.212197778,46.17853],[-1.212060556,46.178226944],[-1.211527222,46.178211111],[-1.209639167,46.178156111],[-1.208249444,46.178116389],[-1.205323889,46.178030278],[-1.203345833,46.177971389],[-1.201761667,46.177923889],[-1.200766944,46.177899722],[-1.198466944,46.177826111],[-1.197485278,46.176777222],[-1.197446111,46.176724167],[-1.197405833,46.176607778],[-1.19739,46.176570556],[-1.197356667,46.176528056],[-1.197124444,46.176280278],[-1.197082778,46.176240556],[-1.197033056,46.176211111],[-1.196977222,46.176185833],[-1.196921667,46.176159722],[-1.19688,46.176128056],[-1.196841111,46.176086111],[-1.196229167,46.175447222],[-1.196189444,46.175408333],[-1.196168611,46.175398056],[-1.196141111,46.175393056],[-1.196110278,46.175391389],[-1.196067778,46.175395278],[-1.1960225,46.175407222],[-1.195350833,46.175664167],[-1.195312222,46.175674444],[-1.195266944,46.17568],[-1.195215556,46.175683056],[-1.195147778,46.175684167],[-1.194636944,46.175668056],[-1.193245833,46.175633056],[-1.193195556,46.175630278],[-1.193177778,46.175626944],[-1.193166389,46.175620556],[-1.193164722,46.175610833],[-1.193174167,46.175588889],[-1.193257778,46.1754625],[-1.193751111,46.174770278],[-1.193853889,46.174627778],[-1.193881944,46.174589444],[-1.194089444,46.174352222],[-1.194270833,46.174108611],[-1.194302222,46.174050278],[-1.194323056,46.173992778],[-1.194334444,46.173941667],[-1.194331944,46.173905],[-1.194325556,46.173860556],[-1.194316111,46.173814167],[-1.194298611,46.173773333],[-1.194278056,46.173734167],[-1.194250278,46.173697778],[-1.194208056,46.173662222],[-1.194149167,46.173627222],[-1.194080278,46.173593333],[-1.194012222,46.173565],[-1.193786944,46.173510278],[-1.193649722,46.173480833],[-1.19321,46.173391111],[-1.193092778,46.173361389],[-1.193036944,46.173349444],[-1.192988056,46.173338889],[-1.192934722,46.173334167],[-1.192385278,46.173318889],[-1.1916475,46.1733],[-1.190655,46.173270556],[-1.190603333,46.173273611],[-1.190564167,46.173283056],[-1.190495833,46.173311944],[-1.190098056,46.173632222],[-1.189358333,46.174229444],[-1.188567778,46.174869722],[-1.187946944,46.175355833],[-1.187751389,46.175507222],[-1.187662222,46.175563889],[-1.187497222,46.1756625],[-1.186742778,46.1761125],[-1.186156389,46.176461667],[-1.185643889,46.176763889],[-1.185136111,46.177065278],[-1.184815278,46.177250278],[-1.184156111,46.177395556],[-1.184125,46.177401667],[-1.184093611,46.177403889],[-1.182229167,46.177350833],[-1.181119722,46.177314722],[-1.181071389,46.178123056],[-1.181005278,46.179040833],[-1.1809725,46.1797175],[-1.180944444,46.180043889],[-1.180938889,46.180098333],[-1.180936944,46.180141111],[-1.180938056,46.180163889],[-1.180951389,46.180175556],[-1.181170833,46.1802225],[-1.18118,46.180287222],[-1.200882222,46.180868611],[-1.200526944,46.1813975],[-1.201673333,46.181788611],[-1.202251944,46.180908611],[-1.211660556,46.181190833],[-1.211774167,46.181076389]]]}},{"type":"Feature","id":"LFBH-78782a8f25476c6c1069","properties":{"airport":"LFBH","name":"LFBH AVISO","layer":"Airfield surfaces","category":"Hard Surface 4","object_type":"Area","style_id":"polygon.hardsurface4.969393","source_group":"LFBH AVISO","vsmr_group_ids":[],"geometry_role":"filled_region"},"geometry":{"type":"Polygon","coordinates":[[[-1.195459444,46.176609167],[-1.195451944,46.176608889],[-1.195443333,46.176606944],[-1.195435,46.176601944],[-1.195430833,46.176597778],[-1.195426944,46.176590556],[-1.195421667,46.176568056],[-1.195400278,46.176473333],[-1.195403333,46.176470278],[-1.195408611,46.176468333],[-1.195416944,46.1764675],[-1.195432778,46.176467778],[-1.195456667,46.176468056],[-1.195524444,46.176470556],[-1.195639167,46.176476389],[-1.195649722,46.176476944],[-1.195657222,46.176479167],[-1.195666944,46.176482778],[-1.195669722,46.176478889],[-1.195575833,46.176382778],[-1.195576389,46.176389167],[-1.195575278,46.176393333],[-1.195572778,46.176397222],[-1.195566389,46.176400556],[-1.195554722,46.176402222],[-1.195540833,46.176403056],[-1.195518889,46.176402222],[-1.195481667,46.176401111],[-1.195448611,46.176400278],[-1.1954075,46.176396944],[-1.195391667,46.176393889],[-1.195384722,46.176389444],[-1.195373333,46.176383056],[-1.195361944,46.176379722],[-1.195351944,46.176375833],[-1.195348333,46.176370556],[-1.195348333,46.176363611],[-1.195352222,46.176357222],[-1.195359167,46.176344722],[-1.195364167,46.176326111],[-1.195363611,46.176299444],[-1.195358611,46.17627],[-1.195347222,46.176227778],[-1.195319444,46.176144167],[-1.19527,46.175987778],[-1.195237778,46.175913889],[-1.195160278,46.175858056],[-1.195077222,46.175893611],[-1.195058333,46.175948611],[-1.194019444,46.176086667],[-1.193623889,46.175994722],[-1.193321111,46.175991111],[-1.193316389,46.176085833],[-1.193313333,46.176091111],[-1.193307222,46.176095],[-1.1933,46.176096389],[-1.193164444,46.176094722],[-1.193150556,46.1760925],[-1.193135556,46.176083056],[-1.192753889,46.176021944],[-1.192553333,46.176018333],[-1.192277778,46.176061111],[-1.19206,46.176055278],[-1.1920575,46.176109167],[-1.192054444,46.176113056],[-1.192048056,46.176116111],[-1.1920375,46.176116667],[-1.191833611,46.176111389],[-1.191776944,46.176166389],[-1.194723889,46.1762625],[-1.194795833,46.176303611],[-1.194806667,46.176497778],[-1.194865833,46.176497222],[-1.194868056,46.176429444],[-1.195118333,46.176426389],[-1.195121944,46.176480278],[-1.195300556,46.176478611],[-1.195337778,46.176638611],[-1.195343611,46.176658889],[-1.195344444,46.176669722],[-1.195341389,46.17668],[-1.19547,46.176607778],[-1.195459444,46.176609167]]]}},{"type":"Feature","id":"LFBH-658f1f0d7a8c434a413e","properties":{"airport":"LFBH","name":"LFBH AVISO","layer":"Airfield surfaces","category":"Hard Surface 4","object_type":"Area","style_id":"polygon.hardsurface4.969393","source_group":"LFBH AVISO","vsmr_group_ids":[],"geometry_role":"filled_region"},"geometry":{"type":"Polygon","coordinates":[[[-1.195996944,46.176652222],[-1.195965278,46.176666667],[-1.195992222,46.176695833],[-1.196030278,46.176678889],[-1.196090278,46.176743333],[-1.196136111,46.176722778],[-1.196101111,46.176682778],[-1.196170556,46.176652222],[-1.196089167,46.176568611],[-1.196099167,46.176545556],[-1.195954444,46.176608889],[-1.195996944,46.176652222]]]}},{"type":"Feature","id":"LFBH-2b4dc387ea1203fd847b","properties":{"airport":"LFBH","name":"LFBH AVISO","layer":"Airfield surfaces","category":"Hard Surface 4","object_type":"Area","style_id":"polygon.hardsurface4.969393","source_group":"LFBH AVISO","vsmr_group_ids":[],"geometry_role":"filled_region"},"geometry":{"type":"Polygon","coordinates":[[[-1.19357,46.1740125],[-1.193589167,46.173993611],[-1.193607222,46.1739775],[-1.193627778,46.173961944],[-1.193659167,46.173946111],[-1.193685833,46.173931944],[-1.193695556,46.173925833],[-1.193713056,46.173921944],[-1.193736944,46.173918056],[-1.193758333,46.173916944],[-1.193780278,46.173918056],[-1.193798056,46.173918889],[-1.193828056,46.173879722],[-1.19372,46.173801667],[-1.193603889,46.173763056],[-1.193438889,46.173987222],[-1.193559444,46.174026667],[-1.19357,46.1740125]]]}},{"type":"Feature","id":"LFBH-6c1b8d7bd0906a29b083","properties":{"airport":"LFBH","name":"LFBH AVISO","layer":"Airfield surfaces","category":"Hard Surface 4","object_type":"Area","style_id":"polygon.hardsurface4.969393","source_group":"LFBH AVISO","vsmr_group_ids":[],"geometry_role":"filled_region"},"geometry":{"type":"Polygon","coordinates":[[[-1.192939722,46.174206389],[-1.192898056,46.174232222],[-1.192864722,46.174255278],[-1.192846667,46.174265],[-1.192829722,46.174271389],[-1.192813611,46.174274167],[-1.192795833,46.174275833],[-1.192773889,46.174275556],[-1.192756944,46.174273333],[-1.192738889,46.174268611],[-1.192714167,46.174261111],[-1.192670833,46.174244167],[-1.192621389,46.174221389],[-1.192591111,46.174205556],[-1.192579722,46.174197222],[-1.192574167,46.174187222],[-1.192549167,46.174081667],[-1.192497222,46.174085278],[-1.192510833,46.174159444],[-1.19252,46.174191111],[-1.192525833,46.174205278],[-1.192533056,46.1742175],[-1.192538889,46.174226389],[-1.192543056,46.174230833],[-1.192542778,46.174232778],[-1.192540278,46.174234167],[-1.192536111,46.174234722],[-1.192529444,46.174233333],[-1.192372778,46.174178889],[-1.192205,46.1741225],[-1.192088333,46.174083889],[-1.192048889,46.174069167],[-1.192023889,46.174055278],[-1.192002222,46.174041944],[-1.191982778,46.174027222],[-1.191966389,46.174011944],[-1.191951389,46.173996389],[-1.191936111,46.173975278],[-1.191913889,46.173946667],[-1.191902222,46.173930833],[-1.191894722,46.173920833],[-1.191885833,46.173910278],[-1.1918175,46.173941944],[-1.191821389,46.173948889],[-1.191824722,46.173960278],[-1.191825556,46.173975278],[-1.191822778,46.173988889],[-1.191815278,46.1740025],[-1.191803611,46.1740175],[-1.191791111,46.174029167],[-1.191777778,46.174038333],[-1.191762778,46.174046111],[-1.191740556,46.174055],[-1.191726111,46.174060278],[-1.191707778,46.174065],[-1.191691389,46.1740675],[-1.191638056,46.174067778],[-1.191636389,46.174114722],[-1.191816111,46.174119444],[-1.191907222,46.174121667],[-1.191943889,46.174122778],[-1.191974167,46.174126389],[-1.192000278,46.174131944],[-1.192047222,46.174146111],[-1.192095833,46.174162222],[-1.1922925,46.174229444],[-1.192506667,46.174301667],[-1.192691667,46.174363611],[-1.192765556,46.174388333],[-1.19282,46.174407778],[-1.192975833,46.174183611],[-1.192939722,46.174206389]]]}},{"type":"Feature","id":"LFBH-31f45aeb4094ffff31ba","properties":{"airport":"LFBH","name":"LFBH AVISO","layer":"Airfield surfaces","category":"Hard Surface 4","object_type":"Area","style_id":"polygon.hardsurface4.969393","source_group":"LFBH AVISO","vsmr_group_ids":[],"geometry_role":"filled_region"},"geometry":{"type":"Polygon","coordinates":[[[-1.191440833,46.174069444],[-1.191402222,46.174066944],[-1.191374444,46.174063889],[-1.191345556,46.174058611],[-1.191324444,46.174053889],[-1.191302778,46.174046111],[-1.191283333,46.174036667],[-1.191267778,46.174026667],[-1.191257222,46.174017222],[-1.191242778,46.174002222],[-1.191235,46.173993056],[-1.191230556,46.173981389],[-1.1912275,46.173969722],[-1.191227222,46.173956944],[-1.19123,46.173942222],[-1.191236111,46.173927222],[-1.191246944,46.1739125],[-1.191262222,46.173900833],[-1.191280833,46.17389],[-1.191304167,46.173878889],[-1.191327778,46.173870833],[-1.191348056,46.173865278],[-1.191371944,46.173863056],[-1.191401389,46.173860833],[-1.191439444,46.173860278],[-1.191601667,46.173865833],[-1.19163,46.173868056],[-1.191669722,46.173871667],[-1.191694444,46.173874722],[-1.191716944,46.173877778],[-1.191739444,46.173884167],[-1.191763889,46.173893611],[-1.191779444,46.173903056],[-1.191792778,46.173913611],[-1.191801944,46.1739225],[-1.191811111,46.173933056],[-1.191818889,46.173944444],[-1.1918875,46.173911944],[-1.191871389,46.173894444],[-1.191848333,46.173875],[-1.191830833,46.173863611],[-1.191814722,46.173855278],[-1.191791111,46.173845556],[-1.191768056,46.173838056],[-1.191747222,46.173833333],[-1.191718056,46.173828056],[-1.191692778,46.173824722],[-1.191660833,46.1738225],[-1.191634444,46.173821389],[-1.1916375,46.173816667],[-1.191637222,46.173811944],[-1.191633333,46.173808056],[-1.191626389,46.173805556],[-1.191547222,46.173802222],[-1.191325,46.173804722],[-1.191313889,46.173810278],[-1.1912575,46.173811389],[-1.1912575,46.173820556],[-1.191245,46.173825278],[-1.191225,46.173833056],[-1.191201389,46.173846667],[-1.191180278,46.173864722],[-1.191162778,46.173882778],[-1.191152222,46.173901111],[-1.1911425,46.173918611],[-1.191136944,46.173935833],[-1.191135278,46.173951111],[-1.191136389,46.173967778],[-1.191141389,46.1739875],[-1.191146944,46.174005556],[-1.191160833,46.174023611],[-1.191177222,46.174041944],[-1.191194722,46.174055556],[-1.191220833,46.17407],[-1.191248611,46.174080833],[-1.191278889,46.174090556],[-1.191311111,46.174097222],[-1.191346944,46.174103056],[-1.191391667,46.174106667],[-1.191444722,46.17411],[-1.191498333,46.174112222],[-1.191639444,46.174114722],[-1.191639444,46.1740675],[-1.191598056,46.1740675],[-1.191593333,46.174070278],[-1.191440833,46.174069444]]]}},{"type":"Feature","id":"LFBH-6d58e1ecefa66804bf0c","properties":{"airport":"LFBH","name":"LFBH AVISO","layer":"Airfield surfaces","category":"Hard Surface 4","object_type":"Area","style_id":"polygon.hardsurface4.969393","source_group":"LFBH AVISO","vsmr_group_ids":[],"geometry_role":"filled_region"},"geometry":{"type":"Polygon","coordinates":[[[-1.210994444,46.179882778],[-1.211020278,46.17948],[-1.210474444,46.179465],[-1.210449167,46.179865833],[-1.210994444,46.179882778]]]}},{"type":"Feature","id":"LFBH-d8be8fd28fa9400a28d4","properties":{"airport":"LFBH","name":"LFBH AVISO","layer":"Airfield surfaces","category":"Grass runways","object_type":"Area","style_id":"polygon.runwaygrass.008000","source_group":"LFBH AVISO","vsmr_group_ids":[],"geometry_role":"filled_region"},"geometry":{"type":"Polygon","coordinates":[[[-1.195618889,46.177601389],[-1.197029167,46.177657778],[-1.197121111,46.177606389],[-1.197128333,46.177495],[-1.19711,46.177466111],[-1.196472778,46.176760833],[-1.195896111,46.177010556],[-1.195861389,46.177058889],[-1.195843889,46.17708],[-1.195831389,46.177092222],[-1.195813056,46.177100556],[-1.195784167,46.177109167],[-1.195758333,46.177112778],[-1.195733333,46.177113889],[-1.195643611,46.177111944],[-1.195620556,46.177485556],[-1.195619722,46.177555278],[-1.195618889,46.177601389]]]}},{"type":"Feature","id":"LFBH-f38021ce8530695435b7","properties":{"airport":"LFBH","name":"LFBH AVISO","layer":"Airfield surfaces","category":"Hard Surface 3","object_type":"Area","style_id":"polygon.hardsurface3.8a807f","source_group":"LFBH AVISO","vsmr_group_ids":[],"geometry_role":"filled_region"},"geometry":{"type":"Polygon","coordinates":[[[-1.190144167,46.173760833],[-1.190127222,46.174060556],[-1.191036667,46.174094722],[-1.191051667,46.173785],[-1.190144167,46.173760833]]]}},{"type":"Feature","id":"LFBH-c82211248d45a6debb2b","properties":{"airport":"LFBH","name":"LFBH AVISO","layer":"Airfield surfaces","category":"Hard Surface 3","object_type":"Area","style_id":"polygon.hardsurface3.8a807f","source_group":"LFBH AVISO","vsmr_group_ids":[],"geometry_role":"filled_region"},"geometry":{"type":"Polygon","coordinates":[[[-1.194908889,46.176713889],[-1.194884722,46.176698889],[-1.194868889,46.1766875],[-1.194843889,46.176671111],[-1.1948275,46.176655],[-1.1948175,46.176640833],[-1.194813333,46.176628056],[-1.194811111,46.176610278],[-1.194814722,46.176498611],[-1.194828056,46.176299444],[-1.194815,46.1762875],[-1.194793889,46.176276667],[-1.1947725,46.176267778],[-1.1947475,46.176258056],[-1.194730556,46.176251667],[-1.194679722,46.176249722],[-1.191798056,46.176161111],[-1.191841111,46.176111389],[-1.191803333,46.176110556],[-1.191777222,46.176109444],[-1.191757778,46.176108056],[-1.191740556,46.176105556],[-1.191726389,46.176101944],[-1.191719167,46.176098333],[-1.191717222,46.176093889],[-1.1917175,46.176088889],[-1.191729167,46.176069167],[-1.192165833,46.175462222],[-1.192174722,46.175451944],[-1.192181944,46.175445833],[-1.192188333,46.17544],[-1.192191944,46.175438889],[-1.192196389,46.175438611],[-1.192598056,46.175571111],[-1.193520278,46.174274722],[-1.193113056,46.174130833],[-1.193124167,46.174118889],[-1.193134722,46.174107222],[-1.193148611,46.174094722],[-1.193163333,46.174084444],[-1.193175556,46.174079167],[-1.193181389,46.174076111],[-1.193223611,46.174088611],[-1.193273333,46.174105278],[-1.193337778,46.174125556],[-1.193425,46.174154722],[-1.193488889,46.174176389],[-1.193555,46.174200278],[-1.193662222,46.174059444],[-1.193375,46.173963056],[-1.193346389,46.174004444],[-1.193306667,46.173998333],[-1.1932725,46.173993889],[-1.193240556,46.173993333],[-1.193213889,46.173996667],[-1.193184722,46.174003889],[-1.193159167,46.1740125],[-1.193138611,46.174021389],[-1.193126111,46.174029167],[-1.193118889,46.174033611],[-1.193111111,46.174035],[-1.193104167,46.174033889],[-1.193101389,46.174031667],[-1.193100278,46.174029444],[-1.193100833,46.174025833],[-1.193107222,46.173968056],[-1.19311,46.173956389],[-1.193113889,46.173946389],[-1.193120556,46.173937778],[-1.193128889,46.173928889],[-1.193138889,46.173922778],[-1.193149722,46.173919444],[-1.193162222,46.173917778],[-1.193271111,46.173918056],[-1.193275,46.173799444],[-1.19287,46.173786111],[-1.192865,46.173905278],[-1.1929675,46.173906389],[-1.1929825,46.1739075],[-1.192994722,46.173910278],[-1.193006389,46.173914722],[-1.193015278,46.173920833],[-1.193023889,46.173928889],[-1.193031944,46.173938611],[-1.193035278,46.173946944],[-1.193035556,46.173961111],[-1.193027222,46.174048333],[-1.193025278,46.174071111],[-1.193025,46.174084722],[-1.193025278,46.174094167],[-1.193026111,46.174103333],[-1.193025,46.174111111],[-1.193021667,46.174119167],[-1.192978889,46.174176389],[-1.191578889,46.176148333],[-1.191353333,46.176453333],[-1.191305556,46.176521944],[-1.191281389,46.176567222],[-1.191266389,46.176604444],[-1.191258333,46.176641667],[-1.191258333,46.176670833],[-1.191263611,46.176700556],[-1.191272222,46.176731667],[-1.191285,46.176758611],[-1.191302222,46.1767875],[-1.191325278,46.176816944],[-1.191341944,46.176836944],[-1.191364722,46.176856111],[-1.1913875,46.176871667],[-1.191412222,46.176884167],[-1.19145,46.176900556],[-1.191486111,46.176914444],[-1.191512778,46.176922222],[-1.191547222,46.176931389],[-1.1915975,46.176938056],[-1.191650556,46.176940833],[-1.192376944,46.176963611],[-1.192410278,46.176651389],[-1.194928611,46.176723889],[-1.194908889,46.176713889]]]}},{"type":"Feature","id":"LFBH-5c1574a7e8c75687ff05","properties":{"airport":"LFBH","name":"LFBH AVISO","layer":"Airfield surfaces","category":"Hard Surface 3","object_type":"Area","style_id":"polygon.hardsurface3.8a807f","source_group":"LFBH AVISO","vsmr_group_ids":[],"geometry_role":"filled_region"},"geometry":{"type":"Polygon","coordinates":[[[-1.192526389,46.173807778],[-1.192163611,46.173794167],[-1.1921575,46.173662222],[-1.192063889,46.173661389],[-1.192048611,46.173948611],[-1.192049167,46.173961389],[-1.192051944,46.173971111],[-1.19206,46.173983889],[-1.192069167,46.173996111],[-1.192080556,46.174005278],[-1.192094167,46.174014167],[-1.192110278,46.174021667],[-1.192128611,46.1740275],[-1.192144444,46.174030556],[-1.192161111,46.174031111],[-1.192159722,46.174080278],[-1.192549722,46.174089167],[-1.192566667,46.173854167],[-1.192575556,46.173853611],[-1.192585,46.173853056],[-1.192596944,46.173850278],[-1.192605833,46.173846389],[-1.192611111,46.173841111],[-1.192616667,46.173832222],[-1.192620833,46.173783611],[-1.192524167,46.173779167],[-1.192526389,46.173807778]]]}},{"type":"Feature","id":"LFBH-b74add8709fbfe1a6cd6","properties":{"airport":"LFBH","name":"LFBH AVISO","layer":"Airfield surfaces","category":"Hard Surface 3","object_type":"Area","style_id":"polygon.hardsurface3.8a807f","source_group":"LFBH AVISO","vsmr_group_ids":[],"geometry_role":"filled_region"},"geometry":{"type":"Polygon","coordinates":[[[-1.195521667,46.176749444],[-1.195533333,46.176741944],[-1.195550278,46.176733333],[-1.195596111,46.176709167],[-1.195748333,46.176634444],[-1.195881667,46.176565278],[-1.195889722,46.176565556],[-1.195894722,46.1765675],[-1.195945,46.176614722],[-1.196183611,46.176510278],[-1.196200833,46.176507222],[-1.196215556,46.176507778],[-1.196230556,46.176510278],[-1.196247778,46.176515833],[-1.196267222,46.176525278],[-1.196289167,46.176541389],[-1.196316667,46.176566111],[-1.196348056,46.176604444],[-1.196352778,46.176613889],[-1.196351944,46.176622778],[-1.196349722,46.176631667],[-1.196463611,46.1766975],[-1.196476111,46.176699722],[-1.196487778,46.176706389],[-1.196507222,46.176719444],[-1.196529167,46.176737778],[-1.196558611,46.176767222],[-1.197186944,46.177476667],[-1.197308889,46.177609167],[-1.197315556,46.177616111],[-1.197323611,46.177619167],[-1.197333611,46.17762],[-1.197344167,46.177618056],[-1.197354722,46.177614167],[-1.197679167,46.177457778],[-1.197575,46.177347222],[-1.197358333,46.177108611],[-1.197289722,46.177035833],[-1.197017222,46.176731944],[-1.196928889,46.176648889],[-1.196757222,46.176459167],[-1.196733333,46.176431389],[-1.196646389,46.176419167],[-1.196592778,46.176355278],[-1.1964625,46.176403333],[-1.196446667,46.176406389],[-1.196427778,46.176408333],[-1.196413333,46.176407222],[-1.196396111,46.176402222],[-1.196373889,46.176395278],[-1.196353889,46.176388056],[-1.196336111,46.176380278],[-1.195708056,46.175743056],[-1.195488611,46.175840278],[-1.195478333,46.175841389],[-1.195470556,46.175841111],[-1.1954625,46.175838056],[-1.195453889,46.175831944],[-1.1954175,46.175796667],[-1.195374444,46.175810833],[-1.195415556,46.175865],[-1.195288056,46.175918333],[-1.195185556,46.175850556],[-1.195154167,46.175860833],[-1.195174444,46.175876389],[-1.195197222,46.175895556],[-1.195216111,46.175913889],[-1.195235,46.175937778],[-1.195246389,46.175959444],[-1.195253333,46.175979444],[-1.195256667,46.176000556],[-1.195256389,46.176019444],[-1.195254444,46.176036944],[-1.195250833,46.176054722],[-1.195242222,46.176074444],[-1.195227222,46.176099167],[-1.195206944,46.176120833],[-1.195261111,46.176152778],[-1.195328056,46.176144722],[-1.195348611,46.176144722],[-1.195363889,46.176147222],[-1.195378611,46.176153056],[-1.195390833,46.176159167],[-1.195400556,46.176168056],[-1.195415556,46.176188611],[-1.195446944,46.176229722],[-1.195578889,46.176388056],[-1.195664722,46.176478333],[-1.195663611,46.176485556],[-1.195658889,46.176493333],[-1.195650833,46.176502778],[-1.195639722,46.176513611],[-1.195623333,46.176524722],[-1.195564722,46.176557778],[-1.195468333,46.1766075],[-1.195340278,46.176678333],[-1.195509722,46.176759722],[-1.195521667,46.176749444]]]}},{"type":"Feature","id":"LFBH-9d049b61a351903984c4","properties":{"airport":"LFBH","name":"LFBH AVISO","layer":"Airfield surfaces","category":"Hard Surface 3","object_type":"Area","style_id":"polygon.hardsurface3.8a807f","source_group":"LFBH AVISO","vsmr_group_ids":[],"geometry_role":"filled_region"},"geometry":{"type":"Polygon","coordinates":[[[-1.195709444,46.177014722],[-1.196125833,46.176830278],[-1.196140278,46.176846389],[-1.196251111,46.176798333],[-1.196235833,46.176781944],[-1.196312778,46.176746389],[-1.196360556,46.176726389],[-1.196391667,46.176712778],[-1.196415278,46.176704722],[-1.196433889,46.176701667],[-1.196451389,46.176697778],[-1.196465278,46.1766975],[-1.196350556,46.176630833],[-1.196345556,46.17664],[-1.196338611,46.176648611],[-1.196328611,46.176655278],[-1.19631,46.176663611],[-1.196251111,46.176681667],[-1.196200556,46.1766975],[-1.196166944,46.1767075],[-1.196135278,46.17672],[-1.196057222,46.176754722],[-1.196045833,46.176763889],[-1.195991389,46.176798056],[-1.195956944,46.176819722],[-1.195938056,46.176831389],[-1.19592,46.176837778],[-1.195900556,46.176841389],[-1.19588,46.176842778],[-1.195860278,46.176841667],[-1.195833889,46.176838611],[-1.195808611,46.176831944],[-1.195788611,46.176822222],[-1.195773333,46.176810278],[-1.195761111,46.176798889],[-1.195752778,46.176786944],[-1.195749167,46.176774444],[-1.195745,46.176756111],[-1.195745,46.176710556],[-1.195749722,46.176657778],[-1.195751111,46.176642222],[-1.195753333,46.176633611],[-1.195755556,46.176626944],[-1.195653889,46.1766775],[-1.195651944,46.17671],[-1.195649167,46.176752222],[-1.195654444,46.176782222],[-1.195659722,46.176803333],[-1.195669444,46.176820556],[-1.195679444,46.176836389],[-1.195693611,46.176851944],[-1.195709444,46.176863889],[-1.195725556,46.176873333],[-1.195741389,46.176880833],[-1.195759444,46.176888889],[-1.195774444,46.176894722],[-1.195777778,46.176897222],[-1.195778056,46.176899722],[-1.195776389,46.176903333],[-1.195772222,46.176907222],[-1.195657778,46.176957222],[-1.195709444,46.177014722]]]}},{"type":"Feature","id":"LFBH-7969471431fec64a0a1b","properties":{"airport":"LFBH","name":"LFBH AVISO","layer":"Airfield surfaces","category":"Hard Surface 3","object_type":"Area","style_id":"polygon.hardsurface3.8a807f","source_group":"LFBH AVISO","vsmr_group_ids":[],"geometry_role":"filled_region"},"geometry":{"type":"Polygon","coordinates":[[[-1.190196389,46.174215],[-1.190185,46.174226667],[-1.190177778,46.174239167],[-1.190187778,46.174274444],[-1.190224722,46.174293333],[-1.190285556,46.174296389],[-1.190305833,46.17429],[-1.190330556,46.174252222],[-1.190321944,46.17422],[-1.190287222,46.174196111],[-1.190229722,46.174194444],[-1.190211944,46.174203889],[-1.190196389,46.174215]]]}},{"type":"Feature","id":"LFBH-9f98c787a76baae240e8","properties":{"airport":"LFBH","name":"LFBH AVISO","layer":"Airfield surfaces","category":"Hard Surface 2","object_type":"Area","style_id":"polygon.hardsurface2.595e5b","source_group":"LFBH AVISO","vsmr_group_ids":[],"geometry_role":"filled_region"},"geometry":{"type":"Polygon","coordinates":[[[-1.195406667,46.177772778],[-1.195421667,46.177586111],[-1.1954325,46.177576111],[-1.195446111,46.177566111],[-1.195460833,46.177557778],[-1.195474444,46.177554722],[-1.1954925,46.177553611],[-1.195620278,46.177555833],[-1.195621667,46.177485278],[-1.195525,46.177482778],[-1.195507222,46.1774825],[-1.195492222,46.177480556],[-1.195479444,46.177476667],[-1.195464444,46.17747],[-1.195452222,46.177461389],[-1.195441389,46.177451667],[-1.195435,46.177443333],[-1.195430556,46.177433056],[-1.195428333,46.177419722],[-1.195440833,46.177242222],[-1.195445278,46.177231111],[-1.195453889,46.177221111],[-1.1954625,46.177213889],[-1.195475,46.177207222],[-1.195488333,46.177202222],[-1.195503611,46.177200278],[-1.19552,46.177198611],[-1.19564,46.177199722],[-1.195644167,46.177126111],[-1.1955025,46.177124722],[-1.195478333,46.177115556],[-1.195711389,46.177013889],[-1.195658889,46.176956667],[-1.195511389,46.177021667],[-1.195469722,46.17704],[-1.195453889,46.177046111],[-1.195462222,46.176928056],[-1.195463889,46.176880278],[-1.195468611,46.176845],[-1.195473611,46.1768225],[-1.195479167,46.176804722],[-1.195486389,46.176789444],[-1.195494444,46.176775],[-1.195503056,46.176765833],[-1.19551,46.176759167],[-1.195341389,46.1766775],[-1.195319722,46.1766925],[-1.195295556,46.176708889],[-1.195270833,46.176723889],[-1.195241944,46.176737222],[-1.195210556,46.176747778],[-1.195171944,46.176755],[-1.195133333,46.176759722],[-1.195095,46.176760833],[-1.195059444,46.176759444],[-1.195027222,46.176755278],[-1.194993333,46.1767475],[-1.194963611,46.176737778],[-1.194938056,46.176727778],[-1.194927778,46.176723056],[-1.192402222,46.176645556],[-1.192375833,46.176963889],[-1.194696389,46.177036111],[-1.194791944,46.177041111],[-1.194833889,46.177043889],[-1.194868889,46.177048333],[-1.194891389,46.177054444],[-1.194927778,46.177067222],[-1.194966111,46.177082222],[-1.194995556,46.177096111],[-1.1950225,46.177113611],[-1.195044167,46.177131389],[-1.195067222,46.177150278],[-1.195087222,46.177168889],[-1.195105278,46.177189167],[-1.195121944,46.177216111],[-1.195134444,46.177242222],[-1.195138889,46.177272778],[-1.195142222,46.177369722],[-1.19514,46.177436667],[-1.195112222,46.177848611],[-1.1954025,46.177858889],[-1.195406667,46.177772778]]]}},{"type":"Feature","id":"LFBH-533f2770795f8803a24e","properties":{"airport":"LFBH","name":"LFBH AVISO","layer":"Airfield surfaces","category":"Hard Surface 2","object_type":"Area","style_id":"polygon.hardsurface2.595e5b","source_group":"LFBH AVISO","vsmr_group_ids":[],"geometry_role":"filled_region"},"geometry":{"type":"Polygon","coordinates":[[[-1.191925556,46.174273611],[-1.191864167,46.174263611],[-1.191800556,46.174262222],[-1.191245278,46.174250833],[-1.191194722,46.174241111],[-1.191153889,46.174228333],[-1.191119444,46.1742075],[-1.190940278,46.1740875],[-1.190126667,46.17406],[-1.190115278,46.174131944],[-1.190231389,46.174134444],[-1.19023,46.174194722],[-1.190287222,46.174195556],[-1.19029,46.174139167],[-1.190855,46.174156667],[-1.190904444,46.174164722],[-1.190946667,46.174188056],[-1.191003333,46.174219444],[-1.191101944,46.174282778],[-1.191166944,46.174304444],[-1.191235556,46.174315278],[-1.191852778,46.174336944],[-1.191899167,46.174337778],[-1.191935833,46.1743475],[-1.1924825,46.174550833],[-1.192538333,46.174571389],[-1.192571389,46.174606389],[-1.192585556,46.174658611],[-1.192587222,46.17469],[-1.192578611,46.174735],[-1.192722222,46.174535278],[-1.191989167,46.174289167],[-1.191925556,46.174273611]]]}},{"type":"Feature","id":"LFBH-678c404c3be8c3a37fb5","properties":{"airport":"LFBH","name":"LFBH AVISO","layer":"Airfield surfaces","category":"Runways","object_type":"Area","style_id":"polygon.runwayconcrete.555555","source_group":"LFBH AVISO","vsmr_group_ids":[],"geometry_role":"filled_region"},"geometry":{"type":"Polygon","coordinates":[[[-1.210476667,46.179465],[-1.209506667,46.179437222],[-1.209493611,46.179418889],[-1.209480833,46.1793975],[-1.209463611,46.179376111],[-1.209445278,46.179351111],[-1.209424444,46.179328056],[-1.209395556,46.179303611],[-1.209359444,46.179281389],[-1.209321389,46.179260278],[-1.209277778,46.179243333],[-1.209229444,46.179229167],[-1.209184722,46.179221111],[-1.209139167,46.1792175],[-1.209089167,46.179217778],[-1.209039444,46.179223889],[-1.208993611,46.179233611],[-1.20895,46.179246111],[-1.208911389,46.179263056],[-1.208876944,46.1792875],[-1.208841111,46.179316667],[-1.208808889,46.179345278],[-1.208779167,46.179369722],[-1.208751389,46.179392778],[-1.208730833,46.179406944],[-1.208717778,46.179413333],[-1.208708333,46.179416111],[-1.1957075,46.179030833],[-1.195645,46.179023889],[-1.1956,46.1790125],[-1.195553333,46.178999167],[-1.195513889,46.178981944],[-1.19548,46.178963611],[-1.1954475,46.178939167],[-1.1954175,46.1789125],[-1.195392222,46.178882222],[-1.195373889,46.1788525],[-1.195361389,46.1788275],[-1.195352778,46.178804167],[-1.195347778,46.1787825],[-1.195346389,46.178758611],[-1.1954025,46.177856944],[-1.195112222,46.1778475],[-1.195066667,46.178651111],[-1.195060833,46.178721667],[-1.195054444,46.178765278],[-1.195046667,46.178797778],[-1.195034722,46.178823611],[-1.19502,46.178846944],[-1.195000833,46.178870278],[-1.194978333,46.1788925],[-1.194946111,46.178917222],[-1.194913056,46.178940556],[-1.194889444,46.178955],[-1.194858889,46.178969167],[-1.194828056,46.178980833],[-1.194798333,46.178988611],[-1.194771944,46.178993056],[-1.194743611,46.178996667],[-1.194697778,46.178999167],[-1.182728889,46.178647778],[-1.182713333,46.178646944],[-1.182699444,46.178643333],[-1.182684167,46.178636667],[-1.1826325,46.178610556],[-1.182566667,46.178573333],[-1.1824925,46.178515278],[-1.1824675,46.178496389],[-1.182444167,46.178481389],[-1.182413611,46.178465278],[-1.182384167,46.178453333],[-1.182352778,46.178443611],[-1.182318611,46.178435556],[-1.182275556,46.178430556],[-1.182232222,46.178427222],[-1.182185278,46.178426111],[-1.182141389,46.178427778],[-1.182100556,46.178433056],[-1.182059444,46.178443056],[-1.182014444,46.178457778],[-1.181978056,46.178474722],[-1.181944167,46.178491944],[-1.181913889,46.178510556],[-1.181890833,46.17853],[-1.181868333,46.178554167],[-1.181847778,46.178575278],[-1.181834722,46.178594167],[-1.181824167,46.178621389],[-1.181818056,46.178651944],[-1.181814444,46.178678889],[-1.18179,46.179018611],[-1.210450278,46.179865833],[-1.210476667,46.179465]]]}},{"type":"Feature","id":"LFBH-8898f215a7519f33d610","properties":{"airport":"LFBH","name":"LFBH AVISO","layer":"Buildings and structures","category":"Buildings","object_type":"Area","style_id":"polygon.building.394446","source_group":"LFBH AVISO","vsmr_group_ids":[],"geometry_role":"filled_region"},"geometry":{"type":"Polygon","coordinates":[[[-1.197944167,46.177650833],[-1.198121944,46.177571667],[-1.198009444,46.177445556],[-1.197990278,46.177453056],[-1.197940278,46.177399444],[-1.197991944,46.177376389],[-1.197956111,46.177335],[-1.197758889,46.177418611],[-1.197776389,46.177440833],[-1.197729444,46.177463889],[-1.197747778,46.177486389],[-1.1977175,46.177500833],[-1.197768889,46.177557222],[-1.197830833,46.177529722],[-1.197944167,46.177650833]]]}},{"type":"Feature","id":"LFBH-f538e089ee4e8a010aca","properties":{"airport":"LFBH","name":"LFBH AVISO","layer":"Buildings and structures","category":"Buildings","object_type":"Area","style_id":"polygon.building.394446","source_group":"LFBH AVISO","vsmr_group_ids":[],"geometry_role":"filled_region"},"geometry":{"type":"Polygon","coordinates":[[[-1.197630833,46.177326944],[-1.1976225,46.177318889],[-1.197733333,46.177270833],[-1.197515556,46.177034444],[-1.19735,46.1771075],[-1.197573056,46.177354167],[-1.197630833,46.177326944]]]}},{"type":"Feature","id":"LFBH-cc8d2b3039d1582761d1","properties":{"airport":"LFBH","name":"LFBH AVISO","layer":"Buildings and structures","category":"Buildings","object_type":"Area","style_id":"polygon.building.394446","source_group":"LFBH AVISO","vsmr_group_ids":[],"geometry_role":"filled_region"},"geometry":{"type":"Polygon","coordinates":[[[-1.197463333,46.176965278],[-1.197456944,46.176956667],[-1.197516667,46.176929722],[-1.197408333,46.176815278],[-1.197355556,46.176838889],[-1.197184722,46.176656944],[-1.197008611,46.176732778],[-1.197286944,46.177041667],[-1.197463333,46.176965278]]]}},{"type":"Feature","id":"LFBH-052470a6e4fdacd487d9","properties":{"airport":"LFBH","name":"LFBH AVISO","layer":"Buildings and structures","category":"Buildings","object_type":"Area","style_id":"polygon.building.394446","source_group":"LFBH AVISO","vsmr_group_ids":[],"geometry_role":"filled_region"},"geometry":{"type":"Polygon","coordinates":[[[-1.197262222,46.176575],[-1.197029444,46.176334444],[-1.1970125,46.176342778],[-1.196992778,46.176322778],[-1.196829167,46.176396389],[-1.1967825,46.176346111],[-1.196815833,46.176331111],[-1.1967775,46.176289444],[-1.196646389,46.1763475],[-1.196683611,46.176389167],[-1.196715556,46.176375556],[-1.196763611,46.176424722],[-1.196747778,46.176432222],[-1.196763611,46.176451667],[-1.196748611,46.176458056],[-1.196929722,46.176655278],[-1.196991944,46.176628056],[-1.1970375,46.176673611],[-1.197262222,46.176575]]]}},{"type":"Feature","id":"LFBH-a13dcc8440013543a6b9","properties":{"airport":"LFBH","name":"LFBH AVISO","layer":"Buildings and structures","category":"Buildings","object_type":"Area","style_id":"polygon.building.394446","source_group":"LFBH AVISO","vsmr_group_ids":[],"geometry_role":"filled_region"},"geometry":{"type":"Polygon","coordinates":[[[-1.195611944,46.175660278],[-1.196110833,46.176194444],[-1.196598056,46.175975],[-1.196347222,46.175705556],[-1.196127222,46.175804722],[-1.195874167,46.175539167],[-1.195611944,46.175660278]]]}},{"type":"Feature","id":"LFBH-17c1793727abf46895c4","properties":{"airport":"LFBH","name":"LFBH AVISO","layer":"Buildings and structures","category":"Buildings","object_type":"Area","style_id":"polygon.building.394446","source_group":"LFBH AVISO","vsmr_group_ids":[],"geometry_role":"filled_region"},"geometry":{"type":"Polygon","coordinates":[[[-1.1962825,46.1761775],[-1.196414444,46.176317222],[-1.196511111,46.1762725],[-1.196380278,46.1761325],[-1.1962825,46.1761775]]]}},{"type":"Feature","id":"LFBH-edc62120966936119da8","properties":{"airport":"LFBH","name":"LFBH AVISO","layer":"Buildings and structures","category":"Buildings","object_type":"Area","style_id":"polygon.building.394446","source_group":"LFBH AVISO","vsmr_group_ids":[],"geometry_role":"filled_region"},"geometry":{"type":"Polygon","coordinates":[[[-1.195119722,46.17594],[-1.194604167,46.175924444],[-1.194608333,46.175835278],[-1.19414,46.1758225],[-1.194143889,46.175679167],[-1.194096111,46.1756775],[-1.194096944,46.175668056],[-1.194010833,46.175666111],[-1.194010556,46.175687222],[-1.1940175,46.1756875],[-1.194008611,46.1758725],[-1.194061944,46.175873889],[-1.194056944,46.175943333],[-1.194051667,46.175943056],[-1.194050833,46.175953611],[-1.194006111,46.175952222],[-1.194006111,46.175942222],[-1.193615556,46.175932778],[-1.193604444,46.176125833],[-1.194048333,46.17614],[-1.194791111,46.176166389],[-1.194792222,46.176146944],[-1.194953889,46.1761525],[-1.194958611,46.176084167],[-1.195112222,46.176087778],[-1.195119722,46.17594]]]}},{"type":"Feature","id":"LFBH-0473fd19a14e01cd96f2","properties":{"airport":"LFBH","name":"LFBH AVISO","layer":"Buildings and structures","category":"Buildings","object_type":"Area","style_id":"polygon.building.394446","source_group":"LFBH AVISO","vsmr_group_ids":[],"geometry_role":"filled_region"},"geometry":{"type":"Polygon","coordinates":[[[-1.193155,46.175958056],[-1.193002222,46.175955833],[-1.1930025,46.17598],[-1.192748333,46.175975278],[-1.1927425,46.176080278],[-1.193148333,46.176093889],[-1.193155,46.175958056]]]}},{"type":"Feature","id":"LFBH-9b691a4a0dd081809e92","properties":{"airport":"LFBH","name":"LFBH AVISO","layer":"Buildings and structures","category":"Buildings","object_type":"Area","style_id":"polygon.building.394446","source_group":"LFBH AVISO","vsmr_group_ids":[],"geometry_role":"filled_region"},"geometry":{"type":"Polygon","coordinates":[[[-1.192271944,46.176068611],[-1.192415556,46.176070833],[-1.192415278,46.176061389],[-1.192455556,46.176061944],[-1.192456111,46.176075],[-1.192576389,46.1760775],[-1.192581111,46.175988056],[-1.192277222,46.175981389],[-1.192271944,46.176068611]]]}},{"type":"Feature","id":"LFBH-1bfd583f83e95e50386c","properties":{"airport":"LFBH","name":"LFBH AVISO","layer":"Buildings and structures","category":"Buildings","object_type":"Area","style_id":"polygon.building.394446","source_group":"LFBH AVISO","vsmr_group_ids":[],"geometry_role":"filled_region"},"geometry":{"type":"Polygon","coordinates":[[[-1.192946944,46.175062778],[-1.192598333,46.175555556],[-1.192831667,46.175636667],[-1.193183056,46.175144722],[-1.192946944,46.175062778]]]}},{"type":"Feature","id":"LFBH-0f4dd2f1c34762a4f217","properties":{"airport":"LFBH","name":"LFBH AVISO","layer":"Buildings and structures","category":"Buildings","object_type":"Area","style_id":"polygon.building.394446","source_group":"LFBH AVISO","vsmr_group_ids":[],"geometry_role":"filled_region"},"geometry":{"type":"Polygon","coordinates":[[[-1.193120556,46.174818889],[-1.192983611,46.175012778],[-1.193218056,46.175095],[-1.193357222,46.174898611],[-1.193120556,46.174818889]]]}},{"type":"Feature","id":"LFBH-fdbd950a7242ea2ccaa2","properties":{"airport":"LFBH","name":"LFBH AVISO","layer":"Buildings and structures","category":"Buildings","object_type":"Area","style_id":"polygon.building.394446","source_group":"LFBH AVISO","vsmr_group_ids":[],"geometry_role":"filled_region"},"geometry":{"type":"Polygon","coordinates":[[[-1.19314,46.174790556],[-1.193375,46.1748725],[-1.193514167,46.174675278],[-1.193278611,46.174595833],[-1.19314,46.174790556]]]}},{"type":"Feature","id":"LFBH-3bf4169170d1baba509b","properties":{"airport":"LFBH","name":"LFBH AVISO","layer":"Buildings and structures","category":"Buildings","object_type":"Area","style_id":"polygon.building.394446","source_group":"LFBH AVISO","vsmr_group_ids":[],"geometry_role":"filled_region"},"geometry":{"type":"Polygon","coordinates":[[[-1.193549444,46.174233056],[-1.193311944,46.174548889],[-1.193547222,46.174629722],[-1.193782778,46.174315278],[-1.193549444,46.174233056]]]}},{"type":"Feature","id":"LFBH-96a6a9f910a7e24893b7","properties":{"airport":"LFBH","name":"LFBH AVISO","layer":"Buildings and structures","category":"Buildings","object_type":"Area","style_id":"polygon.building.394446","source_group":"LFBH AVISO","vsmr_group_ids":[],"geometry_role":"filled_region"},"geometry":{"type":"Polygon","coordinates":[[[-1.193546944,46.174205833],[-1.1938125,46.174296111],[-1.193883889,46.174198333],[-1.193965,46.174225278],[-1.194003889,46.174171944],[-1.193653056,46.174054167],[-1.193546944,46.174205833]]]}},{"type":"Feature","id":"LFBH-2fc2f64d48411e2eaf4b","properties":{"airport":"LFBH","name":"LFBH AVISO","layer":"Buildings and structures","category":"Buildings","object_type":"Area","style_id":"polygon.building.394446","source_group":"LFBH AVISO","vsmr_group_ids":[],"geometry_role":"filled_region"},"geometry":{"type":"Polygon","coordinates":[[[-1.193768889,46.173898611],[-1.193742778,46.173936667],[-1.193768889,46.173945833],[-1.193746111,46.173977222],[-1.193997778,46.174065278],[-1.194045833,46.173996389],[-1.193768889,46.173898611]]]}},{"type":"Feature","id":"LFBH-555f3983b1861d0e452a","properties":{"airport":"LFBH","name":"LFBH AVISO","layer":"Buildings and structures","category":"Buildings","object_type":"Area","style_id":"polygon.building.394446","source_group":"LFBH AVISO","vsmr_group_ids":[],"geometry_role":"filled_region"},"geometry":{"type":"Polygon","coordinates":[[[-1.192862778,46.173788889],[-1.193326389,46.173806389],[-1.193339167,46.173626389],[-1.193263611,46.173625278],[-1.193265,46.173591944],[-1.1928725,46.173578333],[-1.192862778,46.173788889]]]}},{"type":"Feature","id":"LFBH-da6d5aa6f6bbb8c9df92","properties":{"airport":"LFBH","name":"LFBH AVISO","layer":"Buildings and structures","category":"Buildings","object_type":"Area","style_id":"polygon.building.394446","source_group":"LFBH AVISO","vsmr_group_ids":[],"geometry_role":"filled_region"},"geometry":{"type":"Polygon","coordinates":[[[-1.192681667,46.173538056],[-1.192570278,46.173534722],[-1.192570556,46.173540556],[-1.192522222,46.173539444],[-1.192520833,46.173564444],[-1.192153611,46.173557222],[-1.192147222,46.173821389],[-1.192542778,46.173833056],[-1.192545556,46.173786944],[-1.192668889,46.173789167],[-1.192681667,46.173538056]]]}},{"type":"Feature","id":"LFBH-43027183ea7e17f7f292","properties":{"airport":"LFBH","name":"LFBH AVISO","layer":"Buildings and structures","category":"Buildings","object_type":"Area","style_id":"polygon.building.394446","source_group":"LFBH AVISO","vsmr_group_ids":[],"geometry_role":"filled_region"},"geometry":{"type":"Polygon","coordinates":[[[-1.191378889,46.17365],[-1.191384444,46.173796944],[-1.191314167,46.173797778],[-1.191314167,46.173814722],[-1.191555833,46.173815278],[-1.191563611,46.173651667],[-1.191378889,46.17365]]]}},{"type":"Feature","id":"LFBH-33700ad177670ef77dfc","properties":{"airport":"LFBH","name":"LFBH AVISO","layer":"Buildings and structures","category":"Buildings","object_type":"Area","style_id":"polygon.building.394446","source_group":"LFBH AVISO","vsmr_group_ids":[],"geometry_role":"filled_region"},"geometry":{"type":"Polygon","coordinates":[[[-1.191051667,46.173782778],[-1.191062778,46.17361],[-1.190751111,46.173596944],[-1.190752778,46.173541667],[-1.190346111,46.1735275],[-1.190150556,46.173682778],[-1.190145833,46.1737575],[-1.191051667,46.173782778]]]}},{"type":"Feature","id":"LFBH-29a6b8f9f0e375f8ea8b","properties":{"airport":"LFBH","name":"LFBH AVISO","layer":"Surface markings","category":"Stopbars","object_type":"Area","style_id":"polygon.stopbar.7e0000","source_group":"LFBH AVISO","vsmr_group_ids":[],"geometry_role":"filled_region"},"geometry":{"type":"Polygon","coordinates":[[[-1.195403056,46.177851667],[-1.195112222,46.177843611],[-1.195111111,46.177864444],[-1.195401944,46.177871111],[-1.195403056,46.177851667]]]}},{"type":"Feature","id":"LFBH-07f2088110d766881440","properties":{"airport":"LFBH","name":"LFBH AVISO","layer":"Surface markings","category":"Stopbars","object_type":"Area","style_id":"polygon.stopbar.7e0000","source_group":"LFBH AVISO","vsmr_group_ids":[],"geometry_role":"filled_region"},"geometry":{"type":"Polygon","coordinates":[[[-1.188785,46.176883333],[-1.188501944,46.176883333],[-1.188505278,46.176901944],[-1.188781389,46.176904167],[-1.188785,46.176883333]]]}},{"type":"Feature","id":"LFBH-cd7e94b0dcd01a38ec33","properties":{"airport":"LFBH","name":"LFBH AVISO","layer":"Airfield surfaces","category":"Taxiway Orange","object_type":"Area","style_id":"polygon.taxiwayorange.cc6d00","source_group":"LFBH AVISO","vsmr_group_ids":[],"geometry_role":"filled_region"},"geometry":{"type":"Polygon","coordinates":[[[-1.195613056,46.177485],[-1.195608333,46.177555833],[-1.195621389,46.177555833],[-1.195625278,46.177485],[-1.195613056,46.177485]]]}},{"type":"Feature","id":"LFBH-f4424da7e8b42f9be60e","properties":{"airport":"LFBH","name":"LFBH AVISO","layer":"Airfield surfaces","category":"Taxiway Orange","object_type":"Area","style_id":"polygon.taxiwayorange.cc6d00","source_group":"LFBH AVISO","vsmr_group_ids":[],"geometry_role":"filled_region"},"geometry":{"type":"Polygon","coordinates":[[[-1.195631111,46.1772],[-1.195640278,46.1772],[-1.195644722,46.177125833],[-1.1956375,46.177125833],[-1.195631111,46.1772]]]}},{"type":"Feature","id":"LFBH-e5357efce27362deb480","properties":{"airport":"LFBH","name":"LFBH AVISO","layer":"Airfield surfaces","category":"Taxiway Orange","object_type":"Area","style_id":"polygon.taxiwayorange.cc6d00","source_group":"LFBH AVISO","vsmr_group_ids":[],"geometry_role":"filled_region"},"geometry":{"type":"Polygon","coordinates":[[[-1.195661111,46.176955556],[-1.195650556,46.17696],[-1.195704444,46.177017222],[-1.195714167,46.177012778],[-1.195661111,46.176955556]]]}},{"type":"Feature","id":"LFBH-d381ae19a90c82d4855e","properties":{"airport":"LFBH","name":"LFBH AVISO","layer":"Airfield surfaces","category":"Taxiway Orange","object_type":"Area","style_id":"polygon.taxiwayorange.cc6d00","source_group":"LFBH AVISO","vsmr_group_ids":[],"geometry_role":"filled_region"},"geometry":{"type":"Polygon","coordinates":[[[-1.195340278,46.176677778],[-1.195333889,46.1766825],[-1.195505,46.176764444],[-1.195508333,46.176761389],[-1.195511667,46.176758333],[-1.195342222,46.176676111],[-1.195340278,46.176677778]]]}},{"type":"Feature","id":"LFBH-cb7c97b9cd0b853ab5a1","properties":{"airport":"LFBH","name":"LFBH AVISO","layer":"Airfield surfaces","category":"Taxiway Orange","object_type":"Area","style_id":"polygon.taxiwayorange.cc6d00","source_group":"LFBH AVISO","vsmr_group_ids":[],"geometry_role":"filled_region"},"geometry":{"type":"Polygon","coordinates":[[[-1.193747222,46.176798611],[-1.193738056,46.176798611],[-1.193731944,46.177006389],[-1.193738611,46.177006667],[-1.193747222,46.176798611]]]}},{"type":"Feature","id":"LFBH-2ef58b6055cdc750f2d8","properties":{"airport":"LFBH","name":"F1","layer":"Labels","category":"Gates","object_type":"Label","style_id":"label.gates","source_group":"LFBH Gates","vsmr_group_ids":[],"geometry_role":"text_label","text-field":"F1"},"geometry":{"type":"Point","coordinates":[-1.194460556,46.176615833]}},{"type":"Feature","id":"LFBH-25d5cde1160a82fb5345","properties":{"airport":"LFBH","name":"F2","layer":"Labels","category":"Gates","object_type":"Label","style_id":"label.gates","source_group":"LFBH Gates","vsmr_group_ids":[],"geometry_role":"text_label","text-field":"F2"},"geometry":{"type":"Point","coordinates":[-1.193703889,46.176590278]}},{"type":"Feature","id":"LFBH-d66e3ddc2f6abe9208b0","properties":{"airport":"LFBH","name":"F3","layer":"Labels","category":"Gates","object_type":"Label","style_id":"label.gates","source_group":"LFBH Gates","vsmr_group_ids":[],"geometry_role":"text_label","text-field":"F3"},"geometry":{"type":"Point","coordinates":[-1.192931667,46.176575]}},{"type":"Feature","id":"LFBH-a2787b9c7e8ab9ad4138","properties":{"airport":"LFBH","name":"F4","layer":"Labels","category":"Gates","object_type":"Label","style_id":"label.gates","source_group":"LFBH Gates","vsmr_group_ids":[],"geometry_role":"text_label","text-field":"F4"},"geometry":{"type":"Point","coordinates":[-1.192206389,46.176564722]}},{"type":"Feature","id":"LFBH-b6a5fab182ec9fd7e6f6","properties":{"airport":"LFBH","name":"GOLF","layer":"Labels","category":"Gates","object_type":"Label","style_id":"label.gates","source_group":"LFBH Gates","vsmr_group_ids":[],"geometry_role":"text_label","text-field":"GOLF"},"geometry":{"type":"Point","coordinates":[-1.196379444,46.177306667]}},{"type":"Feature","id":"LFBH-5c6f4dcacd6440005e09","properties":{"airport":"LFBH","name":"Terminal","layer":"Labels","category":"Gates","object_type":"Label","style_id":"label.gates","source_group":"LFBH Gates","vsmr_group_ids":[],"geometry_role":"text_label","text-field":"Terminal"},"geometry":{"type":"Point","coordinates":[-1.194391111,46.176046111]}},{"type":"Feature","id":"LFBH-15602130e6249b9a4789","properties":{"airport":"LFBH","name":"TWR","layer":"Labels","category":"Gates","object_type":"Label","style_id":"label.gates","source_group":"LFBH Gates","vsmr_group_ids":[],"geometry_role":"text_label","text-field":"TWR"},"geometry":{"type":"Point","coordinates":[-1.192438056,46.176021389]}},{"type":"Feature","id":"LFBH-b377194d4b69f90d779b","properties":{"airport":"LFBH","name":"Securite","layer":"Labels","category":"Gates","object_type":"Label","style_id":"label.gates","source_group":"LFBH Gates","vsmr_group_ids":[],"geometry_role":"text_label","text-field":"Securite"},"geometry":{"type":"Point","coordinates":[-1.192409167,46.173745833]}},{"type":"Feature","id":"LFBH-996cbd4f072afdfd8128","properties":{"airport":"LFBH","name":"Civile","layer":"Labels","category":"Gates","object_type":"Label","style_id":"label.gates","source_group":"LFBH Gates","vsmr_group_ids":[],"geometry_role":"text_label","text-field":"Civile"},"geometry":{"type":"Point","coordinates":[-1.192409167,46.173668889]}},{"type":"Feature","id":"LFBH-c4251ea9958f5e2b3f81","properties":{"airport":"LFBH","name":"HELIBERTE","layer":"Labels","category":"Gates","object_type":"Label","style_id":"label.gates","source_group":"LFBH Gates","vsmr_group_ids":[],"geometry_role":"text_label","text-field":"HELIBERTE"},"geometry":{"type":"Point","coordinates":[-1.193280556,46.174513889]}},{"type":"Feature","id":"LFBH-a98560b9d114decbc965","properties":{"airport":"LFBH","name":"STAR","layer":"Labels","category":"Gates","object_type":"Label","style_id":"label.gates","source_group":"LFBH Gates","vsmr_group_ids":[],"geometry_role":"text_label","text-field":"STAR"},"geometry":{"type":"Point","coordinates":[-1.190897222,46.173925]}},{"type":"Feature","id":"LFBH-8cb33217e07ec1058a05","properties":{"airport":"LFBH","name":"STAR1","layer":"Labels","category":"Gates","object_type":"Label","style_id":"label.gates","source_group":"LFBH Gates","vsmr_group_ids":[],"geometry_role":"text_label","text-field":"STAR1"},"geometry":{"type":"Point","coordinates":[-1.190172222,46.174316667]}},{"type":"Feature","id":"LFBH-db954e3fb1aecf45a0af","properties":{"airport":"LFBH","name":"STAR2","layer":"Labels","category":"Gates","object_type":"Label","style_id":"label.gates","source_group":"LFBH Gates","vsmr_group_ids":[],"geometry_role":"text_label","text-field":"STAR2"},"geometry":{"type":"Point","coordinates":[-1.190172222,46.173991667]}},{"type":"Feature","id":"LFBH-95b3c0f1299f23ad5bff","properties":{"airport":"LFBH","name":"LFBH Groundlayout AVISO","layer":"Guidance lines","category":"Runway Border","object_type":"Line","style_id":"line.runwayborder.808080","source_group":"LFBH Groundlayout AVISO","vsmr_group_ids":[],"geometry_role":"linework"},"geometry":{"type":"MultiLineString","coordinates":[[[-1.182496389,46.178841111],[-1.182755556,46.178848056]],[[-1.182754444,46.178863611],[-1.182881667,46.178851944],[-1.182755833,46.178833056]],[[-1.183271389,46.178864167],[-1.183529722,46.178871667]],[[-1.183529444,46.178886389],[-1.183656944,46.178875278],[-1.183530278,46.178856111]],[[-1.184049722,46.178885833],[-1.184304722,46.178893611]],[[-1.184305833,46.178907778],[-1.184432222,46.1788975],[-1.184308056,46.178878611]],[[-1.184824167,46.178908611],[-1.185081389,46.178916667]],[[-1.185083056,46.178931389],[-1.185214167,46.178920556],[-1.185085278,46.178901389]],[[-1.185602222,46.178932222],[-1.185859444,46.178939722]],[[-1.185859444,46.178954444],[-1.185991667,46.178944444],[-1.185862778,46.178923889]],[[-1.186380278,46.178955278],[-1.186637778,46.178963056]],[[-1.186637222,46.178977778],[-1.186764444,46.178966111],[-1.186638056,46.178947222]],[[-1.187155278,46.178978333],[-1.187411944,46.178985833]],[[-1.187411389,46.179000833],[-1.187541389,46.17899],[-1.187414167,46.178970278]],[[-1.187864722,46.178798611],[-1.187840278,46.1791975]],[[-1.209941667,46.17965],[-1.2096825,46.179642778]],[[-1.209683333,46.1796575],[-1.209553611,46.179638889],[-1.209685,46.179626944]],[[-1.209165,46.179626944],[-1.208905833,46.179619722]],[[-1.208905556,46.179635],[-1.208789167,46.179616111],[-1.2089075,46.179604167]],[[-1.208389444,46.179604167],[-1.208128889,46.179596944]],[[-1.208128056,46.179612222],[-1.208005556,46.179593056],[-1.208130833,46.179581667]],[[-1.207613056,46.179581389],[-1.207353611,46.179573889]],[[-1.207351667,46.179588889],[-1.207234444,46.179570278],[-1.207353333,46.1795575]],[[-1.206924167,46.179363333],[-1.206901111,46.179760833]]]}},{"type":"Feature","id":"LFBH-c64a71dd43260b071734","properties":{"airport":"LFBH","name":"LFBH Groundlayout AVISO","layer":"Guidance lines","category":"Taxiways","object_type":"Line","style_id":"line.taxiway.c0b631","source_group":"LFBH Groundlayout AVISO","vsmr_group_ids":[],"geometry_role":"linework"},"geometry":{"type":"MultiLineString","coordinates":[[[-1.194803889,46.176776944],[-1.194356944,46.176427222]],[[-1.194045833,46.176753056],[-1.193596389,46.176406389]],[[-1.193281944,46.17673],[-1.192829722,46.176381667]],[[-1.192525556,46.176706667],[-1.192074444,46.176358056]],[[-1.188571389,46.178792222],[-1.18862,46.176888333],[-1.192277222,46.174184444]],[[-1.192838333,46.174373333],[-1.192277222,46.174184444],[-1.193031944,46.174000278]],[[-1.1935125,46.173891389],[-1.193105556,46.173983889]],[[-1.193228889,46.17439],[-1.193242222,46.174398889],[-1.193254444,46.174401944],[-1.193268611,46.1744025],[-1.193285556,46.174398889],[-1.193298056,46.174391389],[-1.193305278,46.174381389],[-1.193308333,46.174369722],[-1.193305278,46.1743575],[-1.193295278,46.174347778],[-1.193276944,46.174340278],[-1.193252222,46.174339444],[-1.193233333,46.174346389],[-1.1932225,46.174355833],[-1.193218611,46.174367778],[-1.193220833,46.174378611],[-1.193228889,46.17439]],[[-1.190270278,46.173991111],[-1.190291944,46.173988056],[-1.190305278,46.173981944],[-1.190314722,46.173971667],[-1.190317778,46.17396],[-1.190314722,46.173946389],[-1.190305278,46.173934722],[-1.190283333,46.1739275],[-1.190261667,46.1739275],[-1.190241389,46.173937778],[-1.190230556,46.173948611],[-1.1902275,46.173962222],[-1.190234444,46.173974444],[-1.1902475,46.173985833],[-1.190270278,46.173991111]],[[-1.1902125,46.174253889],[-1.190220833,46.174266389],[-1.190235,46.174273611],[-1.190253056,46.1742775],[-1.190271667,46.174274444],[-1.190285833,46.174270278],[-1.190294722,46.174261944],[-1.190299167,46.174251111],[-1.190300556,46.17424],[-1.190292778,46.174228611],[-1.190279444,46.174219444],[-1.190261944,46.174215],[-1.190243889,46.174216111],[-1.190225833,46.174222222],[-1.190215556,46.174229722],[-1.190210556,46.174240556],[-1.1902125,46.174253889]]]}},{"type":"Feature","id":"LFBH-7bb013b7f552c85f71f5","properties":{"airport":"LFBH","name":"09","layer":"Labels","category":"Taxiways","object_type":"Label","style_id":"label.taxiways","source_group":"LFBH Taxiways","vsmr_group_ids":[],"geometry_role":"text_label","text-field":"09"},"geometry":{"type":"Point","coordinates":[-1.206554167,46.179534722]}},{"type":"Feature","id":"LFBH-3654ea94a7ee0b53448d","properties":{"airport":"LFBH","name":"27","layer":"Labels","category":"Taxiways","object_type":"Label","style_id":"label.taxiways","source_group":"LFBH Taxiways","vsmr_group_ids":[],"geometry_role":"text_label","text-field":"27"},"geometry":{"type":"Point","coordinates":[-1.188356944,46.179015]}},{"type":"Feature","id":"LFBH-c4e308ac4f94de5efd08","properties":{"airport":"LFBH","name":"A","layer":"Labels","category":"Taxiways","object_type":"Label","style_id":"label.taxiways","source_group":"LFBH Taxiways","vsmr_group_ids":[],"geometry_role":"text_label","text-field":"A"},"geometry":{"type":"Point","coordinates":[-1.195254722,46.178245556]}},{"type":"Feature","id":"LFBH-c924e6ce4bc79ad8d5fc","properties":{"airport":"LFBH","name":"B","layer":"Labels","category":"Taxiways","object_type":"Label","style_id":"label.taxiways","source_group":"LFBH Taxiways","vsmr_group_ids":[],"geometry_role":"text_label","text-field":"B"},"geometry":{"type":"Point","coordinates":[-1.195640278,46.177007778]}},{"type":"Feature","id":"LFBH-9135d45672a4358f5b56","properties":{"airport":"LFBH","name":"C","layer":"Labels","category":"Taxiways","object_type":"Label","style_id":"label.taxiways","source_group":"LFBH Taxiways","vsmr_group_ids":[],"geometry_role":"text_label","text-field":"C"},"geometry":{"type":"Point","coordinates":[-1.193738889,46.177058056]}},{"type":"Feature","id":"LFBH-082eca9a2d2eb1011b7c","properties":{"airport":"LFBH","name":"D","layer":"Labels","category":"Taxiways","object_type":"Label","style_id":"label.taxiways","source_group":"LFBH Taxiways","vsmr_group_ids":[],"geometry_role":"text_label","text-field":"D"},"geometry":{"type":"Point","coordinates":[-1.19539,46.176759722]}},{"type":"Feature","id":"LFBH-15dee051778159e748bf","properties":{"airport":"LFBH","name":"G","layer":"Labels","category":"Taxiways","object_type":"Label","style_id":"label.taxiways","source_group":"LFBH Taxiways","vsmr_group_ids":[],"geometry_role":"text_label","text-field":"G"},"geometry":{"type":"Point","coordinates":[-1.195731111,46.177156944]}},{"type":"Feature","id":"LFBH-b9330ac529c9bd6d0967","properties":{"airport":"LFBH","name":"G1","layer":"Labels","category":"Taxiways","object_type":"Label","style_id":"label.taxiways","source_group":"LFBH Taxiways","vsmr_group_ids":[],"geometry_role":"text_label","text-field":"G1"},"geometry":{"type":"Point","coordinates":[-1.195702778,46.177520556]}},{"type":"Feature","id":"LFBH-bcaf2aa151045c87083b","properties":{"airport":"LFBH","name":"X","layer":"Labels","category":"Taxiways","object_type":"Label","style_id":"label.taxiways","source_group":"LFBH Taxiways","vsmr_group_ids":[],"geometry_role":"text_label","text-field":"X"},"geometry":{"type":"Point","coordinates":[-1.195371667,46.1765575]}},{"type":"Feature","id":"LFBH-a6828a14eb323676ac38","properties":{"airport":"LFBH","name":"X","layer":"Labels","category":"Taxiways","object_type":"Label","style_id":"label.taxiways","source_group":"LFBH Taxiways","vsmr_group_ids":[],"geometry_role":"text_label","text-field":"X"},"geometry":{"type":"Point","coordinates":[-1.195525,46.176436667]}},{"type":"Feature","id":"LFBH-6eb4d0bbcae1c748e58c","properties":{"airport":"LFBH","name":"X","layer":"Labels","category":"Taxiways","object_type":"Label","style_id":"label.taxiways","source_group":"LFBH Taxiways","vsmr_group_ids":[],"geometry_role":"text_label","text-field":"X"},"geometry":{"type":"Point","coordinates":[-1.195264167,46.176232222]}}]}
