{"type":"FeatureCollection","name":"LFBI AVISO","bbox":[0.295849167,46.577397222,0.319915278,46.601091944],"metadata":{"schema":"vSMR AVISO","schema_version":2,"geometry_mode":"shared","airport":"LFBI","coordinate_reference_system":"WGS84","coordinate_order":"longitude, latitude","default_color_palette":"dark","color_palettes":["dark","light"],"background_colors":{"dark":"#434A4F","light":"#434A4F"},"runways":[{"ends":["03R","21L"],"headings":[29,209],"thresholds":[[0.304027778,46.581563889],[0.307046944,46.585088889]]},{"ends":["03L","21R"],"headings":[29,209],"thresholds":[[0.300302778,46.582482778],[0.308857778,46.592466944]]},{"ends":["03","21"],"headings":[29,209],"thresholds":[[0.300116944,46.579618889],[0.315760833,46.597857778]]}],"saved_active_runways":[],"saved_active_airport_modes":[],"airport_reference":[0.306666944,46.587499722],"feature_count":75,"style_count":13,"layer_counts":{"Airfield surfaces":12,"Buildings and structures":15,"Guidance lines":3,"Labels":42,"Surface markings":2,"Terrain":1},"category_counts":{"Buildings":15,"Gates":29,"Grass":1,"Grass runways":3,"Hard Surface 2":2,"Hard Surface 3":3,"Hard Surface 4":3,"Runway Border":1,"Runways":1,"Stopbars":2,"Taxiway Orange":1,"Taxiways":14},"geometry_source":"local GNG","geometry_source_url":"","geometry_license":"GPL-3.0"},"styles":{"polygon.grassurface.00512f":{"name":"Grass","layer":"Terrain","object_type":"Area","paint":{"fill":"#010D19","fill-opacity":1,"palette-overrides":{"light":{"fill":"#00512F"}}},"feature_count":1},"polygon.hardsurface4.969393":{"name":"Hard Surface 4","layer":"Airfield surfaces","object_type":"Area","paint":{"fill":"#152841","fill-opacity":1,"palette-overrides":{"light":{"fill":"#969393"}}},"feature_count":3},"polygon.hardsurface3.8a807f":{"name":"Hard Surface 3","layer":"Airfield surfaces","object_type":"Area","paint":{"fill":"#222D3C","fill-opacity":1,"palette-overrides":{"light":{"fill":"#8A807F"}}},"feature_count":3},"polygon.hardsurface2.595e5b":{"name":"Hard Surface 2","layer":"Airfield surfaces","object_type":"Area","paint":{"fill":"#2F3949","fill-opacity":1,"palette-overrides":{"light":{"fill":"#595E5B"}}},"feature_count":2},"polygon.runwaygrass.008000":{"name":"Grass runways","layer":"Airfield surfaces","object_type":"Area","paint":{"fill":"#859A77","fill-opacity":1,"palette-overrides":{"light":{"fill":"#008000"}}},"feature_count":3},"polygon.runwayconcrete.555555":{"name":"Runways","layer":"Airfield surfaces","object_type":"Area","paint":{"fill":"#111318","fill-opacity":1,"palette-overrides":{"light":{"fill":"#555555"}}},"feature_count":1},"polygon.building.394446":{"name":"Buildings","layer":"Buildings and structures","object_type":"Area","paint":{"fill":"#475570","fill-opacity":1,"palette-overrides":{"light":{"fill":"#394446"}}},"feature_count":15},"polygon.stopbar.7e0000":{"name":"Stopbars","layer":"Surface markings","object_type":"Area","paint":{"fill":"#7E0000","fill-opacity":1,"palette-overrides":{"light":{"fill":"#7E0000"}}},"feature_count":2},"line.taxiway.c0b631":{"name":"Taxiways","layer":"Guidance lines","object_type":"Line","paint":{"stroke":"#4E5A69","stroke-opacity":1,"stroke-width":1,"palette-overrides":{"light":{"stroke":"#C0B631"}}},"feature_count":1},"line.taxiwayorange.cc6d00":{"name":"Taxiway Orange","layer":"Guidance lines","object_type":"Line","paint":{"stroke":"#CC8B00","stroke-opacity":1,"stroke-width":1,"palette-overrides":{"light":{"stroke":"#CC6D00"}}},"feature_count":1},"line.runwayborder.808080":{"name":"Runway Border","layer":"Guidance lines","object_type":"Line","paint":{"stroke":"#808080","stroke-opacity":1,"stroke-width":1,"palette-overrides":{"light":{"stroke":"#808080"}}},"feature_count":1},"label.gates":{"name":"Gates","layer":"Labels","object_type":"Label","paint":{"text-color":"#CCCCCC","text-font":"Arial","text-size":12,"text-halo-color":"#000000","text-halo-width":1,"text-anchor":"center","zoomLevel":9},"feature_count":29},"label.taxiways":{"name":"Taxiways","layer":"Labels","object_type":"Label","paint":{"text-color":"#CCCCCC","text-font":"Arial","text-size":12,"text-halo-color":"#000000","text-halo-width":1,"text-anchor":"center","zoomLevel":7},"feature_count":13}},"vsmr_groups":[],"features":[{"type":"Feature","id":"LFBI-b7e843bb13f847eb0ada","properties":{"airport":"LFBI","name":"LFBI AVISO","layer":"Terrain","category":"Grass","object_type":"Area","style_id":"polygon.grassurface.00512f","source_group":"LFBI AVISO","vsmr_group_ids":[],"geometry_role":"filled_region"},"geometry":{"type":"Polygon","coordinates":[[[0.295849167,46.578912222],[0.297712778,46.578484444],[0.297679167,46.578156667],[0.298032778,46.577621944],[0.298678333,46.577397222],[0.299721111,46.577740556],[0.300021667,46.577944167],[0.301591944,46.577568889],[0.301805,46.577614444],[0.302550278,46.578295278],[0.302996111,46.578729167],[0.3032875,46.579038889],[0.303503056,46.579267222],[0.304098333,46.579879167],[0.304854444,46.579828333],[0.305418889,46.579818333],[0.306099722,46.5798425],[0.306689167,46.579863333],[0.307283611,46.579939444],[0.307726944,46.580019167],[0.309943333,46.580785833],[0.310766389,46.581110833],[0.312166667,46.581656667],[0.314148333,46.582434444],[0.314225833,46.582483611],[0.314264722,46.582550556],[0.314264722,46.582635278],[0.314219167,46.582719722],[0.311328056,46.585054444],[0.313063056,46.587075],[0.313014167,46.587258056],[0.313558056,46.587968889],[0.313988611,46.5893025],[0.314291111,46.59009],[0.314548056,46.590711944],[0.314832778,46.591293333],[0.315061667,46.591774167],[0.315455556,46.5923825],[0.315823889,46.592901667],[0.314690556,46.593326389],[0.315739167,46.594398333],[0.315915556,46.594581944],[0.3161675,46.594671944],[0.317070278,46.595975278],[0.317335,46.596282778],[0.317755556,46.596906111],[0.318379722,46.597523889],[0.318233333,46.597602778],[0.319297778,46.5984125],[0.318458611,46.598873889],[0.319915278,46.6000075],[0.317042778,46.601091944],[0.314995,46.599573611],[0.3147675,46.599470278],[0.310629444,46.595777222],[0.310397778,46.595896667],[0.308753611,46.59616],[0.308081667,46.596406944],[0.304721389,46.593536944],[0.307690278,46.592389444],[0.306788889,46.591295],[0.305318611,46.591232222],[0.301666944,46.586954167],[0.3022625,46.586709167],[0.3020725,46.586445],[0.301793611,46.585933611],[0.301534722,46.585553056],[0.295849167,46.578912222]]]}},{"type":"Feature","id":"LFBI-89f3ace41f55a9650192","properties":{"airport":"LFBI","name":"LFBI AVISO","layer":"Airfield surfaces","category":"Hard Surface 4","object_type":"Area","style_id":"polygon.hardsurface4.969393","source_group":"LFBI AVISO","vsmr_group_ids":[],"geometry_role":"filled_region"},"geometry":{"type":"Polygon","coordinates":[[[0.312049722,46.586883889],[0.311594722,46.5870525],[0.3098625,46.585055833],[0.309888611,46.584909722],[0.311301667,46.583828611],[0.311376111,46.583872778],[0.310026111,46.584948889],[0.310021389,46.584964722],[0.310026111,46.584982222],[0.310243056,46.585036111],[0.310350278,46.585185556],[0.310449444,46.585441111],[0.310451389,46.5854825],[0.310601667,46.585660556],[0.310619167,46.585661667],[0.311073611,46.585528333],[0.311255278,46.585738056],[0.311422778,46.586284444],[0.311250556,46.586426389],[0.311248056,46.586458611],[0.311515278,46.586738056],[0.311961389,46.586548056],[0.312373056,46.587013056],[0.312405278,46.587004444],[0.312701944,46.587350278],[0.312547222,46.587405278],[0.312049722,46.586883889]]]}},{"type":"Feature","id":"LFBI-d3c2564281654b6bf7c1","properties":{"airport":"LFBI","name":"LFBI AVISO","layer":"Airfield surfaces","category":"Hard Surface 4","object_type":"Area","style_id":"polygon.hardsurface4.969393","source_group":"LFBI AVISO","vsmr_group_ids":[],"geometry_role":"filled_region"},"geometry":{"type":"Polygon","coordinates":[[[0.310788611,46.583562222],[0.310758056,46.583679167],[0.310726111,46.583674722],[0.3107375,46.583638611],[0.310701111,46.583581111],[0.310604722,46.583609167],[0.310538889,46.583492222],[0.310708056,46.583446944],[0.310788611,46.583562222]]]}},{"type":"Feature","id":"LFBI-7e048691ebd1521761c4","properties":{"airport":"LFBI","name":"LFBI AVISO","layer":"Airfield surfaces","category":"Hard Surface 4","object_type":"Area","style_id":"polygon.hardsurface4.969393","source_group":"LFBI AVISO","vsmr_group_ids":[],"geometry_role":"filled_region"},"geometry":{"type":"Polygon","coordinates":[[[0.310047778,46.584242778],[0.310043056,46.584193611],[0.310010556,46.584174444],[0.310136389,46.584077222],[0.310166667,46.584092778],[0.310231667,46.584092222],[0.310047778,46.584242778]]]}},{"type":"Feature","id":"LFBI-76a09979610e0d7bf000","properties":{"airport":"LFBI","name":"LFBI AVISO","layer":"Airfield surfaces","category":"Hard Surface 3","object_type":"Area","style_id":"polygon.hardsurface3.8a807f","source_group":"LFBI AVISO","vsmr_group_ids":[],"geometry_role":"filled_region"},"geometry":{"type":"Polygon","coordinates":[[[0.310727778,46.587686389],[0.311136389,46.5875225],[0.309926667,46.586088333],[0.309463889,46.585989167],[0.309860278,46.584906389],[0.309593611,46.584785556],[0.309694444,46.584673333],[0.309806111,46.584562222],[0.309913611,46.584471667],[0.31006,46.584356111],[0.310046667,46.584233611],[0.310228333,46.584091389],[0.310409722,46.584083611],[0.310811667,46.583771944],[0.310949167,46.583664722],[0.311006389,46.583614444],[0.311045278,46.583573333],[0.311072778,46.583524722],[0.311084444,46.5834775],[0.311066111,46.583420833],[0.311040556,46.583378889],[0.311001111,46.583345833],[0.310941389,46.583315556],[0.31088,46.583299444],[0.310845,46.583299722],[0.310819722,46.583304722],[0.310776389,46.583256111],[0.310803056,46.582923611],[0.310920278,46.582930556],[0.310994167,46.582871111],[0.311100833,46.582921944],[0.311393611,46.583185],[0.311419722,46.583208889],[0.311448889,46.583226944],[0.311480833,46.583237778],[0.311515556,46.583238889],[0.311541667,46.583235833],[0.311557778,46.583258889],[0.311515556,46.583273889],[0.311485,46.583295833],[0.3114575,46.583321667],[0.311445833,46.583335833],[0.311447222,46.583351944],[0.311464444,46.583364722],[0.311501111,46.583368611],[0.311568611,46.583363056],[0.311646389,46.583592222],[0.311681667,46.583665278],[0.311743889,46.583793056],[0.311659444,46.583894722],[0.311397222,46.583879722],[0.311374722,46.583886389],[0.311308611,46.58385],[0.310065556,46.584831944],[0.310013611,46.584864167],[0.309936111,46.584909722],[0.309911111,46.584926944],[0.309899444,46.584943611],[0.309886944,46.584973333],[0.309883611,46.584996111],[0.309888333,46.585016389],[0.311215833,46.586596111],[0.311237778,46.586588333],[0.311601667,46.587016944],[0.3120675,46.58683],[0.31256,46.587401111],[0.312518611,46.587420833],[0.312509722,46.587433333],[0.312509722,46.5874475],[0.312593611,46.587538889],[0.311587222,46.587943333],[0.311523611,46.587979167],[0.311479722,46.588026111],[0.311453056,46.588069722],[0.311446944,46.588112222],[0.311449167,46.588150278],[0.311461111,46.588191389],[0.311363611,46.588241111],[0.311285556,46.588273889],[0.311249167,46.588285278],[0.311236667,46.588285278],[0.310727778,46.587686389]]]}},{"type":"Feature","id":"LFBI-be0bc03e28b586ff0443","properties":{"airport":"LFBI","name":"LFBI AVISO","layer":"Airfield surfaces","category":"Hard Surface 3","object_type":"Area","style_id":"polygon.hardsurface3.8a807f","source_group":"LFBI AVISO","vsmr_group_ids":[],"geometry_role":"filled_region"},"geometry":{"type":"Polygon","coordinates":[[[0.310764444,46.583609722],[0.310766111,46.583583611],[0.310762778,46.583556667],[0.310749444,46.583525833],[0.310703333,46.583449722],[0.310687222,46.583421667],[0.310678889,46.5834],[0.310675556,46.583373611],[0.310679722,46.583346667],[0.310692222,46.583318333],[0.310713333,46.583294167],[0.310741944,46.583271944],[0.310777778,46.583254167],[0.310821111,46.583304167],[0.310793889,46.583313889],[0.310775556,46.583326389],[0.310763333,46.583339444],[0.310755278,46.583356667],[0.310752222,46.583373333],[0.310755833,46.583388333],[0.3107675,46.583413333],[0.310859167,46.583564444],[0.31088,46.583583611],[0.3109025,46.583595278],[0.310926389,46.583603056],[0.310954167,46.583605833],[0.310979722,46.583604722],[0.310999444,46.583600278],[0.311019167,46.583591667],[0.311038611,46.583576667],[0.311062778,46.583551111],[0.311082778,46.583574444],[0.310898889,46.583707222],[0.310906944,46.5836825],[0.310902222,46.583668056],[0.310886667,46.583655278],[0.310864167,46.583649444],[0.310840833,46.583651389],[0.310823056,46.583660833],[0.310810833,46.583678056],[0.31079,46.583759722],[0.310792778,46.583765],[0.310800833,46.583767222],[0.310811944,46.583766944],[0.310840278,46.583758889],[0.310639444,46.5839125],[0.310678333,46.583867222],[0.310695,46.5838325],[0.310736667,46.583704722],[0.310756389,46.583645],[0.310764444,46.583609722]]]}},{"type":"Feature","id":"LFBI-28b62734e78dfa540704","properties":{"airport":"LFBI","name":"LFBI AVISO","layer":"Airfield surfaces","category":"Hard Surface 3","object_type":"Area","style_id":"polygon.hardsurface3.8a807f","source_group":"LFBI AVISO","vsmr_group_ids":[],"geometry_role":"filled_region"},"geometry":{"type":"Polygon","coordinates":[[[0.303536389,46.588466111],[0.3037125,46.588399444],[0.304328611,46.589158333],[0.304183333,46.589214444],[0.303536389,46.588466111]]]}},{"type":"Feature","id":"LFBI-c3fb49ada24eb7682014","properties":{"airport":"LFBI","name":"LFBI AVISO","layer":"Airfield surfaces","category":"Hard Surface 2","object_type":"Area","style_id":"polygon.hardsurface2.595e5b","source_group":"LFBI AVISO","vsmr_group_ids":[],"geometry_role":"filled_region"},"geometry":{"type":"Polygon","coordinates":[[[0.31073,46.587687778],[0.309890556,46.586688889],[0.309805556,46.586606111],[0.309725,46.586555],[0.30964,46.586505],[0.309559444,46.586476389],[0.3094575,46.586454167],[0.309370833,46.586443333],[0.309293611,46.586443333],[0.309211667,46.586446667],[0.309131944,46.586456667],[0.3090825,46.586466944],[0.309034722,46.586478889],[0.308866389,46.586313056],[0.3089,46.586292778],[0.308949167,46.586258333],[0.308990556,46.586219167],[0.309029722,46.586169167],[0.309065278,46.586110833],[0.309097778,46.586040833],[0.309475278,46.585012778],[0.309508889,46.584919444],[0.309538889,46.584858056],[0.309570278,46.584815278],[0.309595,46.584784444],[0.3098625,46.584907222],[0.309463333,46.585987778],[0.309926667,46.586086944],[0.3111375,46.587523333],[0.31073,46.587687778]]]}},{"type":"Feature","id":"LFBI-2b7b4c76d3bce11e13b7","properties":{"airport":"LFBI","name":"LFBI AVISO","layer":"Airfield surfaces","category":"Hard Surface 2","object_type":"Area","style_id":"polygon.hardsurface2.595e5b","source_group":"LFBI AVISO","vsmr_group_ids":[],"geometry_role":"filled_region"},"geometry":{"type":"Polygon","coordinates":[[[0.308404167,46.592818333],[0.308557778,46.592992222],[0.307753889,46.593319722],[0.307614722,46.5934825],[0.306801389,46.593810833],[0.306336944,46.593261389],[0.307093056,46.592957222],[0.307608333,46.593144167],[0.308404167,46.592818333]]]}},{"type":"Feature","id":"LFBI-74280475df897b9267f1","properties":{"airport":"LFBI","name":"LFBI AVISO","layer":"Airfield surfaces","category":"Grass runways","object_type":"Area","style_id":"polygon.runwaygrass.008000","source_group":"LFBI AVISO","vsmr_group_ids":[],"geometry_role":"filled_region"},"geometry":{"type":"Polygon","coordinates":[[[0.302797778,46.581025],[0.303926667,46.580563889],[0.308466667,46.585860278],[0.309309722,46.585464444],[0.309225833,46.585694167],[0.308546111,46.585966389],[0.308611944,46.586038611],[0.307489444,46.586497222],[0.302797778,46.581025]]]}},{"type":"Feature","id":"LFBI-f2904b30ceb7e4d88907","properties":{"airport":"LFBI","name":"LFBI AVISO","layer":"Airfield surfaces","category":"Grass runways","object_type":"Area","style_id":"polygon.runwaygrass.008000","source_group":"LFBI AVISO","vsmr_group_ids":[],"geometry_role":"filled_region"},"geometry":{"type":"Polygon","coordinates":[[[0.299415278,46.582331667],[0.300537222,46.581871389],[0.305498056,46.587679722],[0.306349722,46.587266944],[0.306556389,46.587505556],[0.305693889,46.587909722],[0.309426667,46.592245278],[0.3083075,46.592698889],[0.305476944,46.589400556],[0.304411389,46.589265278],[0.303706111,46.588396944],[0.303686389,46.588346944],[0.303906111,46.587570278],[0.299415278,46.582331667]]]}},{"type":"Feature","id":"LFBI-28955f9b75b3409cef5e","properties":{"airport":"LFBI","name":"LFBI AVISO","layer":"Airfield surfaces","category":"Grass runways","object_type":"Area","style_id":"polygon.runwaygrass.008000","source_group":"LFBI AVISO","vsmr_group_ids":[],"geometry_role":"filled_region"},"geometry":{"type":"Polygon","coordinates":[[[0.309635278,46.584739167],[0.309286389,46.584558333],[0.309010278,46.584348611],[0.309304167,46.584174444],[0.309869444,46.584433889],[0.309672778,46.584625833],[0.309723333,46.584644722],[0.309635278,46.584739167]]]}},{"type":"Feature","id":"LFBI-d729f0257023420a8267","properties":{"airport":"LFBI","name":"LFBI AVISO","layer":"Airfield surfaces","category":"Runways","object_type":"Area","style_id":"polygon.runwayconcrete.555555","source_group":"LFBI AVISO","vsmr_group_ids":[],"geometry_role":"filled_region"},"geometry":{"type":"Polygon","coordinates":[[[0.299885,46.579739444],[0.300390278,46.579536667],[0.300487778,46.579533333],[0.300583889,46.579539722],[0.300653333,46.579550556],[0.300719167,46.579571111],[0.300786111,46.579601667],[0.300843611,46.579641111],[0.300891389,46.579678056],[0.3009275,46.57973],[0.300951389,46.579777778],[0.300964444,46.579826944],[0.300964444,46.579865556],[0.300951944,46.579918889],[0.300936389,46.5799675],[0.300929444,46.580017222],[0.300926944,46.580061667],[0.300933889,46.580111944],[0.300950278,46.580161667],[0.30098,46.580205833],[0.301035556,46.5802925],[0.306630833,46.586821667],[0.306699444,46.586872778],[0.306757778,46.5869075],[0.306815,46.586943889],[0.306874167,46.586966389],[0.306952222,46.586988333],[0.307015833,46.586999722],[0.307083889,46.587009444],[0.307144444,46.587012222],[0.307204167,46.587011667],[0.307278889,46.587008333],[0.307351944,46.586994722],[0.3074325,46.586977222],[0.307504444,46.586950556],[0.307609167,46.586903333],[0.308869444,46.586311667],[0.3090375,46.586478611],[0.307720278,46.5870925],[0.307595556,46.587154167],[0.307545833,46.587181667],[0.307498889,46.587215],[0.307465833,46.587245556],[0.3074275,46.587283611],[0.307396111,46.587327778],[0.307370556,46.587369722],[0.307353333,46.587415833],[0.307342222,46.58746],[0.307338056,46.587507222],[0.307340833,46.587550556],[0.307351389,46.587605833],[0.307367222,46.587659167],[0.307401389,46.587718889],[0.315354167,46.5969925],[0.315454722,46.597082778],[0.3155425,46.597131944],[0.315646389,46.597168889],[0.315839722,46.597223333],[0.315911111,46.597249167],[0.315977778,46.597286944],[0.316029722,46.597333056],[0.316069722,46.597385278],[0.316091389,46.597428611],[0.316106944,46.597481667],[0.316102778,46.597530833],[0.316091389,46.597587778],[0.316072778,46.597638056],[0.316049722,46.597679167],[0.3160225,46.597721667],[0.316001111,46.597749167],[0.315505833,46.597948889],[0.310881667,46.592561389],[0.310799167,46.592494444],[0.310700278,46.592428889],[0.3106125,46.592391667],[0.310511389,46.592363611],[0.310399167,46.592341667],[0.310292778,46.592340278],[0.310188056,46.592349444],[0.310105833,46.592360833],[0.310001111,46.592398333],[0.308555278,46.5929925],[0.308401111,46.592819167],[0.309762222,46.592263889],[0.309884722,46.592210833],[0.309963611,46.592172778],[0.310036667,46.592117222],[0.31009,46.592058889],[0.3101275,46.591996389],[0.310149167,46.591935278],[0.310163056,46.591873056],[0.310156944,46.591801111],[0.310107778,46.591693889],[0.310074167,46.591626111],[0.299885,46.579739444]]]}},{"type":"Feature","id":"LFBI-d36040929ff7caed9092","properties":{"airport":"LFBI","name":"LFBI AVISO","layer":"Buildings and structures","category":"Buildings","object_type":"Area","style_id":"polygon.building.394446","source_group":"LFBI AVISO","vsmr_group_ids":[],"geometry_role":"filled_region"},"geometry":{"type":"Polygon","coordinates":[[[0.31245,46.587083056],[0.312465,46.587077778],[0.312410833,46.587014722],[0.312378889,46.587028889],[0.312354722,46.587000556],[0.312511944,46.5869375],[0.3125775,46.587009722],[0.312682222,46.586965833],[0.312848889,46.5871575],[0.3126,46.587260556],[0.31245,46.587083056]]]}},{"type":"Feature","id":"LFBI-d78944cfe43ba33ccd25","properties":{"airport":"LFBI","name":"LFBI AVISO","layer":"Buildings and structures","category":"Buildings","object_type":"Area","style_id":"polygon.building.394446","source_group":"LFBI AVISO","vsmr_group_ids":[],"geometry_role":"filled_region"},"geometry":{"type":"Polygon","coordinates":[[[0.312189722,46.586811667],[0.312471667,46.586695],[0.312601667,46.586843611],[0.312321111,46.586957778],[0.312189722,46.586811667]]]}},{"type":"Feature","id":"LFBI-1b18df920d439df37503","properties":{"airport":"LFBI","name":"LFBI AVISO","layer":"Buildings and structures","category":"Buildings","object_type":"Area","style_id":"polygon.building.394446","source_group":"LFBI AVISO","vsmr_group_ids":[],"geometry_role":"filled_region"},"geometry":{"type":"Polygon","coordinates":[[[0.311571389,46.586767222],[0.311797222,46.586680278],[0.311900556,46.586802222],[0.311675833,46.5868925],[0.311571389,46.586767222]]]}},{"type":"Feature","id":"LFBI-0cb1b5a304977c9d441d","properties":{"airport":"LFBI","name":"LFBI AVISO","layer":"Buildings and structures","category":"Buildings","object_type":"Area","style_id":"polygon.building.394446","source_group":"LFBI AVISO","vsmr_group_ids":[],"geometry_role":"filled_region"},"geometry":{"type":"Polygon","coordinates":[[[0.311141111,46.586309167],[0.310878056,46.586003611],[0.310989444,46.58596],[0.311004167,46.585916944],[0.311046111,46.585903611],[0.310998611,46.585903611],[0.310951389,46.585900556],[0.310910833,46.585892222],[0.310872222,46.585879444],[0.310839444,46.585860556],[0.310813056,46.585840278],[0.310792222,46.585816111],[0.31078,46.585790278],[0.310774722,46.585766111],[0.310774722,46.5857375],[0.310781944,46.585707778],[0.310798056,46.585680833],[0.310823889,46.585653333],[0.310854167,46.585631944],[0.310893333,46.585613056],[0.310945833,46.585600278],[0.310995556,46.585597778],[0.311051667,46.585603333],[0.311083611,46.585610556],[0.311113056,46.585576389],[0.311248611,46.58573],[0.311259444,46.585726667],[0.311684722,46.5862225],[0.311505,46.586296389],[0.311141111,46.586309167]]]}},{"type":"Feature","id":"LFBI-0d84aa8ac2037750ece5","properties":{"airport":"LFBI","name":"LFBI AVISO","layer":"Buildings and structures","category":"Buildings","object_type":"Area","style_id":"polygon.building.394446","source_group":"LFBI AVISO","vsmr_group_ids":[],"geometry_role":"filled_region"},"geometry":{"type":"Polygon","coordinates":[[[0.3104475,46.585460833],[0.310306389,46.585301944],[0.310268611,46.585315278],[0.310207778,46.585238611],[0.3104475,46.585147222],[0.310496667,46.585204722],[0.310398056,46.585243056],[0.310550833,46.585421389],[0.3104475,46.585460833]]]}},{"type":"Feature","id":"LFBI-9bf194d329b05a16d6bb","properties":{"airport":"LFBI","name":"LFBI AVISO","layer":"Buildings and structures","category":"Buildings","object_type":"Area","style_id":"polygon.building.394446","source_group":"LFBI AVISO","vsmr_group_ids":[],"geometry_role":"filled_region"},"geometry":{"type":"Polygon","coordinates":[[[0.310158333,46.585142222],[0.310020278,46.584975833],[0.310287222,46.584870278],[0.310423889,46.5850375],[0.310158333,46.585142222]]]}},{"type":"Feature","id":"LFBI-03f552c81801ac824d04","properties":{"airport":"LFBI","name":"LFBI AVISO","layer":"Buildings and structures","category":"Buildings","object_type":"Area","style_id":"polygon.building.394446","source_group":"LFBI AVISO","vsmr_group_ids":[],"geometry_role":"filled_region"},"geometry":{"type":"Polygon","coordinates":[[[0.31053,46.584993889],[0.310414167,46.584855278],[0.310595,46.584784444],[0.310712778,46.584918611],[0.31053,46.584993889]]]}},{"type":"Feature","id":"LFBI-4e53cc0aeb8132a9735e","properties":{"airport":"LFBI","name":"LFBI AVISO","layer":"Buildings and structures","category":"Buildings","object_type":"Area","style_id":"polygon.building.394446","source_group":"LFBI AVISO","vsmr_group_ids":[],"geometry_role":"filled_region"},"geometry":{"type":"Polygon","coordinates":[[[0.310719167,46.584723889],[0.310619444,46.584667222],[0.310811944,46.584516667],[0.310752222,46.584478333],[0.310814722,46.584432778],[0.310873056,46.584465556],[0.311064444,46.584315833],[0.311166667,46.584376111],[0.311105556,46.584422778],[0.311073611,46.584406389],[0.310954167,46.584500278],[0.310981944,46.5845175],[0.310895833,46.584585278],[0.310866667,46.584569722],[0.310751111,46.584660833],[0.3107775,46.584677222],[0.310719167,46.584723889]]]}},{"type":"Feature","id":"LFBI-bfc622149c333c0e85aa","properties":{"airport":"LFBI","name":"LFBI AVISO","layer":"Buildings and structures","category":"Buildings","object_type":"Area","style_id":"polygon.building.394446","source_group":"LFBI AVISO","vsmr_group_ids":[],"geometry_role":"filled_region"},"geometry":{"type":"Polygon","coordinates":[[[0.311664167,46.583658333],[0.311948333,46.583600556],[0.312008611,46.583746111],[0.311725556,46.583804167],[0.311664167,46.583658333]]]}},{"type":"Feature","id":"LFBI-8569bc2b0cc7de6926ce","properties":{"airport":"LFBI","name":"LFBI AVISO","layer":"Buildings and structures","category":"Buildings","object_type":"Area","style_id":"polygon.building.394446","source_group":"LFBI AVISO","vsmr_group_ids":[],"geometry_role":"filled_region"},"geometry":{"type":"Polygon","coordinates":[[[0.311809167,46.583283333],[0.311820833,46.583286667],[0.311834444,46.583299444],[0.311861944,46.583325],[0.311894167,46.583365278],[0.311920556,46.583411667],[0.311925278,46.583445278],[0.311931389,46.583503056],[0.3119275,46.583534722],[0.311921389,46.583550278],[0.311660278,46.5836025],[0.311650556,46.583600556],[0.311636944,46.583593056],[0.311622222,46.583577778],[0.311585,46.583534722],[0.31155,46.583480278],[0.311539167,46.583420556],[0.311536111,46.583371944],[0.311541111,46.583353333],[0.311548056,46.583339722],[0.311809167,46.583283333]]]}},{"type":"Feature","id":"LFBI-61c5763eaa59836fa55c","properties":{"airport":"LFBI","name":"LFBI AVISO","layer":"Buildings and structures","category":"Buildings","object_type":"Area","style_id":"polygon.building.394446","source_group":"LFBI AVISO","vsmr_group_ids":[],"geometry_role":"filled_region"},"geometry":{"type":"Polygon","coordinates":[[[0.311317222,46.582848889],[0.311564722,46.583069167],[0.311368333,46.583171389],[0.311123333,46.582950833],[0.311317222,46.582848889]]]}},{"type":"Feature","id":"LFBI-6a87d8bb0a48a7a000f0","properties":{"airport":"LFBI","name":"LFBI AVISO","layer":"Buildings and structures","category":"Buildings","object_type":"Area","style_id":"polygon.building.394446","source_group":"LFBI AVISO","vsmr_group_ids":[],"geometry_role":"filled_region"},"geometry":{"type":"Polygon","coordinates":[[[0.311101667,46.582717778],[0.311245556,46.582795278],[0.311097778,46.582926944],[0.310955,46.582851389],[0.311101667,46.582717778]]]}},{"type":"Feature","id":"LFBI-b7bf77c6610d55d188ac","properties":{"airport":"LFBI","name":"LFBI AVISO","layer":"Buildings and structures","category":"Buildings","object_type":"Area","style_id":"polygon.building.394446","source_group":"LFBI AVISO","vsmr_group_ids":[],"geometry_role":"filled_region"},"geometry":{"type":"Polygon","coordinates":[[[0.303549444,46.588463333],[0.303951111,46.588929444],[0.303769167,46.589000278],[0.303369722,46.588532778],[0.303549444,46.588463333]]]}},{"type":"Feature","id":"LFBI-ce07e62adbf308a0429b","properties":{"airport":"LFBI","name":"LFBI AVISO","layer":"Buildings and structures","category":"Buildings","object_type":"Area","style_id":"polygon.building.394446","source_group":"LFBI AVISO","vsmr_group_ids":[],"geometry_role":"filled_region"},"geometry":{"type":"Polygon","coordinates":[[[0.304031667,46.589030833],[0.304198889,46.589228333],[0.303968611,46.589321111],[0.303798056,46.589123611],[0.304031667,46.589030833]]]}},{"type":"Feature","id":"LFBI-65a68b3e1e27698ca2ff","properties":{"airport":"LFBI","name":"LFBI AVISO","layer":"Buildings and structures","category":"Buildings","object_type":"Area","style_id":"polygon.building.394446","source_group":"LFBI AVISO","vsmr_group_ids":[],"geometry_role":"filled_region"},"geometry":{"type":"Polygon","coordinates":[[[0.307035833,46.594111389],[0.307145278,46.594065556],[0.307093889,46.593997778],[0.307571389,46.593809722],[0.307623056,46.5938725],[0.307714722,46.593834167],[0.30829,46.5945075],[0.308416389,46.594453056],[0.3088775,46.594990278],[0.308223889,46.595254722],[0.308162778,46.595183333],[0.308005,46.595245833],[0.307931111,46.595158889],[0.307769167,46.595222222],[0.307121667,46.594464722],[0.307284167,46.594402778],[0.307035833,46.594111389]]]}},{"type":"Feature","id":"LFBI-bbdf81b8bc10de040661","properties":{"airport":"LFBI","name":"LFBI AVISO","layer":"Surface markings","category":"Stopbars","object_type":"Area","style_id":"polygon.stopbar.7e0000","source_group":"LFBI AVISO","vsmr_group_ids":[],"geometry_role":"filled_region"},"geometry":{"type":"Polygon","coordinates":[[[0.308386944,46.592824167],[0.308410278,46.592815],[0.308564167,46.592989444],[0.30854,46.592999444],[0.308386944,46.592824167]]]}},{"type":"Feature","id":"LFBI-66833728644bcdc000f7","properties":{"airport":"LFBI","name":"LFBI AVISO","layer":"Surface markings","category":"Stopbars","object_type":"Area","style_id":"polygon.stopbar.7e0000","source_group":"LFBI AVISO","vsmr_group_ids":[],"geometry_role":"filled_region"},"geometry":{"type":"Polygon","coordinates":[[[0.308852222,46.586318611],[0.308865556,46.5863125],[0.308876111,46.586306111],[0.309042778,46.586477222],[0.309038056,46.586479167],[0.309017778,46.586488056],[0.308852222,46.586318611]]]}},{"type":"Feature","id":"LFBI-37746a7ce62d89fe990f","properties":{"airport":"LFBI","name":"G1","layer":"Labels","category":"Gates","object_type":"Label","style_id":"label.gates","source_group":"LFBI Gates","vsmr_group_ids":[],"geometry_role":"text_label","text-field":"G1"},"geometry":{"type":"Point","coordinates":[0.311379167,46.587793056]}},{"type":"Feature","id":"LFBI-cd3c21b8bedb040e1f2c","properties":{"airport":"LFBI","name":"G2","layer":"Labels","category":"Gates","object_type":"Label","style_id":"label.gates","source_group":"LFBI Gates","vsmr_group_ids":[],"geometry_role":"text_label","text-field":"G2"},"geometry":{"type":"Point","coordinates":[0.311713333,46.587659444]}},{"type":"Feature","id":"LFBI-5b9caa1cf2ebbe9f3a89","properties":{"airport":"LFBI","name":"G3","layer":"Labels","category":"Gates","object_type":"Label","style_id":"label.gates","source_group":"LFBI Gates","vsmr_group_ids":[],"geometry_role":"text_label","text-field":"G3"},"geometry":{"type":"Point","coordinates":[0.312058056,46.587523333]}},{"type":"Feature","id":"LFBI-375fdbbb432dd5690b59","properties":{"airport":"LFBI","name":"G4","layer":"Labels","category":"Gates","object_type":"Label","style_id":"label.gates","source_group":"LFBI Gates","vsmr_group_ids":[],"geometry_role":"text_label","text-field":"G4"},"geometry":{"type":"Point","coordinates":[0.31226,46.587392222]}},{"type":"Feature","id":"LFBI-397e060f38dc02f8cca0","properties":{"airport":"LFBI","name":"G5","layer":"Labels","category":"Gates","object_type":"Label","style_id":"label.gates","source_group":"LFBI Gates","vsmr_group_ids":[],"geometry_role":"text_label","text-field":"G5"},"geometry":{"type":"Point","coordinates":[0.31117,46.587540833]}},{"type":"Feature","id":"LFBI-30841147156ca41f3909","properties":{"airport":"LFBI","name":"G6","layer":"Labels","category":"Gates","object_type":"Label","style_id":"label.gates","source_group":"LFBI Gates","vsmr_group_ids":[],"geometry_role":"text_label","text-field":"G6"},"geometry":{"type":"Point","coordinates":[0.311500278,46.587409722]}},{"type":"Feature","id":"LFBI-49ee3adfb6ba50429109","properties":{"airport":"LFBI","name":"G7","layer":"Labels","category":"Gates","object_type":"Label","style_id":"label.gates","source_group":"LFBI Gates","vsmr_group_ids":[],"geometry_role":"text_label","text-field":"G7"},"geometry":{"type":"Point","coordinates":[0.311841667,46.587268611]}},{"type":"Feature","id":"LFBI-a0d39f3e8bb9577a04f4","properties":{"airport":"LFBI","name":"G8","layer":"Labels","category":"Gates","object_type":"Label","style_id":"label.gates","source_group":"LFBI Gates","vsmr_group_ids":[],"geometry_role":"text_label","text-field":"G8"},"geometry":{"type":"Point","coordinates":[0.3121425,46.58715]}},{"type":"Feature","id":"LFBI-aaeef431745ffccfea1d","properties":{"airport":"LFBI","name":"H1","layer":"Labels","category":"Gates","object_type":"Label","style_id":"label.gates","source_group":"LFBI Gates","vsmr_group_ids":[],"geometry_role":"text_label","text-field":"H1"},"geometry":{"type":"Point","coordinates":[0.311265556,46.587666944]}},{"type":"Feature","id":"LFBI-a3181e08016775dcc722","properties":{"airport":"LFBI","name":"H2","layer":"Labels","category":"Gates","object_type":"Label","style_id":"label.gates","source_group":"LFBI Gates","vsmr_group_ids":[],"geometry_role":"text_label","text-field":"H2"},"geometry":{"type":"Point","coordinates":[0.311610556,46.587523333]}},{"type":"Feature","id":"LFBI-02e7108d0ed6edd3cae6","properties":{"airport":"LFBI","name":"H3","layer":"Labels","category":"Gates","object_type":"Label","style_id":"label.gates","source_group":"LFBI Gates","vsmr_group_ids":[],"geometry_role":"text_label","text-field":"H3"},"geometry":{"type":"Point","coordinates":[0.311944444,46.587392222]}},{"type":"Feature","id":"LFBI-2c3195a8f925cc129907","properties":{"airport":"LFBI","name":"H4","layer":"Labels","category":"Gates","object_type":"Label","style_id":"label.gates","source_group":"LFBI Gates","vsmr_group_ids":[],"geometry_role":"text_label","text-field":"H4"},"geometry":{"type":"Point","coordinates":[0.312223333,46.587238333]}},{"type":"Feature","id":"LFBI-a514026b3f79d25a2fc2","properties":{"airport":"LFBI","name":"H8","layer":"Labels","category":"Gates","object_type":"Label","style_id":"label.gates","source_group":"LFBI Gates","vsmr_group_ids":[],"geometry_role":"text_label","text-field":"H8"},"geometry":{"type":"Point","coordinates":[0.312388333,46.5874275]}},{"type":"Feature","id":"LFBI-624cfe07d2aef189cfe0","properties":{"airport":"LFBI","name":"P1","layer":"Labels","category":"Gates","object_type":"Label","style_id":"label.gates","source_group":"LFBI Gates","vsmr_group_ids":[],"geometry_role":"text_label","text-field":"P1"},"geometry":{"type":"Point","coordinates":[0.309814444,46.585286111]}},{"type":"Feature","id":"LFBI-d4e872240b1332bff8be","properties":{"airport":"LFBI","name":"P2","layer":"Labels","category":"Gates","object_type":"Label","style_id":"label.gates","source_group":"LFBI Gates","vsmr_group_ids":[],"geometry_role":"text_label","text-field":"P2"},"geometry":{"type":"Point","coordinates":[0.310026667,46.585558056]}},{"type":"Feature","id":"LFBI-4cccf59842491165c544","properties":{"airport":"LFBI","name":"P3","layer":"Labels","category":"Gates","object_type":"Label","style_id":"label.gates","source_group":"LFBI Gates","vsmr_group_ids":[],"geometry_role":"text_label","text-field":"P3"},"geometry":{"type":"Point","coordinates":[0.309825833,46.58583]}},{"type":"Feature","id":"LFBI-194f5ecfe64fe3f35325","properties":{"airport":"LFBI","name":"P4","layer":"Labels","category":"Gates","object_type":"Label","style_id":"label.gates","source_group":"LFBI Gates","vsmr_group_ids":[],"geometry_role":"text_label","text-field":"P4"},"geometry":{"type":"Point","coordinates":[0.310215833,46.586298889]}},{"type":"Feature","id":"LFBI-8f14497e7effc9af2f77","properties":{"airport":"LFBI","name":"P5","layer":"Labels","category":"Gates","object_type":"Label","style_id":"label.gates","source_group":"LFBI Gates","vsmr_group_ids":[],"geometry_role":"text_label","text-field":"P5"},"geometry":{"type":"Point","coordinates":[0.310611389,46.586795278]}},{"type":"Feature","id":"LFBI-b61a59cc2ed0a741afb3","properties":{"airport":"LFBI","name":"S1","layer":"Labels","category":"Gates","object_type":"Label","style_id":"label.gates","source_group":"LFBI Gates","vsmr_group_ids":[],"geometry_role":"text_label","text-field":"S1"},"geometry":{"type":"Point","coordinates":[0.309839722,46.584725]}},{"type":"Feature","id":"LFBI-d932f9785ef2eaa632af","properties":{"airport":"LFBI","name":"S2","layer":"Labels","category":"Gates","object_type":"Label","style_id":"label.gates","source_group":"LFBI Gates","vsmr_group_ids":[],"geometry_role":"text_label","text-field":"S2"},"geometry":{"type":"Point","coordinates":[0.310112778,46.584491111]}},{"type":"Feature","id":"LFBI-aaa21edfa296de9bcb38","properties":{"airport":"LFBI","name":"S3","layer":"Labels","category":"Gates","object_type":"Label","style_id":"label.gates","source_group":"LFBI Gates","vsmr_group_ids":[],"geometry_role":"text_label","text-field":"S3"},"geometry":{"type":"Point","coordinates":[0.310326944,46.5844325]}},{"type":"Feature","id":"LFBI-0ecaf7f1fe995de24cf9","properties":{"airport":"LFBI","name":"S4","layer":"Labels","category":"Gates","object_type":"Label","style_id":"label.gates","source_group":"LFBI Gates","vsmr_group_ids":[],"geometry_role":"text_label","text-field":"S4"},"geometry":{"type":"Point","coordinates":[0.310461944,46.584323611]}},{"type":"Feature","id":"LFBI-1efae68ff55e112a46c3","properties":{"airport":"LFBI","name":"S5","layer":"Labels","category":"Gates","object_type":"Label","style_id":"label.gates","source_group":"LFBI Gates","vsmr_group_ids":[],"geometry_role":"text_label","text-field":"S5"},"geometry":{"type":"Point","coordinates":[0.310588333,46.584206667]}},{"type":"Feature","id":"LFBI-d61506678b58f173b681","properties":{"airport":"LFBI","name":"S6","layer":"Labels","category":"Gates","object_type":"Label","style_id":"label.gates","source_group":"LFBI Gates","vsmr_group_ids":[],"geometry_role":"text_label","text-field":"S6"},"geometry":{"type":"Point","coordinates":[0.310696944,46.584079444]}},{"type":"Feature","id":"LFBI-970b43686af4b7d0f752","properties":{"airport":"LFBI","name":"S7","layer":"Labels","category":"Gates","object_type":"Label","style_id":"label.gates","source_group":"LFBI Gates","vsmr_group_ids":[],"geometry_role":"text_label","text-field":"S7"},"geometry":{"type":"Point","coordinates":[0.310837778,46.583968611]}},{"type":"Feature","id":"LFBI-a06707dffac29d70288f","properties":{"airport":"LFBI","name":"S8","layer":"Labels","category":"Gates","object_type":"Label","style_id":"label.gates","source_group":"LFBI Gates","vsmr_group_ids":[],"geometry_role":"text_label","text-field":"S8"},"geometry":{"type":"Point","coordinates":[0.310978611,46.583859722]}},{"type":"Feature","id":"LFBI-21a641d95947881b2028","properties":{"airport":"LFBI","name":"S9","layer":"Labels","category":"Gates","object_type":"Label","style_id":"label.gates","source_group":"LFBI Gates","vsmr_group_ids":[],"geometry_role":"text_label","text-field":"S9"},"geometry":{"type":"Point","coordinates":[0.311119722,46.583752778]}},{"type":"Feature","id":"LFBI-b13afc2cacb1d84a1c89","properties":{"airport":"LFBI","name":"ACB","layer":"Labels","category":"Gates","object_type":"Label","style_id":"label.gates","source_group":"LFBI Gates","vsmr_group_ids":[],"geometry_role":"text_label","text-field":"ACB"},"geometry":{"type":"Point","coordinates":[0.311238611,46.583381111]}},{"type":"Feature","id":"LFBI-cb1730f19d628054d81d","properties":{"airport":"LFBI","name":"Usine","layer":"Labels","category":"Gates","object_type":"Label","style_id":"label.gates","source_group":"LFBI Gates","vsmr_group_ids":[],"geometry_role":"text_label","text-field":"Usine"},"geometry":{"type":"Point","coordinates":[0.307811667,46.5946075]}},{"type":"Feature","id":"LFBI-091049b060215c404704","properties":{"airport":"LFBI","name":"LFBI Groundlayout AVISO","layer":"Guidance lines","category":"Taxiways","object_type":"Line","style_id":"line.taxiway.c0b631","source_group":"LFBI Groundlayout AVISO","vsmr_group_ids":[],"geometry_role":"linework"},"geometry":{"type":"MultiLineString","coordinates":[[[0.311344444,46.587766389],[0.311368333,46.587756667],[0.311356667,46.587761389],[0.311305278,46.587702778],[0.31129,46.587707222],[0.311271111,46.587708333],[0.311252778,46.587705833],[0.311236389,46.587699722],[0.311223333,46.587691389],[0.311215833,46.587680556],[0.311212222,46.587670556],[0.311213056,46.587657222],[0.311219167,46.587645278],[0.31123,46.587634722],[0.311242222,46.587628333],[0.311258056,46.587623889],[0.311274444,46.587623056],[0.311288333,46.587623889],[0.311303611,46.587627778],[0.311315833,46.587633889],[0.311326389,46.587642222],[0.311332778,46.587651389],[0.311335833,46.587661944],[0.311335278,46.587672222],[0.31133,46.587683333],[0.3113225,46.587692222],[0.311314167,46.587698056],[0.311305278,46.587702778]],[[0.311241944,46.587628333],[0.31119,46.587568333],[0.311177222,46.587573333],[0.311201944,46.587563333]],[[0.311643333,46.587566111],[0.311632222,46.587569722],[0.311620278,46.587571944],[0.311608889,46.587572222],[0.311598056,46.587571111],[0.3115875,46.587569167],[0.311577778,46.587565556],[0.311569167,46.587561111],[0.311561944,46.587555833],[0.311556111,46.587549444],[0.3115525,46.587543333],[0.31155,46.587536944],[0.311549444,46.587530556],[0.31155,46.587523333],[0.311552778,46.587515833],[0.311556667,46.587509722],[0.311562778,46.587503333],[0.311571389,46.587497222],[0.311581111,46.587492778],[0.311591667,46.587489722],[0.311601667,46.587487778],[0.311613889,46.587487222],[0.311625,46.587488611],[0.311636944,46.587491389],[0.3116475,46.587495556],[0.311656389,46.587501389],[0.311663889,46.587508056],[0.311668889,46.587515],[0.311671389,46.587521389],[0.311672778,46.5875275],[0.311672222,46.587533889],[0.311670833,46.587541389],[0.311666667,46.587548333],[0.311661944,46.587554167],[0.311656667,46.587558611],[0.311649722,46.587563333],[0.311643333,46.587566111],[0.311695833,46.587627222],[0.311683889,46.587631944],[0.311707222,46.587622222]],[[0.311580556,46.587493056],[0.311528056,46.587432222],[0.311515278,46.5874375],[0.311539444,46.5874275]],[[0.311980278,46.58743],[0.31197,46.587433333],[0.311958611,46.587435278],[0.311946389,46.587435833],[0.311933333,46.587434722],[0.311921389,46.587431389],[0.311910833,46.587426944],[0.311900833,46.58742],[0.311893889,46.5874125],[0.311889444,46.587404167],[0.311887778,46.587393889],[0.311889167,46.587384444],[0.311894167,46.587375],[0.311901944,46.587366944],[0.311911389,46.587360833],[0.311923333,46.587355556],[0.311936944,46.587352778],[0.311951667,46.587351667],[0.311966389,46.587353611],[0.311980556,46.587358056],[0.311992222,46.587364444],[0.312001389,46.5873725],[0.312007222,46.587381667],[0.31201,46.587391389],[0.312009167,46.587401944],[0.312004722,46.587411389],[0.311998889,46.587418333],[0.31199,46.587425],[0.311980278,46.58743],[0.312032778,46.587491111],[0.312020556,46.587496111],[0.312045,46.587486111]],[[0.311918611,46.5873575],[0.311865278,46.587295833],[0.311852778,46.587301111],[0.311876667,46.587291111]],[[0.312250278,46.587269167],[0.312241667,46.587271944],[0.3122325,46.587273611],[0.312221111,46.587273889],[0.31221,46.587272222],[0.312199722,46.587268889],[0.312190833,46.587264167],[0.312183611,46.587258056],[0.312179167,46.587251111],[0.312176667,46.587243333],[0.312176944,46.587236111],[0.31218,46.587228889],[0.312185556,46.587220833],[0.312193333,46.587215],[0.312201944,46.587211111],[0.312212778,46.587208056],[0.312224167,46.587206667],[0.312235833,46.5872075],[0.312248333,46.587210833],[0.312258333,46.587216111],[0.312265833,46.587222222],[0.312270833,46.587229167],[0.312273611,46.587236944],[0.312273333,46.587245278],[0.312270833,46.587252222],[0.312266111,46.587258889],[0.312260278,46.587263611],[0.312255556,46.587266667],[0.312250278,46.587269167],[0.312333333,46.587365833],[0.312320833,46.587371111],[0.312345,46.587361111]],[[0.312200833,46.587211667],[0.312171667,46.587177222],[0.312158889,46.5871825],[0.312183333,46.587172222]],[[0.312412222,46.587458056],[0.312403056,46.587460833],[0.312393333,46.587462222],[0.312382778,46.5874625],[0.312371667,46.587460556],[0.312361111,46.587456667],[0.312351389,46.587451111],[0.312344444,46.587444444],[0.312340833,46.5874375],[0.312339444,46.587429722],[0.312340556,46.587422222],[0.312343056,46.587415278],[0.31235,46.587407778],[0.312357778,46.5874025],[0.312366667,46.587398889],[0.312376944,46.587396389],[0.312386389,46.587395556],[0.312396389,46.587396111],[0.312406111,46.587397778],[0.312415833,46.587401667],[0.312424167,46.587406944],[0.312430556,46.587413056],[0.312434167,46.587419167],[0.312436389,46.587426389],[0.312435833,46.587434167],[0.312433056,46.587441389],[0.312427778,46.587448056],[0.312421944,46.5874525],[0.312417222,46.587455556],[0.312412222,46.587458056]],[[0.311228611,46.586903611],[0.310700278,46.586808333],[0.310696667,46.586818056],[0.310704167,46.586798889]],[[0.310791667,46.58639],[0.310321944,46.586306111],[0.310318056,46.586316111],[0.310325556,46.586296389]],[[0.310403611,46.585931667],[0.309944167,46.585848889],[0.309940556,46.585859167],[0.3099475,46.585839444]],[[0.309983056,46.5854975],[0.3099725,46.585501111],[0.309961389,46.585503611],[0.30995,46.585504444],[0.309936944,46.585504167],[0.309924444,46.5855025],[0.3099125,46.585498889],[0.3099025,46.585494722],[0.309895,46.58549],[0.309888056,46.585484722],[0.309881944,46.5854775],[0.309877778,46.585470278],[0.309874722,46.585461667],[0.309874444,46.585453333],[0.309876389,46.585444444],[0.309880278,46.585435278],[0.309887222,46.585427222],[0.309895833,46.58542],[0.309905278,46.585414722],[0.309917222,46.585410278],[0.309932222,46.585406944],[0.3099475,46.585406111],[0.309961667,46.5854075],[0.309975,46.585410278],[0.309987222,46.585415],[0.309998056,46.585421667],[0.310005556,46.585428333],[0.310011389,46.585435556],[0.310015833,46.585443889],[0.310017222,46.5854525],[0.310017222,46.58546],[0.310014167,46.58547],[0.310010278,46.585476667],[0.310004444,46.585484167],[0.309998611,46.585488889],[0.309991111,46.585493889],[0.309983056,46.5854975],[0.309995,46.585512222],[0.309983611,46.585516944],[0.310006389,46.585507222]],[[0.309910556,46.585412778],[0.309838889,46.585328611],[0.309826944,46.585333333],[0.309852222,46.585323611]],[[0.309957222,46.584775278],[0.309883333,46.584741667]],[[0.310222222,46.584555],[0.310149167,46.584510278]],[[0.310440278,46.584492778],[0.310361667,46.584448056]],[[0.310583056,46.584389167],[0.310502222,46.584341944]],[[0.310720556,46.584281944],[0.310620556,46.584221389]],[[0.310857778,46.584172778],[0.310737222,46.584100278]],[[0.310995,46.584064167],[0.310875278,46.583992222]],[[0.311134722,46.5839575],[0.311013333,46.583883889]],[[0.311271111,46.583847778],[0.311152778,46.583778611]]]}},{"type":"Feature","id":"LFBI-f2c053d22faeb8314990","properties":{"airport":"LFBI","name":"LFBI Groundlayout AVISO","layer":"Guidance lines","category":"Taxiway Orange","object_type":"Line","style_id":"line.taxiwayorange.cc6d00","source_group":"LFBI Groundlayout AVISO","vsmr_group_ids":[],"geometry_role":"linework"},"geometry":{"type":"MultiLineString","coordinates":[[[0.310531111,46.587405833],[0.3105425,46.587401111]],[[0.310551667,46.5873975],[0.310563611,46.5873925]],[[0.310571111,46.587389722],[0.310583333,46.587384167]],[[0.310591944,46.587380833],[0.310603333,46.587376111]],[[0.310611944,46.5873725],[0.310623611,46.587367778]],[[0.3106325,46.587364444],[0.310643056,46.587360278]],[[0.310651944,46.587355833],[0.310663333,46.587351111]],[[0.3106725,46.587347778],[0.310683611,46.587342778]],[[0.310692222,46.587339444],[0.310703889,46.587334722]],[[0.309145833,46.58591],[0.309156667,46.585912222]],[[0.309166389,46.585914722],[0.309179167,46.5859175]],[[0.309188333,46.585919444],[0.309201944,46.5859225]],[[0.309211667,46.585924444],[0.309224167,46.585927222]],[[0.309232778,46.585929167],[0.309246944,46.585931944]],[[0.309256111,46.585933889],[0.309268889,46.585936944]],[[0.309278611,46.585938611],[0.309291944,46.585941389]],[[0.309300556,46.585943056],[0.309313333,46.585946111]],[[0.309323611,46.585947778],[0.309336111,46.585950556]],[[0.309600278,46.584778333],[0.3096075,46.584781944]],[[0.309617222,46.584785833],[0.309627778,46.584791389]],[[0.309636667,46.584795],[0.309647222,46.584800556]],[[0.309655833,46.584804722],[0.309665556,46.584809722]],[[0.309674722,46.584813611],[0.309683611,46.5848175]]]}},{"type":"Feature","id":"LFBI-b4b9ed4a11558bd3935b","properties":{"airport":"LFBI","name":"LFBI Groundlayout AVISO","layer":"Guidance lines","category":"Runway Border","object_type":"Line","style_id":"line.runwayborder.808080","source_group":"LFBI Groundlayout AVISO","vsmr_group_ids":[],"geometry_role":"linework"},"geometry":{"type":"MultiLineString","coordinates":[[[0.299949722,46.582550278],[0.300028333,46.582611944],[0.299988611,46.582535833]],[[0.300236667,46.5824375],[0.300313889,46.582497222],[0.3002725,46.5824225]],[[0.3005225,46.582323333],[0.300601389,46.5823825],[0.300558611,46.582307778]],[[0.306810556,46.585287222],[0.306771944,46.585214444],[0.306846944,46.585274167]],[[0.307093333,46.585177778],[0.307053056,46.585101389],[0.307131944,46.585161667]],[[0.307377222,46.585064167],[0.307335833,46.584989167],[0.307414167,46.585049444]],[[0.303670556,46.581623611],[0.303749444,46.581684444],[0.303709722,46.581608889]],[[0.303955,46.581511667],[0.304031667,46.581571667],[0.303993056,46.581495556]],[[0.304234722,46.581398611],[0.304313056,46.581460833],[0.304276389,46.581383889]]]}},{"type":"Feature","id":"LFBI-008477151914d68d055d","properties":{"airport":"LFBI","name":"03","layer":"Labels","category":"Taxiways","object_type":"Label","style_id":"label.taxiways","source_group":"LFBI Taxiways","vsmr_group_ids":[],"geometry_role":"text_label","text-field":"03"},"geometry":{"type":"Point","coordinates":[0.300403056,46.579879722]}},{"type":"Feature","id":"LFBI-72f34f45220ee5b53546","properties":{"airport":"LFBI","name":"21","layer":"Labels","category":"Taxiways","object_type":"Label","style_id":"label.taxiways","source_group":"LFBI Taxiways","vsmr_group_ids":[],"geometry_role":"text_label","text-field":"21"},"geometry":{"type":"Point","coordinates":[0.315525556,46.597524167]}},{"type":"Feature","id":"LFBI-2c708b496fee1aad940d","properties":{"airport":"LFBI","name":"03L","layer":"Labels","category":"Taxiways","object_type":"Label","style_id":"label.taxiways","source_group":"LFBI Taxiways","vsmr_group_ids":[],"geometry_role":"text_label","text-field":"03L"},"geometry":{"type":"Point","coordinates":[0.300466667,46.582793889]}},{"type":"Feature","id":"LFBI-ff2c7b3424bdd5b61484","properties":{"airport":"LFBI","name":"03R","layer":"Labels","category":"Taxiways","object_type":"Label","style_id":"label.taxiways","source_group":"LFBI Taxiways","vsmr_group_ids":[],"geometry_role":"text_label","text-field":"03R"},"geometry":{"type":"Point","coordinates":[0.304239444,46.581854444]}},{"type":"Feature","id":"LFBI-fd845282260e752cfbbf","properties":{"airport":"LFBI","name":"21L","layer":"Labels","category":"Taxiways","object_type":"Label","style_id":"label.taxiways","source_group":"LFBI Taxiways","vsmr_group_ids":[],"geometry_role":"text_label","text-field":"21L"},"geometry":{"type":"Point","coordinates":[0.306809444,46.584860556]}},{"type":"Feature","id":"LFBI-a5c021307b47414cdfd6","properties":{"airport":"LFBI","name":"21R","layer":"Labels","category":"Taxiways","object_type":"Label","style_id":"label.taxiways","source_group":"LFBI Taxiways","vsmr_group_ids":[],"geometry_role":"text_label","text-field":"21R"},"geometry":{"type":"Point","coordinates":[0.308586667,46.592245]}},{"type":"Feature","id":"LFBI-a563019e187de56a7700","properties":{"airport":"LFBI","name":"A","layer":"Labels","category":"Taxiways","object_type":"Label","style_id":"label.taxiways","source_group":"LFBI Taxiways","vsmr_group_ids":[],"geometry_role":"text_label","text-field":"A"},"geometry":{"type":"Point","coordinates":[0.309138056,46.586700833]}},{"type":"Feature","id":"LFBI-c5735e815f718b79ef7a","properties":{"airport":"LFBI","name":"B","layer":"Labels","category":"Taxiways","object_type":"Label","style_id":"label.taxiways","source_group":"LFBI Taxiways","vsmr_group_ids":[],"geometry_role":"text_label","text-field":"B"},"geometry":{"type":"Point","coordinates":[0.305994167,46.587565278]}},{"type":"Feature","id":"LFBI-fba828832ae931fd2b77","properties":{"airport":"LFBI","name":"C","layer":"Labels","category":"Taxiways","object_type":"Label","style_id":"label.taxiways","source_group":"LFBI Taxiways","vsmr_group_ids":[],"geometry_role":"text_label","text-field":"C"},"geometry":{"type":"Point","coordinates":[0.308914722,46.585713889]}},{"type":"Feature","id":"LFBI-ddcf995723490290e668","properties":{"airport":"LFBI","name":"D","layer":"Labels","category":"Taxiways","object_type":"Label","style_id":"label.taxiways","source_group":"LFBI Taxiways","vsmr_group_ids":[],"geometry_role":"text_label","text-field":"D"},"geometry":{"type":"Point","coordinates":[0.308700833,46.593164444]}},{"type":"Feature","id":"LFBI-ba798a055e8f78e940d6","properties":{"airport":"LFBI","name":"A1","layer":"Labels","category":"Taxiways","object_type":"Label","style_id":"label.taxiways","source_group":"LFBI Taxiways","vsmr_group_ids":[],"geometry_role":"text_label","text-field":"A1"},"geometry":{"type":"Point","coordinates":[0.310805,46.587296111]}},{"type":"Feature","id":"LFBI-d8d36ac6892d32dd5f48","properties":{"airport":"LFBI","name":"A2","layer":"Labels","category":"Taxiways","object_type":"Label","style_id":"label.taxiways","source_group":"LFBI Taxiways","vsmr_group_ids":[],"geometry_role":"text_label","text-field":"A2"},"geometry":{"type":"Point","coordinates":[0.309022222,46.585923333]}},{"type":"Feature","id":"LFBI-23f1cf458a23b13ab51c","properties":{"airport":"LFBI","name":"A3","layer":"Labels","category":"Taxiways","object_type":"Label","style_id":"label.taxiways","source_group":"LFBI Taxiways","vsmr_group_ids":[],"geometry_role":"text_label","text-field":"A3"},"geometry":{"type":"Point","coordinates":[0.3096225,46.584876667]}}]}
