{"type":"FeatureCollection","name":"LFBK AVISO","bbox":[2.359,46.216416667,2.367611111,46.231388889],"metadata":{"schema":"vSMR AVISO","schema_version":2,"geometry_mode":"shared","airport":"LFBK","coordinate_reference_system":"WGS84","coordinate_order":"longitude, latitude","default_color_palette":"dark","color_palettes":["dark","light"],"background_colors":{"dark":"#434A4F","light":"#434A4F"},"runways":[{"ends":["17R","35L"],"headings":[166,346],"thresholds":[[2.361980833,46.224577778],[2.364513889,46.216780833]]},{"ends":["17","35"],"headings":[166,346],"thresholds":[[2.361221944,46.231002778],[2.366649722,46.214327778]]}],"saved_active_runways":[],"saved_active_airport_modes":[],"airport_reference":[2.362777778,46.226110833],"feature_count":2,"style_count":2,"layer_counts":{"Guidance lines":2},"category_counts":{"Grass runways":1,"Runways":1},"geometry_source":"local GNG/KMZ","geometry_source_url":"","geometry_license":"GPL-3.0"},"styles":{"line.runwaygrass.008000":{"name":"Grass runways","layer":"Guidance lines","object_type":"Line","paint":{"stroke":"#859A77","stroke-opacity":1,"stroke-width":1,"palette-overrides":{"light":{"stroke":"#008000"}}},"feature_count":1},"line.runwayconcrete.555555":{"name":"Runways","layer":"Guidance lines","object_type":"Line","paint":{"stroke":"#111318","stroke-opacity":1,"stroke-width":1,"palette-overrides":{"light":{"stroke":"#555555"}}},"feature_count":1}},"vsmr_groups":[],"features":[{"type":"Feature","id":"LFBK-0f68feb8b9a17f86a376","properties":{"airport":"LFBK","name":"LFBK Groundlayout","layer":"Guidance lines","category":"Grass runways","object_type":"Line","style_id":"line.runwaygrass.008000","source_group":"LFBK Groundlayout","vsmr_group_ids":[],"geometry_role":"linework"},"geometry":{"type":"MultiLineString","coordinates":[[[2.359777778,46.224222222],[2.362277778,46.216416667]],[[2.364222222,46.224972222],[2.359777778,46.224222222]],[[2.366722222,46.217194444],[2.362277778,46.216416667]]]}},{"type":"Feature","id":"LFBK-11538d2e4dae79f35e64","properties":{"airport":"LFBK","name":"LFBK Groundlayout","layer":"Guidance lines","category":"Runways","object_type":"Line","style_id":"line.runwayconcrete.555555","source_group":"LFBK Groundlayout","vsmr_group_ids":[],"geometry_role":"linework"},"geometry":{"type":"MultiLineString","coordinates":[[[2.363416667,46.231388889],[2.367611111,46.218694444]],[[2.359,46.230611111],[2.363194444,46.217916667]],[[2.363416667,46.231388889],[2.359,46.230611111]],[[2.367611111,46.218694444],[2.363194444,46.217916667]]]}}]}
