{"type":"FeatureCollection","name":"LFBL AVISO","bbox":[1.170210377172634,45.85040813541132,1.194463238656283,45.87553655212987],"metadata":{"schema":"vSMR AVISO","schema_version":2,"geometry_mode":"shared","airport":"LFBL","coordinate_reference_system":"WGS84","coordinate_order":"longitude, latitude","default_color_palette":"dark","color_palettes":["dark","light"],"background_colors":{"dark":"#434A4F","light":"#434A4F"},"runways":[{"ends":["03R","21L"],"headings":[32,212],"thresholds":[[1.175282778,45.852955833],[1.180930833,45.858968889]]},{"ends":["03","21"],"headings":[32,212],"thresholds":[[1.172538889,45.852488889],[1.189138889,45.870175]]}],"saved_active_runways":[],"saved_active_airport_modes":[],"airport_reference":[1.180277778,45.860832778],"feature_count":92,"style_count":13,"layer_counts":{"Airfield surfaces":8,"Buildings and structures":11,"Guidance lines":44,"Labels":26,"Surface markings":2,"Terrain":1},"category_counts":{"Buildings":11,"Gates":14,"Grass":1,"Grass runways":2,"Hard Surface 2":1,"Hard Surface 3":3,"Hard Surface 4":1,"Runway Border":7,"Runways":1,"Stopbars":2,"Taxiway Orange":21,"Taxiways":28},"geometry_source":"local GNG/KMZ","geometry_source_url":"","geometry_license":"GPL-3.0"},"styles":{"polygon.grassurface.00512f":{"name":"Grass","layer":"Terrain","object_type":"Area","paint":{"fill":"#010D19","fill-opacity":1,"palette-overrides":{"light":{"fill":"#00512F"}}},"feature_count":1},"polygon.runwaygrass.008000":{"name":"Grass runways","layer":"Airfield surfaces","object_type":"Area","paint":{"fill":"#859A77","fill-opacity":1,"palette-overrides":{"light":{"fill":"#008000"}}},"feature_count":2},"polygon.hardsurface4.969393":{"name":"Hard Surface 4","layer":"Airfield surfaces","object_type":"Area","paint":{"fill":"#152841","fill-opacity":1,"palette-overrides":{"light":{"fill":"#969393"}}},"feature_count":1},"polygon.hardsurface3.8a807f":{"name":"Hard Surface 3","layer":"Airfield surfaces","object_type":"Area","paint":{"fill":"#222D3C","fill-opacity":1,"palette-overrides":{"light":{"fill":"#8A807F"}}},"feature_count":3},"polygon.hardsurface2.595e5b":{"name":"Hard Surface 2","layer":"Airfield surfaces","object_type":"Area","paint":{"fill":"#2F3949","fill-opacity":1,"palette-overrides":{"light":{"fill":"#595E5B"}}},"feature_count":1},"polygon.runwayconcrete.555555":{"name":"Runways","layer":"Airfield surfaces","object_type":"Area","paint":{"fill":"#111318","fill-opacity":1,"palette-overrides":{"light":{"fill":"#555555"}}},"feature_count":1},"polygon.building.394446":{"name":"Buildings","layer":"Buildings and structures","object_type":"Area","paint":{"fill":"#475570","fill-opacity":1,"palette-overrides":{"light":{"fill":"#394446"}}},"feature_count":11},"polygon.stopbar.7e0000":{"name":"Stopbars","layer":"Surface markings","object_type":"Area","paint":{"fill":"#7E0000","fill-opacity":1,"palette-overrides":{"light":{"fill":"#7E0000"}}},"feature_count":2},"line.runwayborder.808080":{"name":"Runway Border","layer":"Guidance lines","object_type":"Line","paint":{"stroke":"#808080","stroke-opacity":1,"stroke-width":1,"palette-overrides":{"light":{"stroke":"#808080"}}},"feature_count":7},"line.taxiway.c0b631":{"name":"Taxiways","layer":"Guidance lines","object_type":"Line","paint":{"stroke":"#4E5A69","stroke-opacity":1,"stroke-width":1,"palette-overrides":{"light":{"stroke":"#C0B631"}}},"feature_count":16},"line.taxiwayorange.cc6d00":{"name":"Taxiway Orange","layer":"Guidance lines","object_type":"Line","paint":{"stroke":"#CC8B00","stroke-opacity":1,"stroke-width":1,"palette-overrides":{"light":{"stroke":"#CC6D00"}}},"feature_count":21},"label.gates":{"name":"Gates","layer":"Labels","object_type":"Label","paint":{"text-color":"#CCCCCC","text-font":"Arial","text-size":12,"text-halo-color":"#000000","text-halo-width":1,"text-anchor":"center","zoomLevel":9},"feature_count":14},"label.taxiways":{"name":"Taxiways","layer":"Labels","object_type":"Label","paint":{"text-color":"#CCCCCC","text-font":"Arial","text-size":12,"text-halo-color":"#000000","text-halo-width":1,"text-anchor":"center","zoomLevel":7},"feature_count":12}},"vsmr_groups":[],"features":[{"type":"Feature","id":"LFBL-8c5f9c81af98ca927c39","properties":{"airport":"LFBL","name":"COLOR_GrasSurface","layer":"Terrain","category":"Grass","object_type":"Area","style_id":"polygon.grassurface.00512f","source_group":"COLOR_GrasSurface","vsmr_group_ids":[],"geometry_role":"filled_region"},"geometry":{"type":"Polygon","coordinates":[[[1.170455214378563,45.85302810933895],[1.170223251339926,45.85162649070357],[1.170210377172634,45.85145263383951],[1.170210446582092,45.85111991029516],[1.170240599170738,45.8509850253192],[1.170279355468249,45.85086512864416],[1.170374049751584,45.85078120780845],[1.171218600189947,45.85040813541132],[1.172311204785765,45.85079540261695],[1.172566268673776,45.85092801625897],[1.174340399777183,45.85211276742722],[1.177419389477123,45.85256839530808],[1.178635729371709,45.85397706448027],[1.178521992594712,45.85403561055929],[1.182924592236043,45.85871883415417],[1.182784292038104,45.86014476953208],[1.184887922690216,45.86238618480051],[1.184767379747309,45.8624357784109],[1.186359360636404,45.86406887678037],[1.187669264030218,45.86534152035119],[1.188348809387902,45.86605657002507],[1.190882770047343,45.86877458719028],[1.192695815384266,45.87060286342267],[1.191897767034622,45.87092740765141],[1.191013111928412,45.87158677461216],[1.192337762348885,45.87288392463925],[1.192364918066919,45.87309631440384],[1.194463238656283,45.87518880938724],[1.193569132497192,45.87553655212987],[1.191687482828454,45.8733618820726],[1.191490076077928,45.87335381407407],[1.189399743443522,45.872149326492],[1.187901892095169,45.87282854292769],[1.186443901886185,45.87129418836256],[1.185507035047977,45.87024407300352],[1.179454028511917,45.86379043856875],[1.177978668029194,45.86406306027239],[1.173850993402457,45.85980361398948],[1.174283892651344,45.85957607252008],[1.172594313130932,45.85778280959906],[1.171344205513549,45.85644585982269],[1.171799868556787,45.85619468990585],[1.170762265542018,45.85524704394473],[1.171521367649091,45.85499150434009],[1.170655018099871,45.85359886671413],[1.170499402125644,45.85334715944452],[1.170455214378563,45.85302810933895]]]}},{"type":"Feature","id":"LFBL-9ad5a0527a9df55cdaf5","properties":{"airport":"LFBL","name":"COLOR_RunwayGrass","layer":"Airfield surfaces","category":"Grass runways","object_type":"Area","style_id":"polygon.runwaygrass.008000","source_group":"COLOR_RunwayGrass","vsmr_group_ids":[],"geometry_role":"filled_region"},"geometry":{"type":"Polygon","coordinates":[[[1.174860191954283,45.85317492263567],[1.175860064774463,45.8527225758774],[1.175964825138927,45.85278213589667],[1.176168364596955,45.85293251745323],[1.176347225504859,45.85313660067435],[1.176531222479975,45.85333992374389],[1.176737565540453,45.85358088237521],[1.176948599802718,45.85380012377706],[1.177030793051326,45.85387115722672],[1.177095637260468,45.85391938890412],[1.177073743836234,45.85403048116896],[1.177081586730049,45.85414398312079],[1.177109066471871,45.85422876870851],[1.181354645609902,45.85875415209355],[1.180503143929437,45.8591462883467],[1.174860191954283,45.85317492263567]]]}},{"type":"Feature","id":"LFBL-784ad9ea45874a737d43","properties":{"airport":"LFBL","name":"COLOR_RunwayGrass","layer":"Airfield surfaces","category":"Grass runways","object_type":"Area","style_id":"polygon.runwaygrass.008000","source_group":"COLOR_RunwayGrass","vsmr_group_ids":[],"geometry_role":"filled_region"},"geometry":{"type":"Polygon","coordinates":[[[1.174647924438179,45.85893142755953],[1.175400995006983,45.8585809529271],[1.175446610373787,45.85862807515637],[1.17468973088918,45.85898190212367],[1.174647924438179,45.85893142755953]]]}},{"type":"Feature","id":"LFBL-a149bc86eb2eceef27a0","properties":{"airport":"LFBL","name":"COLOR_HardSurface4","layer":"Airfield surfaces","category":"Hard Surface 4","object_type":"Area","style_id":"polygon.hardsurface4.969393","source_group":"COLOR_HardSurface4","vsmr_group_ids":[],"geometry_role":"filled_region"},"geometry":{"type":"Polygon","coordinates":[[[1.17584765105577,45.86102359074175],[1.175576696779455,45.86073617101771],[1.176193656027245,45.86045543987046],[1.176310996970187,45.86059109800183],[1.176334092179832,45.86060373712142],[1.176373684958667,45.86061637710014],[1.176413279342099,45.86061408134945],[1.17646442347155,45.86059799936844],[1.177049709107907,45.86033319577119],[1.177193615380605,45.86015156821486],[1.177252892656433,45.8601838715771],[1.177301496158436,45.86019823143575],[1.177351572546652,45.86019618009877],[1.177385447763004,45.8601879745371],[1.178367358526962,45.85973111870266],[1.178456333237721,45.85968552174722],[1.178525162428707,45.85964109406525],[1.178572167499203,45.85960251222973],[1.178610778379676,45.8595522391273],[1.178635958769449,45.85949144393422],[1.178644351475899,45.85943532543106],[1.178637635390232,45.85938739100408],[1.178608261948613,45.85932754917589],[1.178565754240859,45.85926265192195],[1.179041971741612,45.85976593237147],[1.178973366015412,45.85972313271552],[1.178894756209727,45.85969924501032],[1.178814717499708,45.85968232482628],[1.178740396076732,45.85967237205116],[1.178673221165398,45.85967137739933],[1.178587466234302,45.859682327191],[1.178514574674334,45.8597002443207],[1.177433519950195,45.86019706543855],[1.177382167915031,45.86022120246455],[1.177358413879852,45.86024270775125],[1.177346536824433,45.86026421304569],[1.177344161343921,45.86028985399528],[1.177353662894587,45.86031466782865],[1.176189557007241,45.86082840000371],[1.176405241097189,45.86110205099104],[1.176819049299973,45.86119989488794],[1.17672411357677,45.86142726381809],[1.176826606190606,45.86155946277992],[1.177320143877165,45.86167317227023],[1.177210857012507,45.86195511648569],[1.178834883429714,45.86370919000456],[1.178624228100473,45.863800169927],[1.176637983338269,45.86159943536336],[1.17668226118238,45.8615788819791],[1.17644828690173,45.86133731762],[1.176211242279019,45.86142968393666],[1.17610687335022,45.86131004035374],[1.176319998005964,45.86120707223084],[1.176085167108036,45.86095112502608],[1.176059072706757,45.86094203713159],[1.176022103699141,45.86094657830119],[1.17584765105577,45.86102359074175]]]}},{"type":"Feature","id":"LFBL-182ec4173d4ca2fc6e84","properties":{"airport":"LFBL","name":"COLOR_HardSurface3","layer":"Airfield surfaces","category":"Hard Surface 3","object_type":"Area","style_id":"polygon.hardsurface3.8a807f","source_group":"COLOR_HardSurface3","vsmr_group_ids":[],"geometry_role":"filled_region"},"geometry":{"type":"Polygon","coordinates":[[[1.173562703528683,45.85828894646142],[1.173875458685616,45.85814375087607],[1.174016619909866,45.85829501034437],[1.173816803996111,45.85839029542091],[1.174373192984592,45.85894072575785],[1.174584452838143,45.85884333890257],[1.17550554614519,45.85981483976952],[1.175529458722868,45.85983334399302],[1.175557357185109,45.85983982075972],[1.175593226956761,45.85983704569129],[1.175617140377145,45.85982686890294],[1.175892144177078,45.85970104604517],[1.176142793621218,45.85996253583251],[1.176157963116038,45.85997430315397],[1.176178514920456,45.85998074403511],[1.176198039275769,45.85997931294424],[1.176235032930388,45.85996857876732],[1.176338818425327,45.86008021830963],[1.176341900741069,45.86011170618211],[1.176357314309111,45.86014033162495],[1.176455962680223,45.860246961808],[1.175737869060156,45.86057141514283],[1.175280472102367,45.86007747860428],[1.175259763451533,45.86008680984377],[1.173562703528683,45.85828894646142]]]}},{"type":"Feature","id":"LFBL-21e9082b3368854030f9","properties":{"airport":"LFBL","name":"COLOR_HardSurface3","layer":"Airfield surfaces","category":"Hard Surface 3","object_type":"Area","style_id":"polygon.hardsurface3.8a807f","source_group":"COLOR_HardSurface3","vsmr_group_ids":[],"geometry_role":"filled_region"},"geometry":{"type":"Polygon","coordinates":[[[1.178086475228621,45.86167209630936],[1.178141004359752,45.86201382150419],[1.178707127405914,45.86264455006805],[1.178986178964874,45.86252462242552],[1.179072915778485,45.86263053900642],[1.179184802813242,45.86275283932171],[1.179927761085426,45.86353269255358],[1.179585659081381,45.86368393050854],[1.179372287849458,45.86347461603787],[1.178804816028685,45.86372334501768],[1.177148030299175,45.86195877626715],[1.177284574453079,45.86168935921077],[1.176802533637415,45.86158850736985],[1.176659784681979,45.86144155220448],[1.176770001867777,45.86121054793963],[1.176371465948751,45.86112691991273],[1.176131012444843,45.86085884753321],[1.176160771855299,45.86079207152234],[1.176900818156779,45.86046357154923],[1.178086475228621,45.86167209630936]]]}},{"type":"Feature","id":"LFBL-e9f2a8915647ead21455","properties":{"airport":"LFBL","name":"COLOR_HardSurface3","layer":"Airfield surfaces","category":"Hard Surface 3","object_type":"Area","style_id":"polygon.hardsurface3.8a807f","source_group":"COLOR_HardSurface3","vsmr_group_ids":[],"geometry_role":"filled_region"},"geometry":{"type":"Polygon","coordinates":[[[1.177436039309896,45.8536807117493],[1.177305236420316,45.85373935202207],[1.177225551544279,45.85379380384362],[1.177181949909116,45.8538534916834],[1.177096250570311,45.85392050940465],[1.177028594748426,45.85387024519144],[1.177069189385598,45.85382835908255],[1.17710377022441,45.85377285985788],[1.177117302083024,45.85373411505414],[1.177096254077485,45.8536911813781],[1.177049280070421,45.85362593907187],[1.176827399711575,45.853369647306],[1.1768287782477,45.85335044956962],[1.177013322615108,45.85325412886606],[1.177436039309896,45.8536807117493]]]}},{"type":"Feature","id":"LFBL-ec10da5f07c2a60e7337","properties":{"airport":"LFBL","name":"COLOR_HardSurface2","layer":"Airfield surfaces","category":"Hard Surface 2","object_type":"Area","style_id":"polygon.hardsurface2.595e5b","source_group":"COLOR_HardSurface2","vsmr_group_ids":[],"geometry_role":"filled_region"},"geometry":{"type":"Polygon","coordinates":[[[1.172431711142978,45.85504867007028],[1.172708094893105,45.85498815850762],[1.172813542004767,45.85526997783511],[1.172882699861588,45.85543605510171],[1.172940939346543,45.85556156411295],[1.173025171441442,45.85569930914484],[1.173144073754517,45.85586282692778],[1.173347734421288,45.85608733493255],[1.174480128687105,45.85727449615337],[1.175634824880387,45.85848023148122],[1.176409652972215,45.85929544489093],[1.177140066785467,45.86008314901049],[1.17803868439635,45.86103102366914],[1.178136067073392,45.86113652141979],[1.178216773881668,45.86119629180534],[1.178312853021513,45.86124714079541],[1.17841533699504,45.86128014740226],[1.178515258677568,45.86130155652469],[1.178592121327633,45.8613095842806],[1.178694604775681,45.86131315099259],[1.178896076548026,45.86153683625079],[1.17875554499663,45.861605578968],[1.178666876646368,45.86166266976499],[1.178621706497467,45.86170810892786],[1.178583228641226,45.86176053849771],[1.178556462418927,45.86182694898771],[1.178550580103652,45.8619011593613],[1.178562680488646,45.86196961183537],[1.178597464943543,45.8620433295418],[1.178704840639397,45.86218760506653],[1.178990692079116,45.86253231364505],[1.178698041775905,45.86266590242585],[1.178098319642271,45.86202965472356],[1.178046222354348,45.86169616774831],[1.176889439767508,45.86046679199201],[1.177075683693929,45.86038719488747],[1.176883727038358,45.86016557402581],[1.176819137136731,45.86010616526754],[1.176755766145976,45.8600679739431],[1.176680208579273,45.8600408156687],[1.176604651095903,45.86002469041474],[1.176523000293184,45.86001790077425],[1.176449880144328,45.86002044676027],[1.176395039974962,45.86003232841581],[1.176362135799438,45.86005015099304],[1.176347511667872,45.86006627621568],[1.176337849114575,45.8600809165341],[1.176232222407694,45.85996891221351],[1.176281586063956,45.85994895127931],[1.176325111034444,45.85992011869018],[1.176340167980454,45.85989593578098],[1.176181285929159,45.8597289914008],[1.176373115059939,45.85963739486724],[1.176290750751205,45.85954713970261],[1.175886343902417,45.85909658163045],[1.174345307418656,45.85749533508257],[1.173556143770587,45.85666024691528],[1.17307707344056,45.85614889251447],[1.172933887238385,45.85598532853109],[1.172827930625882,45.85585567429924],[1.172721975728646,45.85570806821465],[1.172641796485541,45.855560462716],[1.172547182777752,45.85534789082947],[1.172431711142978,45.85504867007028]]]}},{"type":"Feature","id":"LFBL-e895c4b42dba48c7ef4d","properties":{"airport":"LFBL","name":"COLOR_RunwayConcrete","layer":"Airfield surfaces","category":"Runways","object_type":"Area","style_id":"polygon.runwayconcrete.555555","source_group":"COLOR_RunwayConcrete","vsmr_group_ids":[],"geometry_role":"filled_region"},"geometry":{"type":"Polygon","coordinates":[[[1.173804834565664,45.85422630852667],[1.173740969165455,45.85416487880719],[1.173640608035948,45.85411192134909],[1.173538726070145,45.8540716731633],[1.173421636773806,45.85405684330559],[1.173313670954321,45.85405366376207],[1.173184415307575,45.85406742945251],[1.17305667926811,45.85410025906814],[1.172960876344356,45.85413944401031],[1.17286203074525,45.85419981111271],[1.172778059974693,45.8542659568713],[1.172711148009624,45.85433637377832],[1.172660591210517,45.85440679110294],[1.172633823499629,45.85448445806757],[1.172620436907135,45.85457041001444],[1.172637243553929,45.85470242492051],[1.172709306030275,45.85499575891939],[1.1724337073469,45.85505481169694],[1.172322073724135,45.85476246049289],[1.172286746690376,45.85466993177342],[1.172269792839273,45.85457346614518],[1.172267638406921,45.85449891280768],[1.172273883894068,45.85442719196552],[1.172308214360138,45.85434351849828],[1.172358147342447,45.8542544121118],[1.172417441121893,45.85417182606913],[1.172482703729392,45.8541134993913],[1.17259699577466,45.85402837520926],[1.172733509007478,45.85395209602731],[1.172839861477128,45.85390124362169],[1.172930341041549,45.85384154642204],[1.172985899683616,45.85378184834555],[1.173025585390797,45.85371772769128],[1.17305098546566,45.8536502900362],[1.173060512183595,45.85358948524419],[1.173058227097794,45.85353477050504],[1.173036576140067,45.85343996288337],[1.173014923334659,45.85338501735205],[1.172904700787429,45.85327161710556],[1.172851737433647,45.85324104983818],[1.172370524961537,45.85307028933192],[1.172313021940352,45.85304709971292],[1.172252493184824,45.85301126199828],[1.172208610471881,45.85297542474635],[1.172176834887158,45.85292483186947],[1.172155652225353,45.85287423928158],[1.172154141942234,45.85282575529114],[1.172166251247253,45.85277516368492],[1.172198284881818,45.85272364537731],[1.172245740290461,45.85267923457942],[1.172294677914374,45.85264411940262],[1.172797390424754,45.85240967778855],[1.189849526123523,45.8705764872301],[1.189892577550327,45.8706052538894],[1.189951124905151,45.87063401860425],[1.190404064958774,45.87079929085881],[1.190464436153718,45.87082388640243],[1.190513030575764,45.87085463425782],[1.190555738270165,45.87089460909777],[1.190595504989382,45.87094791109926],[1.190613189277576,45.87100941708297],[1.190613202229995,45.87105759857124],[1.190599964047405,45.87110475665926],[1.19057200264713,45.87115191667877],[1.190538148895168,45.87118780091703],[1.190493987475387,45.87121856080471],[1.190444734965497,45.8712439626004],[1.189969857947508,45.87145120868179],[1.180456188958325,45.86127922408359],[1.180377118482558,45.86123031656853],[1.180297061764144,45.86119199224046],[1.180215755253879,45.86116499195944],[1.180134449372232,45.86114496025802],[1.180056896640875,45.86113276807835],[1.179976842915966,45.86112928674824],[1.179893037014408,45.8611310319767],[1.179813181875926,45.86114114793501],[1.179744851627027,45.86115534263961],[1.179664534226197,45.86118122547458],[1.179574627290441,45.8612204660189],[1.178892913928899,45.86153624184815],[1.17868906046585,45.86131317658997],[1.178752846938314,45.86130544954025],[1.178837432996191,45.86128999650012],[1.178926178484989,45.86126585220278],[1.179005216766869,45.86123398265536],[1.179388220249278,45.8610619781653],[1.179484208426684,45.86101609868736],[1.179555728343014,45.86097415224293],[1.179606544280312,45.86093351722621],[1.179653595420056,45.86088763932205],[1.179687471270681,45.86084176185801],[1.179717582442597,45.86079195225512],[1.17973640064857,45.86074345378056],[1.179747689395427,45.86068446953325],[1.179749567297461,45.8606254855851],[1.179738270239212,45.86056912357257],[1.179717561538338,45.86051482211916],[1.17969209742572,45.8604696085744],[1.173804834565664,45.85422630852667]]]}},{"type":"Feature","id":"LFBL-c4d362202aa27f002ba8","properties":{"airport":"LFBL","name":"COLOR_Building","layer":"Buildings and structures","category":"Buildings","object_type":"Area","style_id":"polygon.building.394446","source_group":"COLOR_Building","vsmr_group_ids":[],"geometry_role":"filled_region"},"geometry":{"type":"Polygon","coordinates":[[[1.177524731121211,45.85342416213135],[1.177441676279127,45.85346451655211],[1.17753630997147,45.85356675822582],[1.177358611409025,45.85364208570623],[1.177038017312055,45.85330307293711],[1.177300701502755,45.85318470130058],[1.177524731121211,45.85342416213135]]]}},{"type":"Feature","id":"LFBL-c52391dc88c3105f1c27","properties":{"airport":"LFBL","name":"COLOR_Building","layer":"Buildings and structures","category":"Buildings","object_type":"Area","style_id":"polygon.building.394446","source_group":"COLOR_Building","vsmr_group_ids":[],"geometry_role":"filled_region"},"geometry":{"type":"Polygon","coordinates":[[[1.173392053930611,45.85836402804384],[1.1735558402229,45.85828064195308],[1.173735438448451,45.85846461914343],[1.173568129366402,45.8585529108752],[1.173392053930611,45.85836402804384]]]}},{"type":"Feature","id":"LFBL-0b730ac8ac244b211c98","properties":{"airport":"LFBL","name":"COLOR_Building","layer":"Buildings and structures","category":"Buildings","object_type":"Area","style_id":"polygon.building.394446","source_group":"COLOR_Building","vsmr_group_ids":[],"geometry_role":"filled_region"},"geometry":{"type":"Polygon","coordinates":[[[1.173642079424,45.85863999226099],[1.173819954593414,45.85855538035797],[1.174131612573757,45.85888531081285],[1.17396430320162,45.8589711502631],[1.173642079424,45.85863999226099]]]}},{"type":"Feature","id":"LFBL-8e29bd4f8452d31417f0","properties":{"airport":"LFBL","name":"COLOR_Building","layer":"Buildings and structures","category":"Buildings","object_type":"Area","style_id":"polygon.building.394446","source_group":"COLOR_Building","vsmr_group_ids":[],"geometry_role":"filled_region"},"geometry":{"type":"Polygon","coordinates":[[[1.174054100270001,45.85908644051926],[1.174242542396104,45.85900182868406],[1.1744696858384,45.85924467605665],[1.174279483048482,45.85932438245699],[1.174054100270001,45.85908644051926]]]}},{"type":"Feature","id":"LFBL-76ddd2442c75993937f7","properties":{"airport":"LFBL","name":"COLOR_Building","layer":"Buildings and structures","category":"Buildings","object_type":"Area","style_id":"polygon.building.394446","source_group":"COLOR_Building","vsmr_group_ids":[],"geometry_role":"filled_region"},"geometry":{"type":"Polygon","coordinates":[[[1.174385132189717,45.85942618245605],[1.174563008645042,45.8593427958667],[1.175131957469495,45.8599385271059],[1.174894101799515,45.86004247960558],[1.174759809834287,45.85989079304242],[1.174793581249012,45.85987457233429],[1.174385132189717,45.85942618245605]]]}},{"type":"Feature","id":"LFBL-7aaf2e420424320c7eb2","properties":{"airport":"LFBL","name":"COLOR_Building","layer":"Buildings and structures","category":"Buildings","object_type":"Area","style_id":"polygon.building.394446","source_group":"COLOR_Building","vsmr_group_ids":[],"geometry_role":"filled_region"},"geometry":{"type":"Polygon","coordinates":[[[1.175178070558862,45.86027483190271],[1.175316288228552,45.86021265915242],[1.175463043963176,45.86036939490319],[1.175326049371106,45.86043071609836],[1.175178070558862,45.86027483190271]]]}},{"type":"Feature","id":"LFBL-414aecaa1237185a251c","properties":{"airport":"LFBL","name":"COLOR_Building","layer":"Buildings and structures","category":"Buildings","object_type":"Area","style_id":"polygon.building.394446","source_group":"COLOR_Building","vsmr_group_ids":[],"geometry_role":"filled_region"},"geometry":{"type":"Polygon","coordinates":[[[1.175229892157454,45.86067890982871],[1.17541306578596,45.86059957295703],[1.175317890132741,45.86048607227154],[1.175495293620641,45.86040974814946],[1.175652480547755,45.86057347113275],[1.175277480162091,45.8607341536421],[1.175229892157454,45.86067890982871]]]}},{"type":"Feature","id":"LFBL-0a46107ca523865a5b89","properties":{"airport":"LFBL","name":"COLOR_Building","layer":"Buildings and structures","category":"Buildings","object_type":"Area","style_id":"polygon.building.394446","source_group":"COLOR_Building","vsmr_group_ids":[],"geometry_role":"filled_region"},"geometry":{"type":"Polygon","coordinates":[[[1.175415606566865,45.86080569035148],[1.17565439540269,45.86069591150969],[1.175681943439082,45.86072682495493],[1.175769192533931,45.86069058754969],[1.175827349632987,45.86075561231591],[1.175741631334368,45.86078971797033],[1.175942121465325,45.86100930967913],[1.175779867048303,45.861086049001],[1.175685904249082,45.86098796915019],[1.175711268413331,45.86097681492087],[1.175604488307134,45.86086525473258],[1.175508371606175,45.86090615329245],[1.175415606566865,45.86080569035148]]]}},{"type":"Feature","id":"LFBL-7563898b9f174ce1face","properties":{"airport":"LFBL","name":"COLOR_Building","layer":"Buildings and structures","category":"Buildings","object_type":"Area","style_id":"polygon.building.394446","source_group":"COLOR_Building","vsmr_group_ids":[],"geometry_role":"filled_region"},"geometry":{"type":"Polygon","coordinates":[[[1.175812703134973,45.86114880038382],[1.17595687818741,45.86109024100947],[1.176267880154669,45.86141097559957],[1.175986205802166,45.86150392518262],[1.176020925719687,45.86137749785474],[1.175812703134973,45.86114880038382]]]}},{"type":"Feature","id":"LFBL-243d45dcbbd318d407da","properties":{"airport":"LFBL","name":"COLOR_Building","layer":"Buildings and structures","category":"Buildings","object_type":"Area","style_id":"polygon.building.394446","source_group":"COLOR_Building","vsmr_group_ids":[],"geometry_role":"filled_region"},"geometry":{"type":"Polygon","coordinates":[[[1.176220374755395,45.86185054567286],[1.176719720114656,45.86164785598717],[1.177820144037001,45.86287810722246],[1.177378582109618,45.86306415868922],[1.177179257097543,45.86283577462348],[1.177458986178801,45.86272383514132],[1.177399623691195,45.86264954182774],[1.177224949189912,45.86271759093732],[1.176759499238431,45.86219405823331],[1.176583339287325,45.86226852974188],[1.176220374755395,45.86185054567286]]]}},{"type":"Feature","id":"LFBL-b9fbc40b2ceb8d658e1b","properties":{"airport":"LFBL","name":"COLOR_Building","layer":"Buildings and structures","category":"Buildings","object_type":"Area","style_id":"polygon.building.394446","source_group":"COLOR_Building","vsmr_group_ids":[],"geometry_role":"filled_region"},"geometry":{"type":"Polygon","coordinates":[[[1.177585748581416,45.86312148572024],[1.177925491400493,45.86296954582532],[1.178690540246867,45.86377355889339],[1.178298314199406,45.86394281083278],[1.177657552078444,45.86327728584374],[1.177707271100203,45.86325035948212],[1.177585748581416,45.86312148572024]]]}},{"type":"Feature","id":"LFBL-c67ebef5d7f2a9a5285b","properties":{"airport":"LFBL","name":"COLOR_Stopbar","layer":"Surface markings","category":"Stopbars","object_type":"Area","style_id":"polygon.stopbar.7e0000","source_group":"COLOR_Stopbar","vsmr_group_ids":[],"geometry_role":"filled_region"},"geometry":{"type":"Polygon","coordinates":[[[1.17243497091515,45.85506028953207],[1.172423984539062,45.85503350385124],[1.172706016116973,45.8549761151987],[1.172713339998395,45.85500120011033],[1.17243497091515,45.85506028953207]]]}},{"type":"Feature","id":"LFBL-6f9862cbfff84aea39bc","properties":{"airport":"LFBL","name":"COLOR_Stopbar","layer":"Surface markings","category":"Stopbars","object_type":"Area","style_id":"polygon.stopbar.7e0000","source_group":"COLOR_Stopbar","vsmr_group_ids":[],"geometry_role":"filled_region"},"geometry":{"type":"Polygon","coordinates":[[[1.178676403821797,45.86131169144781],[1.178713505055442,45.86130910686008],[1.178914791169718,45.86152742711088],[1.178888820783877,45.86154034639908],[1.178676403821797,45.86131169144781]]]}},{"type":"Feature","id":"LFBL-dc043b58195f19628ea1","properties":{"airport":"LFBL","name":"COLOR_RunwayBorder","layer":"Guidance lines","category":"Runway Border","object_type":"Line","style_id":"line.runwayborder.808080","source_group":"COLOR_RunwayBorder","vsmr_group_ids":[],"geometry_role":"linework"},"geometry":{"type":"LineString","coordinates":[[1.19017248775678,45.87129749758926],[1.190027146031585,45.87114077091513]]}},{"type":"Feature","id":"LFBL-848c2efe6170a49e3568","properties":{"airport":"LFBL","name":"COLOR_RunwayBorder","layer":"Guidance lines","category":"Runway Border","object_type":"Line","style_id":"line.runwayborder.808080","source_group":"COLOR_RunwayBorder","vsmr_group_ids":[],"geometry_role":"linework"},"geometry":{"type":"LineString","coordinates":[[1.190008146639945,45.87115135603722],[1.189954932136901,45.87106338128253],[1.190048995913928,45.87113283156303]]}},{"type":"Feature","id":"LFBL-504576c209efba0d810f","properties":{"airport":"LFBL","name":"COLOR_RunwayBorder","layer":"Guidance lines","category":"Runway Border","object_type":"Line","style_id":"line.runwayborder.808080","source_group":"COLOR_RunwayBorder","vsmr_group_ids":[],"geometry_role":"linework"},"geometry":{"type":"LineString","coordinates":[[1.189817665881459,45.87091331946012],[1.189673239707798,45.8707598629841]]}},{"type":"Feature","id":"LFBL-32458e2c87fa631fffd4","properties":{"airport":"LFBL","name":"COLOR_RunwayBorder","layer":"Guidance lines","category":"Runway Border","object_type":"Line","style_id":"line.runwayborder.808080","source_group":"COLOR_RunwayBorder","vsmr_group_ids":[],"geometry_role":"linework"},"geometry":{"type":"LineString","coordinates":[[1.18965519049933,45.87077110947438],[1.189599126829124,45.87068313478783],[1.189696039699213,45.8707532466191]]}},{"type":"Feature","id":"LFBL-a78e8d9ad30cd56dd9c9","properties":{"airport":"LFBL","name":"COLOR_RunwayBorder","layer":"Guidance lines","category":"Runway Border","object_type":"Line","style_id":"line.runwayborder.808080","source_group":"COLOR_RunwayBorder","vsmr_group_ids":[],"geometry_role":"linework"},"geometry":{"type":"LineString","coordinates":[[1.189461738545734,45.87053477031228],[1.189319443690156,45.87038107991651]]}},{"type":"Feature","id":"LFBL-be7e03c9e9bdeb78f9f9","properties":{"airport":"LFBL","name":"COLOR_RunwayBorder","layer":"Guidance lines","category":"Runway Border","object_type":"Line","style_id":"line.runwayborder.808080","source_group":"COLOR_RunwayBorder","vsmr_group_ids":[],"geometry_role":"linework"},"geometry":{"type":"LineString","coordinates":[[1.189299612751624,45.87039188809141],[1.189245278703703,45.87030543556849],[1.189340137271884,45.87037327361953]]}},{"type":"Feature","id":"LFBL-f75aa1a61d89f982f4d9","properties":{"airport":"LFBL","name":"COLOR_RunwayBorder","layer":"Guidance lines","category":"Runway Border","object_type":"Line","style_id":"line.runwayborder.808080","source_group":"COLOR_RunwayBorder","vsmr_group_ids":[],"geometry_role":"linework"},"geometry":{"type":"LineString","coordinates":[[1.188905543997116,45.87031326063922],[1.189396149667346,45.87009469032876]]}},{"type":"Feature","id":"LFBL-7759e467aea531fa0c4f","properties":{"airport":"LFBL","name":"COLOR_Taxiway","layer":"Guidance lines","category":"Taxiways","object_type":"Line","style_id":"line.taxiway.c0b631","source_group":"COLOR_Taxiway","vsmr_group_ids":[],"geometry_role":"linework"},"geometry":{"type":"LineString","coordinates":[[1.176149332781511,45.86026911038779],[1.176088548504359,45.86020582656761],[1.176075777216172,45.86021212428302],[1.17610025555311,45.86019989926824]]}},{"type":"Feature","id":"LFBL-8c280a7d4e6e89ca31cf","properties":{"airport":"LFBL","name":"COLOR_Taxiway","layer":"Guidance lines","category":"Taxiways","object_type":"Line","style_id":"line.taxiway.c0b631","source_group":"COLOR_Taxiway","vsmr_group_ids":[],"geometry_role":"linework"},"geometry":{"type":"LineString","coordinates":[[1.175988484963086,45.86034402696394],[1.175927312696394,45.86027732214949],[1.175915073537648,45.86028324936774],[1.175937955448134,45.8602721358253]]}},{"type":"Feature","id":"LFBL-6d04f586dcb2ec3144ca","properties":{"airport":"LFBL","name":"COLOR_Taxiway","layer":"Guidance lines","category":"Taxiways","object_type":"Line","style_id":"line.taxiway.c0b631","source_group":"COLOR_Taxiway","vsmr_group_ids":[],"geometry_role":"linework"},"geometry":{"type":"LineString","coordinates":[[1.175829869755878,45.86042071030507],[1.175767633445812,45.86035400528169],[1.175754862087521,45.86036030295956],[1.175779872726301,45.86034770753443]]}},{"type":"Feature","id":"LFBL-28519f928279f648023e","properties":{"airport":"LFBL","name":"COLOR_Taxiway","layer":"Guidance lines","category":"Taxiways","object_type":"Line","style_id":"line.taxiway.c0b631","source_group":"COLOR_Taxiway","vsmr_group_ids":[],"geometry_role":"linework"},"geometry":{"type":"LineString","coordinates":[[1.176432029361036,45.8608686669882],[1.176953291014238,45.86097707115145],[1.176948341739128,45.86099189222554],[1.176957802621865,45.86096320560614]]}},{"type":"Feature","id":"LFBL-1925510d8d7018f61766","properties":{"airport":"LFBL","name":"COLOR_Taxiway","layer":"Guidance lines","category":"Taxiways","object_type":"Line","style_id":"line.taxiway.c0b631","source_group":"COLOR_Taxiway","vsmr_group_ids":[],"geometry_role":"linework"},"geometry":{"type":"LineString","coordinates":[[1.176928217992239,45.86139337401207],[1.177449597064695,45.86150299856708],[1.17744392289554,45.86151653881399],[1.177455271232031,45.86148945832167]]}},{"type":"Feature","id":"LFBL-f0b9e0f687af836c1ba1","properties":{"airport":"LFBL","name":"COLOR_Taxiway","layer":"Guidance lines","category":"Taxiways","object_type":"Line","style_id":"line.taxiway.c0b631","source_group":"COLOR_Taxiway","vsmr_group_ids":[],"geometry_role":"linework"},"geometry":{"type":"LineString","coordinates":[[1.177422962616768,45.86191764480844],[1.177940828075803,45.86202734840064],[1.177933851971649,45.86204327266913],[1.177947641702846,45.86201287852345]]}},{"type":"Feature","id":"LFBL-e92830ef5115113be4bc","properties":{"airport":"LFBL","name":"COLOR_Taxiway","layer":"Guidance lines","category":"Taxiways","object_type":"Line","style_id":"line.taxiway.c0b631","source_group":"COLOR_Taxiway","vsmr_group_ids":[],"geometry_role":"linework"},"geometry":{"type":"LineString","coordinates":[[1.17830665465823,45.8628664295093],[1.17831621015998,45.86283022953059]]}},{"type":"Feature","id":"LFBL-f86f4520c21771c19013","properties":{"airport":"LFBL","name":"COLOR_Taxiway","layer":"Guidance lines","category":"Taxiways","object_type":"Line","style_id":"line.taxiway.c0b631","source_group":"COLOR_Taxiway","vsmr_group_ids":[],"geometry_role":"linework"},"geometry":{"type":"LineString","coordinates":[[1.178326826699587,45.86279329087322],[1.178336381870302,45.86275856851154]]}},{"type":"Feature","id":"LFBL-3ac504e0e716eb974c85","properties":{"airport":"LFBL","name":"COLOR_Taxiway","layer":"Guidance lines","category":"Taxiways","object_type":"Line","style_id":"line.taxiway.c0b631","source_group":"COLOR_Taxiway","vsmr_group_ids":[],"geometry_role":"linework"},"geometry":{"type":"LineString","coordinates":[[1.178346997778594,45.86272458504735],[1.178357614265764,45.86268764641484]]}},{"type":"Feature","id":"LFBL-d60584e947b41bb385c0","properties":{"airport":"LFBL","name":"COLOR_Taxiway","layer":"Guidance lines","category":"Taxiways","object_type":"Line","style_id":"line.taxiway.c0b631","source_group":"COLOR_Taxiway","vsmr_group_ids":[],"geometry_role":"linework"},"geometry":{"type":"LineString","coordinates":[[1.178368230442202,45.86265218537039],[1.178378846307269,45.8626182019083]]}},{"type":"Feature","id":"LFBL-5a4fe07d69a2e5a1b07a","properties":{"airport":"LFBL","name":"COLOR_Taxiway","layer":"Guidance lines","category":"Taxiways","object_type":"Line","style_id":"line.taxiway.c0b631","source_group":"COLOR_Taxiway","vsmr_group_ids":[],"geometry_role":"linework"},"geometry":{"type":"LineString","coordinates":[[1.178389162112479,45.86258390245527],[1.178400753529545,45.86254165229327],[1.178378691396285,45.86253857732564],[1.178422815665583,45.86254472725607]]}},{"type":"Feature","id":"LFBL-19a1cfdd7d80f6e4a81d","properties":{"airport":"LFBL","name":"COLOR_Taxiway","layer":"Guidance lines","category":"Taxiways","object_type":"Line","style_id":"line.taxiway.c0b631","source_group":"COLOR_Taxiway","vsmr_group_ids":[],"geometry_role":"linework"},"geometry":{"type":"LineString","coordinates":[[1.179198338231948,45.86328407764731],[1.179021443704422,45.86309759992728],[1.17900431289691,45.86310604570603],[1.17903901973907,45.86308905664634]]}},{"type":"Feature","id":"LFBL-2475ae285971c85175f8","properties":{"airport":"LFBL","name":"COLOR_Taxiway","layer":"Guidance lines","category":"Taxiways","object_type":"Line","style_id":"line.taxiway.c0b631","source_group":"COLOR_Taxiway","vsmr_group_ids":[],"geometry_role":"linework"},"geometry":{"type":"LineString","coordinates":[[1.179149764228049,45.863307711289],[1.17892136707314,45.86306670904769],[1.178897580513578,45.86307803933762],[1.178942023768974,45.86305712192399]]}},{"type":"Feature","id":"LFBL-7dc640248ca5f8f537ba","properties":{"airport":"LFBL","name":"COLOR_Taxiway","layer":"Guidance lines","category":"Taxiways","object_type":"Line","style_id":"line.taxiway.c0b631","source_group":"COLOR_Taxiway","vsmr_group_ids":[],"geometry_role":"linework"},"geometry":{"type":"LineString","coordinates":[[1.178976408684929,45.86338786663259],[1.178798827481566,45.86320111478841],[1.178781504854254,45.86320928414831],[1.178815591361391,45.86319294537229]]}},{"type":"Feature","id":"LFBL-c1dd6e1034cde5f4557a","properties":{"airport":"LFBL","name":"COLOR_Taxiway","layer":"Guidance lines","category":"Taxiways","object_type":"Line","style_id":"line.taxiway.c0b631","source_group":"COLOR_Taxiway","vsmr_group_ids":[],"geometry_role":"linework"},"geometry":{"type":"LineString","coordinates":[[1.178806209258396,45.86345788558601],[1.178581725072296,45.86322351309555],[1.178565757959764,45.86323065624305],[1.178596390349609,45.86321669793236]]}},{"type":"Feature","id":"LFBL-17841fc2b3e624f9df4a","properties":{"airport":"LFBL","name":"COLOR_Taxiway","layer":"Guidance lines","category":"Taxiways","object_type":"Line","style_id":"line.taxiway.c0b631","source_group":"COLOR_Taxiway","vsmr_group_ids":[],"geometry_role":"linework"},"geometry":{"type":"LineString","coordinates":[[1.178752536121261,45.86348647130034],[1.178576899919399,45.86330501144588],[1.178559498718439,45.86331327378367],[1.178594533608308,45.86329650554374]]}},{"type":"Feature","id":"LFBL-e0cbf3e81b5076906a85","properties":{"airport":"LFBL","name":"COLOR_TaxiwayOrange","layer":"Guidance lines","category":"Taxiway Orange","object_type":"Line","style_id":"line.taxiwayorange.cc6d00","source_group":"COLOR_TaxiwayOrange","vsmr_group_ids":[],"geometry_role":"linework"},"geometry":{"type":"LineString","coordinates":[[1.178697567196689,45.8621905360889],[1.17866555523273,45.86220451672624]]}},{"type":"Feature","id":"LFBL-2e90f79d12034ab6a80d","properties":{"airport":"LFBL","name":"COLOR_TaxiwayOrange","layer":"Guidance lines","category":"Taxiway Orange","object_type":"Line","style_id":"line.taxiwayorange.cc6d00","source_group":"COLOR_TaxiwayOrange","vsmr_group_ids":[],"geometry_role":"linework"},"geometry":{"type":"LineString","coordinates":[[1.178638426438898,45.86221623022782],[1.178605871878651,45.86223058869434]]}},{"type":"Feature","id":"LFBL-e6ef35eb7683f30f18fe","properties":{"airport":"LFBL","name":"COLOR_TaxiwayOrange","layer":"Guidance lines","category":"Taxiway Orange","object_type":"Line","style_id":"line.taxiwayorange.cc6d00","source_group":"COLOR_TaxiwayOrange","vsmr_group_ids":[],"geometry_role":"linework"},"geometry":{"type":"LineString","coordinates":[[1.178577115338761,45.86224343573109],[1.178547273624282,45.86225666061804]]}},{"type":"Feature","id":"LFBL-8261d90708c8c04ff96a","properties":{"airport":"LFBL","name":"COLOR_TaxiwayOrange","layer":"Guidance lines","category":"Taxiway Orange","object_type":"Line","style_id":"line.taxiwayorange.cc6d00","source_group":"COLOR_TaxiwayOrange","vsmr_group_ids":[],"geometry_role":"linework"},"geometry":{"type":"LineString","coordinates":[[1.178520069120692,45.86226955150737],[1.17849022735919,45.86228164284222]]}},{"type":"Feature","id":"LFBL-855ba491205f1b3f37ee","properties":{"airport":"LFBL","name":"COLOR_TaxiwayOrange","layer":"Guidance lines","category":"Taxiway Orange","object_type":"Line","style_id":"line.taxiwayorange.cc6d00","source_group":"COLOR_TaxiwayOrange","vsmr_group_ids":[],"geometry_role":"linework"},"geometry":{"type":"LineString","coordinates":[[1.178464183635712,45.86229260059844],[1.178434884448916,45.86230620329949]]}},{"type":"Feature","id":"LFBL-011309fea94aaeb2f442","properties":{"airport":"LFBL","name":"COLOR_TaxiwayOrange","layer":"Guidance lines","category":"Taxiway Orange","object_type":"Line","style_id":"line.taxiwayorange.cc6d00","source_group":"COLOR_TaxiwayOrange","vsmr_group_ids":[],"geometry_role":"linework"},"geometry":{"type":"LineString","coordinates":[[1.178025510577114,45.86103772796588],[1.177994919338412,45.86105175692886]]}},{"type":"Feature","id":"LFBL-6c20fbafdc2e70ed4e27","properties":{"airport":"LFBL","name":"COLOR_TaxiwayOrange","layer":"Guidance lines","category":"Taxiway Orange","object_type":"Line","style_id":"line.taxiwayorange.cc6d00","source_group":"COLOR_TaxiwayOrange","vsmr_group_ids":[],"geometry_role":"linework"},"geometry":{"type":"LineString","coordinates":[[1.177967006118457,45.86106494771156],[1.177937099090083,45.8610791798617]]}},{"type":"Feature","id":"LFBL-00bdb1ee22053bfa3827","properties":{"airport":"LFBL","name":"COLOR_TaxiwayOrange","layer":"Guidance lines","category":"Taxiway Orange","object_type":"Line","style_id":"line.taxiwayorange.cc6d00","source_group":"COLOR_TaxiwayOrange","vsmr_group_ids":[],"geometry_role":"linework"},"geometry":{"type":"LineString","coordinates":[[1.177910182742972,45.86109063500995],[1.177877783430399,45.86110556139661]]}},{"type":"Feature","id":"LFBL-135400898f1f55f2a25d","properties":{"airport":"LFBL","name":"COLOR_TaxiwayOrange","layer":"Guidance lines","category":"Taxiway Orange","object_type":"Line","style_id":"line.taxiwayorange.cc6d00","source_group":"COLOR_TaxiwayOrange","vsmr_group_ids":[],"geometry_role":"linework"},"geometry":{"type":"LineString","coordinates":[[1.17785236240973,45.86111666940591],[1.177818966150252,45.86113159578378]]}},{"type":"Feature","id":"LFBL-cb6b858e4903ed03e815","properties":{"airport":"LFBL","name":"COLOR_TaxiwayOrange","layer":"Guidance lines","category":"Taxiway Orange","object_type":"Line","style_id":"line.taxiwayorange.cc6d00","source_group":"COLOR_TaxiwayOrange","vsmr_group_ids":[],"geometry_role":"linework"},"geometry":{"type":"LineString","coordinates":[[1.177793649712906,45.8611422489804],[1.177764184334509,45.86115547288141]]}},{"type":"Feature","id":"LFBL-bd5b118f5c3542fc42bf","properties":{"airport":"LFBL","name":"COLOR_TaxiwayOrange","layer":"Guidance lines","category":"Taxiway Orange","object_type":"Line","style_id":"line.taxiwayorange.cc6d00","source_group":"COLOR_TaxiwayOrange","vsmr_group_ids":[],"geometry_role":"linework"},"geometry":{"type":"LineString","coordinates":[[1.177097502204887,45.86005321108111],[1.17706722139185,45.86006659367424]]}},{"type":"Feature","id":"LFBL-8325e497efb978bf8c64","properties":{"airport":"LFBL","name":"COLOR_TaxiwayOrange","layer":"Guidance lines","category":"Taxiway Orange","object_type":"Line","style_id":"line.taxiwayorange.cc6d00","source_group":"COLOR_TaxiwayOrange","vsmr_group_ids":[],"geometry_role":"linework"},"geometry":{"type":"LineString","coordinates":[[1.177046840064884,45.86007592093301],[1.177017141559569,45.86008930351237]]}},{"type":"Feature","id":"LFBL-fa8fd21a762aeb7928e0","properties":{"airport":"LFBL","name":"COLOR_TaxiwayOrange","layer":"Guidance lines","category":"Taxiway Orange","object_type":"Line","style_id":"line.taxiwayorange.cc6d00","source_group":"COLOR_TaxiwayOrange","vsmr_group_ids":[],"geometry_role":"linework"},"geometry":{"type":"LineString","coordinates":[[1.176992101619767,45.86010187503191],[1.176962403083777,45.86011566313304]]}},{"type":"Feature","id":"LFBL-23bfa9bf2cb0d06c2254","properties":{"airport":"LFBL","name":"COLOR_TaxiwayOrange","layer":"Guidance lines","category":"Taxiway Orange","object_type":"Line","style_id":"line.taxiwayorange.cc6d00","source_group":"COLOR_TaxiwayOrange","vsmr_group_ids":[],"geometry_role":"linework"},"geometry":{"type":"LineString","coordinates":[[1.176930375236962,45.86012985675457],[1.176900094332918,45.86014405037988]]}},{"type":"Feature","id":"LFBL-ca60fb6b9be26d30c42e","properties":{"airport":"LFBL","name":"COLOR_TaxiwayOrange","layer":"Guidance lines","category":"Taxiway Orange","object_type":"Line","style_id":"line.taxiwayorange.cc6d00","source_group":"COLOR_TaxiwayOrange","vsmr_group_ids":[],"geometry_role":"linework"},"geometry":{"type":"LineString","coordinates":[[1.176232101175709,45.85996904335055],[1.176254870627313,45.85999293257658]]}},{"type":"Feature","id":"LFBL-f2942fef14e1d1a02542","properties":{"airport":"LFBL","name":"COLOR_TaxiwayOrange","layer":"Guidance lines","category":"Taxiway Orange","object_type":"Line","style_id":"line.taxiwayorange.cc6d00","source_group":"COLOR_TaxiwayOrange","vsmr_group_ids":[],"geometry_role":"linework"},"geometry":{"type":"LineString","coordinates":[[1.176274978717187,45.86001455643212],[1.176293312586389,45.8600339149327]]}},{"type":"Feature","id":"LFBL-a8a62528dc407c6a32cf","properties":{"airport":"LFBL","name":"COLOR_TaxiwayOrange","layer":"Guidance lines","category":"Taxiway Orange","object_type":"Line","style_id":"line.taxiwayorange.cc6d00","source_group":"COLOR_TaxiwayOrange","vsmr_group_ids":[],"geometry_role":"linework"},"geometry":{"type":"LineString","coordinates":[[1.176313125020902,45.86005450908609],[1.176329980384427,45.86007242600337]]}},{"type":"Feature","id":"LFBL-12203b7f140a0f07ae6c","properties":{"airport":"LFBL","name":"COLOR_TaxiwayOrange","layer":"Guidance lines","category":"Taxiway Orange","object_type":"Line","style_id":"line.taxiwayorange.cc6d00","source_group":"COLOR_TaxiwayOrange","vsmr_group_ids":[],"geometry_role":"linework"},"geometry":{"type":"LineString","coordinates":[[1.176386535188887,45.85930480398909],[1.176355476715214,45.85931922343963]]}},{"type":"Feature","id":"LFBL-4ff7be478205772a2686","properties":{"airport":"LFBL","name":"COLOR_TaxiwayOrange","layer":"Guidance lines","category":"Taxiway Orange","object_type":"Line","style_id":"line.taxiwayorange.cc6d00","source_group":"COLOR_TaxiwayOrange","vsmr_group_ids":[],"geometry_role":"linework"},"geometry":{"type":"LineString","coordinates":[[1.176328559336168,45.85933277773741],[1.176298743171331,45.85934662039543]]}},{"type":"Feature","id":"LFBL-ba1ec966ce3742c0d2b5","properties":{"airport":"LFBL","name":"COLOR_TaxiwayOrange","layer":"Guidance lines","category":"Taxiway Orange","object_type":"Line","style_id":"line.taxiwayorange.cc6d00","source_group":"COLOR_TaxiwayOrange","vsmr_group_ids":[],"geometry_role":"linework"},"geometry":{"type":"LineString","coordinates":[[1.176270583423278,45.8593601746751],[1.176240353107667,45.85937459410168]]}},{"type":"Feature","id":"LFBL-d3f95b984c31b77310ab","properties":{"airport":"LFBL","name":"COLOR_TaxiwayOrange","layer":"Guidance lines","category":"Taxiway Orange","object_type":"Line","style_id":"line.taxiwayorange.cc6d00","source_group":"COLOR_TaxiwayOrange","vsmr_group_ids":[],"geometry_role":"linework"},"geometry":{"type":"LineString","coordinates":[[1.176214263919697,45.85938699480147],[1.176183205355816,45.85940112581195]]}},{"type":"Feature","id":"LFBL-665fc510e70eae4d8aeb","properties":{"airport":"LFBL","name":"ACB","layer":"Labels","category":"Gates","object_type":"Label","style_id":"label.gates","source_group":"LFBL Gates","vsmr_group_ids":[],"geometry_role":"text_label","text-field":"ACB"},"geometry":{"type":"Point","coordinates":[1.174919167,45.859471389]}},{"type":"Feature","id":"LFBL-5226ff8521ff21a227be","properties":{"airport":"LFBL","name":"1L","layer":"Labels","category":"Gates","object_type":"Label","style_id":"label.gates","source_group":"LFBL Gates","vsmr_group_ids":[],"geometry_role":"text_label","text-field":"1L"},"geometry":{"type":"Point","coordinates":[1.176047222,45.860173889]}},{"type":"Feature","id":"LFBL-33c0896bf254bb6efbb8","properties":{"airport":"LFBL","name":"2L","layer":"Labels","category":"Gates","object_type":"Label","style_id":"label.gates","source_group":"LFBL Gates","vsmr_group_ids":[],"geometry_role":"text_label","text-field":"2L"},"geometry":{"type":"Point","coordinates":[1.175896111,45.860250556]}},{"type":"Feature","id":"LFBL-0b320add6510a0583503","properties":{"airport":"LFBL","name":"3L","layer":"Labels","category":"Gates","object_type":"Label","style_id":"label.gates","source_group":"LFBL Gates","vsmr_group_ids":[],"geometry_role":"text_label","text-field":"3L"},"geometry":{"type":"Point","coordinates":[1.175735556,45.860327222]}},{"type":"Feature","id":"LFBL-411e7449a1a472ae1894","properties":{"airport":"LFBL","name":"Pélicandrome","layer":"Labels","category":"Gates","object_type":"Label","style_id":"label.gates","source_group":"LFBL Gates","vsmr_group_ids":[],"geometry_role":"text_label","text-field":"Pélicandrome"},"geometry":{"type":"Point","coordinates":[1.176554722,45.859778889]}},{"type":"Feature","id":"LFBL-aa9f5c97ca5a381a0e30","properties":{"airport":"LFBL","name":"1A","layer":"Labels","category":"Gates","object_type":"Label","style_id":"label.gates","source_group":"LFBL Gates","vsmr_group_ids":[],"geometry_role":"text_label","text-field":"1A"},"geometry":{"type":"Point","coordinates":[1.176925278,45.861089444]}},{"type":"Feature","id":"LFBL-c11fd9236686679e6fd2","properties":{"airport":"LFBL","name":"2A","layer":"Labels","category":"Gates","object_type":"Label","style_id":"label.gates","source_group":"LFBL Gates","vsmr_group_ids":[],"geometry_role":"text_label","text-field":"2A"},"geometry":{"type":"Point","coordinates":[1.177407222,45.861595278]}},{"type":"Feature","id":"LFBL-8242e40a0c925aa90fa0","properties":{"airport":"LFBL","name":"3A","layer":"Labels","category":"Gates","object_type":"Label","style_id":"label.gates","source_group":"LFBL Gates","vsmr_group_ids":[],"geometry_role":"text_label","text-field":"3A"},"geometry":{"type":"Point","coordinates":[1.177876389,45.862128611]}},{"type":"Feature","id":"LFBL-1fca17cbf3f21a54ab77","properties":{"airport":"LFBL","name":"1T","layer":"Labels","category":"Gates","object_type":"Label","style_id":"label.gates","source_group":"LFBL Gates","vsmr_group_ids":[],"geometry_role":"text_label","text-field":"1T"},"geometry":{"type":"Point","coordinates":[1.178312778,45.862485]}},{"type":"Feature","id":"LFBL-220f3649ca97fe50c82c","properties":{"airport":"LFBL","name":"1P","layer":"Labels","category":"Gates","object_type":"Label","style_id":"label.gates","source_group":"LFBL Gates","vsmr_group_ids":[],"geometry_role":"text_label","text-field":"1P"},"geometry":{"type":"Point","coordinates":[1.179111389,45.863068056]}},{"type":"Feature","id":"LFBL-021ac9654aeb31d0e932","properties":{"airport":"LFBL","name":"2P","layer":"Labels","category":"Gates","object_type":"Label","style_id":"label.gates","source_group":"LFBL Gates","vsmr_group_ids":[],"geometry_role":"text_label","text-field":"2P"},"geometry":{"type":"Point","coordinates":[1.17888,45.863018611]}},{"type":"Feature","id":"LFBL-4ebacf50a722853e0e12","properties":{"airport":"LFBL","name":"3P","layer":"Labels","category":"Gates","object_type":"Label","style_id":"label.gates","source_group":"LFBL Gates","vsmr_group_ids":[],"geometry_role":"text_label","text-field":"3P"},"geometry":{"type":"Point","coordinates":[1.178771944,45.863166389]}},{"type":"Feature","id":"LFBL-27d258fff074045188a0","properties":{"airport":"LFBL","name":"4P","layer":"Labels","category":"Gates","object_type":"Label","style_id":"label.gates","source_group":"LFBL Gates","vsmr_group_ids":[],"geometry_role":"text_label","text-field":"4P"},"geometry":{"type":"Point","coordinates":[1.178544167,45.863185556]}},{"type":"Feature","id":"LFBL-efd5dc2cee1d15d5f5ec","properties":{"airport":"LFBL","name":"5P","layer":"Labels","category":"Gates","object_type":"Label","style_id":"label.gates","source_group":"LFBL Gates","vsmr_group_ids":[],"geometry_role":"text_label","text-field":"5P"},"geometry":{"type":"Point","coordinates":[1.178505556,45.863333333]}},{"type":"Feature","id":"LFBL-0eb91bbf3bde0f1fda25","properties":{"airport":"LFBL","name":"03","layer":"Labels","category":"Taxiways","object_type":"Label","style_id":"label.taxiways","source_group":"LFBL Taxiways","vsmr_group_ids":[],"geometry_role":"text_label","text-field":"03"},"geometry":{"type":"Point","coordinates":[1.172784444,45.852781389]}},{"type":"Feature","id":"LFBL-981d3302aed525737c6d","properties":{"airport":"LFBL","name":"21","layer":"Labels","category":"Taxiways","object_type":"Label","style_id":"label.taxiways","source_group":"LFBL Taxiways","vsmr_group_ids":[],"geometry_role":"text_label","text-field":"21"},"geometry":{"type":"Point","coordinates":[1.188895278,45.869921111]}},{"type":"Feature","id":"LFBL-f7a537d20dc3d512963f","properties":{"airport":"LFBL","name":"S","layer":"Labels","category":"Taxiways","object_type":"Label","style_id":"label.taxiways","source_group":"LFBL Taxiways","vsmr_group_ids":[],"geometry_role":"text_label","text-field":"S"},"geometry":{"type":"Point","coordinates":[1.173012222,45.854968611]}},{"type":"Feature","id":"LFBL-eea94ca5fc780415e003","properties":{"airport":"LFBL","name":"H","layer":"Labels","category":"Taxiways","object_type":"Label","style_id":"label.taxiways","source_group":"LFBL Taxiways","vsmr_group_ids":[],"geometry_role":"text_label","text-field":"H"},"geometry":{"type":"Point","coordinates":[1.175133056,45.858877778]}},{"type":"Feature","id":"LFBL-bd37541a4f882263b94b","properties":{"airport":"LFBL","name":"G","layer":"Labels","category":"Taxiways","object_type":"Label","style_id":"label.taxiways","source_group":"LFBL Taxiways","vsmr_group_ids":[],"geometry_role":"text_label","text-field":"G"},"geometry":{"type":"Point","coordinates":[1.177585,45.860741667]}},{"type":"Feature","id":"LFBL-befa2fc5d09f4aca6fd3","properties":{"airport":"LFBL","name":"C","layer":"Labels","category":"Taxiways","object_type":"Label","style_id":"label.taxiways","source_group":"LFBL Taxiways","vsmr_group_ids":[],"geometry_role":"text_label","text-field":"C"},"geometry":{"type":"Point","coordinates":[1.179052778,45.8616675]}},{"type":"Feature","id":"LFBL-7b3aee4c97045d883529","properties":{"airport":"LFBL","name":"N","layer":"Labels","category":"Taxiways","object_type":"Label","style_id":"label.taxiways","source_group":"LFBL Taxiways","vsmr_group_ids":[],"geometry_role":"text_label","text-field":"N"},"geometry":{"type":"Point","coordinates":[1.178793611,45.862511111]}},{"type":"Feature","id":"LFBL-5c153b0ed24df612c00b","properties":{"airport":"LFBL","name":"N1","layer":"Labels","category":"Taxiways","object_type":"Label","style_id":"label.taxiways","source_group":"LFBL Taxiways","vsmr_group_ids":[],"geometry_role":"text_label","text-field":"N1"},"geometry":{"type":"Point","coordinates":[1.178827222,45.8621275]}},{"type":"Feature","id":"LFBL-800912ff71a355bed8c6","properties":{"airport":"LFBL","name":"G1","layer":"Labels","category":"Taxiways","object_type":"Label","style_id":"label.taxiways","source_group":"LFBL Taxiways","vsmr_group_ids":[],"geometry_role":"text_label","text-field":"G1"},"geometry":{"type":"Point","coordinates":[1.178190833,45.860975]}},{"type":"Feature","id":"LFBL-83fff2a895575803e010","properties":{"airport":"LFBL","name":"G2","layer":"Labels","category":"Taxiways","object_type":"Label","style_id":"label.taxiways","source_group":"LFBL Taxiways","vsmr_group_ids":[],"geometry_role":"text_label","text-field":"G2"},"geometry":{"type":"Point","coordinates":[1.177236111,45.859985]}},{"type":"Feature","id":"LFBL-ae89b4fc41c385fdd48c","properties":{"airport":"LFBL","name":"G3","layer":"Labels","category":"Taxiways","object_type":"Label","style_id":"label.taxiways","source_group":"LFBL Taxiways","vsmr_group_ids":[],"geometry_role":"text_label","text-field":"G3"},"geometry":{"type":"Point","coordinates":[1.176189167,45.859891389]}},{"type":"Feature","id":"LFBL-584a1eae8a8908b4d594","properties":{"airport":"LFBL","name":"S1","layer":"Labels","category":"Taxiways","object_type":"Label","style_id":"label.taxiways","source_group":"LFBL Taxiways","vsmr_group_ids":[],"geometry_role":"text_label","text-field":"S1"},"geometry":{"type":"Point","coordinates":[1.176500556,45.859231389]}}]}
