{"type":"FeatureCollection","name":"LFBM AVISO","bbox":[-0.531916667,43.909027778,-0.488388889,43.913861111],"metadata":{"schema":"vSMR AVISO","schema_version":2,"geometry_mode":"shared","airport":"LFBM","coordinate_reference_system":"WGS84","coordinate_order":"longitude, latitude","default_color_palette":"dark","color_palettes":["dark","light"],"background_colors":{"dark":"#434A4F","light":"#434A4F"},"runways":[{"ends":["09","27"],"headings":[87,267],"thresholds":[[-0.531777778,43.910716944],[-0.488471944,43.912241944]]}],"saved_active_runways":[],"saved_active_airport_modes":[],"airport_reference":[-0.51,43.911388889],"feature_count":1,"style_count":1,"layer_counts":{"Guidance lines":1},"category_counts":{"Runways":1},"geometry_source":"local GNG/KMZ","geometry_source_url":"","geometry_license":"GPL-3.0"},"styles":{"line.runwayconcrete.555555":{"name":"Runways","layer":"Guidance lines","object_type":"Line","paint":{"stroke":"#111318","stroke-opacity":1,"stroke-width":1,"palette-overrides":{"light":{"stroke":"#555555"}}},"feature_count":1}},"vsmr_groups":[],"features":[{"type":"Feature","id":"LFBM-080db9f88ce39c0027b2","properties":{"airport":"LFBM","name":"LFBM Groundlayout","layer":"Guidance lines","category":"Runways","object_type":"Line","style_id":"line.runwayconcrete.555555","source_group":"LFBM Groundlayout","vsmr_group_ids":[],"geometry_role":"linework"},"geometry":{"type":"MultiLineString","coordinates":[[[-0.531694444,43.909027778],[-0.488388889,43.910527778]],[[-0.531916667,43.912361111],[-0.531694444,43.909027778]],[[-0.488611111,43.913861111],[-0.488388889,43.910527778]]]}}]}
