{"type":"FeatureCollection","name":"LFBN AVISO","bbox":[-0.412777778,46.307027778,-0.389916667,46.315861111],"metadata":{"schema":"vSMR AVISO","schema_version":2,"geometry_mode":"shared","airport":"LFBN","coordinate_reference_system":"WGS84","coordinate_order":"longitude, latitude","default_color_palette":"dark","color_palettes":["dark","light"],"background_colors":{"dark":"#434A4F","light":"#434A4F"},"runways":[{"ends":["07L","25R"],"headings":[66,246],"thresholds":[[-0.403771944,46.312188889],[-0.397113889,46.314163889]]},{"ends":["07","25"],"headings":[66,246],"thresholds":[[-0.412096944,46.308335833],[-0.392532778,46.313971944]]}],"saved_active_runways":[],"saved_active_airport_modes":[],"airport_reference":[-0.394443889,46.313332778],"feature_count":2,"style_count":2,"layer_counts":{"Guidance lines":2},"category_counts":{"Grass runways":1,"Runways":1},"geometry_source":"local GNG/KMZ","geometry_source_url":"","geometry_license":"GPL-3.0"},"styles":{"line.runwayconcrete.555555":{"name":"Runways","layer":"Guidance lines","object_type":"Line","paint":{"stroke":"#111318","stroke-opacity":1,"stroke-width":1,"palette-overrides":{"light":{"stroke":"#555555"}}},"feature_count":1},"line.runwaygrass.008000":{"name":"Grass runways","layer":"Guidance lines","object_type":"Line","paint":{"stroke":"#859A77","stroke-opacity":1,"stroke-width":1,"palette-overrides":{"light":{"stroke":"#008000"}}},"feature_count":1}},"vsmr_groups":[],"features":[{"type":"Feature","id":"LFBN-f93671a11de73770d86d","properties":{"airport":"LFBN","name":"LFBN Groundlayout","layer":"Guidance lines","category":"Runways","object_type":"Line","style_id":"line.runwayconcrete.555555","source_group":"LFBN Groundlayout","vsmr_group_ids":[],"geometry_role":"linework"},"geometry":{"type":"MultiLineString","coordinates":[[[-0.403027778,46.310527778],[-0.396222222,46.312333333]],[[-0.404583333,46.313666667],[-0.403027778,46.310527778]],[[-0.397777778,46.315472222],[-0.396222222,46.312333333]]]}},{"type":"Feature","id":"LFBN-d09c6e5bbcf661c8c35e","properties":{"airport":"LFBN","name":"LFBN Groundlayout","layer":"Guidance lines","category":"Grass runways","object_type":"Line","style_id":"line.runwaygrass.008000","source_group":"LFBN Groundlayout","vsmr_group_ids":[],"geometry_role":"linework"},"geometry":{"type":"MultiLineString","coordinates":[[[-0.412777778,46.310166667],[-0.391472222,46.315861111]],[[-0.411222222,46.307027778],[-0.389916667,46.312722222]],[[-0.412777778,46.310166667],[-0.411222222,46.307027778]],[[-0.391472222,46.315861111],[-0.389916667,46.312722222]]]}}]}
