{"type":"FeatureCollection","name":"LFBP AVISO","bbox":[-0.436986389,43.367714444,-0.403832778,43.390231667],"metadata":{"schema":"vSMR AVISO","schema_version":2,"geometry_mode":"shared","airport":"LFBP","coordinate_reference_system":"WGS84","coordinate_order":"longitude, latitude","default_color_palette":"dark","color_palettes":["dark","light"],"background_colors":{"dark":"#434A4F","light":"#434A4F"},"runways":[{"ends":["13","31"],"headings":[125,305],"thresholds":[[-0.433260833,43.387657778],[-0.408241944,43.374496944]]}],"saved_active_runways":[],"saved_active_airport_modes":[],"airport_reference":[-0.418610833,43.38],"feature_count":121,"style_count":11,"layer_counts":{"Airfield surfaces":27,"Buildings and structures":25,"Guidance lines":1,"Labels":59,"Surface markings":8,"Terrain":1},"category_counts":{"Buildings":25,"Gates":30,"Grass":1,"Grass runways":1,"Hard Surface 2":7,"Hard Surface 3":11,"Hard Surface 4":2,"Runways":6,"Stopbars":8,"Taxiways":30},"geometry_source":"local GNG","geometry_source_url":"","geometry_license":"GPL-3.0"},"styles":{"polygon.grassurface.00512f":{"name":"Grass","layer":"Terrain","object_type":"Area","paint":{"fill":"#010D19","fill-opacity":1,"palette-overrides":{"light":{"fill":"#00512F"}}},"feature_count":1},"polygon.hardsurface4.969393":{"name":"Hard Surface 4","layer":"Airfield surfaces","object_type":"Area","paint":{"fill":"#152841","fill-opacity":1,"palette-overrides":{"light":{"fill":"#969393"}}},"feature_count":2},"polygon.hardsurface3.8a807f":{"name":"Hard Surface 3","layer":"Airfield surfaces","object_type":"Area","paint":{"fill":"#222D3C","fill-opacity":1,"palette-overrides":{"light":{"fill":"#8A807F"}}},"feature_count":11},"polygon.hardsurface2.595e5b":{"name":"Hard Surface 2","layer":"Airfield surfaces","object_type":"Area","paint":{"fill":"#2F3949","fill-opacity":1,"palette-overrides":{"light":{"fill":"#595E5B"}}},"feature_count":7},"polygon.runwaygrass.008000":{"name":"Grass runways","layer":"Airfield surfaces","object_type":"Area","paint":{"fill":"#859A77","fill-opacity":1,"palette-overrides":{"light":{"fill":"#008000"}}},"feature_count":1},"polygon.runwayconcrete.555555":{"name":"Runways","layer":"Airfield surfaces","object_type":"Area","paint":{"fill":"#111318","fill-opacity":1,"palette-overrides":{"light":{"fill":"#555555"}}},"feature_count":6},"polygon.building.394446":{"name":"Buildings","layer":"Buildings and structures","object_type":"Area","paint":{"fill":"#475570","fill-opacity":1,"palette-overrides":{"light":{"fill":"#394446"}}},"feature_count":25},"polygon.stopbar.7e0000":{"name":"Stopbars","layer":"Surface markings","object_type":"Area","paint":{"fill":"#7E0000","fill-opacity":1,"palette-overrides":{"light":{"fill":"#7E0000"}}},"feature_count":8},"line.taxiway.c0b631":{"name":"Taxiways","layer":"Guidance lines","object_type":"Line","paint":{"stroke":"#4E5A69","stroke-opacity":1,"stroke-width":1,"palette-overrides":{"light":{"stroke":"#C0B631"}}},"feature_count":1},"label.gates":{"name":"Gates","layer":"Labels","object_type":"Label","paint":{"text-color":"#CCCCCC","text-font":"Arial","text-size":12,"text-halo-color":"#000000","text-halo-width":1,"text-anchor":"center","zoomLevel":9},"feature_count":30},"label.taxiways":{"name":"Taxiways","layer":"Labels","object_type":"Label","paint":{"text-color":"#CCCCCC","text-font":"Arial","text-size":12,"text-halo-color":"#000000","text-halo-width":1,"text-anchor":"center","zoomLevel":7},"feature_count":29}},"vsmr_groups":[],"features":[{"type":"Feature","id":"LFBP-ccf8dd772a9d5109090e","properties":{"airport":"LFBP","name":"LFBP AVISO","layer":"Terrain","category":"Grass","object_type":"Area","style_id":"polygon.grassurface.00512f","source_group":"LFBP AVISO","vsmr_group_ids":[],"geometry_role":"filled_region"},"geometry":{"type":"Polygon","coordinates":[[[-0.417491667,43.370489722],[-0.416876667,43.370074444],[-0.416605833,43.369744444],[-0.416474167,43.369366389],[-0.416398056,43.368225],[-0.415359167,43.367838889],[-0.415002778,43.367739722],[-0.414650833,43.367714444],[-0.409727778,43.3678925],[-0.409083333,43.367786944],[-0.408262222,43.368971111],[-0.407539722,43.369964167],[-0.406983056,43.370680833],[-0.406486389,43.371100556],[-0.405899722,43.371446111],[-0.405461111,43.371795556],[-0.404958611,43.372325556],[-0.404495278,43.372795833],[-0.404193333,43.373146111],[-0.404038889,43.3734075],[-0.403948889,43.373682778],[-0.403910278,43.374145],[-0.403832778,43.375018056],[-0.403893611,43.375831389],[-0.406975556,43.379131944],[-0.417748611,43.384931389],[-0.418471944,43.384021667],[-0.418691111,43.384101389],[-0.418948056,43.384139444],[-0.419205,43.384115278],[-0.419433611,43.3840425],[-0.419528889,43.383893889],[-0.419953889,43.383538611],[-0.421599444,43.383937222],[-0.422760556,43.384578889],[-0.422193056,43.385146944],[-0.421886111,43.3851975],[-0.421423889,43.385661389],[-0.422386667,43.386163056],[-0.422833333,43.3857075],[-0.422825556,43.385471389],[-0.423385833,43.384916111],[-0.427758333,43.38722],[-0.427868889,43.387216944],[-0.428191389,43.386857222],[-0.4319425,43.388824167],[-0.432079722,43.388709167],[-0.434669444,43.390074167],[-0.435516389,43.390231667],[-0.435896667,43.389579722],[-0.436392778,43.388767222],[-0.436986389,43.387932778],[-0.434999722,43.386924167],[-0.435126667,43.386651389],[-0.423032222,43.380289722],[-0.427595278,43.375835833],[-0.420377778,43.372078056],[-0.417491667,43.370489722]]]}},{"type":"Feature","id":"LFBP-509e71560811a2191cb1","properties":{"airport":"LFBP","name":"LFBP AVISO","layer":"Airfield surfaces","category":"Hard Surface 4","object_type":"Area","style_id":"polygon.hardsurface4.969393","source_group":"LFBP AVISO","vsmr_group_ids":[],"geometry_role":"filled_region"},"geometry":{"type":"Polygon","coordinates":[[[-0.412780278,43.380884444],[-0.412663611,43.381015556],[-0.412196111,43.380775833],[-0.412032222,43.380947778],[-0.414148611,43.381986944],[-0.414432222,43.381955556],[-0.415730556,43.382679167],[-0.415661667,43.382748611],[-0.416638611,43.383253611],[-0.416758333,43.383214722],[-0.417005833,43.383348611],[-0.417274167,43.383088333],[-0.413044167,43.381015556],[-0.412780278,43.380884444]]]}},{"type":"Feature","id":"LFBP-3f05c2157450236bbe1c","properties":{"airport":"LFBP","name":"LFBP AVISO","layer":"Airfield surfaces","category":"Hard Surface 4","object_type":"Area","style_id":"polygon.hardsurface4.969393","source_group":"LFBP AVISO","vsmr_group_ids":[],"geometry_role":"filled_region"},"geometry":{"type":"Polygon","coordinates":[[[-0.409815,43.379578611],[-0.409660278,43.379728889],[-0.410078056,43.379951111],[-0.410228611,43.379796389],[-0.409815,43.379578611]]]}},{"type":"Feature","id":"LFBP-9f1431116b2e5ea5e653","properties":{"airport":"LFBP","name":"LFBP AVISO","layer":"Airfield surfaces","category":"Hard Surface 3","object_type":"Area","style_id":"polygon.hardsurface3.8a807f","source_group":"LFBP AVISO","vsmr_group_ids":[],"geometry_role":"filled_region"},"geometry":{"type":"Polygon","coordinates":[[[-0.423033333,43.384569444],[-0.422979167,43.384670556],[-0.422836667,43.384827778],[-0.422428611,43.385274722],[-0.422371389,43.385323611],[-0.422287222,43.385349444],[-0.422215,43.385349167],[-0.422152778,43.385329722],[-0.421940833,43.385239167],[-0.421501667,43.385676667],[-0.422340556,43.386121389],[-0.4227825,43.385689167],[-0.422700278,43.385638611],[-0.422611667,43.3855825],[-0.4225625,43.385523611],[-0.422543889,43.3854675],[-0.422549444,43.385415278],[-0.422625,43.385323611],[-0.423124444,43.384838611],[-0.423221111,43.384766111],[-0.423306111,43.384717222],[-0.423033333,43.384569444]]]}},{"type":"Feature","id":"LFBP-5740f555a5dc081405b3","properties":{"airport":"LFBP","name":"LFBP AVISO","layer":"Airfield surfaces","category":"Hard Surface 3","object_type":"Area","style_id":"polygon.hardsurface3.8a807f","source_group":"LFBP AVISO","vsmr_group_ids":[],"geometry_role":"filled_region"},"geometry":{"type":"Polygon","coordinates":[[[-0.418853611,43.382785833],[-0.418772778,43.382879722],[-0.41869,43.382963611],[-0.418425278,43.383075],[-0.418289722,43.383002222],[-0.417904167,43.383405],[-0.418994167,43.383985833],[-0.419400278,43.383588056],[-0.419342778,43.383554722],[-0.419365278,43.383450556],[-0.419367222,43.38336],[-0.419338333,43.383222222],[-0.419309444,43.383071389],[-0.419295,43.382986111],[-0.419291389,43.382918889],[-0.418900833,43.382714722],[-0.418853611,43.382785833]]]}},{"type":"Feature","id":"LFBP-20073388ae5e99034b1d","properties":{"airport":"LFBP","name":"LFBP AVISO","layer":"Airfield surfaces","category":"Hard Surface 3","object_type":"Area","style_id":"polygon.hardsurface3.8a807f","source_group":"LFBP AVISO","vsmr_group_ids":[],"geometry_role":"filled_region"},"geometry":{"type":"Polygon","coordinates":[[[-0.412926944,43.381106389],[-0.413448333,43.381366389],[-0.413690278,43.381474167],[-0.414405556,43.381851111],[-0.414531111,43.381926111],[-0.414624167,43.381992222],[-0.415078889,43.382227778],[-0.415245,43.382324722],[-0.415395,43.382404722],[-0.416016111,43.382728611],[-0.416063333,43.382725278],[-0.416104167,43.382709722],[-0.416819167,43.38309],[-0.416913333,43.383136667],[-0.416979444,43.383157222],[-0.417052222,43.383163056],[-0.417268333,43.383095556],[-0.417766944,43.382588056],[-0.416891667,43.382127778],[-0.416801944,43.382067222],[-0.4167625,43.382001944],[-0.416743889,43.381933889],[-0.416749722,43.381874167],[-0.413738056,43.380289722],[-0.412926944,43.381106389]]]}},{"type":"Feature","id":"LFBP-b61180ad4f195e13a464","properties":{"airport":"LFBP","name":"LFBP AVISO","layer":"Airfield surfaces","category":"Hard Surface 3","object_type":"Area","style_id":"polygon.hardsurface3.8a807f","source_group":"LFBP AVISO","vsmr_group_ids":[],"geometry_role":"filled_region"},"geometry":{"type":"Polygon","coordinates":[[[-0.408920556,43.378696111],[-0.408880556,43.3786975],[-0.408842222,43.378686667],[-0.408388056,43.378447222],[-0.408060278,43.378603611],[-0.407820833,43.378617778],[-0.407730556,43.378598611],[-0.407708611,43.378625833],[-0.407886667,43.378716944],[-0.408068889,43.378814444],[-0.408253611,43.378935],[-0.409715833,43.379713333],[-0.409986111,43.379443333],[-0.409628333,43.379255278],[-0.409650833,43.379229444],[-0.409426389,43.379118333],[-0.409872222,43.378900278],[-0.409725,43.378744722],[-0.409621389,43.378700278],[-0.409436944,43.378619722],[-0.409255,43.378527778],[-0.408920556,43.378696111]]]}},{"type":"Feature","id":"LFBP-bce13171fdad55fae812","properties":{"airport":"LFBP","name":"LFBP AVISO","layer":"Airfield surfaces","category":"Hard Surface 3","object_type":"Area","style_id":"polygon.hardsurface3.8a807f","source_group":"LFBP AVISO","vsmr_group_ids":[],"geometry_role":"filled_region"},"geometry":{"type":"Polygon","coordinates":[[[-0.408161111,43.377729722],[-0.408120556,43.377748611],[-0.408050278,43.377749722],[-0.407965556,43.377735],[-0.407919444,43.377706944],[-0.407374444,43.377971389],[-0.4078725,43.378492222],[-0.408403056,43.378226389],[-0.408442778,43.37816],[-0.408378333,43.378053611],[-0.408311944,43.377978889],[-0.408298889,43.377941944],[-0.408313333,43.377907222],[-0.408338611,43.377884444],[-0.408233056,43.377818333],[-0.408161111,43.377729722]]]}},{"type":"Feature","id":"LFBP-e065086458a7693ad495","properties":{"airport":"LFBP","name":"LFBP AVISO","layer":"Airfield surfaces","category":"Hard Surface 3","object_type":"Area","style_id":"polygon.hardsurface3.8a807f","source_group":"LFBP AVISO","vsmr_group_ids":[],"geometry_role":"filled_region"},"geometry":{"type":"Polygon","coordinates":[[[-0.40771,43.377223889],[-0.407584722,43.377286944],[-0.407561389,43.377291944],[-0.407534722,43.377291944],[-0.407511389,43.377280833],[-0.407279722,43.377023611],[-0.407264722,43.3769925],[-0.407263056,43.376955833],[-0.407281944,43.376926111],[-0.407385833,43.376866667],[-0.407332222,43.376811944],[-0.407233333,43.376856389],[-0.407200278,43.376860833],[-0.407167222,43.376853056],[-0.40712,43.376826667],[-0.407030556,43.376732778],[-0.407006111,43.376708333],[-0.40696,43.376686111],[-0.406887778,43.376676944],[-0.4068225,43.376685833],[-0.406744444,43.376719167],[-0.406583056,43.376791944],[-0.406520556,43.376726389],[-0.406306389,43.376829167],[-0.406765,43.377298611],[-0.407159444,43.377110556],[-0.407214722,43.3771725],[-0.407186389,43.3772625],[-0.407327222,43.377409167],[-0.407466111,43.377431389],[-0.407760833,43.377281944],[-0.40771,43.377223889]]]}},{"type":"Feature","id":"LFBP-658e7dab4087646c63c8","properties":{"airport":"LFBP","name":"LFBP AVISO","layer":"Airfield surfaces","category":"Hard Surface 3","object_type":"Area","style_id":"polygon.hardsurface3.8a807f","source_group":"LFBP AVISO","vsmr_group_ids":[],"geometry_role":"filled_region"},"geometry":{"type":"Polygon","coordinates":[[[-0.406534167,43.376447778],[-0.406407778,43.3763075],[-0.406008056,43.376504444],[-0.406182778,43.376695278],[-0.406839722,43.376380278],[-0.406784722,43.376323889],[-0.406534167,43.376447778]]]}},{"type":"Feature","id":"LFBP-ede129aa839bf0fc8352","properties":{"airport":"LFBP","name":"LFBP AVISO","layer":"Airfield surfaces","category":"Hard Surface 3","object_type":"Area","style_id":"polygon.hardsurface3.8a807f","source_group":"LFBP AVISO","vsmr_group_ids":[],"geometry_role":"filled_region"},"geometry":{"type":"Polygon","coordinates":[[[-0.414748056,43.370463333],[-0.414681667,43.370318333],[-0.414008056,43.370349722],[-0.413936389,43.370332222],[-0.413886667,43.370298333],[-0.413802778,43.369293611],[-0.414652778,43.369246667],[-0.414671667,43.368353889],[-0.410300278,43.368465278],[-0.410458333,43.37062],[-0.414748056,43.370463333]]]}},{"type":"Feature","id":"LFBP-f4c2300894b13fe79d2a","properties":{"airport":"LFBP","name":"LFBP AVISO","layer":"Airfield surfaces","category":"Hard Surface 3","object_type":"Area","style_id":"polygon.hardsurface3.8a807f","source_group":"LFBP AVISO","vsmr_group_ids":[],"geometry_role":"filled_region"},"geometry":{"type":"Polygon","coordinates":[[[-0.414490278,43.368356389],[-0.414592222,43.370088611],[-0.414613889,43.370305556],[-0.414700556,43.370526389],[-0.4148425,43.370786667],[-0.4150175,43.371006944],[-0.415249167,43.371220278],[-0.4155,43.371406111],[-0.415850278,43.371602222],[-0.418493333,43.37291],[-0.418405833,43.372997778],[-0.419533889,43.373581944],[-0.419647222,43.373463056],[-0.420577222,43.373935],[-0.420470556,43.374062778],[-0.421789167,43.374740556],[-0.4219225,43.374614167],[-0.423156389,43.375243889],[-0.423346389,43.375030833],[-0.425958333,43.376406667],[-0.426575556,43.375819722],[-0.417685,43.371292778],[-0.4169775,43.37087],[-0.416634722,43.370655278],[-0.416349167,43.370458056],[-0.416187222,43.370253611],[-0.415791944,43.369320278],[-0.415766944,43.369163889],[-0.415705556,43.368315],[-0.414490278,43.368356389]]]}},{"type":"Feature","id":"LFBP-3de168ca4f357eaef2d3","properties":{"airport":"LFBP","name":"LFBP AVISO","layer":"Airfield surfaces","category":"Hard Surface 3","object_type":"Area","style_id":"polygon.hardsurface3.8a807f","source_group":"LFBP AVISO","vsmr_group_ids":[],"geometry_role":"filled_region"},"geometry":{"type":"Polygon","coordinates":[[[-0.413564167,43.374805556],[-0.413697778,43.374882222],[-0.413545278,43.375036111],[-0.413688333,43.375106111],[-0.413769167,43.375038333],[-0.4138625,43.375024722],[-0.413955833,43.375031667],[-0.4140475,43.375058333],[-0.415498333,43.375795556],[-0.41608,43.375221389],[-0.416176389,43.375242222],[-0.416509444,43.374919722],[-0.414435,43.373901667],[-0.413564167,43.374805556]]]}},{"type":"Feature","id":"LFBP-b892fb42ea0afd7ebdde","properties":{"airport":"LFBP","name":"LFBP AVISO","layer":"Airfield surfaces","category":"Hard Surface 3","object_type":"Area","style_id":"polygon.hardsurface3.8a807f","source_group":"LFBP AVISO","vsmr_group_ids":[],"geometry_role":"filled_region"},"geometry":{"type":"Polygon","coordinates":[[[-0.417205833,43.383628056],[-0.417461389,43.383764167],[-0.417674444,43.3835425],[-0.417420833,43.383407778],[-0.417205833,43.383628056]]]}},{"type":"Feature","id":"LFBP-98446083aae9ac210eb2","properties":{"airport":"LFBP","name":"LFBP AVISO","layer":"Airfield surfaces","category":"Hard Surface 2","object_type":"Area","style_id":"polygon.hardsurface2.595e5b","source_group":"LFBP AVISO","vsmr_group_ids":[],"geometry_role":"filled_region"},"geometry":{"type":"Polygon","coordinates":[[[-0.417580833,43.381575],[-0.417678889,43.381606944],[-0.417816111,43.381666944],[-0.418005,43.381759167],[-0.418279167,43.381917222],[-0.418525,43.382063889],[-0.418710556,43.382191667],[-0.418795,43.382261111],[-0.418872222,43.382331944],[-0.418906667,43.382388333],[-0.418942778,43.382484722],[-0.418951667,43.382570833],[-0.418933611,43.382645278],[-0.418897778,43.382720833],[-0.419290833,43.38292],[-0.419331944,43.382784722],[-0.419363889,43.382710556],[-0.41941,43.382671389],[-0.419456111,43.382649444],[-0.419521389,43.3826425],[-0.419580278,43.382645833],[-0.419688333,43.382673333],[-0.419903611,43.382753611],[-0.420147222,43.382865278],[-0.420351111,43.382969444],[-0.422869722,43.384293333],[-0.422979722,43.384363333],[-0.423038056,43.384438333],[-0.423054722,43.384494167],[-0.423048611,43.384537222],[-0.423030556,43.384573611],[-0.423303056,43.384719722],[-0.423411667,43.384675556],[-0.42347,43.38467],[-0.423538333,43.384674722],[-0.423607222,43.3846925],[-0.423713611,43.384738333],[-0.426911667,43.386423056],[-0.42708,43.386506111],[-0.427201389,43.386550833],[-0.427339722,43.386584722],[-0.427468611,43.386599722],[-0.427578889,43.386601111],[-0.427711667,43.386586111],[-0.427668056,43.3863975],[-0.427561944,43.386408333],[-0.427441667,43.386405],[-0.427308611,43.386379167],[-0.427138333,43.386325556],[-0.426985833,43.386260278],[-0.422317222,43.383806389],[-0.419580278,43.382366111],[-0.419268056,43.382195556],[-0.418988611,43.382033889],[-0.418585278,43.381821667],[-0.418191389,43.381593056],[-0.41795,43.381440833],[-0.417803889,43.381320833],[-0.41775,43.381256111],[-0.417732778,43.381213889],[-0.417709167,43.381145833],[-0.417294167,43.380930556],[-0.4172025,43.380970556],[-0.417110556,43.38099],[-0.417014167,43.380988889],[-0.416901667,43.380960833],[-0.416674167,43.380851111],[-0.410172778,43.377438056],[-0.408006667,43.376285556],[-0.407705,43.3761225],[-0.407635556,43.376074167],[-0.407576389,43.376019444],[-0.407523889,43.375951667],[-0.407490833,43.375874722],[-0.407210833,43.375916944],[-0.407254167,43.376026111],[-0.407304167,43.376096389],[-0.407369167,43.376172778],[-0.407445278,43.376235556],[-0.407515833,43.376277778],[-0.408655556,43.376876944],[-0.408707222,43.376953889],[-0.408725,43.377038333],[-0.408718611,43.377106389],[-0.408668611,43.377199167],[-0.408561944,43.377312778],[-0.408493889,43.377376667],[-0.408435,43.377409722],[-0.408366944,43.377421667],[-0.408296389,43.377408889],[-0.40823,43.377376667],[-0.408135556,43.377282222],[-0.40748,43.376578889],[-0.407442222,43.376594444],[-0.407393333,43.376545],[-0.407354444,43.376519444],[-0.407299722,43.376501944],[-0.407238056,43.376477778],[-0.407191111,43.376448333],[-0.4071225,43.3763675],[-0.407068889,43.376326667],[-0.406998056,43.376301389],[-0.406941111,43.376294444],[-0.406885,43.376292778],[-0.406832778,43.376303056],[-0.406779722,43.376325833],[-0.406833889,43.3763825],[-0.406880278,43.376365278],[-0.406937222,43.376360278],[-0.406994444,43.376378056],[-0.407126389,43.376494167],[-0.407164167,43.376525833],[-0.407205833,43.376548333],[-0.407257222,43.376563056],[-0.407302778,43.376582778],[-0.40734,43.376614444],[-0.407365,43.376638611],[-0.407326944,43.376653889],[-0.407415833,43.376751667],[-0.407415,43.376762222],[-0.407403889,43.376776111],[-0.407330833,43.376812778],[-0.407382222,43.376867222],[-0.407443056,43.3768425],[-0.407479722,43.376835278],[-0.407501111,43.376841111],[-0.407802778,43.377159722],[-0.407801667,43.377171111],[-0.4077075,43.377226389],[-0.407757778,43.377282778],[-0.407866389,43.377231667],[-0.408182778,43.37757],[-0.408198889,43.377615556],[-0.408193889,43.377677222],[-0.408159444,43.377732778],[-0.408231944,43.377824167],[-0.408336667,43.377886944],[-0.408371667,43.377861389],[-0.408426111,43.377851389],[-0.408483889,43.377854722],[-0.4085375,43.377882222],[-0.408598611,43.377934444],[-0.409326667,43.378301389],[-0.409428056,43.378195556],[-0.408770833,43.377843889],[-0.408686389,43.3777975],[-0.408637778,43.377747222],[-0.408625,43.377693056],[-0.408642778,43.377624167],[-0.408701667,43.377523611],[-0.408765833,43.377460278],[-0.408910556,43.377317778],[-0.408998611,43.377249444],[-0.409078333,43.377212222],[-0.409174444,43.377203333],[-0.409278889,43.377212222],[-0.409385278,43.37726],[-0.412083889,43.378686111],[-0.4123975,43.378856111],[-0.412473889,43.378923611],[-0.412534722,43.379006389],[-0.412563611,43.379071667],[-0.412577222,43.379156389],[-0.412571944,43.379231667],[-0.412551667,43.379306667],[-0.412509444,43.379393056],[-0.412246111,43.379885556],[-0.411940278,43.380186944],[-0.412023611,43.3802325],[-0.412328889,43.379938889],[-0.412767778,43.379614444],[-0.412760833,43.379569722],[-0.412766111,43.379515556],[-0.412779444,43.379473889],[-0.412806667,43.379430833],[-0.412847222,43.379390278],[-0.412892778,43.379358333],[-0.412948611,43.3793325],[-0.413012778,43.379309167],[-0.4131025,43.379299444],[-0.413195278,43.379303056],[-0.413300278,43.3793325],[-0.413415278,43.379385278],[-0.416640833,43.381083611],[-0.416717778,43.381133056],[-0.416764167,43.381178056],[-0.416805278,43.381232778],[-0.416824167,43.381285],[-0.416825833,43.381338611],[-0.416808611,43.381378333],[-0.416738611,43.381446944],[-0.4166425,43.381509167],[-0.416548333,43.381546389],[-0.416443889,43.381563889],[-0.416329167,43.381566389],[-0.416205833,43.381552778],[-0.416077222,43.381515556],[-0.416010556,43.381485556],[-0.416749444,43.381877222],[-0.416855833,43.3817725],[-0.416949167,43.381695],[-0.4170425,43.381645556],[-0.417149444,43.381601944],[-0.417253056,43.381570278],[-0.417330833,43.381558333],[-0.417454722,43.381554722],[-0.417580833,43.381575]]]}},{"type":"Feature","id":"LFBP-9d4bdbf10a0987a446f0","properties":{"airport":"LFBP","name":"LFBP AVISO","layer":"Airfield surfaces","category":"Hard Surface 2","object_type":"Area","style_id":"polygon.hardsurface2.595e5b","source_group":"LFBP AVISO","vsmr_group_ids":[],"geometry_role":"filled_region"},"geometry":{"type":"Polygon","coordinates":[[[-0.411928611,43.380196389],[-0.411914444,43.380198889],[-0.411873611,43.380186389],[-0.411676389,43.380392222],[-0.410667222,43.379851111],[-0.410856944,43.379651389],[-0.410811111,43.379625],[-0.411111667,43.379329722],[-0.411176944,43.3793075],[-0.411238333,43.379317778],[-0.412208611,43.37982],[-0.412231389,43.379905556],[-0.41232,43.379937778],[-0.412436111,43.3799425],[-0.413523611,43.380506667],[-0.41374,43.380290556],[-0.413363333,43.380086111],[-0.413051667,43.379923611],[-0.412925556,43.379845833],[-0.412842222,43.379768056],[-0.412794444,43.379695278],[-0.412766944,43.379612778],[-0.412534444,43.379354722],[-0.412444167,43.379452778],[-0.412386944,43.379498889],[-0.412325556,43.379535],[-0.412241667,43.379558611],[-0.412166667,43.379565],[-0.412078333,43.379556389],[-0.411998889,43.379538056],[-0.4119225,43.379509444],[-0.411490278,43.379283611],[-0.411475556,43.379260278],[-0.411478056,43.379231111],[-0.411488056,43.379208333],[-0.411722778,43.378980556],[-0.411641389,43.378937222],[-0.411368333,43.379179167],[-0.411332778,43.379186944],[-0.411306389,43.379186944],[-0.409403056,43.378182222],[-0.409315556,43.378291111],[-0.409346944,43.378326667],[-0.409362778,43.378382778],[-0.4093575,43.378429722],[-0.409318889,43.378484444],[-0.409255278,43.378527778],[-0.409436111,43.378620278],[-0.409437222,43.378611667],[-0.409443333,43.378599722],[-0.409593611,43.378518333],[-0.409655278,43.378505],[-0.409705833,43.378510278],[-0.40976,43.37853],[-0.411053889,43.379216389],[-0.411063611,43.379248611],[-0.411048056,43.379286389],[-0.410750833,43.379590278],[-0.4106975,43.379561111],[-0.410501667,43.379761944],[-0.410310833,43.379661389],[-0.410073056,43.379912778],[-0.412034167,43.380946944],[-0.412260278,43.380709167],[-0.411853611,43.380486667],[-0.411847778,43.380472778],[-0.412038333,43.380278056],[-0.412013333,43.380251389],[-0.412015556,43.380241111],[-0.4120275,43.380228333],[-0.411941944,43.380185278],[-0.411928611,43.380196389]]]}},{"type":"Feature","id":"LFBP-79bde742f8ddbad1d7b3","properties":{"airport":"LFBP","name":"LFBP AVISO","layer":"Airfield surfaces","category":"Hard Surface 2","object_type":"Area","style_id":"polygon.hardsurface2.595e5b","source_group":"LFBP AVISO","vsmr_group_ids":[],"geometry_role":"filled_region"},"geometry":{"type":"Polygon","coordinates":[[[-0.408451667,43.378420556],[-0.408388611,43.378447778],[-0.408656111,43.378588611],[-0.408630556,43.378565833],[-0.408605,43.378528611],[-0.408585278,43.378461944],[-0.408565833,43.378408611],[-0.408540278,43.3783725],[-0.408403611,43.378225],[-0.4083225,43.378266389],[-0.408451667,43.378420556]]]}},{"type":"Feature","id":"LFBP-15378472c9642dd0e85f","properties":{"airport":"LFBP","name":"LFBP AVISO","layer":"Airfield surfaces","category":"Hard Surface 2","object_type":"Area","style_id":"polygon.hardsurface2.595e5b","source_group":"LFBP AVISO","vsmr_group_ids":[],"geometry_role":"filled_region"},"geometry":{"type":"Polygon","coordinates":[[[-0.4221975,43.380177778],[-0.422200833,43.380023611],[-0.422160278,43.379884167],[-0.422059444,43.379749722],[-0.421916667,43.379646111],[-0.421489167,43.379403611],[-0.416154444,43.376606944],[-0.416017222,43.376500278],[-0.415940833,43.376384444],[-0.4159025,43.376247778],[-0.415908889,43.376106389],[-0.415988611,43.375958056],[-0.416839167,43.375128611],[-0.4165025,43.374918611],[-0.416170833,43.375238889],[-0.416254722,43.375268611],[-0.416309167,43.375309722],[-0.416328611,43.375356389],[-0.416315,43.375421667],[-0.415706944,43.376018333],[-0.415613056,43.376084722],[-0.415522778,43.376124167],[-0.415420833,43.376139167],[-0.415294444,43.376130833],[-0.415199444,43.376099722],[-0.413724167,43.375343611],[-0.413674167,43.375308333],[-0.4136525,43.375259722],[-0.413644722,43.375193889],[-0.4136625,43.375145278],[-0.41369,43.375103889],[-0.413548333,43.375031111],[-0.413116389,43.375440556],[-0.413355,43.375554444],[-0.4134925,43.375534722],[-0.413615278,43.375531111],[-0.413781944,43.375550833],[-0.413956111,43.375615],[-0.421656944,43.379620556],[-0.421843611,43.379747222],[-0.421976389,43.3798775],[-0.422050556,43.3800125],[-0.4220525,43.380168056],[-0.4221975,43.380177778]]]}},{"type":"Feature","id":"LFBP-c9b97d8492a8e57becdb","properties":{"airport":"LFBP","name":"LFBP AVISO","layer":"Airfield surfaces","category":"Hard Surface 2","object_type":"Area","style_id":"polygon.hardsurface2.595e5b","source_group":"LFBP AVISO","vsmr_group_ids":[],"geometry_role":"filled_region"},"geometry":{"type":"Polygon","coordinates":[[[-0.409411944,43.373560278],[-0.410430278,43.372570556],[-0.410595278,43.372431944],[-0.410734722,43.3723375],[-0.4109025,43.372259167],[-0.4110925,43.372197222],[-0.411355278,43.372153333],[-0.411637222,43.372141944],[-0.413540833,43.372079167],[-0.413683056,43.372081111],[-0.413745833,43.372095833],[-0.413783333,43.372135833],[-0.413813611,43.372208889],[-0.413870556,43.373088889],[-0.414524722,43.373071667],[-0.414511111,43.372721667],[-0.414104444,43.372731667],[-0.414056944,43.372709444],[-0.414029722,43.3726725],[-0.413996389,43.372067222],[-0.414304167,43.372053889],[-0.414356389,43.372067222],[-0.4144425,43.372116944],[-0.414557222,43.372004722],[-0.414256389,43.371840833],[-0.414113333,43.371754444],[-0.414031389,43.371668333],[-0.413974167,43.371552222],[-0.413947778,43.371390278],[-0.413895833,43.370494167],[-0.413680556,43.370499722],[-0.413413056,43.370694167],[-0.413323889,43.370734722],[-0.413218056,43.370756944],[-0.413073056,43.370765],[-0.412409167,43.370778611],[-0.412335,43.370841667],[-0.413204722,43.370826944],[-0.413301389,43.37081],[-0.413403611,43.370780556],[-0.413508056,43.370721111],[-0.413663611,43.370591389],[-0.413696944,43.370589722],[-0.413716944,43.370608056],[-0.413776111,43.371650278],[-0.413741944,43.371766667],[-0.413656389,43.371868056],[-0.4135425,43.371932222],[-0.413428611,43.3719575],[-0.411273889,43.3720275],[-0.411050556,43.372024722],[-0.410919167,43.371984167],[-0.410779444,43.371914444],[-0.410699722,43.3718275],[-0.410687778,43.371708889],[-0.410652778,43.370612222],[-0.410458333,43.370618333],[-0.410523889,43.371931944],[-0.410494444,43.372115278],[-0.410424722,43.372276389],[-0.410321389,43.372415556],[-0.409267222,43.373483056],[-0.409411944,43.373560278]]]}},{"type":"Feature","id":"LFBP-d4789c2af79fdd1de92b","properties":{"airport":"LFBP","name":"LFBP AVISO","layer":"Airfield surfaces","category":"Hard Surface 2","object_type":"Area","style_id":"polygon.hardsurface2.595e5b","source_group":"LFBP AVISO","vsmr_group_ids":[],"geometry_role":"filled_region"},"geometry":{"type":"Polygon","coordinates":[[[-0.415124444,43.371968889],[-0.415286667,43.372055556],[-0.4157675,43.371553889],[-0.415611111,43.371467222],[-0.415124444,43.371968889]]]}},{"type":"Feature","id":"LFBP-b0eb283b331eb5800ba3","properties":{"airport":"LFBP","name":"LFBP AVISO","layer":"Airfield surfaces","category":"Hard Surface 2","object_type":"Area","style_id":"polygon.hardsurface2.595e5b","source_group":"LFBP AVISO","vsmr_group_ids":[],"geometry_role":"filled_region"},"geometry":{"type":"Polygon","coordinates":[[[-0.417219167,43.372963889],[-0.417362778,43.373041389],[-0.417830278,43.372581111],[-0.417664444,43.372498333],[-0.417219167,43.372963889]]]}},{"type":"Feature","id":"LFBP-904968adc4cef366cea4","properties":{"airport":"LFBP","name":"LFBP AVISO","layer":"Airfield surfaces","category":"Grass runways","object_type":"Area","style_id":"polygon.runwaygrass.008000","source_group":"LFBP AVISO","vsmr_group_ids":[],"geometry_role":"filled_region"},"geometry":{"type":"Polygon","coordinates":[[[-0.420697222,43.375097222],[-0.415203611,43.372265556],[-0.414966944,43.372507222],[-0.4204825,43.375303056],[-0.420697222,43.375097222]]]}},{"type":"Feature","id":"LFBP-dcb9ba5e2f0db700ecc1","properties":{"airport":"LFBP","name":"LFBP AVISO","layer":"Airfield surfaces","category":"Runways","object_type":"Area","style_id":"polygon.runwayconcrete.555555","source_group":"LFBP AVISO","vsmr_group_ids":[],"geometry_role":"filled_region"},"geometry":{"type":"Polygon","coordinates":[[[-0.407375833,43.375360556],[-0.407305833,43.375436111],[-0.4072525,43.375510833],[-0.407220556,43.375583611],[-0.407197778,43.375648611],[-0.407185833,43.375716389],[-0.407184444,43.375786111],[-0.407196389,43.375851111],[-0.407213611,43.375918889],[-0.4074925,43.375875278],[-0.407476389,43.375821111],[-0.407471389,43.375751111],[-0.407488056,43.375675833],[-0.407515,43.375603889],[-0.4075675,43.375533056],[-0.407878611,43.375208611],[-0.407955833,43.375135833],[-0.408045278,43.375073056],[-0.408133333,43.375032222],[-0.408235,43.374994167],[-0.4083475,43.374972222],[-0.408461667,43.374971111],[-0.408586389,43.374983889],[-0.408688333,43.375008056],[-0.408786667,43.3750425],[-0.417807778,43.379786111],[-0.417864722,43.379844167],[-0.417914167,43.379909444],[-0.417950833,43.37997],[-0.417968611,43.380023333],[-0.417971111,43.380073056],[-0.417965,43.380131111],[-0.417920833,43.380217222],[-0.417822222,43.380347222],[-0.417697778,43.380503333],[-0.4175775,43.380641944],[-0.417323333,43.380907778],[-0.417290278,43.380931944],[-0.417708056,43.381147778],[-0.417709444,43.381080278],[-0.41772,43.381008056],[-0.417759722,43.380939444],[-0.4178225,43.380839167],[-0.417887778,43.380738611],[-0.417983333,43.380646667],[-0.418117778,43.380531389],[-0.418219722,43.380452778],[-0.418351944,43.380390556],[-0.418472222,43.380353611],[-0.418616944,43.380334444],[-0.418741111,43.380333056],[-0.418869167,43.380345556],[-0.4281225,43.385210833],[-0.428178056,43.385252778],[-0.428251389,43.385333611],[-0.428313889,43.385417222],[-0.428355833,43.385484167],[-0.428388889,43.385561389],[-0.428409722,43.3856525],[-0.428409722,43.3857425],[-0.428385556,43.385831111],[-0.4280975,43.386193056],[-0.428022222,43.386251667],[-0.427926111,43.386304444],[-0.427841944,43.386345],[-0.427755,43.386378889],[-0.427666667,43.386397778],[-0.427705556,43.386586389],[-0.427748333,43.386580833],[-0.427851944,43.386558333],[-0.427954722,43.386520833],[-0.428050833,43.386477778],[-0.428143611,43.386417222],[-0.428223889,43.386348611],[-0.428281389,43.386287222],[-0.428644167,43.38599],[-0.428747778,43.385918333],[-0.428844722,43.385865556],[-0.42895,43.385826111],[-0.429043611,43.385803611],[-0.4291325,43.385793889],[-0.429222222,43.385792222],[-0.432253889,43.387385556],[-0.432274722,43.387398889],[-0.432289167,43.3874175],[-0.432486667,43.387800833],[-0.432523056,43.387849722],[-0.432571944,43.387886111],[-0.432634167,43.387917778],[-0.432700278,43.387939167],[-0.432763889,43.387948056],[-0.432841111,43.387944167],[-0.432904444,43.387934444],[-0.432964167,43.387915556],[-0.433018056,43.387887222],[-0.433069444,43.387842778],[-0.433419167,43.387494444],[-0.421552222,43.381233056],[-0.421511667,43.381139444],[-0.421515278,43.381042778],[-0.421555833,43.380951667],[-0.422016667,43.380516667],[-0.422115833,43.380396111],[-0.422177778,43.380276111],[-0.422198333,43.380173611],[-0.422053889,43.380160833],[-0.422006944,43.380284722],[-0.421915556,43.380400278],[-0.421771389,43.380550278],[-0.421431944,43.3808675],[-0.421303889,43.380945556],[-0.421190556,43.380973611],[-0.421089167,43.380973611],[-0.420996944,43.380951944],[-0.412575,43.376531667],[-0.412516389,43.376478611],[-0.412486111,43.376427222],[-0.412475833,43.37638],[-0.412484167,43.376321389],[-0.412526667,43.376260833],[-0.4130075,43.375761667],[-0.413094722,43.375680278],[-0.413169444,43.375624444],[-0.413277222,43.375574722],[-0.413360278,43.375553611],[-0.4131175,43.3754375],[-0.412334444,43.376194167],[-0.412248333,43.376235833],[-0.412155,43.376255],[-0.412048889,43.3762425],[-0.411953333,43.376202222],[-0.409328333,43.374824444],[-0.409235278,43.374736944],[-0.409163333,43.374636667],[-0.408931944,43.374269722],[-0.408883889,43.374195556],[-0.408866111,43.374143333],[-0.408866111,43.374099444],[-0.408901944,43.374053611],[-0.409413333,43.3735575],[-0.409270556,43.373483056],[-0.407375833,43.375360556]]]}},{"type":"Feature","id":"LFBP-2dfde2704cb9f6526a74","properties":{"airport":"LFBP","name":"LFBP AVISO","layer":"Airfield surfaces","category":"Runways","object_type":"Area","style_id":"polygon.runwayconcrete.555555","source_group":"LFBP AVISO","vsmr_group_ids":[],"geometry_role":"filled_region"},"geometry":{"type":"Polygon","coordinates":[[[-0.411923889,43.370706944],[-0.411925556,43.370743056],[-0.411946944,43.370784722],[-0.411979167,43.370813056],[-0.412018333,43.370836389],[-0.412071667,43.370848056],[-0.412148333,43.370843056],[-0.412191111,43.37083],[-0.412255278,43.370854722],[-0.412315833,43.370854722],[-0.412369444,43.370836389],[-0.412753889,43.370534444],[-0.412461667,43.370544167],[-0.412337778,43.370685833],[-0.4123125,43.370697778],[-0.412272222,43.3706925],[-0.412246667,43.370655278],[-0.412195833,43.370619444],[-0.412124722,43.370601111],[-0.412082778,43.370602222],[-0.412057222,43.370585],[-0.412057222,43.37056],[-0.411670556,43.370574444],[-0.411923889,43.370706944]]]}},{"type":"Feature","id":"LFBP-835201753d3dbba7f161","properties":{"airport":"LFBP","name":"LFBP AVISO","layer":"Airfield surfaces","category":"Runways","object_type":"Area","style_id":"polygon.runwayconcrete.555555","source_group":"LFBP AVISO","vsmr_group_ids":[],"geometry_role":"filled_region"},"geometry":{"type":"Polygon","coordinates":[[[-0.415033333,43.372056667],[-0.414993889,43.372113889],[-0.414969444,43.372167222],[-0.414963889,43.372231389],[-0.414552778,43.372003333],[-0.414438056,43.372115278],[-0.416966111,43.373448333],[-0.417364444,43.373039167],[-0.417222222,43.3729625],[-0.417051111,43.373119167],[-0.416976111,43.373176944],[-0.416867778,43.373183611],[-0.416782222,43.373166111],[-0.415165,43.372338611],[-0.415130278,43.3722975],[-0.415117778,43.3722425],[-0.415146111,43.372192222],[-0.415290833,43.372050556],[-0.415129167,43.371963889],[-0.415033333,43.372056667]]]}},{"type":"Feature","id":"LFBP-bf7124904ae85116b8b6","properties":{"airport":"LFBP","name":"LFBP AVISO","layer":"Airfield surfaces","category":"Runways","object_type":"Area","style_id":"polygon.runwayconcrete.555555","source_group":"LFBP AVISO","vsmr_group_ids":[],"geometry_role":"filled_region"},"geometry":{"type":"Polygon","coordinates":[[[-0.4195225,43.373731944],[-0.419473056,43.373775278],[-0.419456667,43.373830556],[-0.419479444,43.373887222],[-0.419530556,43.373927222],[-0.419594167,43.373946667],[-0.419668056,43.373945278],[-0.4197275,43.373921389],[-0.419776667,43.373881111],[-0.419785,43.373825833],[-0.419766389,43.373766389],[-0.419698889,43.373724722],[-0.4196025,43.373712778],[-0.4195225,43.373731944]]]}},{"type":"Feature","id":"LFBP-c9c71d8fa71def79f280","properties":{"airport":"LFBP","name":"LFBP AVISO","layer":"Airfield surfaces","category":"Runways","object_type":"Area","style_id":"polygon.runwayconcrete.555555","source_group":"LFBP AVISO","vsmr_group_ids":[],"geometry_role":"filled_region"},"geometry":{"type":"Polygon","coordinates":[[[-0.422753056,43.375433056],[-0.422776667,43.375393611],[-0.422776667,43.375341667],[-0.422754722,43.375295833],[-0.422715556,43.3752625],[-0.422655833,43.375246389],[-0.422584444,43.375248889],[-0.422524722,43.375267222],[-0.422477222,43.375303333],[-0.422461944,43.375353889],[-0.422466944,43.375410833],[-0.422509444,43.375454167],[-0.422574167,43.375473889],[-0.422661111,43.375475278],[-0.422715556,43.375455278],[-0.422753056,43.375433056]]]}},{"type":"Feature","id":"LFBP-03a24e05b990312bdbe8","properties":{"airport":"LFBP","name":"LFBP AVISO","layer":"Airfield surfaces","category":"Runways","object_type":"Area","style_id":"polygon.runwayconcrete.555555","source_group":"LFBP AVISO","vsmr_group_ids":[],"geometry_role":"filled_region"},"geometry":{"type":"Polygon","coordinates":[[[-0.4115725,43.378904444],[-0.411776944,43.379015556],[-0.411931667,43.378861944],[-0.411720556,43.378751111],[-0.4115725,43.378904444]]]}},{"type":"Feature","id":"LFBP-cdc91d4129abaccdfdb9","properties":{"airport":"LFBP","name":"LFBP AVISO","layer":"Buildings and structures","category":"Buildings","object_type":"Area","style_id":"polygon.building.394446","source_group":"LFBP AVISO","vsmr_group_ids":[],"geometry_role":"filled_region"},"geometry":{"type":"Polygon","coordinates":[[[-0.416981389,43.383508611],[-0.416915278,43.383577222],[-0.417011667,43.383627778],[-0.416951111,43.383691389],[-0.417278889,43.383863611],[-0.417407222,43.383725],[-0.416981389,43.383508611]]]}},{"type":"Feature","id":"LFBP-2a2f8743d4614ee22c1f","properties":{"airport":"LFBP","name":"LFBP AVISO","layer":"Buildings and structures","category":"Buildings","object_type":"Area","style_id":"polygon.building.394446","source_group":"LFBP AVISO","vsmr_group_ids":[],"geometry_role":"filled_region"},"geometry":{"type":"Polygon","coordinates":[[[-0.416098056,43.382915833],[-0.416108889,43.382892778],[-0.416105833,43.382861667],[-0.416082222,43.3828375],[-0.416045833,43.382829444],[-0.416013611,43.382829444],[-0.415717778,43.383153333],[-0.416080833,43.3833325],[-0.416340833,43.383088333],[-0.416066389,43.382951389],[-0.416098056,43.382915833]]]}},{"type":"Feature","id":"LFBP-6693b5fe2d2b1643f6be","properties":{"airport":"LFBP","name":"LFBP AVISO","layer":"Buildings and structures","category":"Buildings","object_type":"Area","style_id":"polygon.building.394446","source_group":"LFBP AVISO","vsmr_group_ids":[],"geometry_role":"filled_region"},"geometry":{"type":"Polygon","coordinates":[[[-0.415964167,43.382787778],[-0.415721389,43.382660833],[-0.415583056,43.382789167],[-0.415186111,43.382593333],[-0.415220278,43.382555278],[-0.415024167,43.3824625],[-0.415069722,43.382411111],[-0.414387222,43.382061111],[-0.414250278,43.382197778],[-0.414098889,43.382165556],[-0.414374444,43.381973056],[-0.414167222,43.381857778],[-0.413815833,43.381673333],[-0.413633056,43.381579444],[-0.413720833,43.381388056],[-0.413603889,43.381334722],[-0.413568056,43.381385278],[-0.413636111,43.381418333],[-0.4135775,43.38155],[-0.413524722,43.3815225],[-0.413234722,43.382048611],[-0.413272222,43.382063889],[-0.413302222,43.382114444],[-0.413336944,43.382158056],[-0.413386111,43.382196944],[-0.413433333,43.382229167],[-0.413501111,43.382258889],[-0.413589444,43.3822875],[-0.413668611,43.382307222],[-0.413752222,43.382318611],[-0.413779167,43.382330278],[-0.4138925,43.382326944],[-0.413958889,43.382323056],[-0.414001667,43.382332222],[-0.414265556,43.382468889],[-0.414299167,43.382478611],[-0.4143325,43.382478611],[-0.414359167,43.382467778],[-0.414373889,43.382457222],[-0.414895,43.382733056],[-0.414935556,43.382693889],[-0.414987778,43.382719722],[-0.415019444,43.382686944],[-0.415058889,43.382706389],[-0.415089444,43.382676111],[-0.415580278,43.382943889],[-0.415490278,43.383031944],[-0.415638056,43.383108056],[-0.415964167,43.382787778]]]}},{"type":"Feature","id":"LFBP-e50a23ad1ca11b5e2765","properties":{"airport":"LFBP","name":"LFBP AVISO","layer":"Buildings and structures","category":"Buildings","object_type":"Area","style_id":"polygon.building.394446","source_group":"LFBP AVISO","vsmr_group_ids":[],"geometry_role":"filled_region"},"geometry":{"type":"Polygon","coordinates":[[[-0.4131875,43.381588333],[-0.413055278,43.381517222],[-0.413101111,43.381465],[-0.410943333,43.380363889],[-0.410758333,43.380548889],[-0.411449167,43.380911667],[-0.411243333,43.381119722],[-0.411400278,43.381201389],[-0.411301389,43.381299722],[-0.411519444,43.381414167],[-0.411806389,43.381133889],[-0.413029167,43.381749444],[-0.4131875,43.381588333]]]}},{"type":"Feature","id":"LFBP-aabd1f8b793b5e56d6d8","properties":{"airport":"LFBP","name":"LFBP AVISO","layer":"Buildings and structures","category":"Buildings","object_type":"Area","style_id":"polygon.building.394446","source_group":"LFBP AVISO","vsmr_group_ids":[],"geometry_role":"filled_region"},"geometry":{"type":"Polygon","coordinates":[[[-0.410881667,43.380328056],[-0.409065,43.379363611],[-0.408968056,43.3794625],[-0.409073889,43.379524444],[-0.408879167,43.379718333],[-0.409018889,43.379793056],[-0.408928611,43.379889167],[-0.409096389,43.379981667],[-0.409161111,43.379918056],[-0.409358333,43.380019722],[-0.409418333,43.379954444],[-0.409590278,43.380046944],[-0.409650278,43.379990833],[-0.410694444,43.380520556],[-0.410881667,43.380328056]]]}},{"type":"Feature","id":"LFBP-d76635dd5dbf108a2543","properties":{"airport":"LFBP","name":"LFBP AVISO","layer":"Buildings and structures","category":"Buildings","object_type":"Area","style_id":"polygon.building.394446","source_group":"LFBP AVISO","vsmr_group_ids":[],"geometry_role":"filled_region"},"geometry":{"type":"Polygon","coordinates":[[[-0.408486389,43.379346111],[-0.408764722,43.379489444],[-0.408951667,43.379296111],[-0.408685556,43.379148333],[-0.408486389,43.379346111]]]}},{"type":"Feature","id":"LFBP-1106d394e0ec455eb475","properties":{"airport":"LFBP","name":"LFBP AVISO","layer":"Buildings and structures","category":"Buildings","object_type":"Area","style_id":"polygon.building.394446","source_group":"LFBP AVISO","vsmr_group_ids":[],"geometry_role":"filled_region"},"geometry":{"type":"Polygon","coordinates":[[[-0.407969167,43.379165278],[-0.408320556,43.379348333],[-0.408566111,43.379099167],[-0.408221111,43.378912778],[-0.407969167,43.379165278]]]}},{"type":"Feature","id":"LFBP-1201d2632c5be0c52d09","properties":{"airport":"LFBP","name":"LFBP AVISO","layer":"Buildings and structures","category":"Buildings","object_type":"Area","style_id":"polygon.building.394446","source_group":"LFBP AVISO","vsmr_group_ids":[],"geometry_role":"filled_region"},"geometry":{"type":"Polygon","coordinates":[[[-0.407681944,43.378581667],[-0.407666667,43.378568056],[-0.407863611,43.378466111],[-0.407589167,43.378178611],[-0.4073525,43.378298333],[-0.407630833,43.378596111],[-0.407403056,43.37882],[-0.407803889,43.379033333],[-0.408041111,43.378796111],[-0.407661111,43.378594167],[-0.407681944,43.378581667]]]}},{"type":"Feature","id":"LFBP-a899f0e6e51736e11ad1","properties":{"airport":"LFBP","name":"LFBP AVISO","layer":"Buildings and structures","category":"Buildings","object_type":"Area","style_id":"polygon.building.394446","source_group":"LFBP AVISO","vsmr_group_ids":[],"geometry_role":"filled_region"},"geometry":{"type":"Polygon","coordinates":[[[-0.407206944,43.377780556],[-0.406934444,43.377917778],[-0.407306667,43.378308889],[-0.407584722,43.378174444],[-0.407206944,43.377780556]]]}},{"type":"Feature","id":"LFBP-72f9562619547a75c937","properties":{"airport":"LFBP","name":"LFBP AVISO","layer":"Buildings and structures","category":"Buildings","object_type":"Area","style_id":"polygon.building.394446","source_group":"LFBP AVISO","vsmr_group_ids":[],"geometry_role":"filled_region"},"geometry":{"type":"Polygon","coordinates":[[[-0.4063025,43.377237778],[-0.406482778,43.377423056],[-0.406766389,43.377293611],[-0.406581944,43.377103611],[-0.4063025,43.377237778]]]}},{"type":"Feature","id":"LFBP-58d6851d7b54e4111ecb","properties":{"airport":"LFBP","name":"LFBP AVISO","layer":"Buildings and structures","category":"Buildings","object_type":"Area","style_id":"polygon.building.394446","source_group":"LFBP AVISO","vsmr_group_ids":[],"geometry_role":"filled_region"},"geometry":{"type":"Polygon","coordinates":[[[-0.406110556,43.376911389],[-0.406316111,43.377134167],[-0.406514167,43.377034444],[-0.406300833,43.37682],[-0.406110556,43.376911389]]]}},{"type":"Feature","id":"LFBP-98573224e849028cb47d","properties":{"airport":"LFBP","name":"LFBP AVISO","layer":"Buildings and structures","category":"Buildings","object_type":"Area","style_id":"polygon.building.394446","source_group":"LFBP AVISO","vsmr_group_ids":[],"geometry_role":"filled_region"},"geometry":{"type":"Polygon","coordinates":[[[-0.405813333,43.376644444],[-0.405956111,43.376797222],[-0.406177222,43.376686944],[-0.406035833,43.376531944],[-0.405813333,43.376644444]]]}},{"type":"Feature","id":"LFBP-e6f4f441823c0e4e8c69","properties":{"airport":"LFBP","name":"LFBP AVISO","layer":"Buildings and structures","category":"Buildings","object_type":"Area","style_id":"polygon.building.394446","source_group":"LFBP AVISO","vsmr_group_ids":[],"geometry_role":"filled_region"},"geometry":{"type":"Polygon","coordinates":[[[-0.409923056,43.370158056],[-0.409935,43.370550556],[-0.410254722,43.370546111],[-0.410239167,43.370143333],[-0.409923056,43.370158056]]]}},{"type":"Feature","id":"LFBP-8fff935624b45267ce83","properties":{"airport":"LFBP","name":"LFBP AVISO","layer":"Buildings and structures","category":"Buildings","object_type":"Area","style_id":"polygon.building.394446","source_group":"LFBP AVISO","vsmr_group_ids":[],"geometry_role":"filled_region"},"geometry":{"type":"Polygon","coordinates":[[[-0.411301389,43.367957222],[-0.410289722,43.367974722],[-0.410293056,43.368060278],[-0.410022778,43.368070556],[-0.410036667,43.368496111],[-0.410324167,43.368493611],[-0.410327778,43.368541389],[-0.410601389,43.368596944],[-0.410826667,43.368526389],[-0.411093333,43.368589444],[-0.411353333,43.368506389],[-0.411301389,43.367957222]]]}},{"type":"Feature","id":"LFBP-46e4bc96dd0cee921e2f","properties":{"airport":"LFBP","name":"LFBP AVISO","layer":"Buildings and structures","category":"Buildings","object_type":"Area","style_id":"polygon.building.394446","source_group":"LFBP AVISO","vsmr_group_ids":[],"geometry_role":"filled_region"},"geometry":{"type":"Polygon","coordinates":[[[-0.412937778,43.367974722],[-0.412688056,43.367920278],[-0.412174444,43.367946111],[-0.411924722,43.368018889],[-0.411946111,43.368485556],[-0.412177778,43.368555556],[-0.412459722,43.368485556],[-0.412716667,43.368542778],[-0.412980556,43.3684675],[-0.412937778,43.367974722]]]}},{"type":"Feature","id":"LFBP-e45dec2c3251507266e9","properties":{"airport":"LFBP","name":"LFBP AVISO","layer":"Buildings and structures","category":"Buildings","object_type":"Area","style_id":"polygon.building.394446","source_group":"LFBP AVISO","vsmr_group_ids":[],"geometry_role":"filled_region"},"geometry":{"type":"Polygon","coordinates":[[[-0.413571111,43.367992778],[-0.413576111,43.368394722],[-0.413832222,43.368423889],[-0.414091944,43.368403333],[-0.414314722,43.368409167],[-0.414601111,43.368369167],[-0.414581111,43.367967222],[-0.413571111,43.367992778]]]}},{"type":"Feature","id":"LFBP-652d37313f9e8190eea8","properties":{"airport":"LFBP","name":"LFBP AVISO","layer":"Buildings and structures","category":"Buildings","object_type":"Area","style_id":"polygon.building.394446","source_group":"LFBP AVISO","vsmr_group_ids":[],"geometry_role":"filled_region"},"geometry":{"type":"Polygon","coordinates":[[[-0.416280556,43.368670556],[-0.416023056,43.368670278],[-0.416013056,43.368578056],[-0.415698611,43.368595],[-0.415738889,43.369185556],[-0.416049722,43.369178333],[-0.416039722,43.369061667],[-0.416293889,43.369054444],[-0.416280556,43.368670556]]]}},{"type":"Feature","id":"LFBP-b6843f1315a3485250ed","properties":{"airport":"LFBP","name":"LFBP AVISO","layer":"Buildings and structures","category":"Buildings","object_type":"Area","style_id":"polygon.building.394446","source_group":"LFBP AVISO","vsmr_group_ids":[],"geometry_role":"filled_region"},"geometry":{"type":"Polygon","coordinates":[[[-0.416338056,43.369521944],[-0.416242778,43.369545833],[-0.416192222,43.36944],[-0.4160675,43.369476667],[-0.416049722,43.369260556],[-0.415746389,43.369277778],[-0.415782222,43.369530556],[-0.415844444,43.369772778],[-0.4159425,43.369978056],[-0.416055556,43.370163889],[-0.416225,43.370364722],[-0.4164925,43.370239444],[-0.4163825,43.370125],[-0.416326111,43.370029722],[-0.416543056,43.369967222],[-0.416338056,43.369521944]]]}},{"type":"Feature","id":"LFBP-258ad8c7ca37b1b31761","properties":{"airport":"LFBP","name":"LFBP AVISO","layer":"Buildings and structures","category":"Buildings","object_type":"Area","style_id":"polygon.building.394446","source_group":"LFBP AVISO","vsmr_group_ids":[],"geometry_role":"filled_region"},"geometry":{"type":"Polygon","coordinates":[[[-0.417690278,43.371015],[-0.417359722,43.370838056],[-0.417515833,43.370661111],[-0.417001944,43.370385833],[-0.416947778,43.370429444],[-0.416857778,43.370383611],[-0.416758333,43.370475278],[-0.416644167,43.370385833],[-0.416569167,43.370304722],[-0.416310556,43.370466667],[-0.416593056,43.370693889],[-0.416863611,43.370864167],[-0.41751,43.371205278],[-0.417690278,43.371015]]]}},{"type":"Feature","id":"LFBP-9525b90f71935b39629c","properties":{"airport":"LFBP","name":"LFBP AVISO","layer":"Buildings and structures","category":"Buildings","object_type":"Area","style_id":"polygon.building.394446","source_group":"LFBP AVISO","vsmr_group_ids":[],"geometry_role":"filled_region"},"geometry":{"type":"Polygon","coordinates":[[[-0.419065833,43.372079167],[-0.421202222,43.373131667],[-0.421474167,43.372871111],[-0.41956,43.371930556],[-0.419508611,43.371980556],[-0.419271111,43.371855833],[-0.419400556,43.371718889],[-0.417925,43.370941944],[-0.417591111,43.371290278],[-0.419065833,43.372079167]]]}},{"type":"Feature","id":"LFBP-a7b36257de7571b48494","properties":{"airport":"LFBP","name":"LFBP AVISO","layer":"Buildings and structures","category":"Buildings","object_type":"Area","style_id":"polygon.building.394446","source_group":"LFBP AVISO","vsmr_group_ids":[],"geometry_role":"filled_region"},"geometry":{"type":"Polygon","coordinates":[[[-0.421890278,43.373098611],[-0.42155,43.372929722],[-0.421298056,43.373177222],[-0.421641667,43.373353056],[-0.421890278,43.373098611]]]}},{"type":"Feature","id":"LFBP-32f61950da808efb9c72","properties":{"airport":"LFBP","name":"LFBP AVISO","layer":"Buildings and structures","category":"Buildings","object_type":"Area","style_id":"polygon.building.394446","source_group":"LFBP AVISO","vsmr_group_ids":[],"geometry_role":"filled_region"},"geometry":{"type":"Polygon","coordinates":[[[-0.421769167,43.373403056],[-0.422926667,43.3740125],[-0.423182778,43.3737525],[-0.422021111,43.373153333],[-0.421769167,43.373403056]]]}},{"type":"Feature","id":"LFBP-ce14044971345d54913c","properties":{"airport":"LFBP","name":"LFBP AVISO","layer":"Buildings and structures","category":"Buildings","object_type":"Area","style_id":"polygon.building.394446","source_group":"LFBP AVISO","vsmr_group_ids":[],"geometry_role":"filled_region"},"geometry":{"type":"Polygon","coordinates":[[[-0.423528611,43.374038889],[-0.423341111,43.374221389],[-0.423541389,43.374334444],[-0.423735,43.374149722],[-0.423528611,43.374038889]]]}},{"type":"Feature","id":"LFBP-7ad8678774ba1f0cd8e6","properties":{"airport":"LFBP","name":"LFBP AVISO","layer":"Buildings and structures","category":"Buildings","object_type":"Area","style_id":"polygon.building.394446","source_group":"LFBP AVISO","vsmr_group_ids":[],"geometry_role":"filled_region"},"geometry":{"type":"Polygon","coordinates":[[[-0.424018889,43.374245833],[-0.423968611,43.374290556],[-0.423856944,43.374231667],[-0.423698056,43.374412222],[-0.424024444,43.374572222],[-0.4242225,43.374351389],[-0.424018889,43.374245833]]]}},{"type":"Feature","id":"LFBP-d3c3584a8ca5da41e2e6","properties":{"airport":"LFBP","name":"LFBP AVISO","layer":"Buildings and structures","category":"Buildings","object_type":"Area","style_id":"polygon.building.394446","source_group":"LFBP AVISO","vsmr_group_ids":[],"geometry_role":"filled_region"},"geometry":{"type":"Polygon","coordinates":[[[-0.424083611,43.374626389],[-0.426596389,43.375923333],[-0.42686,43.375665833],[-0.424716111,43.3745575],[-0.42477,43.374486111],[-0.424393889,43.374303333],[-0.424083611,43.374626389]]]}},{"type":"Feature","id":"LFBP-f82e796bfce501bb552e","properties":{"airport":"LFBP","name":"LFBP AVISO","layer":"Surface markings","category":"Stopbars","object_type":"Area","style_id":"polygon.stopbar.7e0000","source_group":"LFBP AVISO","vsmr_group_ids":[],"geometry_role":"filled_region"},"geometry":{"type":"Polygon","coordinates":[[[-0.427660556,43.386396667],[-0.427701944,43.386588333],[-0.427735556,43.386584167],[-0.42769,43.386391944],[-0.427660556,43.386396667]]]}},{"type":"Feature","id":"LFBP-14b9bc1d301d17958d5a","properties":{"airport":"LFBP","name":"LFBP AVISO","layer":"Surface markings","category":"Stopbars","object_type":"Area","style_id":"polygon.stopbar.7e0000","source_group":"LFBP AVISO","vsmr_group_ids":[],"geometry_role":"filled_region"},"geometry":{"type":"Polygon","coordinates":[[[-0.417711111,43.381124167],[-0.417309167,43.380917222],[-0.417279722,43.380936944],[-0.417713333,43.381153889],[-0.417711111,43.381124167]]]}},{"type":"Feature","id":"LFBP-e08f67e2164eade678d2","properties":{"airport":"LFBP","name":"LFBP AVISO","layer":"Surface markings","category":"Stopbars","object_type":"Area","style_id":"polygon.stopbar.7e0000","source_group":"LFBP AVISO","vsmr_group_ids":[],"geometry_role":"filled_region"},"geometry":{"type":"Polygon","coordinates":[[[-0.407485833,43.375853889],[-0.407208056,43.375901389],[-0.4072125,43.375925278],[-0.407493889,43.3758775],[-0.407485833,43.375853889]]]}},{"type":"Feature","id":"LFBP-386a1bc028d82be641a4","properties":{"airport":"LFBP","name":"LFBP AVISO","layer":"Surface markings","category":"Stopbars","object_type":"Area","style_id":"polygon.stopbar.7e0000","source_group":"LFBP AVISO","vsmr_group_ids":[],"geometry_role":"filled_region"},"geometry":{"type":"Polygon","coordinates":[[[-0.409270833,43.373478333],[-0.409258611,43.373491944],[-0.409402778,43.373570278],[-0.409416944,43.373556111],[-0.409270833,43.373478333]]]}},{"type":"Feature","id":"LFBP-661b7ea631235cbb5bea","properties":{"airport":"LFBP","name":"LFBP AVISO","layer":"Surface markings","category":"Stopbars","object_type":"Area","style_id":"polygon.stopbar.7e0000","source_group":"LFBP AVISO","vsmr_group_ids":[],"geometry_role":"filled_region"},"geometry":{"type":"Polygon","coordinates":[[[-0.413106111,43.375449444],[-0.413335556,43.375561111],[-0.413371111,43.375551944],[-0.413121944,43.375433889],[-0.413106111,43.375449444]]]}},{"type":"Feature","id":"LFBP-da4fe4ca0cf018fa273b","properties":{"airport":"LFBP","name":"LFBP AVISO","layer":"Surface markings","category":"Stopbars","object_type":"Area","style_id":"polygon.stopbar.7e0000","source_group":"LFBP AVISO","vsmr_group_ids":[],"geometry_role":"filled_region"},"geometry":{"type":"Polygon","coordinates":[[[-0.422199444,43.380171111],[-0.422050556,43.380159444],[-0.4220475,43.380174722],[-0.422198611,43.380189167],[-0.422199444,43.380171111]]]}},{"type":"Feature","id":"LFBP-62f33d22c153be565fce","properties":{"airport":"LFBP","name":"LFBP AVISO","layer":"Surface markings","category":"Stopbars","object_type":"Area","style_id":"polygon.stopbar.7e0000","source_group":"LFBP AVISO","vsmr_group_ids":[],"geometry_role":"filled_region"},"geometry":{"type":"Polygon","coordinates":[[[-0.417368333,43.3730375],[-0.417222778,43.372957778],[-0.417208611,43.372972222],[-0.417353889,43.373050833],[-0.417368333,43.3730375]]]}},{"type":"Feature","id":"LFBP-a768a0275e949dfc1f51","properties":{"airport":"LFBP","name":"LFBP AVISO","layer":"Surface markings","category":"Stopbars","object_type":"Area","style_id":"polygon.stopbar.7e0000","source_group":"LFBP AVISO","vsmr_group_ids":[],"geometry_role":"filled_region"},"geometry":{"type":"Polygon","coordinates":[[[-0.415133611,43.371957778],[-0.415119444,43.371972222],[-0.415281111,43.372062222],[-0.415295278,43.372047222],[-0.415133611,43.371957778]]]}},{"type":"Feature","id":"LFBP-43a7e41d2fa97908748b","properties":{"airport":"LFBP","name":"A1","layer":"Labels","category":"Gates","object_type":"Label","style_id":"label.gates","source_group":"LFBP Gates","vsmr_group_ids":[],"geometry_role":"text_label","text-field":"A1"},"geometry":{"type":"Point","coordinates":[-0.422275833,43.385996389]}},{"type":"Feature","id":"LFBP-39e2280a135098cc07f4","properties":{"airport":"LFBP","name":"A2","layer":"Labels","category":"Gates","object_type":"Label","style_id":"label.gates","source_group":"LFBP Gates","vsmr_group_ids":[],"geometry_role":"text_label","text-field":"A2"},"geometry":{"type":"Point","coordinates":[-0.421726389,43.385689722]}},{"type":"Feature","id":"LFBP-4f94d4fef1510069d84d","properties":{"airport":"LFBP","name":"A3","layer":"Labels","category":"Gates","object_type":"Label","style_id":"label.gates","source_group":"LFBP Gates","vsmr_group_ids":[],"geometry_role":"text_label","text-field":"A3"},"geometry":{"type":"Point","coordinates":[-0.422162222,43.385855278]}},{"type":"Feature","id":"LFBP-4ce01e1d6b26c9844b14","properties":{"airport":"LFBP","name":"G1","layer":"Labels","category":"Gates","object_type":"Label","style_id":"label.gates","source_group":"LFBP Gates","vsmr_group_ids":[],"geometry_role":"text_label","text-field":"G1"},"geometry":{"type":"Point","coordinates":[-0.418036111,43.383378889]}},{"type":"Feature","id":"LFBP-ef88eda2707ef008a6eb","properties":{"airport":"LFBP","name":"G2","layer":"Labels","category":"Gates","object_type":"Label","style_id":"label.gates","source_group":"LFBP Gates","vsmr_group_ids":[],"geometry_role":"text_label","text-field":"G2"},"geometry":{"type":"Point","coordinates":[-0.418246389,43.383151389]}},{"type":"Feature","id":"LFBP-ac94e3a8f0b52035ecbf","properties":{"airport":"LFBP","name":"G3","layer":"Labels","category":"Gates","object_type":"Label","style_id":"label.gates","source_group":"LFBP Gates","vsmr_group_ids":[],"geometry_role":"text_label","text-field":"G3"},"geometry":{"type":"Point","coordinates":[-0.418831389,43.383174722]}},{"type":"Feature","id":"LFBP-af457948ee09d2fd3ca8","properties":{"airport":"LFBP","name":"G4","layer":"Labels","category":"Gates","object_type":"Label","style_id":"label.gates","source_group":"LFBP Gates","vsmr_group_ids":[],"geometry_role":"text_label","text-field":"G4"},"geometry":{"type":"Point","coordinates":[-0.418414722,43.383089444]}},{"type":"Feature","id":"LFBP-fc7aee168ae64dc674d9","properties":{"airport":"LFBP","name":"G5","layer":"Labels","category":"Gates","object_type":"Label","style_id":"label.gates","source_group":"LFBP Gates","vsmr_group_ids":[],"geometry_role":"text_label","text-field":"G5"},"geometry":{"type":"Point","coordinates":[-0.418609444,43.383172222]}},{"type":"Feature","id":"LFBP-4fc8ccf7f7a7c883e49a","properties":{"airport":"LFBP","name":"G6","layer":"Labels","category":"Gates","object_type":"Label","style_id":"label.gates","source_group":"LFBP Gates","vsmr_group_ids":[],"geometry_role":"text_label","text-field":"G6"},"geometry":{"type":"Point","coordinates":[-0.418739444,43.3832625]}},{"type":"Feature","id":"LFBP-cde136b82acc9a4c7cf0","properties":{"airport":"LFBP","name":"G7","layer":"Labels","category":"Gates","object_type":"Label","style_id":"label.gates","source_group":"LFBP Gates","vsmr_group_ids":[],"geometry_role":"text_label","text-field":"G7"},"geometry":{"type":"Point","coordinates":[-0.418995556,43.383360833]}},{"type":"Feature","id":"LFBP-182a8da1dc35bb87a1dd","properties":{"airport":"LFBP","name":"G8","layer":"Labels","category":"Gates","object_type":"Label","style_id":"label.gates","source_group":"LFBP Gates","vsmr_group_ids":[],"geometry_role":"text_label","text-field":"G8"},"geometry":{"type":"Point","coordinates":[-0.419186667,43.383459167]}},{"type":"Feature","id":"LFBP-47e0e5c59293d08c7af0","properties":{"airport":"LFBP","name":"8C","layer":"Labels","category":"Gates","object_type":"Label","style_id":"label.gates","source_group":"LFBP Gates","vsmr_group_ids":[],"geometry_role":"text_label","text-field":"8C"},"geometry":{"type":"Point","coordinates":[-0.417218611,43.382958333]}},{"type":"Feature","id":"LFBP-e92dcb7330bc4652e8fa","properties":{"airport":"LFBP","name":"8B","layer":"Labels","category":"Gates","object_type":"Label","style_id":"label.gates","source_group":"LFBP Gates","vsmr_group_ids":[],"geometry_role":"text_label","text-field":"8B"},"geometry":{"type":"Point","coordinates":[-0.416901944,43.382821111]}},{"type":"Feature","id":"LFBP-50c4f699d6443976bad4","properties":{"airport":"LFBP","name":"8A","layer":"Labels","category":"Gates","object_type":"Label","style_id":"label.gates","source_group":"LFBP Gates","vsmr_group_ids":[],"geometry_role":"text_label","text-field":"8A"},"geometry":{"type":"Point","coordinates":[-0.4165975,43.382683889]}},{"type":"Feature","id":"LFBP-01988c08a4d94143ae50","properties":{"airport":"LFBP","name":"7","layer":"Labels","category":"Gates","object_type":"Label","style_id":"label.gates","source_group":"LFBP Gates","vsmr_group_ids":[],"geometry_role":"text_label","text-field":"7"},"geometry":{"type":"Point","coordinates":[-0.416507778,43.382372778]}},{"type":"Feature","id":"LFBP-279a46c578ccbf7f41b0","properties":{"airport":"LFBP","name":"6","layer":"Labels","category":"Gates","object_type":"Label","style_id":"label.gates","source_group":"LFBP Gates","vsmr_group_ids":[],"geometry_role":"text_label","text-field":"6"},"geometry":{"type":"Point","coordinates":[-0.415725278,43.382477778]}},{"type":"Feature","id":"LFBP-a535a4a5215ff3933ec0","properties":{"airport":"LFBP","name":"6B","layer":"Labels","category":"Gates","object_type":"Label","style_id":"label.gates","source_group":"LFBP Gates","vsmr_group_ids":[],"geometry_role":"text_label","text-field":"6B"},"geometry":{"type":"Point","coordinates":[-0.415528333,43.382372778]}},{"type":"Feature","id":"LFBP-f9b2777f2a6ae7d2f22b","properties":{"airport":"LFBP","name":"5","layer":"Labels","category":"Gates","object_type":"Label","style_id":"label.gates","source_group":"LFBP Gates","vsmr_group_ids":[],"geometry_role":"text_label","text-field":"5"},"geometry":{"type":"Point","coordinates":[-0.415295278,43.382247778]}},{"type":"Feature","id":"LFBP-2ac6b4cd7da2ab7964b0","properties":{"airport":"LFBP","name":"5B","layer":"Labels","category":"Gates","object_type":"Label","style_id":"label.gates","source_group":"LFBP Gates","vsmr_group_ids":[],"geometry_role":"text_label","text-field":"5B"},"geometry":{"type":"Point","coordinates":[-0.4148175,43.381751111]}},{"type":"Feature","id":"LFBP-e736b8f0d57b47916814","properties":{"airport":"LFBP","name":"4","layer":"Labels","category":"Gates","object_type":"Label","style_id":"label.gates","source_group":"LFBP Gates","vsmr_group_ids":[],"geometry_role":"text_label","text-field":"4"},"geometry":{"type":"Point","coordinates":[-0.414883333,43.382045833]}},{"type":"Feature","id":"LFBP-7b118d23696a2f1afa80","properties":{"airport":"LFBP","name":"3","layer":"Labels","category":"Gates","object_type":"Label","style_id":"label.gates","source_group":"LFBP Gates","vsmr_group_ids":[],"geometry_role":"text_label","text-field":"3"},"geometry":{"type":"Point","coordinates":[-0.414238056,43.381638056]}},{"type":"Feature","id":"LFBP-10d5f1b1bd74103885eb","properties":{"airport":"LFBP","name":"3B","layer":"Labels","category":"Gates","object_type":"Label","style_id":"label.gates","source_group":"LFBP Gates","vsmr_group_ids":[],"geometry_role":"text_label","text-field":"3B"},"geometry":{"type":"Point","coordinates":[-0.414011111,43.381355278]}},{"type":"Feature","id":"LFBP-562f8adeb47540c87cc4","properties":{"airport":"LFBP","name":"2","layer":"Labels","category":"Gates","object_type":"Label","style_id":"label.gates","source_group":"LFBP Gates","vsmr_group_ids":[],"geometry_role":"text_label","text-field":"2"},"geometry":{"type":"Point","coordinates":[-0.413760278,43.381181667]}},{"type":"Feature","id":"LFBP-f9ee845c3fe132c22df9","properties":{"airport":"LFBP","name":"1","layer":"Labels","category":"Gates","object_type":"Label","style_id":"label.gates","source_group":"LFBP Gates","vsmr_group_ids":[],"geometry_role":"text_label","text-field":"1"},"geometry":{"type":"Point","coordinates":[-0.413222778,43.381121111]}},{"type":"Feature","id":"LFBP-6edb18b4204e3d20070a","properties":{"airport":"LFBP","name":"1B","layer":"Labels","category":"Gates","object_type":"Label","style_id":"label.gates","source_group":"LFBP Gates","vsmr_group_ids":[],"geometry_role":"text_label","text-field":"1B"},"geometry":{"type":"Point","coordinates":[-0.413467778,43.381230278]}},{"type":"Feature","id":"LFBP-9f2a2cccef5892c0eb70","properties":{"airport":"LFBP","name":"SEC CIV","layer":"Labels","category":"Gates","object_type":"Label","style_id":"label.gates","source_group":"LFBP Gates","vsmr_group_ids":[],"geometry_role":"text_label","text-field":"SEC CIV"},"geometry":{"type":"Point","coordinates":[-0.416989444,43.384101389]}},{"type":"Feature","id":"LFBP-7c4db2046e574b28c698","properties":{"airport":"LFBP","name":"PRKG MIL","layer":"Labels","category":"Gates","object_type":"Label","style_id":"label.gates","source_group":"LFBP Gates","vsmr_group_ids":[],"geometry_role":"text_label","text-field":"PRKG MIL"},"geometry":{"type":"Point","coordinates":[-0.412140556,43.369436944]}},{"type":"Feature","id":"LFBP-4506433aa00b46025c24","properties":{"airport":"LFBP","name":"PRKG MIL","layer":"Labels","category":"Gates","object_type":"Label","style_id":"label.gates","source_group":"LFBP Gates","vsmr_group_ids":[],"geometry_role":"text_label","text-field":"PRKG MIL"},"geometry":{"type":"Point","coordinates":[-0.415159444,43.374866667]}},{"type":"Feature","id":"LFBP-1514f741a73e5abe3f90","properties":{"airport":"LFBP","name":"PRKG HEL MIL","layer":"Labels","category":"Gates","object_type":"Label","style_id":"label.gates","source_group":"LFBP Gates","vsmr_group_ids":[],"geometry_role":"text_label","text-field":"PRKG HEL MIL"},"geometry":{"type":"Point","coordinates":[-0.416982222,43.371535556]}},{"type":"Feature","id":"LFBP-f5fa482517af4314b1b7","properties":{"airport":"LFBP","name":"PRKG HEL MIL","layer":"Labels","category":"Gates","object_type":"Label","style_id":"label.gates","source_group":"LFBP Gates","vsmr_group_ids":[],"geometry_role":"text_label","text-field":"PRKG HEL MIL"},"geometry":{"type":"Point","coordinates":[-0.42171,43.373903889]}},{"type":"Feature","id":"LFBP-82ffa517b3ea82775fc9","properties":{"airport":"LFBP","name":"LFBP Groundlayout AVISO","layer":"Guidance lines","category":"Taxiways","object_type":"Line","style_id":"line.taxiway.c0b631","source_group":"LFBP Groundlayout AVISO","vsmr_group_ids":[],"geometry_role":"linework"},"geometry":{"type":"MultiLineString","coordinates":[[[-0.417506944,43.383451944],[-0.418733889,43.382211944]],[[-0.42253,43.385739444],[-0.422505833,43.385763056]],[[-0.422485556,43.3857825],[-0.422461944,43.385806667]],[[-0.422439722,43.385829722],[-0.422420556,43.38585]],[[-0.422399722,43.385870278],[-0.422376944,43.385892778]],[[-0.422355833,43.385912222],[-0.422329722,43.385939167]],[[-0.422356667,43.385553333],[-0.422308889,43.385845]],[[-0.421946111,43.385433333],[-0.421918889,43.385458611]],[[-0.421899722,43.385477778],[-0.421874167,43.385503611]],[[-0.421852222,43.385526111],[-0.421825833,43.385553333]],[[-0.421798333,43.385580556],[-0.421769167,43.385610833]],[[-0.418775,43.383755278],[-0.418101389,43.383404167],[-0.418111944,43.383393611],[-0.418090556,43.383414444]],[[-0.418353056,43.383356111],[-0.418320556,43.383181667],[-0.418339722,43.38318],[-0.418301111,43.383183889]],[[-0.418874167,43.383454444],[-0.418835833,43.383225833],[-0.418861389,43.383224167],[-0.41881,43.383228056]],[[-0.418213333,43.3832875],[-0.418300833,43.383198889]],[[-0.418336111,43.383161389],[-0.418386111,43.383111111],[-0.418400278,43.383118333],[-0.418374167,43.383104167]],[[-0.418405,43.38338],[-0.418576667,43.383206667],[-0.418593056,43.383215556],[-0.418561111,43.383198333]],[[-0.418591111,43.383479722],[-0.418768333,43.383308611],[-0.418788056,43.383319167],[-0.418750278,43.383298333]],[[-0.418776667,43.3835775],[-0.418948056,43.383402222],[-0.418966111,43.383411667],[-0.418933333,43.383394444]],[[-0.418954722,43.383671111],[-0.4191325,43.383499167],[-0.419148333,43.383507778],[-0.419117222,43.383491389]],[[-0.417447778,43.382713333],[-0.417274167,43.382893889]],[[-0.417159722,43.382544444],[-0.416952778,43.3827575]],[[-0.416861389,43.382384722],[-0.416643333,43.382606944]],[[-0.417070556,43.382744722],[-0.416619167,43.382436944],[-0.416651111,43.382411667],[-0.416588889,43.382459722]],[[-0.416155,43.382056389],[-0.4158125,43.382397778]],[[-0.415938889,43.381944722],[-0.415579722,43.382315556]],[[-0.415725556,43.381832222],[-0.415358889,43.382198056]],[[-0.415255833,43.381973333],[-0.414935,43.381805278],[-0.414951389,43.3817875],[-0.414919722,43.381822222]],[[-0.4153075,43.381614167],[-0.414941944,43.381981944]],[[-0.414852778,43.381512778],[-0.414357222,43.381603889],[-0.414363889,43.381624722],[-0.414350833,43.381585]],[[-0.414498611,43.381478333],[-0.414105833,43.381274444],[-0.4140875,43.381294167],[-0.414122222,43.381258056]],[[-0.414317222,43.3811375],[-0.413858889,43.381113333],[-0.413857778,43.381130278],[-0.413860556,43.381096111]],[[-0.4138875,43.380863611],[-0.413425,43.3811125],[-0.413437222,43.381125],[-0.413412222,43.381099444]],[[-0.413692222,43.380753056],[-0.413341667,43.381105278]]]}},{"type":"Feature","id":"LFBP-c8a9dd3897e91d839571","properties":{"airport":"LFBP","name":"13","layer":"Labels","category":"Taxiways","object_type":"Label","style_id":"label.taxiways","source_group":"LFBP Taxiways","vsmr_group_ids":[],"geometry_role":"text_label","text-field":"13"},"geometry":{"type":"Point","coordinates":[-0.432853889,43.387435]}},{"type":"Feature","id":"LFBP-0d3c9e5f6d63d4adf784","properties":{"airport":"LFBP","name":"31","layer":"Labels","category":"Taxiways","object_type":"Label","style_id":"label.taxiways","source_group":"LFBP Taxiways","vsmr_group_ids":[],"geometry_role":"text_label","text-field":"31"},"geometry":{"type":"Point","coordinates":[-0.408648056,43.374703333]}},{"type":"Feature","id":"LFBP-3bf77177c212ec6abadf","properties":{"airport":"LFBP","name":"N5","layer":"Labels","category":"Taxiways","object_type":"Label","style_id":"label.taxiways","source_group":"LFBP Taxiways","vsmr_group_ids":[],"geometry_role":"text_label","text-field":"N5"},"geometry":{"type":"Point","coordinates":[-0.427886944,43.385918889]}},{"type":"Feature","id":"LFBP-bfaf36178e4a80f2a06a","properties":{"airport":"LFBP","name":"NW","layer":"Labels","category":"Taxiways","object_type":"Label","style_id":"label.taxiways","source_group":"LFBP Taxiways","vsmr_group_ids":[],"geometry_role":"text_label","text-field":"NW"},"geometry":{"type":"Point","coordinates":[-0.421489722,43.383465278]}},{"type":"Feature","id":"LFBP-c9c94fb215c2854b114e","properties":{"airport":"LFBP","name":"NG","layer":"Labels","category":"Taxiways","object_type":"Label","style_id":"label.taxiways","source_group":"LFBP Taxiways","vsmr_group_ids":[],"geometry_role":"text_label","text-field":"NG"},"geometry":{"type":"Point","coordinates":[-0.418482778,43.381875556]}},{"type":"Feature","id":"LFBP-60d4e112837b34163e3f","properties":{"airport":"LFBP","name":"N3","layer":"Labels","category":"Taxiways","object_type":"Label","style_id":"label.taxiways","source_group":"LFBP Taxiways","vsmr_group_ids":[],"geometry_role":"text_label","text-field":"N3"},"geometry":{"type":"Point","coordinates":[-0.417323611,43.380383333]}},{"type":"Feature","id":"LFBP-ad4b6d47aecb8b79b983","properties":{"airport":"LFBP","name":"NE","layer":"Labels","category":"Taxiways","object_type":"Label","style_id":"label.taxiways","source_group":"LFBP Taxiways","vsmr_group_ids":[],"geometry_role":"text_label","text-field":"NE"},"geometry":{"type":"Point","coordinates":[-0.411197778,43.378072778]}},{"type":"Feature","id":"LFBP-b2f1796beee2d40c447d","properties":{"airport":"LFBP","name":"N1","layer":"Labels","category":"Taxiways","object_type":"Label","style_id":"label.taxiways","source_group":"LFBP Taxiways","vsmr_group_ids":[],"geometry_role":"text_label","text-field":"N1"},"geometry":{"type":"Point","coordinates":[-0.407989722,43.375640556]}},{"type":"Feature","id":"LFBP-d9fc9deb401254f21d71","properties":{"airport":"LFBP","name":"S0","layer":"Labels","category":"Taxiways","object_type":"Label","style_id":"label.taxiways","source_group":"LFBP Taxiways","vsmr_group_ids":[],"geometry_role":"text_label","text-field":"S0"},"geometry":{"type":"Point","coordinates":[-0.409734167,43.373707778]}},{"type":"Feature","id":"LFBP-b6789f210dcedb014545","properties":{"airport":"LFBP","name":"S1","layer":"Labels","category":"Taxiways","object_type":"Label","style_id":"label.taxiways","source_group":"LFBP Taxiways","vsmr_group_ids":[],"geometry_role":"text_label","text-field":"S1"},"geometry":{"type":"Point","coordinates":[-0.412489167,43.375425556]}},{"type":"Feature","id":"LFBP-722c682a4e605ef5cabf","properties":{"airport":"LFBP","name":"S2","layer":"Labels","category":"Taxiways","object_type":"Label","style_id":"label.taxiways","source_group":"LFBP Taxiways","vsmr_group_ids":[],"geometry_role":"text_label","text-field":"S2"},"geometry":{"type":"Point","coordinates":[-0.421562222,43.380142778]}},{"type":"Feature","id":"LFBP-6023ceac4ddb9d8be6e1","properties":{"airport":"LFBP","name":"G","layer":"Labels","category":"Taxiways","object_type":"Label","style_id":"label.taxiways","source_group":"LFBP Taxiways","vsmr_group_ids":[],"geometry_role":"text_label","text-field":"G"},"geometry":{"type":"Point","coordinates":[-0.419181944,43.382656667]}},{"type":"Feature","id":"LFBP-3859c2b261477b52e08a","properties":{"airport":"LFBP","name":"C","layer":"Labels","category":"Taxiways","object_type":"Label","style_id":"label.taxiways","source_group":"LFBP Taxiways","vsmr_group_ids":[],"geometry_role":"text_label","text-field":"C"},"geometry":{"type":"Point","coordinates":[-0.416914444,43.381578611]}},{"type":"Feature","id":"LFBP-814d1e0fc6ac9458cc05","properties":{"airport":"LFBP","name":"M","layer":"Labels","category":"Taxiways","object_type":"Label","style_id":"label.taxiways","source_group":"LFBP Taxiways","vsmr_group_ids":[],"geometry_role":"text_label","text-field":"M"},"geometry":{"type":"Point","coordinates":[-0.412696944,43.379406667]}},{"type":"Feature","id":"LFBP-fd9e9f4bdb03c911462f","properties":{"airport":"LFBP","name":"N","layer":"Labels","category":"Taxiways","object_type":"Label","style_id":"label.taxiways","source_group":"LFBP Taxiways","vsmr_group_ids":[],"geometry_role":"text_label","text-field":"N"},"geometry":{"type":"Point","coordinates":[-0.410344722,43.378744444]}},{"type":"Feature","id":"LFBP-29d0dad3ec293c5308ed","properties":{"airport":"LFBP","name":"E","layer":"Labels","category":"Taxiways","object_type":"Label","style_id":"label.taxiways","source_group":"LFBP Taxiways","vsmr_group_ids":[],"geometry_role":"text_label","text-field":"E"},"geometry":{"type":"Point","coordinates":[-0.4087975,43.377250278]}},{"type":"Feature","id":"LFBP-494edf082579c5faac7b","properties":{"airport":"LFBP","name":"D","layer":"Labels","category":"Taxiways","object_type":"Label","style_id":"label.taxiways","source_group":"LFBP Taxiways","vsmr_group_ids":[],"geometry_role":"text_label","text-field":"D"},"geometry":{"type":"Point","coordinates":[-0.409454444,43.378513333]}},{"type":"Feature","id":"LFBP-087f1fdc49bd1bb38b7d","properties":{"airport":"LFBP","name":"S","layer":"Labels","category":"Taxiways","object_type":"Label","style_id":"label.taxiways","source_group":"LFBP Taxiways","vsmr_group_ids":[],"geometry_role":"text_label","text-field":"S"},"geometry":{"type":"Point","coordinates":[-0.419330278,43.377943333]}},{"type":"Feature","id":"LFBP-e2fe60c37aaa4eec7f59","properties":{"airport":"LFBP","name":"HE","layer":"Labels","category":"Taxiways","object_type":"Label","style_id":"label.taxiways","source_group":"LFBP Taxiways","vsmr_group_ids":[],"geometry_role":"text_label","text-field":"HE"},"geometry":{"type":"Point","coordinates":[-0.411743333,43.3788675]}},{"type":"Feature","id":"LFBP-acc86cab832ade621181","properties":{"airport":"LFBP","name":"H4","layer":"Labels","category":"Taxiways","object_type":"Label","style_id":"label.taxiways","source_group":"LFBP Taxiways","vsmr_group_ids":[],"geometry_role":"text_label","text-field":"H4"},"geometry":{"type":"Point","coordinates":[-0.412124722,43.370719444]}},{"type":"Feature","id":"LFBP-b5fa6a3524b9d0018bcb","properties":{"airport":"LFBP","name":"H13","layer":"Labels","category":"Taxiways","object_type":"Label","style_id":"label.taxiways","source_group":"LFBP Taxiways","vsmr_group_ids":[],"geometry_role":"text_label","text-field":"H13"},"geometry":{"type":"Point","coordinates":[-0.416935556,43.3733225]}},{"type":"Feature","id":"LFBP-0ee0fcebb8e7d91723d9","properties":{"airport":"LFBP","name":"H31","layer":"Labels","category":"Taxiways","object_type":"Label","style_id":"label.taxiways","source_group":"LFBP Taxiways","vsmr_group_ids":[],"geometry_role":"text_label","text-field":"H31"},"geometry":{"type":"Point","coordinates":[-0.415197778,43.372413611]}},{"type":"Feature","id":"LFBP-e7492df1e78f345d1f2c","properties":{"airport":"LFBP","name":"H","layer":"Labels","category":"Taxiways","object_type":"Label","style_id":"label.taxiways","source_group":"LFBP Taxiways","vsmr_group_ids":[],"geometry_role":"text_label","text-field":"H"},"geometry":{"type":"Point","coordinates":[-0.422636389,43.375355556]}},{"type":"Feature","id":"LFBP-3ddd43de69e85d67f1bd","properties":{"airport":"LFBP","name":"H","layer":"Labels","category":"Taxiways","object_type":"Label","style_id":"label.taxiways","source_group":"LFBP Taxiways","vsmr_group_ids":[],"geometry_role":"text_label","text-field":"H"},"geometry":{"type":"Point","coordinates":[-0.419626944,43.3738]}},{"type":"Feature","id":"LFBP-8485c90c75a7d12609fe","properties":{"airport":"LFBP","name":"H","layer":"Labels","category":"Taxiways","object_type":"Label","style_id":"label.taxiways","source_group":"LFBP Taxiways","vsmr_group_ids":[],"geometry_role":"text_label","text-field":"H"},"geometry":{"type":"Point","coordinates":[-0.411870556,43.380330833]}},{"type":"Feature","id":"LFBP-bf47fbbd8182e4c8300a","properties":{"airport":"LFBP","name":"H","layer":"Labels","category":"Taxiways","object_type":"Label","style_id":"label.taxiways","source_group":"LFBP Taxiways","vsmr_group_ids":[],"geometry_role":"text_label","text-field":"H"},"geometry":{"type":"Point","coordinates":[-0.410705,43.379699444]}},{"type":"Feature","id":"LFBP-d1999d99b0b87470cbcc","properties":{"airport":"LFBP","name":"NA","layer":"Labels","category":"Taxiways","object_type":"Label","style_id":"label.taxiways","source_group":"LFBP Taxiways","vsmr_group_ids":[],"geometry_role":"text_label","text-field":"NA"},"geometry":{"type":"Point","coordinates":[-0.414934722,43.381080833]}},{"type":"Feature","id":"LFBP-5a036fa6e0e08e72cba2","properties":{"airport":"LFBP","name":"NM","layer":"Labels","category":"Taxiways","object_type":"Label","style_id":"label.taxiways","source_group":"LFBP Taxiways","vsmr_group_ids":[],"geometry_role":"text_label","text-field":"NM"},"geometry":{"type":"Point","coordinates":[-0.413196111,43.380148333]}},{"type":"Feature","id":"LFBP-ea60d856b687fdad50e7","properties":{"airport":"LFBP","name":"SN","layer":"Labels","category":"Taxiways","object_type":"Label","style_id":"label.taxiways","source_group":"LFBP Taxiways","vsmr_group_ids":[],"geometry_role":"text_label","text-field":"SN"},"geometry":{"type":"Point","coordinates":[-0.414270556,43.3701525]}}]}
