{"type":"FeatureCollection","name":"LFBS AVISO","bbox":[-1.142058889,44.362224167,-1.124465278,44.370448056],"metadata":{"schema":"vSMR AVISO","schema_version":2,"geometry_mode":"shared","airport":"LFBS","coordinate_reference_system":"WGS84","coordinate_order":"longitude, latitude","default_color_palette":"dark","color_palettes":["dark","light"],"background_colors":{"dark":"#434A4F","light":"#434A4F"},"runways":[{"ends":["13","31"],"headings":[134,314],"thresholds":[[-1.134196944,44.366885833],[-1.127913889,44.362410833]]},{"ends":["09R","27L"],"headings":[90,270],"thresholds":[[-1.142057778,44.367760833],[-1.125680833,44.36755]]},{"ends":["09","27"],"headings":[90,270],"thresholds":[[-1.137363889,44.368238889],[-1.127335833,44.368113889]]}],"saved_active_runways":[],"saved_active_airport_modes":[],"airport_reference":[-1.132221944,44.368055833],"feature_count":17,"style_count":9,"layer_counts":{"Guidance lines":7,"Labels":10},"category_counts":{"Apron Surface":1,"Gates":7,"Grass runways":1,"Labels":1,"Runways":1,"Stopbars":1,"TWR-CTR":1,"Taxiways":4},"geometry_source":"local GNG/KMZ","geometry_source_url":"","geometry_license":"GPL-3.0"},"styles":{"line.runwayconcrete.555555":{"name":"Runways","layer":"Guidance lines","object_type":"Line","paint":{"stroke":"#111318","stroke-opacity":1,"stroke-width":1,"palette-overrides":{"light":{"stroke":"#555555"}}},"feature_count":1},"line.runwaygrass.008000":{"name":"Grass runways","layer":"Guidance lines","object_type":"Line","paint":{"stroke":"#859A77","stroke-opacity":1,"stroke-width":1,"palette-overrides":{"light":{"stroke":"#008000"}}},"feature_count":1},"line.taxiway.c0b631":{"name":"Taxiways","layer":"Guidance lines","object_type":"Line","paint":{"stroke":"#4E5A69","stroke-opacity":1,"stroke-width":1,"palette-overrides":{"light":{"stroke":"#C0B631"}}},"feature_count":1},"line.apronsurface.808080":{"name":"Apron Surface","layer":"Guidance lines","object_type":"Line","paint":{"stroke":"#808080","stroke-opacity":1,"stroke-width":1,"palette-overrides":{"light":{"stroke":"#808080"}}},"feature_count":1},"line.stopbar.7e0000":{"name":"Stopbars","layer":"Guidance lines","object_type":"Line","paint":{"stroke":"#7E0000","stroke-opacity":1,"stroke-width":1,"palette-overrides":{"light":{"stroke":"#7E0000"}}},"feature_count":1},"line.twr-ctr.000000":{"name":"TWR-CTR","layer":"Guidance lines","object_type":"Line","paint":{"stroke":"#000000","stroke-opacity":1,"stroke-width":1,"palette-overrides":{"light":{"stroke":"#000000"}}},"feature_count":1},"line.labels.808080":{"name":"Labels","layer":"Guidance lines","object_type":"Line","paint":{"stroke":"#808080","stroke-opacity":1,"stroke-width":1,"palette-overrides":{"light":{"stroke":"#808080"}}},"feature_count":1},"label.gates":{"name":"Gates","layer":"Labels","object_type":"Label","paint":{"text-color":"#CCCCCC","text-font":"Arial","text-size":12,"text-halo-color":"#000000","text-halo-width":1,"text-anchor":"center","zoomLevel":9},"feature_count":7},"label.taxiways":{"name":"Taxiways","layer":"Labels","object_type":"Label","paint":{"text-color":"#CCCCCC","text-font":"Arial","text-size":12,"text-halo-color":"#000000","text-halo-width":1,"text-anchor":"center","zoomLevel":7},"feature_count":3}},"vsmr_groups":[],"features":[{"type":"Feature","id":"LFBS-f137f527e92b03b74146","properties":{"airport":"LFBS","name":"TWR","layer":"Labels","category":"Gates","object_type":"Label","style_id":"label.gates","source_group":"LFBS Gates","vsmr_group_ids":[],"geometry_role":"text_label","text-field":"TWR"},"geometry":{"type":"Point","coordinates":[-1.133166944,44.369815556]}},{"type":"Feature","id":"LFBS-88ffe375deaef6661ac0","properties":{"airport":"LFBS","name":"Parking","layer":"Labels","category":"Gates","object_type":"Label","style_id":"label.gates","source_group":"LFBS Gates","vsmr_group_ids":[],"geometry_role":"text_label","text-field":"Parking"},"geometry":{"type":"Point","coordinates":[-1.133889167,44.369343611]}},{"type":"Feature","id":"LFBS-fc89e6758176a29a12cf","properties":{"airport":"LFBS","name":"Parking ENAC","layer":"Labels","category":"Gates","object_type":"Label","style_id":"label.gates","source_group":"LFBS Gates","vsmr_group_ids":[],"geometry_role":"text_label","text-field":"Parking ENAC"},"geometry":{"type":"Point","coordinates":[-1.131521667,44.369983333]}},{"type":"Feature","id":"LFBS-93403635732df0af4184","properties":{"airport":"LFBS","name":"Parking ACB","layer":"Labels","category":"Gates","object_type":"Label","style_id":"label.gates","source_group":"LFBS Gates","vsmr_group_ids":[],"geometry_role":"text_label","text-field":"Parking ACB"},"geometry":{"type":"Point","coordinates":[-1.129711111,44.369695278]}},{"type":"Feature","id":"LFBS-34e3ee85b556ac2d5a58","properties":{"airport":"LFBS","name":"Hangars","layer":"Labels","category":"Gates","object_type":"Label","style_id":"label.gates","source_group":"LFBS Gates","vsmr_group_ids":[],"geometry_role":"text_label","text-field":"Hangars"},"geometry":{"type":"Point","coordinates":[-1.126351389,44.370128889]}},{"type":"Feature","id":"LFBS-b622d41f659b4752c02c","properties":{"airport":"LFBS","name":"AVT","layer":"Labels","category":"Gates","object_type":"Label","style_id":"label.gates","source_group":"LFBS Gates","vsmr_group_ids":[],"geometry_role":"text_label","text-field":"AVT"},"geometry":{"type":"Point","coordinates":[-1.127172222,44.369543333]}},{"type":"Feature","id":"LFBS-603b0e187f665977f6be","properties":{"airport":"LFBS","name":"Hangars","layer":"Labels","category":"Gates","object_type":"Label","style_id":"label.gates","source_group":"LFBS Gates","vsmr_group_ids":[],"geometry_role":"text_label","text-field":"Hangars"},"geometry":{"type":"Point","coordinates":[-1.12787,44.369638056]}},{"type":"Feature","id":"LFBS-597a0671e740f7246e11","properties":{"airport":"LFBS","name":"LFBS Groundlayout","layer":"Guidance lines","category":"Runways","object_type":"Line","style_id":"line.runwayconcrete.555555","source_group":"LFBS Groundlayout","vsmr_group_ids":[],"geometry_role":"linework"},"geometry":{"type":"MultiLineString","coordinates":[[[-1.137368056,44.368155833],[-1.127333611,44.368032222],[-1.127329167,44.368206944]],[[-1.136848333,44.368326389],[-1.1323425,44.368273333]],[[-1.131848056,44.368263889],[-1.127783056,44.368214444]]]}},{"type":"Feature","id":"LFBS-b52d88d8fd2b41758aac","properties":{"airport":"LFBS","name":"LFBS Groundlayout","layer":"Guidance lines","category":"Grass runways","object_type":"Line","style_id":"line.runwaygrass.008000","source_group":"LFBS Groundlayout","vsmr_group_ids":[],"geometry_role":"linework"},"geometry":{"type":"MultiLineString","coordinates":[[[-1.142051111,44.368028056],[-1.125670833,44.367819167],[-1.125685278,44.3672875],[-1.142058889,44.367499444],[-1.142051111,44.368028056]],[[-1.134457778,44.3666975],[-1.133934167,44.367073333],[-1.127650278,44.362605278],[-1.128169444,44.362224167],[-1.134457778,44.3666975]]]}},{"type":"Feature","id":"LFBS-4a341fd4ee1b5b36b2ec","properties":{"airport":"LFBS","name":"LFBS Groundlayout","layer":"Guidance lines","category":"Taxiways","object_type":"Line","style_id":"line.taxiway.c0b631","source_group":"LFBS Groundlayout","vsmr_group_ids":[],"geometry_role":"linework"},"geometry":{"type":"MultiLineString","coordinates":[[[-1.127966944,44.369006389],[-1.127521944,44.369003056]],[[-1.133758889,44.369083056],[-1.133106667,44.369075556]],[[-1.130071111,44.369037778],[-1.12996,44.369034167],[-1.1299025,44.369044167],[-1.129859167,44.369046667],[-1.129808889,44.369051389],[-1.129748056,44.369053889],[-1.129555278,44.369053889],[-1.1295275,44.369067778],[-1.129508333,44.369085],[-1.129506667,44.369121111],[-1.129511944,44.369374167],[-1.129522778,44.369495556],[-1.129533611,44.369508056],[-1.129546944,44.369514722],[-1.129560556,44.369519444],[-1.129576667,44.369523333],[-1.129591667,44.3695225]],[[-1.129331389,44.369522778],[-1.129360278,44.369521389],[-1.129380556,44.369520278],[-1.1294025,44.369514167],[-1.1294125,44.369506944],[-1.129419444,44.369491389],[-1.129424444,44.369469444],[-1.129416111,44.369128889],[-1.129410833,44.369106111],[-1.1294025,44.369083056],[-1.129373889,44.369069722],[-1.129335,44.369058889],[-1.129299444,44.369051667],[-1.129250278,44.369046667],[-1.129176111,44.369049167],[-1.129133889,44.369051667],[-1.129083056,44.369040833],[-1.129022222,44.369028611],[-1.128985,44.3690225],[-1.128939444,44.3690225],[-1.128594722,44.369018889],[-1.128367222,44.369014167],[-1.128337222,44.369021389],[-1.128305556,44.369034722],[-1.128273889,44.369051944],[-1.1282525,44.3690725],[-1.128235278,44.369093056],[-1.128218056,44.369119722],[-1.128203611,44.369143333],[-1.128189167,44.369169167],[-1.128179167,44.369188611],[-1.128169167,44.369228611],[-1.128166111,44.369253333],[-1.128163333,44.369288056]],[[-1.137367222,44.368328333],[-1.137362778,44.368383889],[-1.137360556,44.368537778],[-1.137349444,44.3688075],[-1.137349444,44.368921667],[-1.137338333,44.369128056],[-1.137011944,44.369123056],[-1.134131944,44.369087778]],[[-1.136844722,44.368327222],[-1.136900278,44.368329722],[-1.136943889,44.368339167],[-1.136982778,44.368353611],[-1.137021389,44.368369444],[-1.137056944,44.368393611],[-1.137082222,44.368415278],[-1.137093889,44.368442778],[-1.137105833,44.368485],[-1.1371125,44.368530833],[-1.137149444,44.368598333],[-1.137178333,44.368646389],[-1.137201667,44.368686111],[-1.137215278,44.368721111],[-1.137223611,44.368756111],[-1.137225278,44.368790833],[-1.137211944,44.368834167],[-1.13719,44.368865556],[-1.137161389,44.368903056],[-1.137132778,44.368936667],[-1.137085278,44.368966389],[-1.137038889,44.368991667],[-1.1369775,44.369011667],[-1.1369125,44.369022222],[-1.136847778,44.369031389],[-1.136766111,44.369028889],[-1.136478333,44.369024722],[-1.136010833,44.369019444],[-1.134123889,44.368994444],[-1.132562778,44.368981111],[-1.132431944,44.368963611],[-1.132356111,44.368935278],[-1.13228,44.368894167],[-1.132222222,44.368857222],[-1.132188611,44.368798333],[-1.132170556,44.368728889],[-1.132164444,44.368655],[-1.132176667,44.368396111],[-1.132180833,44.368369722],[-1.1322,44.368345833],[-1.132225556,44.368320833],[-1.132254167,44.368296667],[-1.132284444,44.368283056],[-1.13231,44.368278333],[-1.132346944,44.368273889]],[[-1.131845,44.368264167],[-1.131888056,44.368269167],[-1.131926944,44.368278889],[-1.131963056,44.368295833],[-1.131990833,44.368317778],[-1.132008889,44.368338611],[-1.132025556,44.368361389],[-1.132029722,44.368400278],[-1.132024167,44.3685025],[-1.132024444,44.368745278],[-1.132011389,44.368782778],[-1.131998056,44.368811111],[-1.131977778,44.368833056],[-1.131946944,44.368858333],[-1.131910278,44.3688875],[-1.131865,44.368916944],[-1.131828333,44.368934722],[-1.1317875,44.368946111],[-1.131745,44.368956667],[-1.131715556,44.368961944],[-1.131663056,44.368962778]],[[-1.127783056,44.368213333],[-1.127738889,44.368218333],[-1.127692222,44.368227778],[-1.12766,44.368238889],[-1.127634722,44.368253611],[-1.127613333,44.368266389],[-1.127592778,44.368286111],[-1.127580833,44.368303889],[-1.127565278,44.368326111],[-1.127555833,44.368351111],[-1.127561667,44.368370556],[-1.127563056,44.368385278],[-1.127545,44.368420278],[-1.127476944,44.368545833],[-1.127451667,44.368598056],[-1.127445,44.368628889],[-1.127446389,44.368653611],[-1.127453056,44.368686389],[-1.127465278,44.368716944],[-1.127478611,44.368746944],[-1.127501389,44.368781389],[-1.127521667,44.368807222],[-1.127549722,44.368828333],[-1.127583333,44.368851389],[-1.127628889,44.368875556],[-1.127674722,44.368892778],[-1.127726944,44.368906111],[-1.12777,44.368911111],[-1.127833056,44.368911944],[-1.128025,44.368915833],[-1.130072778,44.3689425]],[[-1.127328889,44.368206111],[-1.127327222,44.368273889],[-1.127324167,44.368396389],[-1.1273225,44.368634722],[-1.127314722,44.368791944],[-1.127310833,44.369001667]]]}},{"type":"Feature","id":"LFBS-79b7b205c649b06d03dd","properties":{"airport":"LFBS","name":"LFBS Groundlayout","layer":"Guidance lines","category":"Apron Surface","object_type":"Line","style_id":"line.apronsurface.808080","source_group":"LFBS Groundlayout","vsmr_group_ids":[],"geometry_role":"linework"},"geometry":{"type":"MultiLineString","coordinates":[[[-1.127287222,44.369566111],[-1.127286111,44.369577778],[-1.127273611,44.3695925],[-1.127257222,44.369611667],[-1.127236111,44.369628889],[-1.127215833,44.369640556],[-1.127191944,44.369650278],[-1.127163889,44.369655833],[-1.127136944,44.369659167],[-1.127103333,44.369659167],[-1.127073333,44.369656944],[-1.127044444,44.369650278],[-1.127018333,44.369640556],[-1.127000278,44.369628056],[-1.126976944,44.369612222],[-1.126964444,44.369597222],[-1.126955833,44.369579167],[-1.126947222,44.369561944],[-1.126946111,44.369542778],[-1.1269425,44.369522778],[-1.126946111,44.369505556],[-1.126953889,44.369491944],[-1.126963611,44.369476667],[-1.126976111,44.369461389],[-1.126993333,44.369447778],[-1.127008889,44.3694375],[-1.127031111,44.369425833],[-1.127056111,44.3694175],[-1.127081111,44.369411944],[-1.127108056,44.369408611],[-1.127140833,44.369408611],[-1.1271725,44.369414167],[-1.127200556,44.369422222],[-1.127223611,44.3694325],[-1.127241944,44.369444444],[-1.127258333,44.3694575],[-1.127275556,44.369478889],[-1.127286389,44.369493333],[-1.127291111,44.369502778],[-1.127287222,44.369566111]],[[-1.134130278,44.369088611],[-1.134101389,44.369098889],[-1.134069722,44.369114167],[-1.13405,44.369131944],[-1.134033056,44.369149722],[-1.134028889,44.369161944],[-1.134026389,44.369172222],[-1.134039444,44.369177778],[-1.134057778,44.369181667],[-1.134060556,44.369510278],[-1.133566944,44.369506111],[-1.133554444,44.369173056],[-1.133880833,44.369172222],[-1.133890556,44.369163333],[-1.133885,44.369151389],[-1.133876667,44.369136667],[-1.133856111,44.369115833],[-1.133838056,44.369098889],[-1.133807778,44.369087778],[-1.133756389,44.369083611]],[[-1.133103611,44.369073056],[-1.1331025,44.369091389],[-1.133043611,44.369092222],[-1.132989167,44.369092222],[-1.132942222,44.369094444],[-1.132904722,44.369099167],[-1.1328675,44.369108333],[-1.1328375,44.369122778],[-1.132810833,44.369138056],[-1.132791667,44.369156389],[-1.132773333,44.369176944],[-1.132762778,44.369195278],[-1.13275,44.369216667],[-1.132747778,44.369236389],[-1.132744722,44.36927],[-1.132733889,44.369294444],[-1.132722222,44.369321389],[-1.132690833,44.369360556],[-1.132664444,44.369393056],[-1.132622222,44.369427222],[-1.132580278,44.369447778],[-1.1325425,44.369465278],[-1.132508056,44.369476111],[-1.132478333,44.369488056],[-1.132451667,44.369491389],[-1.132435,44.369505556],[-1.132410556,44.369521389],[-1.132390833,44.369534722],[-1.1323775,44.36955],[-1.132369722,44.369560833],[-1.132361944,44.369575278],[-1.1323575,44.369606944],[-1.132334722,44.370093056],[-1.131898056,44.370083611],[-1.131911111,44.369859444],[-1.130397778,44.369840833],[-1.130409167,44.369406389],[-1.130409167,44.369284722],[-1.13039,44.369236944],[-1.130363611,44.369194167],[-1.130327778,44.369153056],[-1.1302775,44.369118611],[-1.130224722,44.369091389],[-1.13016,44.369070833],[-1.130119444,44.369058889],[-1.130074444,44.369058056],[-1.130074444,44.369039444]],[[-1.131670556,44.368963056],[-1.130064167,44.368942222]],[[-1.129595833,44.369521389],[-1.129976111,44.369526389],[-1.129971111,44.369838889],[-1.129130278,44.369828611],[-1.129138333,44.36952],[-1.129331667,44.369521667]],[[-1.128163889,44.3692875],[-1.128163889,44.3694825],[-1.128164722,44.369498889],[-1.128165556,44.369505],[-1.128172778,44.369507222],[-1.128186111,44.369508333],[-1.128519444,44.369509167],[-1.128514167,44.369783333],[-1.128166944,44.369785],[-1.128166944,44.369818333],[-1.128333611,44.369824444],[-1.128331111,44.370217222],[-1.128093611,44.370213611],[-1.128098611,44.369616389],[-1.128096111,44.369325833],[-1.128083056,44.369303611],[-1.128065,44.369291944],[-1.128042222,44.369283889],[-1.128014444,44.369282778],[-1.127980278,44.369287222],[-1.127947778,44.369289722],[-1.127611389,44.369289722],[-1.127570833,44.369290833],[-1.127539722,44.369296667],[-1.127508611,44.3693025],[-1.127477778,44.369315278],[-1.127448333,44.369335],[-1.127433611,44.369350278],[-1.127425556,44.369368889],[-1.127422222,44.369388889],[-1.127418889,44.369420278],[-1.127409167,44.369686111],[-1.127402222,44.369861944],[-1.127715833,44.369866111],[-1.127713056,44.369980278],[-1.127402222,44.369974167],[-1.127408056,44.370034167],[-1.12771,44.370036389],[-1.127707222,44.370146389],[-1.127402222,44.37014],[-1.127394167,44.370448056],[-1.127264444,44.370446389],[-1.127272222,44.370122222],[-1.1271425,44.370116389],[-1.127145,44.370029167],[-1.127269722,44.370027222],[-1.127277778,44.369864444],[-1.127268889,44.369839167],[-1.127248611,44.3698125],[-1.127216389,44.369787222],[-1.127173889,44.369762778],[-1.127145,44.369755556],[-1.127106111,44.369748333],[-1.127055278,44.369743333],[-1.127000833,44.3697325],[-1.126960278,44.369719167],[-1.126921111,44.369699722],[-1.126888889,44.369675556],[-1.126856667,44.369645278],[-1.126831111,44.3696125],[-1.126819444,44.369572222],[-1.126815833,44.369532222],[-1.126819444,44.369494722],[-1.126836389,44.369458333],[-1.126861667,44.369429167],[-1.126878333,44.369404722],[-1.126910278,44.369379722],[-1.126943611,44.369361111],[-1.126983611,44.369340278],[-1.127023889,44.369329444],[-1.127065278,44.369325556],[-1.127106944,44.3693225],[-1.127156667,44.369316389],[-1.127194167,44.369311667],[-1.127226111,44.369295833],[-1.127253611,44.369280833],[-1.127274444,44.369264167],[-1.127295278,44.369246111],[-1.127307778,44.369230278],[-1.127299444,44.369215556],[-1.12728,44.3692075],[-1.127243889,44.369190833],[-1.127213611,44.369176944],[-1.127185833,44.36917],[-1.127148333,44.369173056],[-1.127105556,44.36918],[-1.127046111,44.369192778],[-1.126674722,44.369261944],[-1.126631944,44.369270833],[-1.126605556,44.369288889],[-1.126573611,44.3693025],[-1.126546111,44.369323333],[-1.126523889,44.369343333],[-1.12651,44.369363889],[-1.126500278,44.369384722],[-1.126498889,44.369414444],[-1.126493056,44.3697875],[-1.1265025,44.369798333],[-1.126518889,44.369798333],[-1.126575556,44.369797222],[-1.126575556,44.369831111],[-1.126631111,44.369832222],[-1.126628056,44.369966667],[-1.126385278,44.369964722],[-1.126386389,44.369804722],[-1.126409167,44.369790278],[-1.126411944,44.369759444],[-1.126425833,44.369302778],[-1.125953056,44.369385],[-1.125918611,44.369396389],[-1.125888333,44.369421111],[-1.12587,44.36945],[-1.125868056,44.369486111],[-1.125853889,44.36972],[-1.125858889,44.369734167],[-1.125873889,44.3697525],[-1.12589,44.369767222],[-1.1259075,44.369779722],[-1.125949444,44.369784444],[-1.125996667,44.3697875],[-1.125999444,44.369904167],[-1.126127778,44.36991],[-1.126125,44.369972778],[-1.125653611,44.369966944],[-1.1256575,44.369785556],[-1.125688611,44.369785556],[-1.125719722,44.369786389],[-1.125741389,44.369776667],[-1.125758889,44.369761389],[-1.125773889,44.369741944],[-1.125781944,44.369720833],[-1.125781944,44.369683056],[-1.125784722,44.369568056],[-1.125773889,44.369541944],[-1.125753611,44.369519722],[-1.125729167,44.369501389],[-1.125695556,44.369483056],[-1.125658889,44.369468611],[-1.125626389,44.369464722],[-1.125587222,44.369464722],[-1.125560278,44.369469444],[-1.125519722,44.369483056],[-1.12549,44.369503333],[-1.125442778,44.369534167],[-1.125415556,44.369560278],[-1.125395278,44.369585556],[-1.125379167,44.369613333],[-1.125361667,44.369638611],[-1.125352222,44.369653056],[-1.125348056,44.369675278],[-1.125345278,44.369701389],[-1.125344167,44.369776667],[-1.125413056,44.369779722],[-1.125412778,44.3700425],[-1.125117222,44.370040278],[-1.125115278,44.369770278],[-1.125248611,44.369773056],[-1.125252222,44.369723333],[-1.125252222,44.369684167],[-1.125261389,44.369650278],[-1.125270833,44.369623056],[-1.125283889,44.369596111],[-1.125305833,44.369563889],[-1.1253275,44.369533889],[-1.125350833,44.369515278],[-1.125365278,44.369498611],[-1.125379722,44.369489167],[-1.125362222,44.369485278],[-1.124843056,44.369579444],[-1.124663333,44.369610556],[-1.124630833,44.369623611],[-1.124608889,44.369638333],[-1.124586111,44.369651111],[-1.124573889,44.369670278],[-1.124561944,44.369688333],[-1.124554722,44.369708056],[-1.124549722,44.369735],[-1.124549722,44.369764167],[-1.124553333,44.369876389],[-1.124671667,44.369878056],[-1.124664444,44.369986944],[-1.124465278,44.369984167],[-1.124475,44.369716667],[-1.124485833,44.369691667],[-1.124496667,44.369670278],[-1.12451,44.369646111],[-1.124530556,44.369622778],[-1.124552222,44.369601111],[-1.1245775,44.369580278],[-1.124606667,44.369560556],[-1.124625833,44.369554444],[-1.124651111,44.3695475],[-1.124708056,44.369536389],[-1.124887778,44.369507222],[-1.127084722,44.369118611],[-1.127142778,44.369107778],[-1.127180833,44.369097222],[-1.127215833,44.369079444],[-1.127255556,44.369062778],[-1.127283611,44.369036667],[-1.127303611,44.369020278],[-1.127310278,44.369001111]],[[-1.127965278,44.369007222],[-1.127998611,44.369013889],[-1.12803,44.369025833],[-1.128048611,44.369039722],[-1.128062222,44.369056944],[-1.128079722,44.369085278],[-1.128083889,44.369108889],[-1.128077778,44.369136389],[-1.128062222,44.369163889],[-1.128042222,44.369179444],[-1.12801,44.369193611],[-1.127978889,44.3692025],[-1.127947778,44.369204722],[-1.127901944,44.369205556],[-1.127568333,44.369199722],[-1.127535,44.3691975],[-1.127512222,44.369188333],[-1.127488056,44.369180278],[-1.1274675,44.369163889],[-1.127455,44.3691475],[-1.1274425,44.369126667],[-1.127438333,44.369103056],[-1.127439444,44.369084444],[-1.127443611,44.369062222],[-1.127453889,44.369047222],[-1.127465278,44.369030278],[-1.127485,44.369020556],[-1.127504722,44.369008611],[-1.127525556,44.369003333]]]}},{"type":"Feature","id":"LFBS-82347a974468c7776e8c","properties":{"airport":"LFBS","name":"LFBS Groundlayout","layer":"Guidance lines","category":"Stopbars","object_type":"Line","style_id":"line.stopbar.7e0000","source_group":"LFBS Groundlayout","vsmr_group_ids":[],"geometry_role":"linework"},"geometry":{"type":"MultiLineString","coordinates":[[[-1.127511111,44.368794722],[-1.127314722,44.368793889]],[[-1.137343333,44.368921667],[-1.137151111,44.368919167]],[[-1.132224167,44.368856389],[-1.131950833,44.368853056]]]}},{"type":"Feature","id":"LFBS-401f260446452737b046","properties":{"airport":"LFBS","name":"LFBS Groundlayout","layer":"Guidance lines","category":"TWR-CTR","object_type":"Line","style_id":"line.twr-ctr.000000","source_group":"LFBS Groundlayout","vsmr_group_ids":[],"geometry_role":"linework"},"geometry":{"type":"LineString","coordinates":[[-1.13311,44.369935278],[-1.133075833,44.369934722],[-1.133055278,44.369919444],[-1.133055278,44.3698975],[-1.133080833,44.369879444],[-1.133110833,44.369878333],[-1.133134167,44.369895556],[-1.133136389,44.36992],[-1.13311,44.369935278]]}},{"type":"Feature","id":"LFBS-b3da42ab16e27d903d6a","properties":{"airport":"LFBS","name":"LFBS Groundlayout","layer":"Guidance lines","category":"Labels","object_type":"Line","style_id":"line.labels.808080","source_group":"LFBS Groundlayout","vsmr_group_ids":[],"geometry_role":"linework"},"geometry":{"type":"MultiLineString","coordinates":[[[-1.128041111,44.368168889],[-1.127926667,44.368145556],[-1.127926667,44.368136111],[-1.1280225,44.368155278],[-1.1280225,44.368136389],[-1.128043333,44.368136944],[-1.128041111,44.368168889]],[[-1.128044167,44.368115833],[-1.128001111,44.368115833],[-1.127958333,44.368095556],[-1.127948611,44.368095556],[-1.127948056,44.368113889],[-1.127928333,44.368113889],[-1.127927222,44.368086111],[-1.127962222,44.368086389],[-1.128005556,44.368107222],[-1.1280225,44.368106389],[-1.128021944,44.368098056],[-1.128010833,44.368098056],[-1.128011389,44.368088056],[-1.128043889,44.368088333],[-1.128044167,44.368115833]],[[-1.136739167,44.368266389],[-1.136667222,44.368265833],[-1.136666667,44.368255833],[-1.136739722,44.368256111],[-1.136739167,44.368266389]],[[-1.136759722,44.368276667],[-1.136644722,44.368275556],[-1.136645556,44.368245278],[-1.136761667,44.368246667],[-1.136759722,44.368276667]],[[-1.136695833,44.368218333],[-1.136669167,44.368218056],[-1.13667,44.368207778],[-1.136696944,44.368208056],[-1.136695833,44.368218333]],[[-1.136717222,44.368228333],[-1.136646667,44.368227222],[-1.136647778,44.368196944],[-1.136744444,44.368198056],[-1.136769444,44.368220278],[-1.1367525,44.368220556],[-1.136738333,44.368209167],[-1.136718611,44.368208889],[-1.136717222,44.368228333]]]}},{"type":"Feature","id":"LFBS-81cd78dbbda60f3ac26e","properties":{"airport":"LFBS","name":"W","layer":"Labels","category":"Taxiways","object_type":"Label","style_id":"label.taxiways","source_group":"LFBS Taxiways","vsmr_group_ids":[],"geometry_role":"text_label","text-field":"W"},"geometry":{"type":"Point","coordinates":[-1.137562778,44.368852778]}},{"type":"Feature","id":"LFBS-5be8ecc98b7f67e4ab33","properties":{"airport":"LFBS","name":"M","layer":"Labels","category":"Taxiways","object_type":"Label","style_id":"label.taxiways","source_group":"LFBS Taxiways","vsmr_group_ids":[],"geometry_role":"text_label","text-field":"M"},"geometry":{"type":"Point","coordinates":[-1.132336389,44.368733333]}},{"type":"Feature","id":"LFBS-9245be3301aff0b44b85","properties":{"airport":"LFBS","name":"E","layer":"Labels","category":"Taxiways","object_type":"Label","style_id":"label.taxiways","source_group":"LFBS Taxiways","vsmr_group_ids":[],"geometry_role":"text_label","text-field":"E"},"geometry":{"type":"Point","coordinates":[-1.127692222,44.3687225]}}]}
