{"type":"FeatureCollection","name":"LFBT AVISO","bbox":[-0.015012778,43.163860278,0.005060278,43.19506],"metadata":{"schema":"vSMR AVISO","schema_version":2,"geometry_mode":"shared","airport":"LFBT","coordinate_reference_system":"WGS84","coordinate_order":"longitude, latitude","default_color_palette":"dark","color_palettes":["dark","light"],"background_colors":{"dark":"#434A4F","light":"#434A4F"},"runways":[{"ends":["02","20"],"headings":[20,200],"thresholds":[[-0.0099,43.171613889],[6.8889e-05,43.191299722]]}],"saved_active_runways":[],"saved_active_airport_modes":[],"airport_reference":[-0.002777778,43.185555833],"feature_count":76,"style_count":12,"layer_counts":{"Airfield surfaces":12,"Buildings and structures":11,"Guidance lines":3,"Labels":43,"Surface markings":6,"Terrain":1},"category_counts":{"Buildings":11,"Gates":25,"Grass":1,"Hard Surface 2":3,"Hard Surface 3":5,"Hard Surface 4":3,"Runway Border":1,"Runways":1,"Stopbars":6,"Taxiway Orange":1,"Taxiways":19},"geometry_source":"local GNG","geometry_source_url":"","geometry_license":"GPL-3.0"},"styles":{"polygon.grassurface.00512f":{"name":"Grass","layer":"Terrain","object_type":"Area","paint":{"fill":"#010D19","fill-opacity":1,"palette-overrides":{"light":{"fill":"#00512F"}}},"feature_count":1},"polygon.hardsurface4.969393":{"name":"Hard Surface 4","layer":"Airfield surfaces","object_type":"Area","paint":{"fill":"#152841","fill-opacity":1,"palette-overrides":{"light":{"fill":"#969393"}}},"feature_count":3},"polygon.hardsurface3.8a807f":{"name":"Hard Surface 3","layer":"Airfield surfaces","object_type":"Area","paint":{"fill":"#222D3C","fill-opacity":1,"palette-overrides":{"light":{"fill":"#8A807F"}}},"feature_count":5},"polygon.hardsurface2.595e5b":{"name":"Hard Surface 2","layer":"Airfield surfaces","object_type":"Area","paint":{"fill":"#2F3949","fill-opacity":1,"palette-overrides":{"light":{"fill":"#595E5B"}}},"feature_count":3},"polygon.runwayconcrete.555555":{"name":"Runways","layer":"Airfield surfaces","object_type":"Area","paint":{"fill":"#111318","fill-opacity":1,"palette-overrides":{"light":{"fill":"#555555"}}},"feature_count":1},"polygon.building.394446":{"name":"Buildings","layer":"Buildings and structures","object_type":"Area","paint":{"fill":"#475570","fill-opacity":1,"palette-overrides":{"light":{"fill":"#394446"}}},"feature_count":11},"polygon.stopbar.7e0000":{"name":"Stopbars","layer":"Surface markings","object_type":"Area","paint":{"fill":"#7E0000","fill-opacity":1,"palette-overrides":{"light":{"fill":"#7E0000"}}},"feature_count":6},"line.taxiway.c0b631":{"name":"Taxiways","layer":"Guidance lines","object_type":"Line","paint":{"stroke":"#4E5A69","stroke-opacity":1,"stroke-width":1,"palette-overrides":{"light":{"stroke":"#C0B631"}}},"feature_count":1},"line.taxiwayorange.cc6d00":{"name":"Taxiway Orange","layer":"Guidance lines","object_type":"Line","paint":{"stroke":"#CC8B00","stroke-opacity":1,"stroke-width":1,"palette-overrides":{"light":{"stroke":"#CC6D00"}}},"feature_count":1},"line.runwayborder.808080":{"name":"Runway Border","layer":"Guidance lines","object_type":"Line","paint":{"stroke":"#808080","stroke-opacity":1,"stroke-width":1,"palette-overrides":{"light":{"stroke":"#808080"}}},"feature_count":1},"label.gates":{"name":"Gates","layer":"Labels","object_type":"Label","paint":{"text-color":"#CCCCCC","text-font":"Arial","text-size":12,"text-halo-color":"#000000","text-halo-width":1,"text-anchor":"center","zoomLevel":9},"feature_count":25},"label.taxiways":{"name":"Taxiways","layer":"Labels","object_type":"Label","paint":{"text-color":"#CCCCCC","text-font":"Arial","text-size":12,"text-halo-color":"#000000","text-halo-width":1,"text-anchor":"center","zoomLevel":7},"feature_count":18}},"vsmr_groups":[],"features":[{"type":"Feature","id":"LFBT-7893275be4394fe4b9ae","properties":{"airport":"LFBT","name":"LFBT AVISO","layer":"Terrain","category":"Grass","object_type":"Area","style_id":"polygon.grassurface.00512f","source_group":"LFBT AVISO","vsmr_group_ids":[],"geometry_role":"filled_region"},"geometry":{"type":"Polygon","coordinates":[[[0.0027575,43.19506],[-0.0107275,43.190340278],[-0.010850556,43.190251389],[-0.010770556,43.189999722],[-0.010828611,43.189110556],[-0.010728889,43.189088333],[-0.01084,43.188154722],[-0.010960833,43.187645833],[-0.011867778,43.185110556],[-0.012935833,43.181863056],[-0.009527778,43.180880278],[-0.009373889,43.180621667],[-0.009125,43.180377222],[-0.008823889,43.180178333],[-0.008626389,43.180067222],[-0.008547222,43.180188889],[-0.007594167,43.179938056],[-0.015012778,43.165384722],[-0.014956667,43.165104444],[-0.014845833,43.164879722],[-0.014671944,43.16463],[-0.014443889,43.164408333],[-0.014123333,43.1641725],[-0.013763611,43.163989444],[-0.013417778,43.163860278],[-0.012163889,43.163903333],[-0.0111425,43.164298056],[-0.009579722,43.166258611],[-0.007410833,43.167981944],[-0.006426667,43.169917222],[-0.003709444,43.175373333],[-0.003244444,43.176080278],[-0.000487778,43.179670556],[0.001236111,43.178402778],[0.002667222,43.179431667],[0.003481111,43.1816025],[0.003238889,43.181645278],[0.004048056,43.183978333],[0.004166389,43.183983611],[0.004245833,43.184193056],[0.004149444,43.184252222],[0.004520833,43.185429167],[0.004384167,43.185764444],[0.005060278,43.187801667],[0.002998611,43.1881925],[0.002950833,43.188449444],[0.0017075,43.188464167],[0.002871389,43.190805],[0.002364444,43.191645556],[0.0016325,43.191840556],[0.001845556,43.192182222],[0.001785556,43.192303889],[0.002194167,43.193119722],[0.002658333,43.194324722],[0.002829167,43.194981111],[0.0027575,43.19506]]]}},{"type":"Feature","id":"LFBT-8794e374af1f1bf8c3a9","properties":{"airport":"LFBT","name":"LFBT AVISO","layer":"Airfield surfaces","category":"Hard Surface 4","object_type":"Area","style_id":"polygon.hardsurface4.969393","source_group":"LFBT AVISO","vsmr_group_ids":[],"geometry_role":"filled_region"},"geometry":{"type":"Polygon","coordinates":[[[0.000560556,43.186815278],[0.000704167,43.187083611],[0.000773056,43.187234167],[0.000811944,43.187360556],[0.00086,43.187506667],[0.001030833,43.188122778],[0.001081389,43.188176111],[0.001154722,43.188216667],[0.001220278,43.188233333],[0.001344167,43.188229444],[0.002065,43.188125],[0.002056389,43.188092222],[0.002321389,43.188043889],[0.002303056,43.187978889],[0.00277,43.187890833],[0.002919167,43.188315833],[0.002443333,43.188401944],[0.002385556,43.188254444],[0.00212,43.188296667],[0.002091111,43.188225833],[0.001420556,43.188315556],[0.001308056,43.188323333],[0.001203056,43.188320833],[0.001116111,43.188303611],[0.001041944,43.188269167],[0.000971111,43.188219167],[0.000922222,43.188163611],[0.000886111,43.188101389],[0.000866667,43.188039167],[0.000724444,43.187492222],[0.000645,43.187259167],[0.000587222,43.187133056],[0.000398333,43.186749722],[0.000560556,43.186815278]]]}},{"type":"Feature","id":"LFBT-0ba67df1fe2b562379ad","properties":{"airport":"LFBT","name":"LFBT AVISO","layer":"Airfield surfaces","category":"Hard Surface 4","object_type":"Area","style_id":"polygon.hardsurface4.969393","source_group":"LFBT AVISO","vsmr_group_ids":[],"geometry_role":"filled_region"},"geometry":{"type":"Polygon","coordinates":[[[0.001904722,43.185091389],[0.002520556,43.185020278],[0.002812222,43.184807778],[0.003227222,43.184888056],[0.003810833,43.184741389],[0.003333889,43.183125278],[0.003441944,43.183101667],[0.004051944,43.184803056],[0.004295833,43.184765278],[0.004496111,43.185435],[0.003423889,43.185640833],[0.002476944,43.185673611],[0.00202,43.185635556],[0.001761944,43.185676111],[0.001719722,43.185587222],[0.001904722,43.185091389]]]}},{"type":"Feature","id":"LFBT-cdae7a426b0a86ed7f34","properties":{"airport":"LFBT","name":"LFBT AVISO","layer":"Airfield surfaces","category":"Hard Surface 4","object_type":"Area","style_id":"polygon.hardsurface4.969393","source_group":"LFBT AVISO","vsmr_group_ids":[],"geometry_role":"filled_region"},"geometry":{"type":"Polygon","coordinates":[[[-0.008358611,43.187313611],[-0.008398333,43.186943333],[-0.008045,43.186813056],[-0.007000278,43.187124722],[-0.006538056,43.188158889],[-0.006855556,43.188290833],[-0.006818333,43.188212778],[-0.006815278,43.188152778],[-0.006836667,43.188100556],[-0.007058889,43.187652778],[-0.007081667,43.187637222],[-0.007111389,43.187636111],[-0.007311389,43.187688611],[-0.007702778,43.187201944],[-0.008358611,43.187313611]]]}},{"type":"Feature","id":"LFBT-062e7759300c92e5a1ec","properties":{"airport":"LFBT","name":"LFBT AVISO","layer":"Airfield surfaces","category":"Hard Surface 3","object_type":"Area","style_id":"polygon.hardsurface3.8a807f","source_group":"LFBT AVISO","vsmr_group_ids":[],"geometry_role":"filled_region"},"geometry":{"type":"Polygon","coordinates":[[[0.000931944,43.186753333],[0.001551944,43.186637778],[0.001670833,43.186621111],[0.001761111,43.186618056],[0.001836944,43.186630556],[0.001895556,43.186658611],[0.001935556,43.186704722],[0.001964167,43.186765],[0.002227778,43.187509167],[0.002621389,43.187438333],[0.002775833,43.187900833],[0.002304444,43.187991111],[0.002275,43.187910278],[0.002253333,43.187847778],[0.002223611,43.187811389],[0.002165278,43.187786667],[0.002091944,43.187767778],[0.002024167,43.187768889],[0.001679167,43.187829167],[0.001622778,43.1878325],[0.001558611,43.187823889],[0.0015,43.187803333],[0.001446389,43.187778056],[0.001414444,43.187751667],[0.001378333,43.187691389],[0.001143889,43.186952778],[0.001115,43.186901944],[0.001071111,43.186861667],[0.001011667,43.186839167],[0.000965,43.186838056],[0.000931944,43.186753333]]]}},{"type":"Feature","id":"LFBT-378ba0a54d52031ef311","properties":{"airport":"LFBT","name":"LFBT AVISO","layer":"Airfield surfaces","category":"Hard Surface 3","object_type":"Area","style_id":"polygon.hardsurface3.8a807f","source_group":"LFBT AVISO","vsmr_group_ids":[],"geometry_role":"filled_region"},"geometry":{"type":"Polygon","coordinates":[[[0.000160278,43.185827222],[-0.000162778,43.1851575],[0.001205278,43.184828611],[0.001649444,43.184244722],[0.00129,43.183693611],[0.000688333,43.182782778],[0.001535556,43.182435],[0.002111389,43.183183333],[0.002191389,43.183243889],[0.002271667,43.183283056],[0.0023875,43.183298056],[0.002503333,43.183283056],[0.003370556,43.183118056],[0.0036725,43.183981111],[0.003731389,43.184041667],[0.003792222,43.184077222],[0.003849167,43.184089167],[0.0039325,43.184081667],[0.004048333,43.184061111],[0.004186667,43.184035833],[0.004225278,43.18413],[0.004117778,43.184151111],[0.004039167,43.184177778],[0.003964167,43.184232222],[0.003918333,43.184285833],[0.003866111,43.184393611],[0.003848056,43.184483889],[0.003915,43.184716667],[0.003871389,43.184799722],[0.003771944,43.184885833],[0.003798889,43.184990278],[0.0035625,43.185035556],[0.003469167,43.184920556],[0.003284722,43.184938889],[0.003185,43.184994722],[0.003071667,43.184891111],[0.002835,43.184868611],[0.002659167,43.1850525],[0.0027625,43.185145833],[0.002577222,43.185257222],[0.002371667,43.185093889],[0.002226667,43.185119444],[0.002110278,43.185201944],[0.001980278,43.185112222],[0.001900278,43.1852275],[0.001930278,43.185306389],[0.001945278,43.185406111],[0.001726111,43.185601667],[0.0017075,43.185565833],[0.001681389,43.185551667],[0.001626667,43.185551667],[0.000160278,43.185827222]]]}},{"type":"Feature","id":"LFBT-e0c2ece8d4fd94f5b6dc","properties":{"airport":"LFBT","name":"LFBT AVISO","layer":"Airfield surfaces","category":"Hard Surface 3","object_type":"Area","style_id":"polygon.hardsurface3.8a807f","source_group":"LFBT AVISO","vsmr_group_ids":[],"geometry_role":"filled_region"},"geometry":{"type":"Polygon","coordinates":[[[-0.008261389,43.185196389],[-0.008055556,43.185591944],[-0.008136389,43.185546944],[-0.008213333,43.185530278],[-0.008303611,43.185528889],[-0.008513333,43.185546944],[-0.008579167,43.185569167],[-0.008636944,43.185606389],[-0.008731111,43.185668056],[-0.0087525,43.185692778],[-0.008759722,43.1857225],[-0.008736667,43.185939722],[-0.008910556,43.185948889],[-0.0089925,43.185195833],[-0.008825,43.1851825],[-0.008813611,43.185286111],[-0.008793056,43.185311111],[-0.008630278,43.185378056],[-0.008561667,43.185393056],[-0.008481389,43.185389722],[-0.008410278,43.185368056],[-0.008341667,43.185334722],[-0.008291111,43.185286111],[-0.008263611,43.185239444],[-0.008261389,43.185196389]]]}},{"type":"Feature","id":"LFBT-225d853848ae94d89671","properties":{"airport":"LFBT","name":"LFBT AVISO","layer":"Airfield surfaces","category":"Hard Surface 3","object_type":"Area","style_id":"polygon.hardsurface3.8a807f","source_group":"LFBT AVISO","vsmr_group_ids":[],"geometry_role":"filled_region"},"geometry":{"type":"Polygon","coordinates":[[[-0.007543611,43.187146667],[-0.007339167,43.187104167],[-0.007320278,43.187159167],[-0.00734,43.187176667],[-0.007474444,43.187351667],[-0.007299167,43.187685556],[-0.008041667,43.187874167],[-0.008085833,43.187858889],[-0.0082125,43.187802222],[-0.008301111,43.187258889],[-0.007811944,43.187156111],[-0.007641667,43.187008333],[-0.007543611,43.187146667]]]}},{"type":"Feature","id":"LFBT-f3278f2037a0d64bd55a","properties":{"airport":"LFBT","name":"LFBT AVISO","layer":"Airfield surfaces","category":"Hard Surface 3","object_type":"Area","style_id":"polygon.hardsurface3.8a807f","source_group":"LFBT AVISO","vsmr_group_ids":[],"geometry_role":"filled_region"},"geometry":{"type":"Polygon","coordinates":[[[-0.0069325,43.188506944],[-0.006969167,43.1885175],[-0.007005556,43.188530278],[-0.007191111,43.188626111],[-0.007290556,43.188677222],[-0.0073425,43.188723333],[-0.007370833,43.188776944],[-0.008598056,43.188886944],[-0.008691944,43.188170833],[-0.008603611,43.188160556],[-0.008358889,43.188131389],[-0.008165278,43.188108611],[-0.008139444,43.188177222],[-0.007415278,43.1881025],[-0.007393333,43.188238333],[-0.006994167,43.188354722],[-0.006870556,43.188287778],[-0.0069325,43.188506944]]]}},{"type":"Feature","id":"LFBT-9638eeb8921a7ed5d5fa","properties":{"airport":"LFBT","name":"LFBT AVISO","layer":"Airfield surfaces","category":"Hard Surface 2","object_type":"Area","style_id":"polygon.hardsurface2.595e5b","source_group":"LFBT AVISO","vsmr_group_ids":[],"geometry_role":"filled_region"},"geometry":{"type":"Polygon","coordinates":[[[-0.001776389,43.185324167],[-0.001829167,43.185167222],[0.000703333,43.184691111],[0.000819167,43.184665556],[0.000885833,43.184634167],[0.000954167,43.184590278],[0.001009722,43.1845325],[0.001044722,43.184468611],[0.001076389,43.184383056],[0.001079722,43.184310556],[0.001060278,43.184246667],[0.000335556,43.183308333],[-0.000682778,43.181974722],[-0.000921389,43.181658056],[-0.001017222,43.181541111],[-0.001187778,43.181373333],[-0.001457222,43.181139444],[-0.001709722,43.180965278],[-0.001964167,43.180818611],[-0.0022,43.180705833],[-0.002440278,43.180608056],[-0.002738333,43.180505278],[-0.003028889,43.1804225],[-0.003293889,43.180364722],[-0.003516667,43.180330556],[-0.00367,43.180323333],[-0.003848333,43.180334167],[-0.004008056,43.180359722],[-0.004135278,43.180391111],[-0.004233611,43.180427778],[-0.004333889,43.180260556],[-0.004117222,43.180200556],[-0.003902222,43.180163889],[-0.003674722,43.180150833],[-0.003470556,43.180162778],[-0.003238056,43.180191667],[-0.002989167,43.18025],[-0.002664722,43.1803425],[-0.002395833,43.180428889],[-0.002135833,43.180529722],[-0.001910833,43.180635556],[-0.001735278,43.180727778],[-0.001559444,43.180821944],[-0.001698333,43.180635556],[-0.001861944,43.180423889],[-0.002193333,43.1799975],[-0.003280278,43.178560556],[-0.004075556,43.177515556],[-0.004581944,43.176843611],[-0.004873889,43.176430556],[-0.005103333,43.176068611],[-0.005385278,43.175585833],[-0.00557,43.175238056],[-0.005688056,43.175013889],[-0.005849444,43.174690278],[-0.006141389,43.174103611],[-0.006386944,43.173615],[-0.0066575,43.173093056],[-0.006862778,43.172686944],[-0.007053889,43.172308056],[-0.007254444,43.171914722],[-0.007444722,43.171556389],[-0.007533611,43.171395833],[-0.007642778,43.1712225],[-0.007732778,43.171121111],[-0.007841944,43.171039444],[-0.007965,43.170975556],[-0.008090556,43.170923889],[-0.008248889,43.170878056],[-0.008415278,43.170859722],[-0.008577778,43.170851111],[-0.008724444,43.170855278],[-0.008855278,43.170876667],[-0.008966944,43.170905278],[-0.009048889,43.170930833],[-0.009136944,43.170775556],[-0.008518889,43.17061],[-0.00842,43.170568611],[-0.008321111,43.170496389],[-0.008246111,43.170417222],[-0.008194722,43.170316111],[-0.008170833,43.170231111],[-0.008176944,43.170143056],[-0.008210278,43.170020833],[-0.009360278,43.167760278],[-0.009505,43.167497222],[-0.009606944,43.167327778],[-0.009697222,43.167197778],[-0.009811944,43.167046389],[-0.009916667,43.16693],[-0.0100425,43.166809444],[-0.010200556,43.166665833],[-0.010324167,43.166559444],[-0.010490833,43.166433611],[-0.010721944,43.166265833],[-0.010842222,43.166185833],[-0.0109575,43.16612],[-0.011076944,43.166058056],[-0.011212222,43.166004722],[-0.011348611,43.165968056],[-0.011298889,43.165693889],[-0.011164167,43.165716111],[-0.011034444,43.165755],[-0.010906389,43.165805556],[-0.010776667,43.165879444],[-0.0106275,43.165997778],[-0.010336111,43.166233333],[-0.010012778,43.166495278],[-0.009765,43.166714722],[-0.009573056,43.166911944],[-0.009406111,43.1671275],[-0.009244722,43.167378333],[-0.009090556,43.167686944],[-0.007157222,43.171506667],[-0.006348333,43.173101111],[-0.005751667,43.1742775],[-0.005461389,43.17485],[-0.005050833,43.175620556],[-0.004778611,43.176078056],[-0.0045225,43.176466667],[-0.0042625,43.176835556],[-0.003954167,43.1772425],[-0.003572222,43.177745833],[-0.003198333,43.178240556],[-0.002757778,43.178811389],[-0.002155833,43.179605278],[-0.001506667,43.180467222],[-0.000525833,43.181748611],[-0.0001375,43.182250833],[0.000143333,43.182621667],[0.000206111,43.182693611],[0.000276389,43.1827475],[0.000381944,43.182791111],[0.000475,43.182803889],[0.000575278,43.182803889],[0.000650833,43.182789722],[0.000708889,43.182775556],[0.001384722,43.183656944],[0.001586944,43.183838333],[0.001672778,43.1839975],[0.001712222,43.184108333],[0.001721111,43.184191667],[0.001708611,43.184279167],[0.001673056,43.184363611],[0.001624722,43.1844375],[0.001434444,43.184728333],[0.001371944,43.184791944],[0.001299167,43.184845278],[0.001202778,43.184893333],[0.001096111,43.184932222],[0.000980278,43.184964722],[-0.000125278,43.185173056],[0.000200833,43.185821389],[0.000159167,43.185843889],[0.000133889,43.185879167],[0.000129167,43.185934167],[0.000143333,43.1860075],[0.000494444,43.186695556],[0.000529722,43.186734722],[0.000582222,43.186762222],[0.000644722,43.186780278],[0.000708889,43.186786111],[0.000807778,43.186776667],[0.0009375,43.1867525],[0.000970556,43.186837778],[0.000860278,43.186854722],[0.000755,43.186867778],[0.000684167,43.186871389],[0.00062,43.186866667],[0.000565833,43.186856944],[0.000493333,43.186830556],[0.000451944,43.186811667],[0.000408333,43.186773611],[8.0278e-05,43.186130833],[2.3333e-05,43.186022222],[8.611e-06,43.185998889],[-1.5278e-05,43.185945],[-3.2222e-05,43.185927222],[-9.9444e-05,43.185876667],[-0.000226111,43.185799722],[-0.000297222,43.185721389],[-0.000326944,43.185665833],[-0.000478333,43.185332778],[-0.000522222,43.185268611],[-0.000561389,43.185225],[-0.000608889,43.185191944],[-0.000678611,43.185168889],[-0.000748333,43.185160833],[-0.000853333,43.185165278],[-0.001776389,43.185324167]]]}},{"type":"Feature","id":"LFBT-8e1fa60326ef33610bb2","properties":{"airport":"LFBT","name":"LFBT AVISO","layer":"Airfield surfaces","category":"Hard Surface 2","object_type":"Area","style_id":"polygon.hardsurface2.595e5b","source_group":"LFBT AVISO","vsmr_group_ids":[],"geometry_role":"filled_region"},"geometry":{"type":"Polygon","coordinates":[[[-0.001453889,43.179068889],[-0.001711111,43.179178056],[-0.002916667,43.177635],[-0.003679722,43.176621667],[-0.004099722,43.175979167],[-0.004382778,43.175503056],[-0.004445556,43.175418333],[-0.0045325,43.175353056],[-0.00466,43.175291667],[-0.004779444,43.175263889],[-0.004923056,43.175256111],[-0.004999167,43.175337222],[-0.0050425,43.175414444],[-0.005064444,43.175501389],[-0.005064444,43.175634167],[-0.005486944,43.174820833],[-0.005398611,43.174898333],[-0.005338611,43.174923889],[-0.005148333,43.174972222],[-0.005078056,43.174975],[-0.005018056,43.174955556],[-0.00495,43.174887778],[-0.004894167,43.174810833],[-0.004867222,43.174727778],[-0.004869444,43.1746725],[-0.004925556,43.174555556],[-0.006365833,43.171730833],[-0.006438333,43.1717075],[-0.006518611,43.171704444],[-0.006631389,43.171722222],[-0.006763889,43.1717675],[-0.006846389,43.171818889],[-0.006894722,43.171873333],[-0.006916944,43.171928889],[-0.006915,43.172016944],[-0.007163056,43.171529444],[-0.007046944,43.171583056],[-0.006955556,43.1716025],[-0.006863889,43.171603889],[-0.006730278,43.171581667],[-0.006592778,43.171534167],[-0.006539444,43.1714925],[-0.006508889,43.171439722],[-0.006505,43.171388056],[-0.006518333,43.1713325],[-0.006898889,43.170596944],[-0.0072925,43.169795278],[-0.007721389,43.168953333],[-0.007459167,43.168880556],[-0.005962778,43.171854722],[-0.005103056,43.173558611],[-0.004383611,43.174953889],[-0.0039975,43.175632222],[-0.003626111,43.176193889],[-0.003231111,43.1767425],[-0.001453889,43.179068889]]]}},{"type":"Feature","id":"LFBT-722df8f8594ac2b7ef81","properties":{"airport":"LFBT","name":"LFBT AVISO","layer":"Airfield surfaces","category":"Hard Surface 2","object_type":"Area","style_id":"polygon.hardsurface2.595e5b","source_group":"LFBT AVISO","vsmr_group_ids":[],"geometry_role":"filled_region"},"geometry":{"type":"Polygon","coordinates":[[[-0.004196667,43.185755],[-0.004080833,43.185983056],[-0.004373889,43.186048333],[-0.004633889,43.186108889],[-0.005413056,43.186328056],[-0.006699722,43.186680278],[-0.006769722,43.186709722],[-0.006838333,43.186753889],[-0.006871389,43.186799444],[-0.006887222,43.186860833],[-0.006879167,43.186936389],[-0.006820556,43.187064722],[-0.006769722,43.187164722],[-0.006732778,43.1872075],[-0.006682778,43.187246944],[-0.006624722,43.187263889],[-0.006555556,43.187265],[-0.00646,43.187248889],[-0.005248056,43.186925],[-0.005163889,43.187089722],[-0.005990833,43.187311667],[-0.005717778,43.187884722],[-0.004876667,43.187655],[-0.004791389,43.187823611],[-0.006042222,43.188168611],[-0.006116667,43.1881975],[-0.006180556,43.1882425],[-0.006225833,43.188298056],[-0.006236111,43.188367222],[-0.00616,43.188556667],[-0.006106389,43.188616667],[-0.006040278,43.188658889],[-0.005937222,43.188685833],[-0.005846667,43.188685833],[-0.003925278,43.188154167],[-0.003819444,43.188320278],[-0.005774167,43.188842778],[-0.005837222,43.188891389],[-0.005880278,43.188955556],[-0.005896667,43.189008056],[-0.005878333,43.189082778],[-0.005800278,43.189224722],[-0.005740833,43.189281389],[-0.005665,43.189315833],[-0.005560556,43.189327778],[-0.005438889,43.189308056],[-0.003646667,43.188818056],[-0.003556667,43.189006667],[-0.005362222,43.189478056],[-0.0054475,43.189517778],[-0.005508056,43.189569722],[-0.005539722,43.189642778],[-0.005545,43.189725278],[-0.005444722,43.1898925],[-0.005363056,43.189948333],[-0.005233889,43.189971389],[-0.005099444,43.18996],[-0.003319444,43.189461389],[-0.0032175,43.189651389],[-0.005029722,43.190119444],[-0.00513,43.190162222],[-0.005190833,43.190224167],[-0.00522,43.190309444],[-0.005193333,43.190396389],[-0.005078889,43.190573889],[-0.005010556,43.190607778],[-0.004901111,43.190628889],[-0.004784167,43.190609444],[-0.002975278,43.190108611],[-0.002880556,43.190296111],[-0.004676389,43.190764167],[-0.004801389,43.190823889],[-0.004850833,43.190895833],[-0.0048675,43.190998056],[-0.004823333,43.191116389],[-0.00473,43.1912225],[-0.004625556,43.191264444],[-0.004510278,43.1912725],[-0.0026475,43.190755833],[-0.002541944,43.190945278],[-0.004363333,43.191419444],[-0.004478333,43.191473056],[-0.004531111,43.191553611],[-0.004536667,43.1916425],[-0.004434167,43.191836667],[-0.004351111,43.191897222],[-0.004251111,43.1919275],[-0.004126667,43.191923333],[-0.002301944,43.191404167],[-0.002209167,43.191598889],[-0.00372,43.191991389],[-0.003921667,43.192096111],[-0.003999444,43.192134722],[-0.004022778,43.192155],[-0.004014167,43.19218],[-0.003975556,43.192208333],[-0.001613889,43.193042222],[-0.001732778,43.193221389],[-0.004613611,43.192169722],[-0.006506111,43.188566389],[-0.006542222,43.188532222],[-0.006604722,43.188512222],[-0.006743889,43.188512222],[-0.006941667,43.188510833],[-0.006914167,43.188423611],[-0.006888889,43.188339167],[-0.006878889,43.188292222],[-0.006765833,43.188213056],[-0.006703056,43.188174722],[-0.006623333,43.188129167],[-0.0066675,43.188074167],[-0.007086944,43.187241389],[-0.00712,43.187184167],[-0.007151111,43.187152222],[-0.007211111,43.187131111],[-0.007265,43.187134167],[-0.007320833,43.187161389],[-0.007335833,43.187129167],[-0.007555556,43.187181944],[-0.007651111,43.187015278],[-0.007640278,43.186975833],[-0.007656389,43.186943333],[-0.008013889,43.186859722],[-0.008050556,43.186858333],[-0.008356944,43.186978889],[-0.008386389,43.186620833],[-0.008057222,43.186693889],[-0.007745,43.186674722],[-0.007680556,43.186660833],[-0.00764,43.186627778],[-0.007604167,43.186586111],[-0.007592222,43.186553056],[-0.007594722,43.186507778],[-0.008361111,43.185010833],[-0.0083975,43.184961389],[-0.008436389,43.184926111],[-0.008496667,43.184892778],[-0.010630278,43.184291111],[-0.010815,43.184339722],[-0.011533333,43.184141389],[-0.011774444,43.18373],[-0.010756944,43.184021389],[-0.010419722,43.184154722],[-0.008510833,43.184726389],[-0.008855833,43.184025556],[-0.008918889,43.1839625],[-0.009010278,43.183916389],[-0.0118475,43.183111944],[-0.011760278,43.182959722],[-0.009006667,43.183753611],[-0.009354444,43.183053611],[-0.009404444,43.183001389],[-0.009471944,43.182964722],[-0.012383333,43.182142222],[-0.012290278,43.181984722],[-0.009492778,43.182798056],[-0.0094875,43.1827875],[-0.00988,43.182045278],[-0.010025556,43.182038056],[-0.0101375,43.182012778],[-0.010229444,43.1819675],[-0.010299167,43.181905833],[-0.010341389,43.181831667],[-0.010585,43.181324167],[-0.009680833,43.181060833],[-0.009504167,43.181400833],[-0.00908,43.180872778],[-0.008989722,43.180767222],[-0.008886111,43.180683611],[-0.008763056,43.180613889],[-0.00855,43.18053],[-0.007912222,43.180330278],[-0.007082778,43.180110556],[-0.006975833,43.180313611],[-0.007442222,43.180431667],[-0.008297778,43.180684444],[-0.008579444,43.180758611],[-0.008689444,43.180810278],[-0.0087675,43.1808725],[-0.008921111,43.181046667],[-0.009392778,43.18162],[-0.009372778,43.181697222],[-0.009377222,43.181771667],[-0.009403611,43.181834722],[-0.009467778,43.181905833],[-0.009563333,43.181970556],[-0.009539722,43.182001111],[-0.009504722,43.182019444],[-0.009463056,43.182011111],[-0.007796111,43.181542778],[-0.007738611,43.181676667],[-0.009308056,43.182103333],[-0.009373611,43.182127778],[-0.009419722,43.182165],[-0.0094325,43.182201111],[-0.009423056,43.182245556],[-0.009362222,43.182348056],[-0.009309722,43.1823875],[-0.009265,43.182406111],[-0.009176944,43.1824225],[-0.009089167,43.182417778],[-0.009006111,43.182405],[-0.007573611,43.181996944],[-0.007499167,43.182144722],[-0.008899722,43.18254],[-0.009023333,43.182585278],[-0.009090833,43.182633056],[-0.009133889,43.182685],[-0.009147222,43.182728611],[-0.009139722,43.182780556],[-0.009087222,43.18289],[-0.009042222,43.182946111],[-0.008991667,43.182978889],[-0.008929722,43.182999444],[-0.008862222,43.183006111],[-0.008772222,43.182999444],[-0.008686111,43.182980278],[-0.0072625,43.182584722],[-0.007188889,43.182724722],[-0.008631667,43.183135833],[-0.008735,43.183175278],[-0.008795,43.183215556],[-0.008839167,43.183271944],[-0.008850278,43.183330833],[-0.0088325,43.183381667],[-0.008775556,43.183490278],[-0.008720556,43.1835475],[-0.008651389,43.18359],[-0.008571389,43.183608333],[-0.008488056,43.183605556],[-0.007109444,43.183226111],[-0.007033056,43.183376389],[-0.008421111,43.183767222],[-0.008483611,43.183811667],[-0.008525,43.183859722],[-0.008538889,43.183905278],[-0.008537222,43.183950556],[-0.008507778,43.184020278],[-0.008474722,43.184059444],[-0.008428056,43.184087222],[-0.008367222,43.184094722],[-0.008289167,43.184082222],[-0.006863889,43.183686111],[-0.006786111,43.183845833],[-0.0082625,43.184244167],[-0.008304444,43.184265556],[-0.008331111,43.184296944],[-0.00834,43.184331944],[-0.0083275,43.184375],[-0.008184722,43.184647222],[-0.008147222,43.184677222],[-0.008097222,43.184696667],[-0.00804,43.184701944],[-0.007950556,43.184681111],[-0.006572778,43.184299722],[-0.006493056,43.184456944],[-0.007985278,43.184873056],[-0.008011667,43.184892222],[-0.008025,43.184919444],[-0.008025,43.184956389],[-0.007930278,43.185151111],[-0.007890556,43.185208889],[-0.0078375,43.185244167],[-0.007765,43.185273056],[-0.007696667,43.185284444],[-0.007606111,43.185276389],[-0.007416667,43.185226667],[-0.0062625,43.184906667],[-0.006182778,43.185060278],[-0.007481667,43.185423889],[-0.007564444,43.185450833],[-0.007626944,43.185496667],[-0.007669722,43.1855525],[-0.007681111,43.185612778],[-0.007644167,43.185725],[-0.007578611,43.185810278],[-0.007512778,43.185856389],[-0.007433889,43.185883889],[-0.007366944,43.1858925],[-0.007282222,43.185880833],[-0.005958056,43.185513889],[-0.005873333,43.185671944],[-0.007208611,43.186036111],[-0.007272222,43.186063611],[-0.007320556,43.186103889],[-0.007358889,43.186162222],[-0.007372222,43.186209444],[-0.007367222,43.186249444],[-0.007290556,43.186408611],[-0.007244444,43.186466111],[-0.007176667,43.186513056],[-0.007096111,43.1865425],[-0.0070375,43.186547778],[-0.006958611,43.186537222],[-0.005505556,43.186141667],[-0.004478611,43.185858611],[-0.004196667,43.185755]]]}},{"type":"Feature","id":"LFBT-a5006a322bb20967aa59","properties":{"airport":"LFBT","name":"LFBT AVISO","layer":"Airfield surfaces","category":"Runways","object_type":"Area","style_id":"polygon.runwayconcrete.555555","source_group":"LFBT AVISO","vsmr_group_ids":[],"geometry_role":"filled_region"},"geometry":{"type":"Polygon","coordinates":[[[-0.013017222,43.166045],[-0.012058611,43.165791944],[-0.011845556,43.165731944],[-0.011696944,43.165698056],[-0.011562222,43.165680556],[-0.011419722,43.165680556],[-0.011295556,43.165694167],[-0.011347222,43.165967778],[-0.011444722,43.165953333],[-0.011577778,43.1659625],[-0.011715278,43.165980278],[-0.011825833,43.166009722],[-0.0119175,43.166043056],[-0.012002778,43.166086389],[-0.0120625,43.166119722],[-0.011906667,43.166424167],[-0.012014722,43.16686],[-0.010123611,43.170605278],[-0.010032778,43.170695556],[-0.009925833,43.170771667],[-0.009813056,43.170821667],[-0.009695,43.170847778],[-0.009557778,43.170857778],[-0.009412222,43.170849722],[-0.009283056,43.170815556],[-0.009130278,43.170774167],[-0.009044722,43.170930556],[-0.009166389,43.170983056],[-0.009310278,43.171059722],[-0.009398333,43.171123333],[-0.009475,43.171198056],[-0.009536944,43.171274167],[-0.009588056,43.171343889],[-0.009626389,43.171426389],[-0.009641111,43.171494722],[-0.009641111,43.171550556],[-0.005370833,43.179981944],[-0.005316944,43.180065833],[-0.005248056,43.180138611],[-0.005171111,43.180200278],[-0.005079167,43.180254444],[-0.004974167,43.180295278],[-0.004871944,43.180315833],[-0.004766944,43.180332778],[-0.004634722,43.1803275],[-0.004528333,43.180311111],[-0.004331944,43.180259444],[-0.004228889,43.180426111],[-0.004354444,43.180481389],[-0.004459167,43.180543611],[-0.004544444,43.180605833],[-0.004613611,43.180675278],[-0.004669167,43.1807325],[-0.004721944,43.180811111],[-0.004767778,43.180889444],[-0.004803056,43.180979167],[-0.004817222,43.181025833],[-0.004820278,43.181066389],[-0.002841667,43.184968611],[-0.002764722,43.185053611],[-0.002670556,43.185125278],[-0.002570556,43.185178611],[-0.002447222,43.185218056],[-0.002324167,43.185230278],[-0.002171667,43.185224167],[-0.0020425,43.185206667],[-0.001826944,43.185168056],[-0.001774167,43.185323056],[-0.001929444,43.185356111],[-0.002033333,43.185388056],[-0.002128333,43.185430833],[-0.002202222,43.185479167],[-0.002260833,43.1855275],[-0.002312222,43.185583611],[-0.002345556,43.185643333],[-0.002374167,43.1857025],[-0.002383333,43.185777222],[-0.002381667,43.185843056],[-0.002362222,43.185913056],[0.000324167,43.191229167],[-0.000186389,43.191359444],[-0.002824444,43.186152222],[-0.002881944,43.186068611],[-0.002936111,43.1860125],[-0.003011389,43.185952778],[-0.003093333,43.185912222],[-0.003176667,43.185883611],[-0.003265278,43.185868056],[-0.003356944,43.185861944],[-0.003445278,43.185864444],[-0.003553333,43.185887222],[-0.004087778,43.185983056],[-0.004200833,43.185756944],[-0.003678611,43.1855775],[-0.003585556,43.185541389],[-0.0035075,43.185495556],[-0.0034425,43.185437222],[-0.003395,43.185373889],[-0.003366667,43.185318611],[-0.003351667,43.185253889],[-0.003351667,43.185194167],[-0.003358056,43.185134167],[-0.003379722,43.185067778],[-0.003408333,43.184996944],[-0.00577,43.180343889],[-0.005821111,43.180274444],[-0.005883611,43.180230278],[-0.005944167,43.180205],[-0.006020833,43.180188056],[-0.006174167,43.180186111],[-0.006320556,43.180191389],[-0.006499444,43.180216667],[-0.006977222,43.180313056],[-0.007087222,43.1801125],[-0.006685556,43.179970833],[-0.006467222,43.179876389],[-0.006321111,43.179792778],[-0.006246944,43.179738611],[-0.006214167,43.179698333],[-0.006192778,43.179651111],[-0.006181944,43.179599444],[-0.006178889,43.179558056],[-0.006191111,43.179498611],[-0.013017222,43.166045]]]}},{"type":"Feature","id":"LFBT-599a4444e0b315b77c56","properties":{"airport":"LFBT","name":"LFBT AVISO","layer":"Buildings and structures","category":"Buildings","object_type":"Area","style_id":"polygon.building.394446","source_group":"LFBT AVISO","vsmr_group_ids":[],"geometry_role":"filled_region"},"geometry":{"type":"Polygon","coordinates":[[[0.002772778,43.187903333],[0.003208056,43.187826111],[0.003305,43.188128611],[0.002878889,43.188211389],[0.002772778,43.187903333]]]}},{"type":"Feature","id":"LFBT-a93e127b632e6bb83e35","properties":{"airport":"LFBT","name":"LFBT AVISO","layer":"Buildings and structures","category":"Buildings","object_type":"Area","style_id":"polygon.building.394446","source_group":"LFBT AVISO","vsmr_group_ids":[],"geometry_role":"filled_region"},"geometry":{"type":"Polygon","coordinates":[[[0.002618333,43.187440278],[0.002846389,43.187398056],[0.002853056,43.18742],[0.002943333,43.187402778],[0.003003611,43.18758],[0.002685,43.187639722],[0.002618333,43.187440278]]]}},{"type":"Feature","id":"LFBT-9257d1768312a504ba10","properties":{"airport":"LFBT","name":"LFBT AVISO","layer":"Buildings and structures","category":"Buildings","object_type":"Area","style_id":"polygon.building.394446","source_group":"LFBT AVISO","vsmr_group_ids":[],"geometry_role":"filled_region"},"geometry":{"type":"Polygon","coordinates":[[[0.002448889,43.186924444],[0.002208056,43.186224167],[0.002388056,43.186193056],[0.002551389,43.186674722],[0.002454167,43.186690278],[0.002527778,43.186911389],[0.002448889,43.186924444]]]}},{"type":"Feature","id":"LFBT-7c0783048e894b4af3ae","properties":{"airport":"LFBT","name":"LFBT AVISO","layer":"Buildings and structures","category":"Buildings","object_type":"Area","style_id":"polygon.building.394446","source_group":"LFBT AVISO","vsmr_group_ids":[],"geometry_role":"filled_region"},"geometry":{"type":"Polygon","coordinates":[[[0.002715,43.186578056],[0.002410556,43.185728889],[0.002197222,43.185767778],[0.0022825,43.186010556],[0.0022125,43.186021944],[0.002229167,43.186066944],[0.002159167,43.186079167],[0.002005833,43.185629167],[0.002285833,43.185585556],[0.002303056,43.185641111],[0.002377778,43.185628611],[0.002351111,43.185547778],[0.002251389,43.185565],[0.002159722,43.185306111],[0.002264722,43.185286667],[0.002311111,43.185411667],[0.003248889,43.185236389],[0.003205,43.185109722],[0.003313889,43.185092778],[0.003368333,43.185254444],[0.003619167,43.185208889],[0.0037,43.185240556],[0.003810278,43.185575278],[0.00369,43.185598611],[0.003736111,43.185733333],[0.003543611,43.185774167],[0.003753611,43.186384444],[0.002715,43.186578056]]]}},{"type":"Feature","id":"LFBT-f7ab40d79813a784cab3","properties":{"airport":"LFBT","name":"LFBT AVISO","layer":"Buildings and structures","category":"Buildings","object_type":"Area","style_id":"polygon.building.394446","source_group":"LFBT AVISO","vsmr_group_ids":[],"geometry_role":"filled_region"},"geometry":{"type":"Polygon","coordinates":[[[0.003993889,43.185553056],[0.003934722,43.185383056],[0.004270556,43.185319722],[0.004171944,43.185048611],[0.004376111,43.185010278],[0.004513333,43.185450278],[0.003993889,43.185553056]]]}},{"type":"Feature","id":"LFBT-5697722405111ee75e21","properties":{"airport":"LFBT","name":"LFBT AVISO","layer":"Buildings and structures","category":"Buildings","object_type":"Area","style_id":"polygon.building.394446","source_group":"LFBT AVISO","vsmr_group_ids":[],"geometry_role":"filled_region"},"geometry":{"type":"Polygon","coordinates":[[[-0.008855,43.185974444],[-0.009470833,43.186019167],[-0.010021111,43.185744167],[-0.009563056,43.185228056],[-0.008962778,43.185185833],[-0.008855,43.185974444]]]}},{"type":"Feature","id":"LFBT-0f81cff4a3b4152fb421","properties":{"airport":"LFBT","name":"LFBT AVISO","layer":"Buildings and structures","category":"Buildings","object_type":"Area","style_id":"polygon.building.394446","source_group":"LFBT AVISO","vsmr_group_ids":[],"geometry_role":"filled_region"},"geometry":{"type":"Polygon","coordinates":[[[-0.010875556,43.185298056],[-0.010498333,43.185267222],[-0.010402222,43.185898611],[-0.010779167,43.185929444],[-0.010875556,43.185298056]]]}},{"type":"Feature","id":"LFBT-beb83450eecadf3881ca","properties":{"airport":"LFBT","name":"LFBT AVISO","layer":"Buildings and structures","category":"Buildings","object_type":"Area","style_id":"polygon.building.394446","source_group":"LFBT AVISO","vsmr_group_ids":[],"geometry_role":"filled_region"},"geometry":{"type":"Polygon","coordinates":[[[-0.011702778,43.185180278],[-0.010998611,43.185124167],[-0.010886944,43.186008056],[-0.011402778,43.186041667],[-0.011495,43.185401944],[-0.011668056,43.185413056],[-0.011702778,43.185180278]]]}},{"type":"Feature","id":"LFBT-9af32e688de5a6004250","properties":{"airport":"LFBT","name":"LFBT AVISO","layer":"Buildings and structures","category":"Buildings","object_type":"Area","style_id":"polygon.building.394446","source_group":"LFBT AVISO","vsmr_group_ids":[],"geometry_role":"filled_region"},"geometry":{"type":"Polygon","coordinates":[[[-0.011227222,43.1863],[-0.010415278,43.186235556],[-0.010261389,43.187445],[-0.010854167,43.187492778],[-0.010873333,43.187287778],[-0.011027222,43.187299167],[-0.011081111,43.186861389],[-0.011154167,43.186866944],[-0.011227222,43.1863]]]}},{"type":"Feature","id":"LFBT-2dbb5f4ce6cfde3b0be2","properties":{"airport":"LFBT","name":"LFBT AVISO","layer":"Buildings and structures","category":"Buildings","object_type":"Area","style_id":"polygon.building.394446","source_group":"LFBT AVISO","vsmr_group_ids":[],"geometry_role":"filled_region"},"geometry":{"type":"Polygon","coordinates":[[[-0.009565,43.187029722],[-0.009153056,43.186760278],[-0.009172222,43.186583611],[-0.008402778,43.186524722],[-0.008256389,43.187498333],[-0.008764444,43.187540278],[-0.008783333,43.187397778],[-0.009058333,43.1874125],[-0.009084444,43.187241389],[-0.009565,43.187029722]]]}},{"type":"Feature","id":"LFBT-fa9a5cafe4e83d76680d","properties":{"airport":"LFBT","name":"LFBT AVISO","layer":"Buildings and structures","category":"Buildings","object_type":"Area","style_id":"polygon.building.394446","source_group":"LFBT AVISO","vsmr_group_ids":[],"geometry_role":"filled_region"},"geometry":{"type":"Polygon","coordinates":[[[-0.009859722,43.187826389],[-0.009875,43.187652778],[-0.009215278,43.187619444],[-0.009104167,43.188424722],[-0.009621944,43.188458333],[-0.00971,43.187815],[-0.009859722,43.187826389]]]}},{"type":"Feature","id":"LFBT-14c8446495dccf9729b0","properties":{"airport":"LFBT","name":"LFBT AVISO","layer":"Surface markings","category":"Stopbars","object_type":"Area","style_id":"polygon.stopbar.7e0000","source_group":"LFBT AVISO","vsmr_group_ids":[],"geometry_role":"filled_region"},"geometry":{"type":"Polygon","coordinates":[[[-0.004210833,43.185759444],[-0.004185,43.18575],[-0.004066944,43.18598],[-0.004094722,43.185986944],[-0.004210833,43.185759444]]]}},{"type":"Feature","id":"LFBT-0789c62e14cbf09eca5c","properties":{"airport":"LFBT","name":"LFBT AVISO","layer":"Surface markings","category":"Stopbars","object_type":"Area","style_id":"polygon.stopbar.7e0000","source_group":"LFBT AVISO","vsmr_group_ids":[],"geometry_role":"filled_region"},"geometry":{"type":"Polygon","coordinates":[[[-0.001849722,43.185171944],[-0.001821667,43.185165],[-0.001767222,43.185323611],[-0.001796944,43.185328889],[-0.001849722,43.185171944]]]}},{"type":"Feature","id":"LFBT-80d37971453f3cebe318","properties":{"airport":"LFBT","name":"LFBT AVISO","layer":"Surface markings","category":"Stopbars","object_type":"Area","style_id":"polygon.stopbar.7e0000","source_group":"LFBT AVISO","vsmr_group_ids":[],"geometry_role":"filled_region"},"geometry":{"type":"Polygon","coordinates":[[[-0.007096667,43.180114167],[-0.007066944,43.180104722],[-0.006959722,43.180310833],[-0.006991667,43.180318889],[-0.007096667,43.180114167]]]}},{"type":"Feature","id":"LFBT-c25fd97b9621690968cd","properties":{"airport":"LFBT","name":"LFBT AVISO","layer":"Surface markings","category":"Stopbars","object_type":"Area","style_id":"polygon.stopbar.7e0000","source_group":"LFBT AVISO","vsmr_group_ids":[],"geometry_role":"filled_region"},"geometry":{"type":"Polygon","coordinates":[[[-0.004357222,43.180265833],[-0.004326111,43.180256389],[-0.00422,43.180424444],[-0.004247222,43.180434444],[-0.004357222,43.180265833]]]}},{"type":"Feature","id":"LFBT-b692cb7ebb0f7a4e3c9d","properties":{"airport":"LFBT","name":"LFBT AVISO","layer":"Surface markings","category":"Stopbars","object_type":"Area","style_id":"polygon.stopbar.7e0000","source_group":"LFBT AVISO","vsmr_group_ids":[],"geometry_role":"filled_region"},"geometry":{"type":"Polygon","coordinates":[[[-0.009151389,43.170779722],[-0.009125833,43.170771944],[-0.009042222,43.170929722],[-0.009068611,43.170941667],[-0.009151389,43.170779722]]]}},{"type":"Feature","id":"LFBT-b15bd940cf64acef6a2b","properties":{"airport":"LFBT","name":"LFBT AVISO","layer":"Surface markings","category":"Stopbars","object_type":"Area","style_id":"polygon.stopbar.7e0000","source_group":"LFBT AVISO","vsmr_group_ids":[],"geometry_role":"filled_region"},"geometry":{"type":"Polygon","coordinates":[[[-0.011375556,43.165963889],[-0.0113125,43.165691944],[-0.011283333,43.165695],[-0.011344722,43.165969722],[-0.011375556,43.165963889]]]}},{"type":"Feature","id":"LFBT-9cfed7f3dc043345acbf","properties":{"airport":"LFBT","name":"S1","layer":"Labels","category":"Gates","object_type":"Label","style_id":"label.gates","source_group":"LFBT Gates","vsmr_group_ids":[],"geometry_role":"text_label","text-field":"S1"},"geometry":{"type":"Point","coordinates":[0.001201111,43.183166667]}},{"type":"Feature","id":"LFBT-b63e9625326049d729b0","properties":{"airport":"LFBT","name":"S2","layer":"Labels","category":"Gates","object_type":"Label","style_id":"label.gates","source_group":"LFBT Gates","vsmr_group_ids":[],"geometry_role":"text_label","text-field":"S2"},"geometry":{"type":"Point","coordinates":[0.001543889,43.182696944]}},{"type":"Feature","id":"LFBT-5fde71a9d7ff7cbac284","properties":{"airport":"LFBT","name":"S3","layer":"Labels","category":"Gates","object_type":"Label","style_id":"label.gates","source_group":"LFBT Gates","vsmr_group_ids":[],"geometry_role":"text_label","text-field":"S3"},"geometry":{"type":"Point","coordinates":[0.001783611,43.183040278]}},{"type":"Feature","id":"LFBT-bc059aaed62bf59915a5","properties":{"airport":"LFBT","name":"S4A","layer":"Labels","category":"Gates","object_type":"Label","style_id":"label.gates","source_group":"LFBT Gates","vsmr_group_ids":[],"geometry_role":"text_label","text-field":"S4A"},"geometry":{"type":"Point","coordinates":[0.001924444,43.183153333]}},{"type":"Feature","id":"LFBT-3ebbd0f99ddabe1e26d2","properties":{"airport":"LFBT","name":"S4B","layer":"Labels","category":"Gates","object_type":"Label","style_id":"label.gates","source_group":"LFBT Gates","vsmr_group_ids":[],"geometry_role":"text_label","text-field":"S4B"},"geometry":{"type":"Point","coordinates":[0.001933889,43.18323]}},{"type":"Feature","id":"LFBT-f66a8c831c9cdf5e14d9","properties":{"airport":"LFBT","name":"S5","layer":"Labels","category":"Gates","object_type":"Label","style_id":"label.gates","source_group":"LFBT Gates","vsmr_group_ids":[],"geometry_role":"text_label","text-field":"S5"},"geometry":{"type":"Point","coordinates":[0.001586389,43.18359]}},{"type":"Feature","id":"LFBT-4c295db898f579824ee8","properties":{"airport":"LFBT","name":"S6","layer":"Labels","category":"Gates","object_type":"Label","style_id":"label.gates","source_group":"LFBT Gates","vsmr_group_ids":[],"geometry_role":"text_label","text-field":"S6"},"geometry":{"type":"Point","coordinates":[0.001280833,43.18331]}},{"type":"Feature","id":"LFBT-d0a556dc6539adde3afd","properties":{"airport":"LFBT","name":"S7","layer":"Labels","category":"Gates","object_type":"Label","style_id":"label.gates","source_group":"LFBT Gates","vsmr_group_ids":[],"geometry_role":"text_label","text-field":"S7"},"geometry":{"type":"Point","coordinates":[0.000952222,43.182936944]}},{"type":"Feature","id":"LFBT-0f4d9b7f08aa07112821","properties":{"airport":"LFBT","name":"P1","layer":"Labels","category":"Gates","object_type":"Label","style_id":"label.gates","source_group":"LFBT Gates","vsmr_group_ids":[],"geometry_role":"text_label","text-field":"P1"},"geometry":{"type":"Point","coordinates":[0.003718889,43.184941944]}},{"type":"Feature","id":"LFBT-c99a0de103b9092ab0ab","properties":{"airport":"LFBT","name":"P2","layer":"Labels","category":"Gates","object_type":"Label","style_id":"label.gates","source_group":"LFBT Gates","vsmr_group_ids":[],"geometry_role":"text_label","text-field":"P2"},"geometry":{"type":"Point","coordinates":[0.003586667,43.1849575]}},{"type":"Feature","id":"LFBT-41dd4229386cc90c8452","properties":{"airport":"LFBT","name":"P3","layer":"Labels","category":"Gates","object_type":"Label","style_id":"label.gates","source_group":"LFBT Gates","vsmr_group_ids":[],"geometry_role":"text_label","text-field":"P3"},"geometry":{"type":"Point","coordinates":[0.003168333,43.184848333]}},{"type":"Feature","id":"LFBT-566e05806739019d6cfa","properties":{"airport":"LFBT","name":"P4","layer":"Labels","category":"Gates","object_type":"Label","style_id":"label.gates","source_group":"LFBT Gates","vsmr_group_ids":[],"geometry_role":"text_label","text-field":"P4"},"geometry":{"type":"Point","coordinates":[0.002599444,43.185014167]}},{"type":"Feature","id":"LFBT-62de222a03d35da0e1c0","properties":{"airport":"LFBT","name":"P5","layer":"Labels","category":"Gates","object_type":"Label","style_id":"label.gates","source_group":"LFBT Gates","vsmr_group_ids":[],"geometry_role":"text_label","text-field":"P5"},"geometry":{"type":"Point","coordinates":[0.002464444,43.185114167]}},{"type":"Feature","id":"LFBT-c7a156df81f566370914","properties":{"airport":"LFBT","name":"P6","layer":"Labels","category":"Gates","object_type":"Label","style_id":"label.gates","source_group":"LFBT Gates","vsmr_group_ids":[],"geometry_role":"text_label","text-field":"P6"},"geometry":{"type":"Point","coordinates":[0.0021475,43.185114167]}},{"type":"Feature","id":"LFBT-e456f834f9deb745e5c0","properties":{"airport":"LFBT","name":"P6b","layer":"Labels","category":"Gates","object_type":"Label","style_id":"label.gates","source_group":"LFBT Gates","vsmr_group_ids":[],"geometry_role":"text_label","text-field":"P6b"},"geometry":{"type":"Point","coordinates":[0.002658333,43.184835278]}},{"type":"Feature","id":"LFBT-b89f6733ce9021e523c9","properties":{"airport":"LFBT","name":"P7","layer":"Labels","category":"Gates","object_type":"Label","style_id":"label.gates","source_group":"LFBT Gates","vsmr_group_ids":[],"geometry_role":"text_label","text-field":"P7"},"geometry":{"type":"Point","coordinates":[0.001853889,43.185114167]}},{"type":"Feature","id":"LFBT-f7004c1887251ddc65b6","properties":{"airport":"LFBT","name":"P8","layer":"Labels","category":"Gates","object_type":"Label","style_id":"label.gates","source_group":"LFBT Gates","vsmr_group_ids":[],"geometry_role":"text_label","text-field":"P8"},"geometry":{"type":"Point","coordinates":[0.001343056,43.1850725]}},{"type":"Feature","id":"LFBT-ff26d7168628c7bae27c","properties":{"airport":"LFBT","name":"P9","layer":"Labels","category":"Gates","object_type":"Label","style_id":"label.gates","source_group":"LFBT Gates","vsmr_group_ids":[],"geometry_role":"text_label","text-field":"P9"},"geometry":{"type":"Point","coordinates":[0.000791111,43.185101667]}},{"type":"Feature","id":"LFBT-4f129e3bd9b8983eddb3","properties":{"airport":"LFBT","name":"P10","layer":"Labels","category":"Gates","object_type":"Label","style_id":"label.gates","source_group":"LFBT Gates","vsmr_group_ids":[],"geometry_role":"text_label","text-field":"P10"},"geometry":{"type":"Point","coordinates":[0.000174444,43.185218333]}},{"type":"Feature","id":"LFBT-6a8988e0a4afc2aa5860","properties":{"airport":"LFBT","name":"G1","layer":"Labels","category":"Gates","object_type":"Label","style_id":"label.gates","source_group":"LFBT Gates","vsmr_group_ids":[],"geometry_role":"text_label","text-field":"G1"},"geometry":{"type":"Point","coordinates":[0.001837778,43.186919167]}},{"type":"Feature","id":"LFBT-f5bb289755cce60aaafb","properties":{"airport":"LFBT","name":"G2","layer":"Labels","category":"Gates","object_type":"Label","style_id":"label.gates","source_group":"LFBT Gates","vsmr_group_ids":[],"geometry_role":"text_label","text-field":"G2"},"geometry":{"type":"Point","coordinates":[0.001940556,43.187184444]}},{"type":"Feature","id":"LFBT-4b7c11a89bf052453b3d","properties":{"airport":"LFBT","name":"G3","layer":"Labels","category":"Gates","object_type":"Label","style_id":"label.gates","source_group":"LFBT Gates","vsmr_group_ids":[],"geometry_role":"text_label","text-field":"G3"},"geometry":{"type":"Point","coordinates":[0.002025,43.187445556]}},{"type":"Feature","id":"LFBT-e08a2245792b33395bcd","properties":{"airport":"LFBT","name":"G4","layer":"Labels","category":"Gates","object_type":"Label","style_id":"label.gates","source_group":"LFBT Gates","vsmr_group_ids":[],"geometry_role":"text_label","text-field":"G4"},"geometry":{"type":"Point","coordinates":[0.0021075,43.187679722]}},{"type":"Feature","id":"LFBT-9e5ff4c853a3607d4c91","properties":{"airport":"LFBT","name":"ACB","layer":"Labels","category":"Gates","object_type":"Label","style_id":"label.gates","source_group":"LFBT Gates","vsmr_group_ids":[],"geometry_role":"text_label","text-field":"ACB"},"geometry":{"type":"Point","coordinates":[0.002456111,43.187725278]}},{"type":"Feature","id":"LFBT-fbcb24a15d73d9675e93","properties":{"airport":"LFBT","name":"TARMAC","layer":"Labels","category":"Gates","object_type":"Label","style_id":"label.gates","source_group":"LFBT Gates","vsmr_group_ids":[],"geometry_role":"text_label","text-field":"TARMAC"},"geometry":{"type":"Point","coordinates":[-0.008849167,43.186981944]}},{"type":"Feature","id":"LFBT-f049e58eb05fdf0fba43","properties":{"airport":"LFBT","name":"LFBT Groundlayout AVISO","layer":"Guidance lines","category":"Taxiways","object_type":"Line","style_id":"line.taxiway.c0b631","source_group":"LFBT Groundlayout AVISO","vsmr_group_ids":[],"geometry_role":"linework"},"geometry":{"type":"MultiLineString","coordinates":[[[0.00168,43.187752222],[0.002001389,43.187693611]],[[0.001600833,43.187517222],[0.001923333,43.187459444]],[[0.001514444,43.187256667],[0.001836944,43.187198056]],[[0.001424444,43.186999444],[0.001746944,43.18694]],[[0.000143889,43.185625278],[0.000320278,43.185149167],[0.0002725,43.185139167],[0.000363333,43.185158056]],[[0.000735556,43.185531667],[0.000935556,43.185034167],[0.000888333,43.185023333],[0.000976944,43.185043889]],[[0.001434444,43.185386111],[0.001349722,43.185120833],[0.001308056,43.1851275],[0.00139,43.185114167]],[[0.001583611,43.185373889],[0.001623611,43.185334444]],[[0.001661389,43.185298056],[0.001700278,43.1852625]],[[0.001738333,43.185227222],[0.001806389,43.185164167]],[[0.001825833,43.185176667],[0.001786944,43.185152222]],[[0.001546111,43.184694722],[0.002096111,43.185080556],[0.001836667,43.184898333],[0.001891667,43.1849225],[0.001945278,43.184937222],[0.001996667,43.184941389],[0.002060556,43.184940556],[0.002575,43.184848611]],[[0.001844722,43.184498889],[0.001885833,43.184533056]],[[0.001923889,43.184565],[0.001967778,43.184604167]],[[0.002004722,43.184635],[0.002048611,43.184672222]],[[0.002083889,43.184703056],[0.002127778,43.184739167]],[[0.002166111,43.184771111],[0.002208611,43.184808333]],[[0.0022425,43.184838333],[0.002285,43.184871944]],[[0.002322778,43.184903889],[0.002364167,43.184938056]],[[0.002404167,43.184971667],[0.002444167,43.185006111]],[[0.002478611,43.185032778],[0.0025175,43.185065556]],[[0.002271667,43.184430556],[0.002499722,43.185034444]],[[0.002700833,43.184373333],[0.00312,43.184787778]],[[0.003090833,43.184315556],[0.003125278,43.184351667]],[[0.003154167,43.184388889],[0.003189167,43.184427778]],[[0.003218889,43.184461667],[0.003253889,43.184501389]],[[0.003288611,43.184540278],[0.003325,43.184581389]],[[0.003356667,43.184615278],[0.003393056,43.1846575]],[[0.003421389,43.1846925],[0.003454444,43.18473]],[[0.003489444,43.184768889],[0.0035275,43.184811111]],[[0.003560278,43.184850278],[0.003599167,43.184894722]],[[0.003455,43.184306389],[0.003657778,43.184881667]],[[0.002126111,43.183518611],[0.0016825,43.183576389],[0.001677222,43.183558333],[0.001686944,43.183593611]],[[0.001897778,43.1838325],[0.001895278,43.183797778]],[[0.001892778,43.183765],[0.001889167,43.183726389]],[[0.001886667,43.183696389],[0.001884167,43.183656944]],[[0.001882778,43.183626111],[0.001879167,43.183591389]],[[0.001872778,43.183552778],[0.001870278,43.183518056]],[[0.001865278,43.183485278],[0.001862778,43.183447778]],[[0.001860278,43.183413056],[0.001856389,43.1833775]],[[0.001852778,43.183343611],[0.001850278,43.183305278]],[[0.001846389,43.183271389],[0.001843333,43.183233333],[0.001815278,43.183235],[0.001873611,43.183231944]],[[0.001839722,43.183203889],[0.001837222,43.183163889],[0.001810278,43.183165278],[0.001864167,43.183162778]],[[0.001711389,43.183037778],[0.001735,43.18307],[0.001723889,43.183054167],[0.001256111,43.1832475],[0.001243333,43.183228889],[0.0012675,43.183264444]],[[0.001494444,43.182740556],[0.0014725,43.182709444],[0.001484444,43.182726111],[0.001018056,43.182918056],[0.001004722,43.182901111],[0.001031389,43.182935556]],[[0.00123,43.183213333],[0.001270833,43.183229722],[0.001252222,43.183221667],[0.001273333,43.183193611]],[[0.0012925,43.183166667],[0.001314167,43.183137778]],[[0.001333889,43.183110833],[0.001358056,43.183078889]],[[0.001376944,43.183052778],[0.0013975,43.183024444]],[[0.001417222,43.182998333],[0.001438889,43.182969722]],[[0.001457778,43.182944167],[0.001478333,43.182915833]],[[0.001498056,43.182889167],[0.001518611,43.182860833]]]}},{"type":"Feature","id":"LFBT-8b559e7f7ffd4ccd7eb7","properties":{"airport":"LFBT","name":"LFBT Groundlayout AVISO","layer":"Guidance lines","category":"Taxiway Orange","object_type":"Line","style_id":"line.taxiwayorange.cc6d00","source_group":"LFBT Groundlayout AVISO","vsmr_group_ids":[],"geometry_role":"linework"},"geometry":{"type":"MultiLineString","coordinates":[[[8.8056e-05,43.186146389],[0.000101389,43.186143056]],[[0.000113611,43.186139722],[0.000124167,43.186136944]],[[0.000135556,43.186134167],[0.000145556,43.186131667]],[[0.000156389,43.186128889],[0.000166667,43.186126111]],[[0.000176944,43.186123333],[0.000186389,43.186120833]],[[0.000194167,43.186118889],[0.000199722,43.1861175]],[[-0.000442222,43.185414722],[-0.000416389,43.185408056]],[[-0.000395278,43.185402778],[-0.00037,43.185396389]],[[-0.000345,43.18539],[-0.0003225,43.185384167]],[[-0.000296667,43.185377222],[-0.000272222,43.185371667]],[[-0.000245833,43.185365],[-0.000219444,43.185358611]],[[-8.1389e-05,43.182763056],[-5.5556e-05,43.182752778]],[[-2.2778e-05,43.182739444],[4.167e-06,43.182728056]],[[2.9444e-05,43.182717778],[5.6389e-05,43.182706667]],[[8.1944e-05,43.1826975],[0.000107222,43.182686944]],[[0.000135556,43.182674722],[0.000162222,43.182663333]],[[-0.008429167,43.170571944],[-0.008413611,43.170601944]],[[-0.0083975,43.170634722],[-0.008383333,43.170664444]],[[-0.008365833,43.170698056],[-0.008350278,43.170727778]],[[-0.008332778,43.170761667],[-0.008317222,43.170793611]],[[-0.008298889,43.170830556],[-0.008283333,43.170862222]],[[-0.009360278,43.167761111],[-0.009325833,43.167751944]],[[-0.009292222,43.167742778],[-0.009261111,43.167734722]],[[-0.009230833,43.167726944],[-0.009199722,43.167718333]],[[-0.009166667,43.167708611],[-0.009137778,43.167700556]],[[-0.009105833,43.167691389],[-0.009090833,43.167686389]]]}},{"type":"Feature","id":"LFBT-d275c0c67e73fa78f6c2","properties":{"airport":"LFBT","name":"LFBT Groundlayout AVISO","layer":"Guidance lines","category":"Runway Border","object_type":"Line","style_id":"line.runwayborder.808080","source_group":"LFBT Groundlayout AVISO","vsmr_group_ids":[],"geometry_role":"linework"},"geometry":{"type":"MultiLineString","coordinates":[[[-0.012678056,43.166131111],[-0.012592222,43.166305833]],[[-0.012613333,43.166311389],[-0.012548889,43.166388611],[-0.012569722,43.1663]],[[-0.012421667,43.166641667],[-0.012334722,43.166815556]],[[-0.012357222,43.166820278],[-0.012291667,43.166899444],[-0.012314722,43.166808611]],[[-0.012165,43.167152778],[-0.012078056,43.167319444]],[[-0.012101667,43.167323889],[-0.012036111,43.167401944],[-0.012057778,43.167313056]],[[-0.011910556,43.16765],[-0.011824167,43.1678225]],[[-0.011844722,43.167827222],[-0.011782778,43.167906944],[-0.011803889,43.167816389]],[[-0.011654444,43.168155556],[-0.011568611,43.168323889]],[[-0.01159,43.168330278],[-0.011528056,43.168408611],[-0.011548611,43.168319444]],[[-0.011397222,43.168663056],[-0.0113125,43.168832222]],[[-0.011333889,43.168837778],[-0.011272778,43.168911667],[-0.011291389,43.168825]],[[-0.011146944,43.169158611],[-0.011059722,43.169327222]],[[-0.011080556,43.169333056],[-0.011017778,43.169411389],[-0.011039722,43.169322222]],[[-0.010890833,43.169660833],[-0.010805833,43.16983]],[[-0.010826389,43.169834722],[-0.010761944,43.169915],[-0.010784444,43.169823056]],[[-0.010635833,43.170164444],[-0.010549167,43.170334167]],[[-0.01057,43.170342778],[-0.010507778,43.1704175],[-0.0105275,43.170331944]],[[-0.010378889,43.17067],[-0.010294167,43.170838889]],[[-0.010315,43.170844444],[-0.010252222,43.170920556],[-0.010274167,43.1708325]],[[-0.010124167,43.171175833],[-0.010037778,43.171346389]],[[-0.010057778,43.171350278],[-0.009996389,43.171428333],[-0.010016944,43.171341667]],[[-0.010158333,43.171679722],[-0.009640833,43.171542222]]]}},{"type":"Feature","id":"LFBT-55ad5d6c16826c7d275d","properties":{"airport":"LFBT","name":"02","layer":"Labels","category":"Taxiways","object_type":"Label","style_id":"label.taxiways","source_group":"LFBT Taxiways","vsmr_group_ids":[],"geometry_role":"text_label","text-field":"02"},"geometry":{"type":"Point","coordinates":[-0.009786944,43.171881389]}},{"type":"Feature","id":"LFBT-b9e777b721d69af988ce","properties":{"airport":"LFBT","name":"20","layer":"Labels","category":"Taxiways","object_type":"Label","style_id":"label.taxiways","source_group":"LFBT Taxiways","vsmr_group_ids":[],"geometry_role":"text_label","text-field":"20"},"geometry":{"type":"Point","coordinates":[-8.4722e-05,43.191056111]}},{"type":"Feature","id":"LFBT-6e9627e8f2c63bd6a192","properties":{"airport":"LFBT","name":"A","layer":"Labels","category":"Taxiways","object_type":"Label","style_id":"label.taxiways","source_group":"LFBT Taxiways","vsmr_group_ids":[],"geometry_role":"text_label","text-field":"A"},"geometry":{"type":"Point","coordinates":[-0.001879444,43.184963056]}},{"type":"Feature","id":"LFBT-6127cdb94305e58a6459","properties":{"airport":"LFBT","name":"B","layer":"Labels","category":"Taxiways","object_type":"Label","style_id":"label.taxiways","source_group":"LFBT Taxiways","vsmr_group_ids":[],"geometry_role":"text_label","text-field":"B"},"geometry":{"type":"Point","coordinates":[-0.004065556,43.180629444]}},{"type":"Feature","id":"LFBT-91089f98e617506ed518","properties":{"airport":"LFBT","name":"C","layer":"Labels","category":"Taxiways","object_type":"Label","style_id":"label.taxiways","source_group":"LFBT Taxiways","vsmr_group_ids":[],"geometry_role":"text_label","text-field":"C"},"geometry":{"type":"Point","coordinates":[-0.008935833,43.171198889]}},{"type":"Feature","id":"LFBT-0c94729f27ae417557c0","properties":{"airport":"LFBT","name":"D","layer":"Labels","category":"Taxiways","object_type":"Label","style_id":"label.taxiways","source_group":"LFBT Taxiways","vsmr_group_ids":[],"geometry_role":"text_label","text-field":"D"},"geometry":{"type":"Point","coordinates":[-0.011288333,43.166346667]}},{"type":"Feature","id":"LFBT-f3adfd2382a78bc3685b","properties":{"airport":"LFBT","name":"T6","layer":"Labels","category":"Taxiways","object_type":"Label","style_id":"label.taxiways","source_group":"LFBT Taxiways","vsmr_group_ids":[],"geometry_role":"text_label","text-field":"T6"},"geometry":{"type":"Point","coordinates":[-0.006896667,43.180515]}},{"type":"Feature","id":"LFBT-28649ac927972d1805f1","properties":{"airport":"LFBT","name":"T7","layer":"Labels","category":"Taxiways","object_type":"Label","style_id":"label.taxiways","source_group":"LFBT Taxiways","vsmr_group_ids":[],"geometry_role":"text_label","text-field":"T7"},"geometry":{"type":"Point","coordinates":[-0.004011667,43.186195833]}},{"type":"Feature","id":"LFBT-76e725d90aa2c371d4a2","properties":{"airport":"LFBT","name":"M","layer":"Labels","category":"Taxiways","object_type":"Label","style_id":"label.taxiways","source_group":"LFBT Taxiways","vsmr_group_ids":[],"geometry_role":"text_label","text-field":"M"},"geometry":{"type":"Point","coordinates":[-0.006335556,43.173516111]}},{"type":"Feature","id":"LFBT-cf46a51533ad336a006e","properties":{"airport":"LFBT","name":"M","layer":"Labels","category":"Taxiways","object_type":"Label","style_id":"label.taxiways","source_group":"LFBT Taxiways","vsmr_group_ids":[],"geometry_role":"text_label","text-field":"M"},"geometry":{"type":"Point","coordinates":[-0.003110278,43.178567778]}},{"type":"Feature","id":"LFBT-dc98c80fedc689cb3364","properties":{"airport":"LFBT","name":"M","layer":"Labels","category":"Taxiways","object_type":"Label","style_id":"label.taxiways","source_group":"LFBT Taxiways","vsmr_group_ids":[],"geometry_role":"text_label","text-field":"M"},"geometry":{"type":"Point","coordinates":[-0.000512222,43.181999167]}},{"type":"Feature","id":"LFBT-d5f52010ea88bf257e20","properties":{"airport":"LFBT","name":"N7","layer":"Labels","category":"Taxiways","object_type":"Label","style_id":"label.taxiways","source_group":"LFBT Taxiways","vsmr_group_ids":[],"geometry_role":"text_label","text-field":"N7"},"geometry":{"type":"Point","coordinates":[0.000307778,43.186467778]}},{"type":"Feature","id":"LFBT-0772bdad26a1cf85dff4","properties":{"airport":"LFBT","name":"N8","layer":"Labels","category":"Taxiways","object_type":"Label","style_id":"label.taxiways","source_group":"LFBT Taxiways","vsmr_group_ids":[],"geometry_role":"text_label","text-field":"N8"},"geometry":{"type":"Point","coordinates":[0.0008525,43.186626667]}},{"type":"Feature","id":"LFBT-f0fbc931f7ebc5031b39","properties":{"airport":"LFBT","name":"G2","layer":"Labels","category":"Taxiways","object_type":"Label","style_id":"label.taxiways","source_group":"LFBT Taxiways","vsmr_group_ids":[],"geometry_role":"text_label","text-field":"G2"},"geometry":{"type":"Point","coordinates":[-0.000149444,43.186205556]}},{"type":"Feature","id":"LFBT-1505f634e26276010600","properties":{"airport":"LFBT","name":"G1","layer":"Labels","category":"Taxiways","object_type":"Label","style_id":"label.taxiways","source_group":"LFBT Taxiways","vsmr_group_ids":[],"geometry_role":"text_label","text-field":"G1"},"geometry":{"type":"Point","coordinates":[-0.000707222,43.185443056]}},{"type":"Feature","id":"LFBT-c55854e607dce32f26a5","properties":{"airport":"LFBT","name":"M1","layer":"Labels","category":"Taxiways","object_type":"Label","style_id":"label.taxiways","source_group":"LFBT Taxiways","vsmr_group_ids":[],"geometry_role":"text_label","text-field":"M1"},"geometry":{"type":"Point","coordinates":[-0.000341111,43.182875833]}},{"type":"Feature","id":"LFBT-6ebde3d358599d7d0dcd","properties":{"airport":"LFBT","name":"C1","layer":"Labels","category":"Taxiways","object_type":"Label","style_id":"label.taxiways","source_group":"LFBT Taxiways","vsmr_group_ids":[],"geometry_role":"text_label","text-field":"C1"},"geometry":{"type":"Point","coordinates":[-0.008631111,43.170196389]}},{"type":"Feature","id":"LFBT-82fa025d7050b2e63f4f","properties":{"airport":"LFBT","name":"M2","layer":"Labels","category":"Taxiways","object_type":"Label","style_id":"label.taxiways","source_group":"LFBT Taxiways","vsmr_group_ids":[],"geometry_role":"text_label","text-field":"M2"},"geometry":{"type":"Point","coordinates":[-0.009844444,43.167911944]}}]}
