{"type":"FeatureCollection","name":"LFBU AVISO","bbox":[0.206441944,45.7265375,0.230258333,45.730968611],"metadata":{"schema":"vSMR AVISO","schema_version":2,"geometry_mode":"shared","airport":"LFBU","coordinate_reference_system":"WGS84","coordinate_order":"longitude, latitude","default_color_palette":"dark","color_palettes":["dark","light"],"background_colors":{"dark":"#434A4F","light":"#434A4F"},"runways":[{"ends":["10","28"],"headings":[96,276],"thresholds":[[0.206471944,45.730552778],[0.230213889,45.728532778]]}],"saved_active_runways":[],"saved_active_airport_modes":[],"airport_reference":[0.219166944,45.729443889],"feature_count":31,"style_count":8,"layer_counts":{"Guidance lines":7,"Labels":24},"category_counts":{"Apron Surface":1,"Centerlines":1,"Gates":24,"Grass runways":1,"Labels":1,"Runways":1,"Stopbars":1,"Taxiways":1},"geometry_source":"local GNG","geometry_source_url":"","geometry_license":"GPL-3.0"},"styles":{"line.runwayconcrete.555555":{"name":"Runways","layer":"Guidance lines","object_type":"Line","paint":{"stroke":"#111318","stroke-opacity":1,"stroke-width":1,"palette-overrides":{"light":{"stroke":"#555555"}}},"feature_count":1},"line.runwaygrass.008000":{"name":"Grass runways","layer":"Guidance lines","object_type":"Line","paint":{"stroke":"#859A77","stroke-opacity":1,"stroke-width":1,"palette-overrides":{"light":{"stroke":"#008000"}}},"feature_count":1},"line.taxiway.c0b631":{"name":"Taxiways","layer":"Guidance lines","object_type":"Line","paint":{"stroke":"#4E5A69","stroke-opacity":1,"stroke-width":1,"palette-overrides":{"light":{"stroke":"#C0B631"}}},"feature_count":1},"line.apronsurface.808080":{"name":"Apron Surface","layer":"Guidance lines","object_type":"Line","paint":{"stroke":"#808080","stroke-opacity":1,"stroke-width":1,"palette-overrides":{"light":{"stroke":"#808080"}}},"feature_count":1},"line.stopbar.7e0000":{"name":"Stopbars","layer":"Guidance lines","object_type":"Line","paint":{"stroke":"#7E0000","stroke-opacity":1,"stroke-width":1,"palette-overrides":{"light":{"stroke":"#7E0000"}}},"feature_count":1},"line.centerlines.ffff00":{"name":"Centerlines","layer":"Guidance lines","object_type":"Line","paint":{"stroke":"#FFFF00","stroke-opacity":1,"stroke-width":1,"palette-overrides":{"light":{"stroke":"#FFFF00"}}},"feature_count":1},"line.labels.808080":{"name":"Labels","layer":"Guidance lines","object_type":"Line","paint":{"stroke":"#808080","stroke-opacity":1,"stroke-width":1,"palette-overrides":{"light":{"stroke":"#808080"}}},"feature_count":1},"label.gates":{"name":"Gates","layer":"Labels","object_type":"Label","paint":{"text-color":"#CCCCCC","text-font":"Arial","text-size":12,"text-halo-color":"#000000","text-halo-width":1,"text-anchor":"center","zoomLevel":9},"feature_count":24}},"vsmr_groups":[],"features":[{"type":"Feature","id":"LFBU-7ea3e8919ee02ba7e681","properties":{"airport":"LFBU","name":"Planeurs","layer":"Labels","category":"Gates","object_type":"Label","style_id":"label.gates","source_group":"LFBU Gates","vsmr_group_ids":[],"geometry_role":"text_label","text-field":"Planeurs"},"geometry":{"type":"Point","coordinates":[0.214185556,45.727153889]}},{"type":"Feature","id":"LFBU-a36d329575f72ffc0d07","properties":{"airport":"LFBU","name":"ACB","layer":"Labels","category":"Gates","object_type":"Label","style_id":"label.gates","source_group":"LFBU Gates","vsmr_group_ids":[],"geometry_role":"text_label","text-field":"ACB"},"geometry":{"type":"Point","coordinates":[0.214609167,45.727190278]}},{"type":"Feature","id":"LFBU-82daead5b78150f706da","properties":{"airport":"LFBU","name":"CATS","layer":"Labels","category":"Gates","object_type":"Label","style_id":"label.gates","source_group":"LFBU Gates","vsmr_group_ids":[],"geometry_role":"text_label","text-field":"CATS"},"geometry":{"type":"Point","coordinates":[0.216343333,45.727088889]}},{"type":"Feature","id":"LFBU-316914d5d9f556649f79","properties":{"airport":"LFBU","name":"Hangars ACB","layer":"Labels","category":"Gates","object_type":"Label","style_id":"label.gates","source_group":"LFBU Gates","vsmr_group_ids":[],"geometry_role":"text_label","text-field":"Hangars ACB"},"geometry":{"type":"Point","coordinates":[0.217178611,45.726825833]}},{"type":"Feature","id":"LFBU-8681efe89c7d706938c5","properties":{"airport":"LFBU","name":"Terminal","layer":"Labels","category":"Gates","object_type":"Label","style_id":"label.gates","source_group":"LFBU Gates","vsmr_group_ids":[],"geometry_role":"text_label","text-field":"Terminal"},"geometry":{"type":"Point","coordinates":[0.218153611,45.726773889]}},{"type":"Feature","id":"LFBU-cdb0a066dcb7856657c5","properties":{"airport":"LFBU","name":"Bloc Technique","layer":"Labels","category":"Gates","object_type":"Label","style_id":"label.gates","source_group":"LFBU Gates","vsmr_group_ids":[],"geometry_role":"text_label","text-field":"Bloc Technique"},"geometry":{"type":"Point","coordinates":[0.218615833,45.726703889]}},{"type":"Feature","id":"LFBU-2afaa15ca324ac7faf9a","properties":{"airport":"LFBU","name":"Ecole Heli Union","layer":"Labels","category":"Gates","object_type":"Label","style_id":"label.gates","source_group":"LFBU Gates","vsmr_group_ids":[],"geometry_role":"text_label","text-field":"Ecole Heli Union"},"geometry":{"type":"Point","coordinates":[0.219494444,45.7265375]}},{"type":"Feature","id":"LFBU-61feb3b925e106594ba9","properties":{"airport":"LFBU","name":"Hangar","layer":"Labels","category":"Gates","object_type":"Label","style_id":"label.gates","source_group":"LFBU Gates","vsmr_group_ids":[],"geometry_role":"text_label","text-field":"Hangar"},"geometry":{"type":"Point","coordinates":[0.220261667,45.726561944]}},{"type":"Feature","id":"LFBU-5aa590d9231999453824","properties":{"airport":"LFBU","name":"B3","layer":"Labels","category":"Gates","object_type":"Label","style_id":"label.gates","source_group":"LFBU Gates","vsmr_group_ids":[],"geometry_role":"text_label","text-field":"B3"},"geometry":{"type":"Point","coordinates":[0.220327778,45.7272825]}},{"type":"Feature","id":"LFBU-a29e9d14d7f45f83b906","properties":{"airport":"LFBU","name":"B2","layer":"Labels","category":"Gates","object_type":"Label","style_id":"label.gates","source_group":"LFBU Gates","vsmr_group_ids":[],"geometry_role":"text_label","text-field":"B2"},"geometry":{"type":"Point","coordinates":[0.220339444,45.727068611]}},{"type":"Feature","id":"LFBU-e7c4db1d0b1d7cfbd0e3","properties":{"airport":"LFBU","name":"B1","layer":"Labels","category":"Gates","object_type":"Label","style_id":"label.gates","source_group":"LFBU Gates","vsmr_group_ids":[],"geometry_role":"text_label","text-field":"B1"},"geometry":{"type":"Point","coordinates":[0.22032,45.726878056]}},{"type":"Feature","id":"LFBU-561e10e416e232eab2e0","properties":{"airport":"LFBU","name":"H5","layer":"Labels","category":"Gates","object_type":"Label","style_id":"label.gates","source_group":"LFBU Gates","vsmr_group_ids":[],"geometry_role":"text_label","text-field":"H5"},"geometry":{"type":"Point","coordinates":[0.219652222,45.727314444]}},{"type":"Feature","id":"LFBU-788b29550c57031f304c","properties":{"airport":"LFBU","name":"H4","layer":"Labels","category":"Gates","object_type":"Label","style_id":"label.gates","source_group":"LFBU Gates","vsmr_group_ids":[],"geometry_role":"text_label","text-field":"H4"},"geometry":{"type":"Point","coordinates":[0.219628056,45.727144167]}},{"type":"Feature","id":"LFBU-a77aa864bf47e6e15632","properties":{"airport":"LFBU","name":"H3","layer":"Labels","category":"Gates","object_type":"Label","style_id":"label.gates","source_group":"LFBU Gates","vsmr_group_ids":[],"geometry_role":"text_label","text-field":"H3"},"geometry":{"type":"Point","coordinates":[0.219591389,45.726970833]}},{"type":"Feature","id":"LFBU-7a421912b94d2033d68c","properties":{"airport":"LFBU","name":"C1","layer":"Labels","category":"Gates","object_type":"Label","style_id":"label.gates","source_group":"LFBU Gates","vsmr_group_ids":[],"geometry_role":"text_label","text-field":"C1"},"geometry":{"type":"Point","coordinates":[0.219023611,45.727096944]}},{"type":"Feature","id":"LFBU-ca2dc25ff2b6a00952d5","properties":{"airport":"LFBU","name":"C3","layer":"Labels","category":"Gates","object_type":"Label","style_id":"label.gates","source_group":"LFBU Gates","vsmr_group_ids":[],"geometry_role":"text_label","text-field":"C3"},"geometry":{"type":"Point","coordinates":[0.218971667,45.727293056]}},{"type":"Feature","id":"LFBU-9f2aa76653f6c697bace","properties":{"airport":"LFBU","name":"C2","layer":"Labels","category":"Gates","object_type":"Label","style_id":"label.gates","source_group":"LFBU Gates","vsmr_group_ids":[],"geometry_role":"text_label","text-field":"C2"},"geometry":{"type":"Point","coordinates":[0.218450556,45.727169167]}},{"type":"Feature","id":"LFBU-f272601c1fc7352761ec","properties":{"airport":"LFBU","name":"A3","layer":"Labels","category":"Gates","object_type":"Label","style_id":"label.gates","source_group":"LFBU Gates","vsmr_group_ids":[],"geometry_role":"text_label","text-field":"A3"},"geometry":{"type":"Point","coordinates":[0.218040278,45.727202222]}},{"type":"Feature","id":"LFBU-5f284569ed1768b372bb","properties":{"airport":"LFBU","name":"A2","layer":"Labels","category":"Gates","object_type":"Label","style_id":"label.gates","source_group":"LFBU Gates","vsmr_group_ids":[],"geometry_role":"text_label","text-field":"A2"},"geometry":{"type":"Point","coordinates":[0.217832778,45.727205]}},{"type":"Feature","id":"LFBU-a044b7b53cfa023cde67","properties":{"airport":"LFBU","name":"A1","layer":"Labels","category":"Gates","object_type":"Label","style_id":"label.gates","source_group":"LFBU Gates","vsmr_group_ids":[],"geometry_role":"text_label","text-field":"A1"},"geometry":{"type":"Point","coordinates":[0.217645833,45.727230833]}},{"type":"Feature","id":"LFBU-0d315e79db8440c2097e","properties":{"airport":"LFBU","name":"A0","layer":"Labels","category":"Gates","object_type":"Label","style_id":"label.gates","source_group":"LFBU Gates","vsmr_group_ids":[],"geometry_role":"text_label","text-field":"A0"},"geometry":{"type":"Point","coordinates":[0.2174475,45.727241111]}},{"type":"Feature","id":"LFBU-536100dad83fffa102a1","properties":{"airport":"LFBU","name":"H2","layer":"Labels","category":"Gates","object_type":"Label","style_id":"label.gates","source_group":"LFBU Gates","vsmr_group_ids":[],"geometry_role":"text_label","text-field":"H2"},"geometry":{"type":"Point","coordinates":[0.217270278,45.727612778]}},{"type":"Feature","id":"LFBU-490da4ecbd59a8a3c241","properties":{"airport":"LFBU","name":"H1","layer":"Labels","category":"Gates","object_type":"Label","style_id":"label.gates","source_group":"LFBU Gates","vsmr_group_ids":[],"geometry_role":"text_label","text-field":"H1"},"geometry":{"type":"Point","coordinates":[0.216893889,45.727649167]}},{"type":"Feature","id":"LFBU-f94cf004019d39439b3e","properties":{"airport":"LFBU","name":"Aire de travail Helico base","layer":"Labels","category":"Gates","object_type":"Label","style_id":"label.gates","source_group":"LFBU Gates","vsmr_group_ids":[],"geometry_role":"text_label","text-field":"Aire de travail Helico base"},"geometry":{"type":"Point","coordinates":[0.226642222,45.728138333]}},{"type":"Feature","id":"LFBU-64ed51db9b6c41bf7a36","properties":{"airport":"LFBU","name":"LFBU Groundlayout","layer":"Guidance lines","category":"Runways","object_type":"Line","style_id":"line.runwayconcrete.555555","source_group":"LFBU Groundlayout","vsmr_group_ids":[],"geometry_role":"linework"},"geometry":{"type":"LineString","coordinates":[[0.229235,45.728418611],[0.229275,45.728405833],[0.229314722,45.728394444],[0.229352778,45.728381944],[0.229392778,45.728365278],[0.229430833,45.7283425],[0.2294725,45.728314722],[0.229526667,45.728281944],[0.2295775,45.728250278],[0.229635556,45.728209722],[0.229695278,45.728179444],[0.229755278,45.728156667],[0.229820278,45.728143889],[0.229874722,45.728143889],[0.229916389,45.728148889],[0.229974444,45.728159167],[0.230026944,45.728174167],[0.230068611,45.728198333],[0.230103056,45.728219722],[0.230130278,45.728250278],[0.230153333,45.728281111],[0.230182778,45.728331111],[0.230258333,45.728740278],[0.208034722,45.730628333],[0.208001667,45.730640278],[0.207952778,45.730658056],[0.2078975,45.730677778],[0.207858056,45.730698611],[0.207834444,45.7307175],[0.207812222,45.730737222],[0.207786944,45.730764722],[0.207755556,45.730795556],[0.207728611,45.730824167],[0.207684444,45.730857222],[0.207643611,45.730875],[0.207589722,45.7308925],[0.20753,45.730900278],[0.207463611,45.7309025],[0.207406944,45.730896944],[0.207358056,45.730886944],[0.207313889,45.730870556],[0.207269722,45.730843889],[0.207241389,45.730821944],[0.207201944,45.730783333],[0.207171111,45.730809444],[0.20714,45.730855278],[0.207113889,45.730880556],[0.207089722,45.7309],[0.207051944,45.730920278],[0.207018889,45.730931111],[0.206975833,45.730944444],[0.206865278,45.730963889],[0.206827222,45.730968611],[0.2067875,45.7309675],[0.2067425,45.730955278],[0.206697778,45.730944444],[0.206665278,45.7309325],[0.206629722,45.730915278],[0.2066025,45.730896111],[0.206584722,45.730876111],[0.206564167,45.730853333],[0.206545,45.7308275],[0.20653,45.730801667],[0.206515,45.7307675],[0.206441944,45.730363611],[0.218414444,45.729344167]]}},{"type":"Feature","id":"LFBU-fac406a099688c88a888","properties":{"airport":"LFBU","name":"LFBU Groundlayout","layer":"Guidance lines","category":"Grass runways","object_type":"Line","style_id":"line.runwaygrass.008000","source_group":"LFBU Groundlayout","vsmr_group_ids":[],"geometry_role":"linework"},"geometry":{"type":"LineString","coordinates":[[0.209083333,45.729347778],[0.218623333,45.728536111],[0.218745556,45.729238611],[0.2092025,45.730050556],[0.209083333,45.729347778]]}},{"type":"Feature","id":"LFBU-83cc0a05d591ab7a0b5a","properties":{"airport":"LFBU","name":"LFBU Groundlayout","layer":"Guidance lines","category":"Taxiways","object_type":"Line","style_id":"line.taxiway.c0b631","source_group":"LFBU Groundlayout","vsmr_group_ids":[],"geometry_role":"linework"},"geometry":{"type":"MultiLineString","coordinates":[[[0.218420278,45.729343056],[0.218540833,45.729328333],[0.218583333,45.72932],[0.218641389,45.729306111],[0.218690556,45.729291111],[0.218738333,45.729271944],[0.218784722,45.729245],[0.218836389,45.7292125],[0.2188775,45.729172778],[0.218913056,45.729132222],[0.218938333,45.729086667],[0.218955556,45.729046944],[0.218965,45.729003611],[0.218965278,45.728971111],[0.218966389,45.728944444],[0.218960556,45.728892222],[0.218948611,45.728826667],[0.218931944,45.728739444],[0.218915278,45.7286525],[0.218864167,45.728364167],[0.218826389,45.728144444],[0.2188,45.728023889],[0.218784444,45.727930278],[0.218767778,45.727836667],[0.218758611,45.727791389],[0.218734722,45.727738056],[0.218701389,45.727689167]],[[0.219834444,45.729222222],[0.219781667,45.729224444],[0.219701111,45.729218611],[0.219645,45.729209722],[0.219583056,45.729198611],[0.219516111,45.729183056],[0.2194725,45.72917],[0.2194425,45.729155556],[0.219418889,45.729136667],[0.219390833,45.729113889],[0.219365,45.729089722],[0.219333611,45.729060833],[0.219301944,45.72903],[0.2192825,45.729006111],[0.219271111,45.728985278],[0.219261389,45.728960556],[0.219253333,45.728926111],[0.219221944,45.728770278],[0.219202778,45.7286725],[0.219176667,45.728525833],[0.219155,45.728401944],[0.219150278,45.728367778],[0.21912,45.728201667],[0.219118056,45.728170833],[0.219118056,45.728140833],[0.219123056,45.728113611],[0.219136111,45.728070278],[0.219146944,45.728029722],[0.219161944,45.728001944],[0.219182222,45.727967778],[0.219203889,45.727935833],[0.219225556,45.727903611],[0.219255556,45.727875278],[0.219305556,45.727835278],[0.219350278,45.727806944],[0.219401944,45.727781389],[0.219476389,45.727755],[0.219584722,45.727715278],[0.219629444,45.727708611]]]}},{"type":"Feature","id":"LFBU-d841d5b859b0bd5b0163","properties":{"airport":"LFBU","name":"LFBU Groundlayout","layer":"Guidance lines","category":"Apron Surface","object_type":"Line","style_id":"line.apronsurface.808080","source_group":"LFBU Groundlayout","vsmr_group_ids":[],"geometry_role":"linework"},"geometry":{"type":"LineString","coordinates":[[0.219629444,45.727709444],[0.220679167,45.727621111],[0.2205175,45.7266925],[0.218939444,45.726803889],[0.218936944,45.726817222],[0.218858056,45.726821111],[0.218871667,45.726857222],[0.218770833,45.726864722],[0.218773611,45.726900833],[0.218691944,45.726906667],[0.218686389,45.7268725],[0.218599444,45.726876111],[0.218602222,45.726896944],[0.218526111,45.726902778],[0.218520556,45.726883889],[0.218441667,45.726893333],[0.218446944,45.726955833],[0.218161389,45.7269825],[0.218147778,45.726957778],[0.218041667,45.726961667],[0.218026389,45.726936944],[0.217512222,45.726977222],[0.2173625,45.726990278],[0.2173625,45.727021944],[0.217268889,45.72703],[0.217305556,45.727194444],[0.214616667,45.727406667],[0.214587778,45.727241389],[0.214146111,45.727277778],[0.214229722,45.727765556],[0.218054444,45.727441389],[0.218160556,45.727434444],[0.218249444,45.727439444],[0.218323611,45.727456944],[0.218415,45.727482778],[0.218491389,45.727517222],[0.218550833,45.727551667],[0.2186125,45.727593056],[0.218651944,45.727632778],[0.218688889,45.727665278],[0.218703889,45.727691389]]}},{"type":"Feature","id":"LFBU-78d5f827a0b65650364d","properties":{"airport":"LFBU","name":"LFBU Groundlayout","layer":"Guidance lines","category":"Stopbars","object_type":"Line","style_id":"line.stopbar.7e0000","source_group":"LFBU Groundlayout","vsmr_group_ids":[],"geometry_role":"linework"},"geometry":{"type":"LineString","coordinates":[[0.218825278,45.728144444],[0.219119444,45.728121111]]}},{"type":"Feature","id":"LFBU-d54c3042153c2bc0782f","properties":{"airport":"LFBU","name":"LFBU Groundlayout","layer":"Guidance lines","category":"Centerlines","object_type":"Line","style_id":"line.centerlines.ffff00","source_group":"LFBU Groundlayout","vsmr_group_ids":[],"geometry_role":"linework"},"geometry":{"type":"MultiLineString","coordinates":[[[0.216871944,45.727676111],[0.216881111,45.727680556],[0.216889444,45.727684444],[0.216896944,45.727685556],[0.216907778,45.727685],[0.216920556,45.727683889],[0.216928611,45.727681389],[0.216936111,45.727678056],[0.2169425,45.727673611],[0.216947778,45.727669167],[0.216951667,45.727664444],[0.216954722,45.727658333],[0.216956389,45.727651667],[0.216956389,45.727645],[0.216955556,45.727638889],[0.216951667,45.727632778],[0.216947222,45.727627778],[0.216940833,45.727621944],[0.216934444,45.727618056],[0.216928611,45.727616111],[0.216919444,45.727613333],[0.216911389,45.727611667],[0.216901389,45.727611111],[0.216890833,45.727613056],[0.216882222,45.727615833],[0.216875556,45.727618889],[0.216867778,45.727623056],[0.216861944,45.727628611],[0.216858056,45.727632778],[0.216855278,45.727637778],[0.216853611,45.727646111],[0.216854167,45.727653056],[0.216855556,45.727658889],[0.216858611,45.727665278],[0.216862778,45.727669167],[0.216868056,45.727673056],[0.216871944,45.727676111]],[[0.220062778,45.726876944],[0.220275833,45.726860556]],[[0.220095556,45.727065833],[0.2203025,45.727049167]],[[0.220127778,45.727253611],[0.220336944,45.727235833]],[[0.21959,45.727020278],[0.219600833,45.7270225],[0.219611389,45.727023333],[0.219624722,45.7270225],[0.219636944,45.727021111],[0.219648056,45.727017222],[0.219658889,45.7270125],[0.219667222,45.727007222],[0.219674722,45.727001389],[0.219681667,45.726994722],[0.219685833,45.726987222],[0.219689167,45.726978611],[0.219688611,45.726969167],[0.219685833,45.726959722],[0.219683333,45.726951944],[0.219678056,45.726945],[0.219671944,45.726939444],[0.219663611,45.726932778],[0.219654444,45.726928333],[0.219645,45.726925278],[0.219635833,45.726923333],[0.219625833,45.726921944],[0.219611944,45.726920278],[0.219600278,45.726920278],[0.219588611,45.726923333],[0.219578889,45.726926667],[0.219568333,45.726931667],[0.219558611,45.726937778],[0.219551389,45.726944444],[0.219546944,45.726950833],[0.219543333,45.726960278],[0.219541667,45.7269675],[0.219541111,45.726976389],[0.219545556,45.726986111],[0.219548056,45.726994722],[0.219553333,45.727000556],[0.219559722,45.727006111],[0.219566111,45.72701],[0.219574167,45.727013333],[0.21959,45.727020278]],[[0.2196175,45.727189167],[0.219625556,45.727191111],[0.219637778,45.727192222],[0.219648333,45.727191944],[0.219659167,45.727190833],[0.21967,45.727188889],[0.219680556,45.727185278],[0.219687778,45.727182222],[0.219695278,45.727177222],[0.219701389,45.7271725],[0.219706944,45.727166944],[0.219711389,45.727159444],[0.219714444,45.727151944],[0.219715833,45.727145278],[0.219715833,45.727137778],[0.219715,45.727130556],[0.219710833,45.727122778],[0.219705833,45.727115833],[0.219700833,45.727111389],[0.219694444,45.727105833],[0.219686944,45.727101111],[0.219679167,45.727097222],[0.21967,45.727094167],[0.219661111,45.727091667],[0.219650278,45.727090278],[0.219638333,45.727090278],[0.219628333,45.727090833],[0.219614167,45.727093889],[0.2196025,45.727099167],[0.2195925,45.727103333],[0.219584167,45.727109167],[0.219578889,45.727115278],[0.219572778,45.727123889],[0.219569722,45.727131944],[0.219568333,45.727141389],[0.219570278,45.727150278],[0.219573611,45.727158611],[0.2195775,45.727165278],[0.219584167,45.727171389],[0.2195925,45.7271775],[0.219599722,45.727182222],[0.219608611,45.727185556],[0.2196175,45.727189167]],[[0.219644444,45.727358333],[0.219656944,45.727360833],[0.219670833,45.727362222],[0.219684444,45.727361389],[0.219696944,45.727358889],[0.219709444,45.727355],[0.219720278,45.72735],[0.219727222,45.727344444],[0.219733611,45.727338889],[0.219738889,45.7273325],[0.219743056,45.727326111],[0.219745,45.727318611],[0.219746667,45.727309444],[0.219745278,45.727301667],[0.219741944,45.727293056],[0.219736389,45.727285278],[0.219730278,45.727278056],[0.219719722,45.727271389],[0.219711111,45.727267222],[0.219698056,45.727262778],[0.219685556,45.727260833],[0.219672778,45.727260278],[0.219659722,45.727260833],[0.219645,45.727264167],[0.219633611,45.727267778],[0.219623056,45.727273333],[0.219614444,45.727279444],[0.219608611,45.727285556],[0.219604444,45.727292222],[0.219601111,45.7273],[0.219598889,45.727309444],[0.219598889,45.727318056],[0.219601944,45.727326944],[0.219605556,45.727333889],[0.219611111,45.727339722],[0.219618611,45.727346111],[0.219625833,45.727351111],[0.219632778,45.727354444],[0.219644444,45.727358333]],[[0.218986944,45.727198611],[0.219129444,45.727073056]],[[0.218425833,45.727255833],[0.218606944,45.7271125]],[[0.218750556,45.727105556],[0.219061111,45.727283056]],[[0.218081389,45.727336667],[0.2180625,45.727232778]],[[0.217881944,45.7273525],[0.217862222,45.727230556]],[[0.217665556,45.727254444],[0.217685833,45.727376667]],[[0.217489444,45.727395],[0.217467778,45.727266111]],[[0.217243333,45.727641111],[0.217251667,45.727646667],[0.217261944,45.727649167],[0.217271667,45.727651389],[0.217281667,45.727652222],[0.217292778,45.727651944],[0.217301389,45.727650833],[0.21731,45.727648056],[0.217317222,45.727644444],[0.217323611,45.727640278],[0.217328333,45.727635556],[0.217332222,45.727630556],[0.217334444,45.727625],[0.217335,45.727619444],[0.217335833,45.727613056],[0.217334722,45.727607222],[0.2173325,45.7276025],[0.21733,45.727596944],[0.217326944,45.727593333],[0.217321667,45.727589444],[0.217318333,45.727586389],[0.217313056,45.727583056],[0.217305278,45.727580556],[0.217296667,45.727577778],[0.2172875,45.727576667],[0.217278333,45.727576667],[0.217268611,45.727578333],[0.217258333,45.72758],[0.217248889,45.727583333],[0.217242778,45.727588333],[0.217236111,45.727595],[0.217231389,45.727601389],[0.217228056,45.727607222],[0.217226944,45.727614167],[0.217226944,45.727621667],[0.217230278,45.727627222],[0.217234444,45.727632778],[0.217239167,45.727637222],[0.217243333,45.727641111]],[[0.215874444,45.727464722],[0.215926111,45.727460833]],[[0.215899444,45.7274625],[0.2158925,45.72742]],[[0.216072778,45.727448333],[0.216123056,45.727444722]],[[0.216097222,45.727446389],[0.216090833,45.727403056]],[[0.216269167,45.727431111],[0.216316667,45.727427778]],[[0.216293333,45.727428889],[0.216286944,45.727385556]],[[0.216466667,45.727413333],[0.216515,45.72741]],[[0.216491111,45.727410833],[0.216484167,45.727368611]]]}},{"type":"Feature","id":"LFBU-a70b1cd8bbb7832604b7","properties":{"airport":"LFBU","name":"LFBU Groundlayout","layer":"Guidance lines","category":"Labels","object_type":"Line","style_id":"line.labels.808080","source_group":"LFBU Groundlayout","vsmr_group_ids":[],"geometry_role":"linework"},"geometry":{"type":"MultiLineString","coordinates":[[[0.229395278,45.728686667],[0.229483889,45.728680278],[0.229498611,45.728665],[0.229520556,45.728677222],[0.229629444,45.728668056],[0.229620556,45.728611389],[0.229509722,45.728619167],[0.229493333,45.728635],[0.229471944,45.728623056],[0.229385556,45.728630556],[0.229395278,45.728686667]],[[0.207286389,45.7305425],[0.207287222,45.730548333],[0.207315278,45.730545278],[0.207327778,45.730539722],[0.207325,45.730523056],[0.207093056,45.7305425],[0.207094722,45.730559167],[0.207286389,45.7305425]],[[0.207125833,45.730485],[0.207272778,45.7304725],[0.207270278,45.73045],[0.207121667,45.730463333],[0.207125833,45.730485]],[[0.207087222,45.730506944],[0.207319167,45.730485556],[0.20731,45.730429444],[0.207075278,45.730449444],[0.207087222,45.730506944]],[[0.229380833,45.7285925],[0.229463889,45.728585278],[0.229542778,45.72854],[0.229564167,45.728538333],[0.229570278,45.728576667],[0.229613333,45.728573056],[0.229603056,45.728516111],[0.229534444,45.728520833],[0.229450833,45.728568056],[0.229420556,45.728570278],[0.2294175,45.728550278],[0.229435556,45.728549444],[0.229434167,45.72853],[0.229368611,45.728535833],[0.229380833,45.7285925]],[[0.2294375,45.728666111],[0.229476389,45.728663333],[0.229473333,45.7286425],[0.229432222,45.728644722],[0.2294375,45.728666111]],[[0.229519722,45.728659444],[0.229584444,45.728654722],[0.229581389,45.728633333],[0.229515833,45.728637778],[0.229519722,45.728659444]]]}}]}
