{"type":"FeatureCollection","name":"LFBX AVISO","bbox":[0.808305556,45.193055556,0.8255,45.200944444],"metadata":{"schema":"vSMR AVISO","schema_version":2,"geometry_mode":"shared","airport":"LFBX","coordinate_reference_system":"WGS84","coordinate_order":"longitude, latitude","default_color_palette":"dark","color_palettes":["dark","light"],"background_colors":{"dark":"#434A4F","light":"#434A4F"},"runways":[{"ends":["11L","29R"],"headings":[113,293],"thresholds":[[0.812646944,45.198824722],[0.817135833,45.197432778]]},{"ends":["11","29"],"headings":[113,293],"thresholds":[[0.809257778,45.199332778],[0.824652778,45.194568889]]}],"saved_active_runways":[],"saved_active_airport_modes":[],"airport_reference":[0.815277778,45.197499722],"feature_count":2,"style_count":2,"layer_counts":{"Guidance lines":2},"category_counts":{"Grass runways":1,"Runways":1},"geometry_source":"local GNG","geometry_source_url":"","geometry_license":"GPL-3.0"},"styles":{"line.runwayconcrete.555555":{"name":"Runways","layer":"Guidance lines","object_type":"Line","paint":{"stroke":"#111318","stroke-opacity":1,"stroke-width":1,"palette-overrides":{"light":{"stroke":"#555555"}}},"feature_count":1},"line.runwaygrass.008000":{"name":"Grass runways","layer":"Guidance lines","object_type":"Line","paint":{"stroke":"#859A77","stroke-opacity":1,"stroke-width":1,"palette-overrides":{"light":{"stroke":"#008000"}}},"feature_count":1}},"vsmr_groups":[],"features":[{"type":"Feature","id":"LFBX-795357b02d211d7f2950","properties":{"airport":"LFBX","name":"LFBX Groundlayout","layer":"Guidance lines","category":"Runways","object_type":"Line","style_id":"line.runwayconcrete.555555","source_group":"LFBX Groundlayout","vsmr_group_ids":[],"geometry_role":"linework"},"geometry":{"type":"MultiLineString","coordinates":[[[0.811805556,45.197472222],[0.816305556,45.196055556]],[[0.813583333,45.200527778],[0.811805556,45.197472222]],[[0.818083333,45.199138889],[0.816305556,45.196055556]]]}},{"type":"Feature","id":"LFBX-a900e174b241f3c79be9","properties":{"airport":"LFBX","name":"LFBX Groundlayout","layer":"Guidance lines","category":"Grass runways","object_type":"Line","style_id":"line.runwaygrass.008000","source_group":"LFBX Groundlayout","vsmr_group_ids":[],"geometry_role":"linework"},"geometry":{"type":"MultiLineString","coordinates":[[[0.810083333,45.200944444],[0.8255,45.196138889]],[[0.808305556,45.197861111],[0.823722222,45.193055556]],[[0.810083333,45.200944444],[0.808305556,45.197861111]],[[0.8255,45.196138889],[0.823722222,45.193055556]]]}}]}
