{"type":"FeatureCollection","name":"LFBY AVISO","bbox":[-1.072083333,43.687,-1.064805556,43.691416667],"metadata":{"schema":"vSMR AVISO","schema_version":2,"geometry_mode":"shared","airport":"LFBY","coordinate_reference_system":"WGS84","coordinate_order":"longitude, latitude","default_color_palette":"dark","color_palettes":["dark","light"],"background_colors":{"dark":"#434A4F","light":"#434A4F"},"runways":[{"ends":["07","25"],"headings":[73,253],"thresholds":[[-1.071525,43.688591944],[-1.066668889,43.689577778]]}],"saved_active_runways":[],"saved_active_airport_modes":[],"airport_reference":[-1.068888889,43.689166944],"feature_count":1,"style_count":1,"layer_counts":{"Guidance lines":1},"category_counts":{"Runways":1},"geometry_source":"local GNG","geometry_source_url":"","geometry_license":"GPL-3.0"},"styles":{"line.runwayconcrete.555555":{"name":"Runways","layer":"Guidance lines","object_type":"Line","paint":{"stroke":"#111318","stroke-opacity":1,"stroke-width":1,"palette-overrides":{"light":{"stroke":"#555555"}}},"feature_count":1}},"vsmr_groups":[],"features":[{"type":"Feature","id":"LFBY-c946d1c779d68c12c87a","properties":{"airport":"LFBY","name":"LFBY Groundlayout","layer":"Guidance lines","category":"Runways","object_type":"Line","style_id":"line.runwayconcrete.555555","source_group":"LFBY Groundlayout","vsmr_group_ids":[],"geometry_role":"linework"},"geometry":{"type":"MultiLineString","coordinates":[[[-1.070916667,43.687],[-1.064805556,43.688194444]],[[-1.072083333,43.690222222],[-1.070916667,43.687]],[[-1.066,43.691416667],[-1.064805556,43.688194444]]]}}]}
