{"type":"FeatureCollection","name":"LFBZ AVISO","bbox":[-1.539478056,43.464485556,-1.506755,43.473765833],"metadata":{"schema":"vSMR AVISO","schema_version":2,"geometry_mode":"shared","airport":"LFBZ","coordinate_reference_system":"WGS84","coordinate_order":"longitude, latitude","default_color_palette":"dark","color_palettes":["dark","light"],"background_colors":{"dark":"#434A4F","light":"#434A4F"},"runways":[{"ends":["09","27"],"headings":[88,268],"thresholds":[[-1.534702778,43.468271944],[-1.509421944,43.468535833]]}],"saved_active_runways":[],"saved_active_airport_modes":[],"airport_reference":[-1.531110833,43.468332778],"feature_count":97,"style_count":10,"layer_counts":{"Airfield surfaces":21,"Buildings and structures":17,"Guidance lines":1,"Labels":52,"Surface markings":5,"Terrain":1},"category_counts":{"Buildings":17,"Gates":40,"Grass":1,"Hard Surface 2":3,"Hard Surface 3":7,"Runways":2,"Stopbars":5,"Taxiway Orange":9,"Taxiways":13},"geometry_source":"local GNG","geometry_source_url":"","geometry_license":"GPL-3.0"},"styles":{"polygon.grassurface.00512f":{"name":"Grass","layer":"Terrain","object_type":"Area","paint":{"fill":"#010D19","fill-opacity":1,"palette-overrides":{"light":{"fill":"#00512F"}}},"feature_count":1},"polygon.hardsurface2.595e5b":{"name":"Hard Surface 2","layer":"Airfield surfaces","object_type":"Area","paint":{"fill":"#2F3949","fill-opacity":1,"palette-overrides":{"light":{"fill":"#595E5B"}}},"feature_count":3},"polygon.runwayconcrete.555555":{"name":"Runways","layer":"Airfield surfaces","object_type":"Area","paint":{"fill":"#111318","fill-opacity":1,"palette-overrides":{"light":{"fill":"#555555"}}},"feature_count":2},"polygon.hardsurface3.8a807f":{"name":"Hard Surface 3","layer":"Airfield surfaces","object_type":"Area","paint":{"fill":"#222D3C","fill-opacity":1,"palette-overrides":{"light":{"fill":"#8A807F"}}},"feature_count":7},"polygon.building.394446":{"name":"Buildings","layer":"Buildings and structures","object_type":"Area","paint":{"fill":"#475570","fill-opacity":1,"palette-overrides":{"light":{"fill":"#394446"}}},"feature_count":17},"polygon.stopbar.7e0000":{"name":"Stopbars","layer":"Surface markings","object_type":"Area","paint":{"fill":"#7E0000","fill-opacity":1,"palette-overrides":{"light":{"fill":"#7E0000"}}},"feature_count":5},"polygon.taxiwayorange.cc6d00":{"name":"Taxiway Orange","layer":"Airfield surfaces","object_type":"Area","paint":{"fill":"#CC8B00","fill-opacity":1,"palette-overrides":{"light":{"fill":"#CC6D00"}}},"feature_count":9},"line.taxiway.c0b631":{"name":"Taxiways","layer":"Guidance lines","object_type":"Line","paint":{"stroke":"#4E5A69","stroke-opacity":1,"stroke-width":1,"palette-overrides":{"light":{"stroke":"#C0B631"}}},"feature_count":1},"label.gates":{"name":"Gates","layer":"Labels","object_type":"Label","paint":{"text-color":"#CCCCCC","text-font":"Arial","text-size":12,"text-halo-color":"#000000","text-halo-width":1,"text-anchor":"center","zoomLevel":9},"feature_count":40},"label.taxiways":{"name":"Taxiways","layer":"Labels","object_type":"Label","paint":{"text-color":"#CCCCCC","text-font":"Arial","text-size":12,"text-halo-color":"#000000","text-halo-width":1,"text-anchor":"center","zoomLevel":7},"feature_count":12}},"vsmr_groups":[],"features":[{"type":"Feature","id":"LFBZ-09f48874af51834cbc4c","properties":{"airport":"LFBZ","name":"LFBZ AVISO","layer":"Terrain","category":"Grass","object_type":"Area","style_id":"polygon.grassurface.00512f","source_group":"LFBZ AVISO","vsmr_group_ids":[],"geometry_role":"filled_region"},"geometry":{"type":"Polygon","coordinates":[[[-1.5393775,43.467413611],[-1.539325,43.467347222],[-1.539281944,43.467295556],[-1.539233611,43.467260278],[-1.539154167,43.467331944],[-1.539036111,43.467269167],[-1.539106389,43.467192778],[-1.538950278,43.467136944],[-1.538473611,43.467026111],[-1.538393333,43.467008611],[-1.538328056,43.466986944],[-1.538277778,43.466960556],[-1.537318333,43.466398889],[-1.537050556,43.466377222],[-1.5367025,43.466204167],[-1.536693333,43.466046389],[-1.535995556,43.465679722],[-1.535470278,43.465445],[-1.535346667,43.465525556],[-1.532913889,43.465535833],[-1.532893333,43.465009722],[-1.532909167,43.464959167],[-1.532923056,43.464936667],[-1.532935556,43.464921667],[-1.532950556,43.464915],[-1.532981389,43.464903333],[-1.533001944,43.4649],[-1.533035278,43.464886667],[-1.533061389,43.464861944],[-1.533071667,43.464832778],[-1.533091111,43.464768889],[-1.533114167,43.464733056],[-1.533151944,43.464711389],[-1.533202222,43.464697222],[-1.533191944,43.464527778],[-1.533041667,43.464497222],[-1.532856111,43.464485556],[-1.531995556,43.464563611],[-1.531570833,43.464593611],[-1.531138333,43.464645278],[-1.530885556,43.464688056],[-1.530633889,43.46477],[-1.530232222,43.464903611],[-1.530022778,43.464970556],[-1.529874722,43.465001944],[-1.5296775,43.465021667],[-1.529509167,43.465019167],[-1.527747222,43.46496],[-1.527625833,43.464953333],[-1.527541111,43.464946389],[-1.527463611,43.4649325],[-1.527240278,43.465233611],[-1.525786111,43.465250833],[-1.525541389,43.466353056],[-1.525430556,43.466356944],[-1.525418333,43.466380833],[-1.525404444,43.466396944],[-1.525383056,43.466415],[-1.5253475,43.466439444],[-1.52493,43.466334167],[-1.524461389,43.466555833],[-1.523450278,43.466539722],[-1.523340278,43.466543611],[-1.523271667,43.466553056],[-1.523218611,43.466568611],[-1.5231825,43.466593611],[-1.523153333,43.466628333],[-1.5228675,43.467001944],[-1.5223675,43.466983333],[-1.521963889,43.466968889],[-1.521557778,43.466953333],[-1.521169722,43.466966111],[-1.521078333,43.466975556],[-1.521008333,43.466986111],[-1.520958333,43.467003611],[-1.520766111,43.467080556],[-1.52067,43.467106667],[-1.520546111,43.467126389],[-1.52037,43.4671325],[-1.519520833,43.467108889],[-1.518908889,43.467112222],[-1.518784444,43.467108889],[-1.518693611,43.467100556],[-1.518609167,43.467078889],[-1.518529167,43.467038611],[-1.518383611,43.466947222],[-1.51832,43.466907222],[-1.518243889,43.466881389],[-1.518142222,43.466869722],[-1.51805,43.466874167],[-1.517754444,43.466919167],[-1.517465556,43.466975278],[-1.516982222,43.467061944],[-1.516319722,43.467212222],[-1.516245833,43.467214167],[-1.5161475,43.467237222],[-1.516031389,43.467251667],[-1.5158175,43.467273889],[-1.515561389,43.4672875],[-1.515325278,43.467303611],[-1.514962222,43.467315],[-1.514836111,43.467317222],[-1.514696944,43.467311111],[-1.514606389,43.467303611],[-1.514560278,43.467295278],[-1.514529444,43.467280833],[-1.514510833,43.467266389],[-1.514498611,43.467248056],[-1.514476111,43.467178333],[-1.514396111,43.467174167],[-1.514390833,43.467134722],[-1.514183889,43.467036389],[-1.5138725,43.466976111],[-1.512685,43.466786111],[-1.512654722,43.466786944],[-1.509743889,43.466312778],[-1.509243056,43.466418889],[-1.509225833,43.466435],[-1.509155833,43.466451944],[-1.509131667,43.466443889],[-1.508750833,43.466526944],[-1.508225,43.46668],[-1.507368611,43.467039444],[-1.507633889,43.467193056],[-1.507946111,43.467430556],[-1.507540278,43.467691667],[-1.507346667,43.467829722],[-1.507208889,43.467969444],[-1.507116667,43.468087778],[-1.506999722,43.468289722],[-1.506880833,43.468503056],[-1.506805556,43.468660833],[-1.506755,43.468806389],[-1.506782222,43.468847778],[-1.506810833,43.468886389],[-1.506847222,43.468918611],[-1.506895,43.468936944],[-1.507207222,43.469047778],[-1.508515278,43.469599167],[-1.508086111,43.469975278],[-1.508421111,43.470197778],[-1.508666389,43.470503333],[-1.509540833,43.469987222],[-1.510253611,43.469953333],[-1.510362778,43.4700675],[-1.510863889,43.470051667],[-1.512425278,43.470053611],[-1.512448056,43.469952778],[-1.512552778,43.469973333],[-1.513376944,43.470033889],[-1.513522778,43.470038056],[-1.514264444,43.469988056],[-1.515565556,43.469875556],[-1.520496389,43.469828889],[-1.520463056,43.469986111],[-1.520441944,43.470110833],[-1.520410833,43.470234444],[-1.520363611,43.470368611],[-1.521441667,43.470393611],[-1.521376667,43.470609444],[-1.522260833,43.470805],[-1.523828056,43.4706925],[-1.523827778,43.470628333],[-1.524161111,43.470597222],[-1.524690556,43.470639722],[-1.524866944,43.470751389],[-1.5256725,43.470598333],[-1.525961944,43.470568333],[-1.526127222,43.470540556],[-1.526247222,43.470543056],[-1.526343056,43.470559722],[-1.526405556,43.470586111],[-1.526471667,43.470634167],[-1.526503056,43.470671944],[-1.526521389,43.470757778],[-1.526556944,43.471037222],[-1.526650556,43.471272778],[-1.526754722,43.471476944],[-1.526805278,43.471620278],[-1.526814722,43.471740833],[-1.526852778,43.472095833],[-1.526880833,43.472187778],[-1.526928889,43.472233611],[-1.526976944,43.472253889],[-1.527063333,43.472270556],[-1.527196667,43.472293889],[-1.527244167,43.472300833],[-1.527276667,43.472313056],[-1.527263333,43.472353333],[-1.527166111,43.472469444],[-1.527156667,43.472501111],[-1.527168056,43.472519167],[-1.527248056,43.472544167],[-1.527284444,43.472559167],[-1.527288056,43.472585556],[-1.527259444,43.472626944],[-1.5270825,43.4728675],[-1.528111944,43.473089722],[-1.527850833,43.473389722],[-1.527890833,43.473422778],[-1.528005278,43.473490556],[-1.528348056,43.473626667],[-1.528513889,43.473699444],[-1.528671667,43.4737325],[-1.528819167,43.473754722],[-1.528964167,43.473763056],[-1.529087778,43.473765833],[-1.529166667,43.473765833],[-1.529248056,43.4737475],[-1.529298889,43.473723333],[-1.529371389,43.473684722],[-1.529445278,43.473654167],[-1.529536944,43.473635556],[-1.5296475,43.473628333],[-1.529873333,43.473631389],[-1.529915278,43.473629444],[-1.529945833,43.473625833],[-1.529972778,43.473611944],[-1.529993056,43.473597222],[-1.530001944,43.473576944],[-1.53003,43.473515],[-1.530175556,43.473138889],[-1.530266944,43.4730125],[-1.530283333,43.472995],[-1.5303,43.472985833],[-1.530318889,43.472982222],[-1.530335556,43.472983889],[-1.530361111,43.472989722],[-1.5308675,43.473082778],[-1.530954167,43.473103056],[-1.531026111,43.473130556],[-1.531086111,43.473161389],[-1.531130278,43.473203056],[-1.531169722,43.473246667],[-1.531221111,43.473290278],[-1.531259167,43.473309444],[-1.531309167,43.473326389],[-1.531356111,43.473330833],[-1.531458056,43.473332778],[-1.531532778,43.473331667],[-1.53159,43.473335833],[-1.531644167,43.473346389],[-1.531719167,43.473378333],[-1.531783611,43.473411389],[-1.531889167,43.473497778],[-1.532027778,43.473632222],[-1.532085,43.473695],[-1.532142222,43.473723611],[-1.532205278,43.473736389],[-1.532274167,43.473739722],[-1.532451667,43.473734444],[-1.532509444,43.473726111],[-1.532569167,43.473700556],[-1.53262,43.47367],[-1.532648889,43.473613611],[-1.532809167,43.473221944],[-1.532835833,43.473173611],[-1.532868889,43.473136667],[-1.532919722,43.473123889],[-1.5329575,43.4731175],[-1.533019444,43.473125556],[-1.533358056,43.473197778],[-1.533461944,43.473204167],[-1.533570556,43.473186111],[-1.533664722,43.473137778],[-1.533718889,43.473075833],[-1.533788611,43.472942778],[-1.533806111,43.472799444],[-1.533784722,43.472635556],[-1.533684444,43.472349444],[-1.533446944,43.472311944],[-1.533453611,43.472073611],[-1.533624444,43.471564167],[-1.535191667,43.471574722],[-1.535533611,43.471660833],[-1.535567222,43.47166],[-1.5355925,43.471655833],[-1.535625833,43.471638056],[-1.535661667,43.471579722],[-1.535690278,43.471497778],[-1.535784722,43.471335833],[-1.535849167,43.471231389],[-1.535923056,43.471159444],[-1.536058889,43.471069167],[-1.5363125,43.470954722],[-1.536576667,43.470831389],[-1.536738056,43.470749444],[-1.536852778,43.470665278],[-1.539359167,43.468138889],[-1.539478056,43.467929444],[-1.539474444,43.467767222],[-1.5393775,43.467413611]]]}},{"type":"Feature","id":"LFBZ-085dba42105405ec626a","properties":{"airport":"LFBZ","name":"LFBZ AVISO","layer":"Airfield surfaces","category":"Hard Surface 2","object_type":"Area","style_id":"polygon.hardsurface2.595e5b","source_group":"LFBZ AVISO","vsmr_group_ids":[],"geometry_role":"filled_region"},"geometry":{"type":"Polygon","coordinates":[[[-1.531590278,43.469202222],[-1.53169,43.4693525],[-1.531726944,43.469411667],[-1.531740556,43.469460556],[-1.531741944,43.469506667],[-1.531738333,43.469543611],[-1.531726111,43.469581667],[-1.531706111,43.469622778],[-1.531680556,43.469655833],[-1.531647778,43.469688056],[-1.531603611,43.4697225],[-1.531564444,43.469743056],[-1.531518611,43.469761944],[-1.531473611,43.469775278],[-1.531425278,43.469786111],[-1.531379167,43.469791944],[-1.531336667,43.469795278],[-1.528375833,43.469826389],[-1.523280833,43.469878333],[-1.523069722,43.469876111],[-1.52288,43.46987],[-1.522759444,43.469863333],[-1.522620556,43.469851944],[-1.522497222,43.469836667],[-1.522355556,43.469810278],[-1.522248889,43.46978],[-1.522189167,43.469754722],[-1.522138889,43.469724167],[-1.522097778,43.469690556],[-1.522063333,43.469651111],[-1.5220275,43.469600278],[-1.522005556,43.46956],[-1.521984722,43.469511111],[-1.521960833,43.469440556],[-1.521938333,43.469359444],[-1.521925278,43.4692925],[-1.521915,43.469223611],[-1.521585,43.469226667],[-1.521603056,43.469364722],[-1.521612222,43.469508333],[-1.521628333,43.469588333],[-1.521643333,43.469634167],[-1.52167,43.469686944],[-1.521708889,43.469744722],[-1.521758889,43.469803889],[-1.521821111,43.469861944],[-1.521889167,43.4699175],[-1.521951667,43.469956667],[-1.522021944,43.469993611],[-1.522094722,43.470023056],[-1.522171111,43.470048889],[-1.522275833,43.4700725],[-1.522366111,43.470086111],[-1.522454444,43.470093056],[-1.522540278,43.470094722],[-1.522710833,43.4700925],[-1.527870278,43.470038889],[-1.527961111,43.470038056],[-1.528004722,43.470040278],[-1.528029167,43.470042222],[-1.528056667,43.470048056],[-1.528072778,43.470054167],[-1.528080556,43.470058611],[-1.528088056,43.470064167],[-1.528093611,43.470069167],[-1.528098611,43.470074167],[-1.528101667,43.470079722],[-1.528106111,43.470088611],[-1.528109722,43.470098333],[-1.528112222,43.470113333],[-1.528115,43.470260278],[-1.528326667,43.470283056],[-1.5284275,43.470196667],[-1.528521944,43.470253889],[-1.528575,43.470290833],[-1.528623333,43.470328889],[-1.528659722,43.470365833],[-1.528685833,43.470400833],[-1.528713333,43.470449444],[-1.528730833,43.470501389],[-1.528739444,43.470548333],[-1.528741111,43.470595278],[-1.528741667,43.470643611],[-1.528742778,43.470866667],[-1.529788056,43.470854722],[-1.529778333,43.470448889],[-1.529610833,43.470451389],[-1.5295775,43.470450833],[-1.529560556,43.470450833],[-1.529541111,43.470448889],[-1.529512222,43.470445278],[-1.529371944,43.470425833],[-1.529320556,43.470416667],[-1.529286389,43.470407778],[-1.529251111,43.470397222],[-1.529225833,43.470387222],[-1.529197778,43.4703725],[-1.529168333,43.470354167],[-1.529145278,43.470335],[-1.529127778,43.470315278],[-1.529113611,43.470294444],[-1.529103889,43.470273056],[-1.529098611,43.470252778],[-1.529098611,43.470234167],[-1.529101389,43.470215278],[-1.529107222,43.470192778],[-1.529121667,43.470167778],[-1.529139167,43.470145],[-1.5291575,43.470126111],[-1.529186667,43.470105278],[-1.529218611,43.470087222],[-1.529256389,43.4700725],[-1.529325833,43.470051667],[-1.529414167,43.470033333],[-1.529478611,43.470022778],[-1.529518611,43.470019444],[-1.529583333,43.470018611],[-1.531076667,43.470001667],[-1.531150278,43.470001667],[-1.531218889,43.470005278],[-1.531306944,43.470015833],[-1.531385556,43.470028611],[-1.531419444,43.470036111],[-1.531461944,43.470046944],[-1.531495833,43.470058889],[-1.531528889,43.470071111],[-1.531555833,43.470085278],[-1.531580556,43.470102778],[-1.531593611,43.470116389],[-1.531600833,43.470128333],[-1.531608611,43.470142222],[-1.531613056,43.470155],[-1.5316125,43.47017],[-1.531607222,43.470188056],[-1.531598056,43.470208611],[-1.531584444,43.470229722],[-1.531565556,43.470251667],[-1.531535556,43.470277778],[-1.531503333,43.470302222],[-1.531470833,43.470323611],[-1.531427778,43.470346667],[-1.531369167,43.470374167],[-1.531305833,43.470395556],[-1.531235278,43.470412222],[-1.531172222,43.470424167],[-1.531119722,43.470432778],[-1.531074167,43.470436944],[-1.531023056,43.4704375],[-1.529778333,43.470448889],[-1.529788333,43.470854722],[-1.531012778,43.470841944],[-1.531140278,43.47084],[-1.531235278,43.470834444],[-1.53131,43.470825833],[-1.531390833,43.470813333],[-1.531489167,43.470792778],[-1.531586667,43.470767778],[-1.531685278,43.470736111],[-1.531773611,43.4707],[-1.531855,43.4706625],[-1.531948889,43.470611667],[-1.532033611,43.470556389],[-1.532101944,43.470506944],[-1.5321625,43.470455],[-1.53222,43.470398889],[-1.532682778,43.470393333],[-1.532620556,43.470141389],[-1.532616667,43.470123056],[-1.532615833,43.470115556],[-1.532616667,43.470110833],[-1.532618611,43.470107222],[-1.532623333,43.4701025],[-1.532631944,43.470096667],[-1.532638611,43.470095],[-1.532644444,43.470093333],[-1.532653056,43.4700925],[-1.532651944,43.469988889],[-1.532725,43.469988056],[-1.533536389,43.469978611],[-1.533618889,43.4699775],[-1.533690556,43.469975278],[-1.5337625,43.4699725],[-1.533863056,43.469967778],[-1.533952778,43.469964722],[-1.534061944,43.469963611],[-1.535551944,43.469946389],[-1.535618056,43.470031389],[-1.535630278,43.470613056],[-1.5358275,43.470611667],[-1.535824167,43.470466111],[-1.535811944,43.470103056],[-1.535842778,43.470126944],[-1.535945556,43.470061389],[-1.535268333,43.469494167],[-1.535212222,43.469529167],[-1.535367222,43.469664444],[-1.535400278,43.469693333],[-1.535410833,43.469707778],[-1.535416389,43.469722222],[-1.535417778,43.469735],[-1.535415556,43.469749444],[-1.535411389,43.46976],[-1.535405556,43.469769722],[-1.535394167,43.469781389],[-1.532867778,43.469809444],[-1.532741944,43.469806111],[-1.532628056,43.469794167],[-1.532534167,43.469779444],[-1.532437778,43.469761111],[-1.532375,43.469743611],[-1.532336944,43.469728333],[-1.532306944,43.469714167],[-1.532275278,43.469697778],[-1.532246667,43.469677778],[-1.532222222,43.469656389],[-1.532193333,43.469625],[-1.531855278,43.469110833],[-1.531590278,43.469202222]]]}},{"type":"Feature","id":"LFBZ-65dc17d88019b05bec1f","properties":{"airport":"LFBZ","name":"LFBZ AVISO","layer":"Airfield surfaces","category":"Hard Surface 2","object_type":"Area","style_id":"polygon.hardsurface2.595e5b","source_group":"LFBZ AVISO","vsmr_group_ids":[],"geometry_role":"filled_region"},"geometry":{"type":"Polygon","coordinates":[[[-1.5314875,43.466847778],[-1.531486667,43.466824444],[-1.531488333,43.466806389],[-1.531495,43.466783889],[-1.531505,43.466763056],[-1.5315225,43.466741111],[-1.531545556,43.466717778],[-1.531569444,43.466698889],[-1.531594444,43.466682778],[-1.531616389,43.466673056],[-1.531635278,43.466667222],[-1.531651389,43.466663611],[-1.531675,43.466660833],[-1.531713056,43.466659167],[-1.532657222,43.466648333],[-1.532740556,43.466646389],[-1.532777778,43.466644722],[-1.532814722,43.466641944],[-1.532843056,43.466638889],[-1.532870833,43.466634722],[-1.532900278,43.466629167],[-1.532930833,43.466621944],[-1.5329575,43.466613889],[-1.532981667,43.466605],[-1.533003889,43.466595833],[-1.533021944,43.466586667],[-1.533041111,43.466575],[-1.533059722,43.466561944],[-1.533077222,43.466546111],[-1.533087778,43.466535],[-1.533100833,43.466518889],[-1.533110278,43.466501944],[-1.533116667,43.4664875],[-1.533123611,43.46647],[-1.533133056,43.466444444],[-1.533139167,43.46642],[-1.533056944,43.466418889],[-1.533051389,43.466445556],[-1.533049167,43.466458611],[-1.533043333,43.466475278],[-1.533038889,43.466484444],[-1.533033611,43.4664925],[-1.533026111,43.466502778],[-1.533019444,43.466510833],[-1.533012222,43.466518056],[-1.533005,43.466524444],[-1.532995833,43.466531944],[-1.532986667,43.466538056],[-1.532975556,43.466544444],[-1.532965278,43.466549444],[-1.532951389,43.466555],[-1.532935833,43.466561111],[-1.532919444,43.466566389],[-1.532898611,43.466571944],[-1.532873333,43.466577778],[-1.532838611,43.466584167],[-1.532809444,43.4665875],[-1.532780556,43.46659],[-1.532755278,43.466591667],[-1.532725278,43.4665925],[-1.532655833,43.466594167],[-1.531490278,43.4666075],[-1.531489167,43.466414167],[-1.531349722,43.466414722],[-1.531354444,43.466608889],[-1.524685833,43.4666775],[-1.524106944,43.466685278],[-1.524029722,43.466686667],[-1.523975833,43.466690833],[-1.523927778,43.466696944],[-1.523876389,43.466705833],[-1.523821111,43.466718889],[-1.523774167,43.4667325],[-1.523728611,43.4667475],[-1.523678056,43.466767778],[-1.523620833,43.466791667],[-1.523406944,43.466884722],[-1.521936667,43.467519167],[-1.521883056,43.467541111],[-1.521924167,43.467587778],[-1.521955833,43.467572778],[-1.523641111,43.466843611],[-1.523718056,43.466810556],[-1.5237625,43.466793889],[-1.523809444,43.466778056],[-1.523855556,43.466765556],[-1.523903611,43.466755278],[-1.523953333,43.466747222],[-1.524002778,43.466743056],[-1.524056111,43.466740278],[-1.5241675,43.466738056],[-1.531214444,43.466664444],[-1.531241667,43.466663889],[-1.531265278,43.466664444],[-1.531285,43.466666667],[-1.5313025,43.466670278],[-1.531315833,43.466675833],[-1.531328889,43.466683333],[-1.531339722,43.4666925],[-1.531348056,43.466702222],[-1.531354167,43.466715278],[-1.531360278,43.466731667],[-1.531363611,43.4667475],[-1.531365278,43.466773056],[-1.531369722,43.466974444],[-1.531490833,43.466972778],[-1.5314875,43.466847778]]]}},{"type":"Feature","id":"LFBZ-0659c531b35b0389749c","properties":{"airport":"LFBZ","name":"LFBZ AVISO","layer":"Airfield surfaces","category":"Hard Surface 2","object_type":"Area","style_id":"polygon.hardsurface2.595e5b","source_group":"LFBZ AVISO","vsmr_group_ids":[],"geometry_role":"filled_region"},"geometry":{"type":"Polygon","coordinates":[[[-1.5307075,43.4660575],[-1.530704167,43.466061111],[-1.530697778,43.466068611],[-1.530692222,43.466075556],[-1.530683333,43.466083333],[-1.530676389,43.466089167],[-1.530668333,43.466094722],[-1.530661944,43.466098056],[-1.530654444,43.466100833],[-1.530645278,43.466103889],[-1.530633889,43.466106667],[-1.530623056,43.466108611],[-1.530609444,43.466109167],[-1.527618611,43.466139722],[-1.52762,43.466179444],[-1.530708889,43.466149167],[-1.5307075,43.4660575]]]}},{"type":"Feature","id":"LFBZ-2c189ca1184e7434128b","properties":{"airport":"LFBZ","name":"LFBZ AVISO","layer":"Airfield surfaces","category":"Runways","object_type":"Area","style_id":"polygon.runwayconcrete.555555","source_group":"LFBZ AVISO","vsmr_group_ids":[],"geometry_role":"filled_region"},"geometry":{"type":"Polygon","coordinates":[[[-1.531624167,43.468090278],[-1.53161,43.468086389],[-1.531596667,43.468080278],[-1.531583333,43.468073611],[-1.531570833,43.468065556],[-1.531561667,43.468058889],[-1.531551389,43.468051389],[-1.531540833,43.4680425],[-1.5315325,43.468033611],[-1.531524167,43.468021111],[-1.531519167,43.468006667],[-1.531515278,43.467995278],[-1.531512778,43.467982778],[-1.531511389,43.467971944],[-1.531510278,43.467958333],[-1.531490556,43.466952778],[-1.531368889,43.466953056],[-1.531389444,43.467956389],[-1.531390556,43.467974167],[-1.531387778,43.467988333],[-1.531384444,43.468001111],[-1.531381667,43.468010833],[-1.531376111,43.468023333],[-1.531371111,43.468032778],[-1.531367222,43.468041667],[-1.531357778,43.468053611],[-1.53135,43.4680625],[-1.531341111,43.468070278],[-1.531331667,43.468076667],[-1.531317222,43.468083889],[-1.531301111,43.46809],[-1.531272222,43.468094444],[-1.521906111,43.468192222],[-1.521874444,43.468187778],[-1.521853333,43.468182222],[-1.521835,43.468175],[-1.521818889,43.468165],[-1.521805556,43.468151389],[-1.5217925,43.468133611],[-1.521782778,43.468108611],[-1.521776667,43.468083333],[-1.521769722,43.468046944],[-1.521765833,43.468005],[-1.521764444,43.467945556],[-1.521763889,43.467803056],[-1.521763333,43.467774167],[-1.521764444,43.467743611],[-1.521766944,43.467728889],[-1.521773889,43.467709722],[-1.521781667,43.467695],[-1.521793611,43.4676775],[-1.521808611,43.467660556],[-1.521829444,43.467642222],[-1.521854167,43.467624444],[-1.521881389,43.467606111],[-1.521910278,43.467591944],[-1.521923889,43.467587778],[-1.521945556,43.4675775],[-1.521907778,43.467531111],[-1.521874722,43.467544444],[-1.521830556,43.467566111],[-1.521797778,43.467586389],[-1.521768611,43.467607778],[-1.521746389,43.467625833],[-1.521726111,43.467647778],[-1.521708889,43.467673056],[-1.5217,43.467691667],[-1.521691944,43.467715],[-1.521686111,43.467740556],[-1.521682778,43.467767222],[-1.521681944,43.467793611],[-1.521684167,43.468039722],[-1.521682222,43.468056111],[-1.521677222,43.468072222],[-1.521670556,43.468091389],[-1.521661667,43.468111111],[-1.521650556,43.468126389],[-1.521639722,43.468141944],[-1.521623056,43.468159167],[-1.521605556,43.468173333],[-1.521583611,43.468184444],[-1.521555278,43.468192778],[-1.521491389,43.4681975],[-1.509411667,43.468324167],[-1.509419167,43.468764722],[-1.5094325,43.468791944],[-1.509449167,43.468818611],[-1.509464444,43.468841111],[-1.509485278,43.468868333],[-1.509510833,43.468896111],[-1.509533611,43.468916389],[-1.509558611,43.468937222],[-1.509581389,43.468954444],[-1.509606667,43.46897],[-1.509639167,43.468986389],[-1.509674444,43.468998889],[-1.509700556,43.469005833],[-1.509721944,43.46901],[-1.509743611,43.469011944],[-1.509766389,43.469012778],[-1.509789722,43.469011111],[-1.509811389,43.469008333],[-1.509835278,43.469004444],[-1.509858333,43.468998889],[-1.509886667,43.468988889],[-1.509929167,43.468973056],[-1.510344722,43.468807222],[-1.5104175,43.468781389],[-1.510489722,43.468761389],[-1.510538333,43.468753056],[-1.510574444,43.468749722],[-1.510635278,43.468748889],[-1.510696389,43.468748056],[-1.521027778,43.468641111],[-1.521093611,43.4686425],[-1.5211325,43.468644722],[-1.521170278,43.46865],[-1.521211667,43.468658611],[-1.521240278,43.4686675],[-1.521271111,43.4686775],[-1.521306944,43.468692222],[-1.521343889,43.4687125],[-1.521393889,43.468751944],[-1.521428889,43.468789167],[-1.521464444,43.468840833],[-1.521495278,43.468895278],[-1.521516944,43.468957778],[-1.521539722,43.469025556],[-1.521570556,43.469146389],[-1.521586944,43.469246667],[-1.521917778,43.469244444],[-1.521911389,43.469194444],[-1.521905833,43.469153889],[-1.521898056,43.469110833],[-1.521893611,43.469069167],[-1.521892222,43.46903],[-1.521896389,43.468998889],[-1.521906944,43.468958333],[-1.521921944,43.468918889],[-1.521944722,43.468875278],[-1.521975556,43.468833333],[-1.522008333,43.468796667],[-1.522043889,43.468760833],[-1.522080278,43.468735556],[-1.522114722,43.468711389],[-1.522151389,43.468691667],[-1.522195556,43.468672222],[-1.522235556,43.468656667],[-1.522267778,43.468645278],[-1.522308889,43.468636944],[-1.522349167,43.46863],[-1.522391111,43.468626389],[-1.522461667,43.468626111],[-1.530481667,43.468541389],[-1.53051,43.468540556],[-1.530557222,43.468539722],[-1.530599167,43.468536389],[-1.530649722,43.468531667],[-1.530691667,43.46853],[-1.530748056,43.468530556],[-1.530815833,43.468532222],[-1.530875833,43.468536111],[-1.530931667,43.468545],[-1.530977778,43.468556389],[-1.531016389,43.468568889],[-1.531057778,43.468584167],[-1.531109722,43.468606667],[-1.531146389,43.468627222],[-1.531189722,43.468655833],[-1.531240556,43.468695278],[-1.531266944,43.468719444],[-1.531285833,43.468740833],[-1.531301111,43.468760278],[-1.531601944,43.469220556],[-1.531866944,43.469128889],[-1.531854444,43.469108611],[-1.531844444,43.469084444],[-1.531836111,43.469058889],[-1.531828333,43.469024444],[-1.531822222,43.468997778],[-1.531818056,43.468963333],[-1.531815,43.468935278],[-1.531814167,43.468910556],[-1.531815,43.468878056],[-1.531819167,43.468837778],[-1.531829167,43.468790556],[-1.531839167,43.4687625],[-1.531848056,43.468748056],[-1.531867222,43.468725],[-1.531894444,43.468696389],[-1.531935,43.468658056],[-1.531978611,43.4686275],[-1.532025,43.468601389],[-1.532098333,43.4685675],[-1.532159167,43.468543333],[-1.532203056,43.46853],[-1.5322325,43.468523611],[-1.5322575,43.468521111],[-1.532283056,43.468520556],[-1.532327222,43.468521111],[-1.536054722,43.468482222],[-1.536186667,43.468479722],[-1.536209167,43.468481667],[-1.536223889,43.468484444],[-1.536241389,43.4684875],[-1.536259444,43.468491944],[-1.536279722,43.468499722],[-1.536301944,43.468508056],[-1.536708333,43.46868],[-1.536802222,43.468719444],[-1.536829722,43.468729444],[-1.536854167,43.468736111],[-1.536873889,43.468738889],[-1.536889167,43.468740278],[-1.536901944,43.468739722],[-1.536913333,43.468738333],[-1.536925,43.468736111],[-1.536935278,43.468732778],[-1.536950833,43.468726389],[-1.536979444,43.468713611],[-1.537015278,43.468693889],[-1.537043889,43.468675833],[-1.537081389,43.468649167],[-1.5371125,43.468625278],[-1.537145,43.468594722],[-1.537180278,43.468552222],[-1.537210556,43.468508333],[-1.537221389,43.468485833],[-1.537225278,43.468468333],[-1.537216667,43.468032778],[-1.531640556,43.468091944],[-1.531624167,43.468090278]]]}},{"type":"Feature","id":"LFBZ-3a2cde74478231ef3175","properties":{"airport":"LFBZ","name":"LFBZ AVISO","layer":"Airfield surfaces","category":"Runways","object_type":"Area","style_id":"polygon.runwayconcrete.555555","source_group":"LFBZ AVISO","vsmr_group_ids":[],"geometry_role":"filled_region"},"geometry":{"type":"Polygon","coordinates":[[[-1.535163611,43.469401944],[-1.535158611,43.469395],[-1.535156389,43.469389722],[-1.535155,43.469385],[-1.535155833,43.469379444],[-1.535236944,43.469378611],[-1.535231389,43.469095556],[-1.534878889,43.469100833],[-1.534888889,43.469381944],[-1.535016389,43.469382222],[-1.535025833,43.469382778],[-1.535035278,43.469384444],[-1.535043056,43.469386944],[-1.535049722,43.469389444],[-1.535056667,43.469393889],[-1.535071389,43.469406667],[-1.5350975,43.469429722],[-1.53513,43.469457778],[-1.5352225,43.469538056],[-1.535277778,43.469502222],[-1.53517,43.469408611],[-1.535163611,43.469401944]]]}},{"type":"Feature","id":"LFBZ-a8c440a5579c668c67d2","properties":{"airport":"LFBZ","name":"LFBZ AVISO","layer":"Airfield surfaces","category":"Hard Surface 3","object_type":"Area","style_id":"polygon.hardsurface3.8a807f","source_group":"LFBZ AVISO","vsmr_group_ids":[],"geometry_role":"filled_region"},"geometry":{"type":"Polygon","coordinates":[[[-1.535840833,43.470125],[-1.536148333,43.470365833],[-1.536154444,43.47037],[-1.536158056,43.470373056],[-1.536162222,43.470376944],[-1.536166111,43.470381111],[-1.536168056,43.470385278],[-1.536168611,43.470388889],[-1.536167778,43.470393333],[-1.536165,43.470398056],[-1.536160556,43.470402778],[-1.536150833,43.470410278],[-1.536091944,43.470453611],[-1.536087222,43.470456944],[-1.536081944,43.470459444],[-1.536076944,43.470461389],[-1.53607,43.470463056],[-1.536061111,43.470463889],[-1.536044722,43.470464444],[-1.535823056,43.4704675],[-1.535825,43.470564167],[-1.536178056,43.470562778],[-1.536195833,43.470561944],[-1.53621,43.47056],[-1.536223056,43.470557222],[-1.5362325,43.470553611],[-1.536241389,43.470549167],[-1.536249444,43.470544722],[-1.536256667,43.47054],[-1.536270833,43.470530278],[-1.5362875,43.470518056],[-1.536330278,43.470486111],[-1.536340556,43.470478056],[-1.536348333,43.470471389],[-1.536354722,43.470463611],[-1.536358889,43.470456667],[-1.536361389,43.470449167],[-1.5363625,43.470441944],[-1.5363625,43.470434167],[-1.536361111,43.470426944],[-1.536358333,43.470418333],[-1.536355,43.470410833],[-1.536350833,43.470404444],[-1.536345556,43.470396667],[-1.5363375,43.4703875],[-1.536326389,43.470376389],[-1.536288889,43.470343056],[-1.536251944,43.470310833],[-1.535942778,43.470059167],[-1.535840833,43.470125]]]}},{"type":"Feature","id":"LFBZ-e55de258792568188f30","properties":{"airport":"LFBZ","name":"LFBZ AVISO","layer":"Airfield surfaces","category":"Hard Surface 3","object_type":"Area","style_id":"polygon.hardsurface3.8a807f","source_group":"LFBZ AVISO","vsmr_group_ids":[],"geometry_role":"filled_region"},"geometry":{"type":"Polygon","coordinates":[[[-1.535622222,43.470031111],[-1.535554444,43.469943889],[-1.533974167,43.4699625],[-1.533896667,43.469963333],[-1.533694444,43.4699725],[-1.533591111,43.469974722],[-1.533481944,43.469976667],[-1.532650278,43.469987222],[-1.53265,43.470092778],[-1.532658889,43.470091111],[-1.532673889,43.470089444],[-1.532688333,43.470089444],[-1.532698333,43.470090833],[-1.532707778,43.470094444],[-1.532715278,43.470097778],[-1.532721111,43.470101389],[-1.532726389,43.470105833],[-1.532728889,43.470109722],[-1.532731667,43.470113889],[-1.532733889,43.47012],[-1.532735833,43.470131667],[-1.532809722,43.470483056],[-1.532816111,43.470509722],[-1.532826389,43.470543333],[-1.53284,43.470573056],[-1.532853056,43.470601111],[-1.532871111,43.470644722],[-1.535634167,43.470615278],[-1.535622222,43.470031111]]]}},{"type":"Feature","id":"LFBZ-bcfffbe26448220f471a","properties":{"airport":"LFBZ","name":"LFBZ AVISO","layer":"Airfield surfaces","category":"Hard Surface 3","object_type":"Area","style_id":"polygon.hardsurface3.8a807f","source_group":"LFBZ AVISO","vsmr_group_ids":[],"geometry_role":"filled_region"},"geometry":{"type":"Polygon","coordinates":[[[-1.532216667,43.470394167],[-1.532148611,43.470459444],[-1.532101944,43.470499444],[-1.532053889,43.470535833],[-1.532014722,43.470563889],[-1.531974444,43.470590278],[-1.531936667,43.470613333],[-1.531886111,43.470640556],[-1.531831667,43.470668333],[-1.531778333,43.4706925],[-1.531728333,43.470713056],[-1.531674167,43.470734722],[-1.531619444,43.470752778],[-1.531556944,43.470770556],[-1.531494167,43.470786944],[-1.531431111,43.470801389],[-1.531379722,43.470810833],[-1.531339444,43.470816944],[-1.531291944,43.470823611],[-1.531235,43.470829444],[-1.531174444,43.470834167],[-1.531123333,43.470836111],[-1.531048889,43.470837778],[-1.530953056,43.470838611],[-1.528746389,43.470861667],[-1.528757778,43.471581389],[-1.532354167,43.471546389],[-1.532689722,43.470706389],[-1.532681667,43.470389722],[-1.532216667,43.470394167]]]}},{"type":"Feature","id":"LFBZ-19dbf6fc78812eb4e5f1","properties":{"airport":"LFBZ","name":"LFBZ AVISO","layer":"Airfield surfaces","category":"Hard Surface 3","object_type":"Area","style_id":"polygon.hardsurface3.8a807f","source_group":"LFBZ AVISO","vsmr_group_ids":[],"geometry_role":"filled_region"},"geometry":{"type":"Polygon","coordinates":[[[-1.528115556,43.470258889],[-1.528049167,43.470261111],[-1.528062778,43.470675],[-1.528343056,43.470839444],[-1.528588611,43.470837222],[-1.528587222,43.470624444],[-1.528585278,43.470589722],[-1.528584444,43.470565556],[-1.528580833,43.4705425],[-1.528575,43.470516111],[-1.5285675,43.470492778],[-1.5285575,43.4704725],[-1.528546389,43.470452778],[-1.528530278,43.470429722],[-1.528515556,43.470411944],[-1.528499444,43.470395833],[-1.528470833,43.470375],[-1.528326944,43.470281667],[-1.528115556,43.470258889]]]}},{"type":"Feature","id":"LFBZ-35b88c680f1a94cc0c21","properties":{"airport":"LFBZ","name":"LFBZ AVISO","layer":"Airfield surfaces","category":"Hard Surface 3","object_type":"Area","style_id":"polygon.hardsurface3.8a807f","source_group":"LFBZ AVISO","vsmr_group_ids":[],"geometry_role":"filled_region"},"geometry":{"type":"Polygon","coordinates":[[[-1.53314,43.466409444],[-1.533141944,43.466391389],[-1.533141111,43.466370833],[-1.533140556,43.466355833],[-1.533139444,43.466333611],[-1.533138889,43.466324722],[-1.533138889,43.46632],[-1.533139167,43.466315278],[-1.533140278,43.466311111],[-1.533141944,43.466306944],[-1.533145,43.466301389],[-1.533211944,43.466216944],[-1.533236389,43.466193333],[-1.533268056,43.466169167],[-1.533300278,43.466146667],[-1.533318056,43.466135556],[-1.533326944,43.466131667],[-1.533333889,43.46613],[-1.533343611,43.466128611],[-1.533366111,43.4661275],[-1.534894444,43.466114722],[-1.534897778,43.466073056],[-1.5349025,43.4660275],[-1.534907222,43.465982778],[-1.534913333,43.4659425],[-1.534921667,43.4659125],[-1.534933056,43.465884444],[-1.534946111,43.465856389],[-1.534959444,43.465827778],[-1.534970833,43.465807778],[-1.534978611,43.465795556],[-1.534985833,43.465782778],[-1.533034167,43.465803889],[-1.533060833,43.466361389],[-1.533060833,43.466387222],[-1.533059444,43.466404167],[-1.533055833,43.466422778],[-1.533138333,43.466424167],[-1.53314,43.466409444]]]}},{"type":"Feature","id":"LFBZ-a02850b6db7615fc1fe0","properties":{"airport":"LFBZ","name":"LFBZ AVISO","layer":"Airfield surfaces","category":"Hard Surface 3","object_type":"Area","style_id":"polygon.hardsurface3.8a807f","source_group":"LFBZ AVISO","vsmr_group_ids":[],"geometry_role":"filled_region"},"geometry":{"type":"Polygon","coordinates":[[[-1.53149,43.466396389],[-1.531492222,43.466375278],[-1.531496944,43.466351944],[-1.531504167,43.466331944],[-1.531512778,43.466312778],[-1.531531111,43.466284167],[-1.531552778,43.466256111],[-1.531581667,43.466228889],[-1.531603611,43.466211389],[-1.531622778,43.466198889],[-1.531646389,43.466186111],[-1.531675278,43.466173056],[-1.531715556,43.466158333],[-1.531742222,43.466151667],[-1.531773889,43.466145278],[-1.531804167,43.466141111],[-1.531840278,43.466138611],[-1.532835833,43.466129722],[-1.532832222,43.465818056],[-1.530702778,43.46583],[-1.530707778,43.466149444],[-1.530991389,43.466146389],[-1.531033889,43.466149444],[-1.5310725,43.466154167],[-1.531111111,43.466161667],[-1.531147778,43.466173611],[-1.531183333,43.466189167],[-1.531209444,43.466203611],[-1.531242778,43.466225],[-1.531273056,43.4662525],[-1.531295833,43.466276111],[-1.531309722,43.466296667],[-1.531326667,43.466322222],[-1.531341111,43.466352778],[-1.531346944,43.466371667],[-1.5313475,43.466389444],[-1.531349722,43.466416111],[-1.531489444,43.466415833],[-1.53149,43.466396389]]]}},{"type":"Feature","id":"LFBZ-cdc72138ffaac622fdef","properties":{"airport":"LFBZ","name":"LFBZ AVISO","layer":"Airfield surfaces","category":"Hard Surface 3","object_type":"Area","style_id":"polygon.hardsurface3.8a807f","source_group":"LFBZ AVISO","vsmr_group_ids":[],"geometry_role":"filled_region"},"geometry":{"type":"Polygon","coordinates":[[[-1.5276075,43.465642222],[-1.526796944,43.465655278],[-1.526824167,43.466188889],[-1.527621111,43.466181111],[-1.5276075,43.465642222]]]}},{"type":"Feature","id":"LFBZ-07ffd943e7cc9ecb79d4","properties":{"airport":"LFBZ","name":"LFBZ AVISO","layer":"Buildings and structures","category":"Buildings","object_type":"Area","style_id":"polygon.building.394446","source_group":"LFBZ AVISO","vsmr_group_ids":[],"geometry_role":"filled_region"},"geometry":{"type":"Polygon","coordinates":[[[-1.534815556,43.465696389],[-1.534968611,43.465695],[-1.5349675,43.465602222],[-1.534657222,43.465603611],[-1.534659167,43.465785278],[-1.534816667,43.465783889],[-1.534815556,43.465696389]]]}},{"type":"Feature","id":"LFBZ-6e57772452edb2585793","properties":{"airport":"LFBZ","name":"LFBZ AVISO","layer":"Buildings and structures","category":"Buildings","object_type":"Area","style_id":"polygon.building.394446","source_group":"LFBZ AVISO","vsmr_group_ids":[],"geometry_role":"filled_region"},"geometry":{"type":"Polygon","coordinates":[[[-1.5345425,43.465606389],[-1.534283611,43.465609167],[-1.534288333,43.465789444],[-1.534545278,43.465788056],[-1.5345425,43.465606389]]]}},{"type":"Feature","id":"LFBZ-a26118518c5d5448d30f","properties":{"airport":"LFBZ","name":"LFBZ AVISO","layer":"Buildings and structures","category":"Buildings","object_type":"Area","style_id":"polygon.building.394446","source_group":"LFBZ AVISO","vsmr_group_ids":[],"geometry_role":"filled_region"},"geometry":{"type":"Polygon","coordinates":[[[-1.533906667,43.465610833],[-1.533405,43.465613333],[-1.533406944,43.465800278],[-1.533909722,43.465794444],[-1.533906667,43.465610833]]]}},{"type":"Feature","id":"LFBZ-1c84ae41c56c560cdbaf","properties":{"airport":"LFBZ","name":"LFBZ AVISO","layer":"Buildings and structures","category":"Buildings","object_type":"Area","style_id":"polygon.building.394446","source_group":"LFBZ AVISO","vsmr_group_ids":[],"geometry_role":"filled_region"},"geometry":{"type":"Polygon","coordinates":[[[-1.533281667,43.465622222],[-1.533027778,43.465626111],[-1.533031944,43.465804167],[-1.533285,43.465801667],[-1.533281667,43.465622222]]]}},{"type":"Feature","id":"LFBZ-b101799cfa46c70acad6","properties":{"airport":"LFBZ","name":"LFBZ AVISO","layer":"Buildings and structures","category":"Buildings","object_type":"Area","style_id":"polygon.building.394446","source_group":"LFBZ AVISO","vsmr_group_ids":[],"geometry_role":"filled_region"},"geometry":{"type":"Polygon","coordinates":[[[-1.532778056,43.465164444],[-1.532775278,43.464898056],[-1.531526944,43.464907222],[-1.531545556,43.465786389],[-1.531488611,43.465786944],[-1.531490278,43.46584],[-1.531550556,43.465840556],[-1.531550556,43.465831389],[-1.531806667,43.465830833],[-1.531805833,43.465836389],[-1.532068889,43.465833333],[-1.532068056,43.465827778],[-1.532166111,43.465826667],[-1.532166111,43.465831944],[-1.532391389,43.465830278],[-1.532391389,43.465824722],[-1.532690278,43.465822222],[-1.532674722,43.465164444],[-1.532778056,43.465164444]]]}},{"type":"Feature","id":"LFBZ-a703b5e1e57e4b887239","properties":{"airport":"LFBZ","name":"LFBZ AVISO","layer":"Buildings and structures","category":"Buildings","object_type":"Area","style_id":"polygon.building.394446","source_group":"LFBZ AVISO","vsmr_group_ids":[],"geometry_role":"filled_region"},"geometry":{"type":"Polygon","coordinates":[[[-1.530713611,43.465523889],[-1.530717222,43.465721389],[-1.530945556,43.465719722],[-1.530943056,43.465520278],[-1.530713611,43.465523889]]]}},{"type":"Feature","id":"LFBZ-728ceddcf85a8af13a31","properties":{"airport":"LFBZ","name":"LFBZ AVISO","layer":"Buildings and structures","category":"Buildings","object_type":"Area","style_id":"polygon.building.394446","source_group":"LFBZ AVISO","vsmr_group_ids":[],"geometry_role":"filled_region"},"geometry":{"type":"Polygon","coordinates":[[[-1.531249167,43.464987222],[-1.530321667,43.4649975],[-1.530320556,43.465095],[-1.531251111,43.465086667],[-1.531249167,43.464987222]]]}},{"type":"Feature","id":"LFBZ-321d4f05b82ee2b919bf","properties":{"airport":"LFBZ","name":"LFBZ AVISO","layer":"Buildings and structures","category":"Buildings","object_type":"Area","style_id":"polygon.building.394446","source_group":"LFBZ AVISO","vsmr_group_ids":[],"geometry_role":"filled_region"},"geometry":{"type":"Polygon","coordinates":[[[-1.531220278,43.471520278],[-1.531220278,43.471515],[-1.531223056,43.4715125],[-1.531225,43.47151],[-1.531225556,43.471507778],[-1.531225278,43.471505278],[-1.531223611,43.471503611],[-1.531223333,43.471502222],[-1.531227222,43.471501667],[-1.5312275,43.471500556],[-1.531228056,43.471499167],[-1.531228333,43.471496389],[-1.531225833,43.471495833],[-1.531223333,43.471492778],[-1.53123,43.471459444],[-1.531232222,43.471459167],[-1.531261944,43.471338056],[-1.531271111,43.471338056],[-1.531256667,43.471380833],[-1.531269444,43.471383056],[-1.531286389,43.471341111],[-1.531290556,43.471329167],[-1.531275278,43.471326667],[-1.531271944,43.471326111],[-1.531271389,43.471323333],[-1.531270833,43.471320556],[-1.53127,43.471318056],[-1.531268889,43.471316389],[-1.531266944,43.471314444],[-1.531264167,43.471311944],[-1.53126,43.471309722],[-1.531254167,43.471308333],[-1.531248889,43.471307222],[-1.5312475,43.471305278],[-1.531245,43.471303889],[-1.531242222,43.471303889],[-1.531238889,43.471303889],[-1.531236667,43.4713025],[-1.531239722,43.471299167],[-1.531231111,43.471293333],[-1.531203611,43.4713175],[-1.531215278,43.471323333],[-1.531221667,43.471321667],[-1.531228889,43.4713275],[-1.531233056,43.471327222],[-1.531233056,43.471329722],[-1.531235833,43.471331111],[-1.531236389,43.471333056],[-1.531236111,43.471334722],[-1.531237222,43.471336389],[-1.531237778,43.471338611],[-1.531209167,43.471446667],[-1.531207778,43.471450833],[-1.531208056,43.471453611],[-1.531209167,43.471456111],[-1.531200278,43.471491389],[-1.531198333,43.471492222],[-1.531196389,43.471493611],[-1.531195,43.471495556],[-1.531194722,43.471496944],[-1.531196667,43.471498333],[-1.531198611,43.471498889],[-1.5311975,43.471500556],[-1.531195833,43.471502778],[-1.531193056,43.471504722],[-1.531191389,43.4715075],[-1.531191944,43.47151],[-1.531194444,43.471513333],[-1.5311975,43.471515833],[-1.531199167,43.471518056],[-1.531199167,43.471520833],[-1.531115278,43.4715225],[-1.531116111,43.471548889],[-1.531111111,43.471548889],[-1.531108056,43.4715475],[-1.531103889,43.471546111],[-1.531100278,43.471545556],[-1.531096944,43.471545278],[-1.531093333,43.471546389],[-1.531091389,43.471546389],[-1.531090278,43.471544167],[-1.531083056,43.471544167],[-1.531081944,43.471548056],[-1.531040833,43.471543889],[-1.531040278,43.471539167],[-1.530885278,43.471523333],[-1.530881389,43.471524167],[-1.530877222,43.471524722],[-1.530874722,43.471524167],[-1.530874444,43.471520556],[-1.530875556,43.47152],[-1.530876389,43.471516389],[-1.530952222,43.471517222],[-1.530952778,43.471508611],[-1.530870278,43.471503889],[-1.530858889,43.471514722],[-1.530858333,43.471518611],[-1.530854167,43.471518889],[-1.5308475,43.471520278],[-1.530843611,43.471521667],[-1.530840833,43.471524444],[-1.530839167,43.471526667],[-1.530831944,43.471528611],[-1.530820833,43.471530556],[-1.530819444,43.4715275],[-1.530804722,43.471530833],[-1.530819167,43.471559444],[-1.530833889,43.471556389],[-1.530833056,43.471553333],[-1.530849722,43.471548333],[-1.530848889,43.471545278],[-1.530850833,43.471545278],[-1.530855278,43.471546111],[-1.530859722,43.471546111],[-1.530863611,43.471545833],[-1.530866944,43.471545278],[-1.53087,43.471543889],[-1.530871944,43.471542222],[-1.531037778,43.471560278],[-1.531039167,43.4715575],[-1.531079722,43.471561944],[-1.531079167,43.471565556],[-1.5310875,43.471566944],[-1.531088333,43.4716125],[-1.531089444,43.471615278],[-1.531091944,43.471616389],[-1.531094722,43.471617222],[-1.531098889,43.471617778],[-1.5311175,43.471618056],[-1.531119722,43.4717475],[-1.530751667,43.471751111],[-1.530760833,43.4721675],[-1.530494167,43.472169444],[-1.530496389,43.472233056],[-1.530761944,43.472229444],[-1.530764444,43.472296389],[-1.530840833,43.472296111],[-1.530878889,43.472267778],[-1.530915,43.472293611],[-1.530951944,43.472265833],[-1.530989167,43.472293056],[-1.531027222,43.472265278],[-1.531063611,43.472290556],[-1.531073889,43.4722975],[-1.531083056,43.472304444],[-1.531095,43.472312778],[-1.531107778,43.472318333],[-1.531121667,43.4723225],[-1.531136389,43.472325556],[-1.531149444,43.472326944],[-1.531163333,43.472326944],[-1.531178889,43.472325],[-1.531191389,43.472322778],[-1.531206111,43.472317778],[-1.531220833,43.472310556],[-1.531231944,43.472303333],[-1.53124,43.472296389],[-1.531369167,43.472384167],[-1.531369722,43.472368333],[-1.53143,43.4723675],[-1.531430556,43.472380833],[-1.531553333,43.472291944],[-1.531565,43.472298333],[-1.531578611,43.472305556],[-1.531594722,43.472311944],[-1.531607778,43.472315556],[-1.5316225,43.472318056],[-1.531640833,43.472319444],[-1.531656944,43.472318333],[-1.531668611,43.472316667],[-1.531684167,43.4723125],[-1.531698889,43.472306111],[-1.531716111,43.472296111],[-1.531731389,43.472283611],[-1.531764444,43.472258611],[-1.531804722,43.472285278],[-1.531841389,43.472255556],[-1.531878611,43.472284444],[-1.531914167,43.472255556],[-1.531953333,43.472283056],[-1.532030278,43.472283611],[-1.532020278,43.471738333],[-1.531496667,43.471749167],[-1.531462222,43.471776389],[-1.531432222,43.471775833],[-1.531385833,43.471751667],[-1.531341667,43.471778333],[-1.531312222,43.471778889],[-1.531275556,43.471751111],[-1.531245556,43.471751111],[-1.531241667,43.471520833],[-1.531220278,43.471520278]]]}},{"type":"Feature","id":"LFBZ-792e245e73f7c5983a30","properties":{"airport":"LFBZ","name":"LFBZ AVISO","layer":"Buildings and structures","category":"Buildings","object_type":"Area","style_id":"polygon.building.394446","source_group":"LFBZ AVISO","vsmr_group_ids":[],"geometry_role":"filled_region"},"geometry":{"type":"Polygon","coordinates":[[[-1.532717778,43.471326389],[-1.532684722,43.471416667],[-1.533050278,43.471577222],[-1.533108889,43.47141],[-1.532717778,43.471326389]]]}},{"type":"Feature","id":"LFBZ-44921f11326cf382aa82","properties":{"airport":"LFBZ","name":"LFBZ AVISO","layer":"Buildings and structures","category":"Buildings","object_type":"Area","style_id":"polygon.building.394446","source_group":"LFBZ AVISO","vsmr_group_ids":[],"geometry_role":"filled_region"},"geometry":{"type":"Polygon","coordinates":[[[-1.532761389,43.471269722],[-1.532742778,43.471325],[-1.532835833,43.471343889],[-1.532853889,43.471291389],[-1.532761389,43.471269722]]]}},{"type":"Feature","id":"LFBZ-e2edc5604812f0ad7eff","properties":{"airport":"LFBZ","name":"LFBZ AVISO","layer":"Buildings and structures","category":"Buildings","object_type":"Area","style_id":"polygon.building.394446","source_group":"LFBZ AVISO","vsmr_group_ids":[],"geometry_role":"filled_region"},"geometry":{"type":"Polygon","coordinates":[[[-1.532859167,43.470985833],[-1.532778611,43.471222222],[-1.533017222,43.471267778],[-1.533098056,43.471033056],[-1.532859167,43.470985833]]]}},{"type":"Feature","id":"LFBZ-9d9d1761746551949e1a","properties":{"airport":"LFBZ","name":"LFBZ AVISO","layer":"Buildings and structures","category":"Buildings","object_type":"Area","style_id":"polygon.building.394446","source_group":"LFBZ AVISO","vsmr_group_ids":[],"geometry_role":"filled_region"},"geometry":{"type":"Polygon","coordinates":[[[-1.533099167,43.470923889],[-1.533139167,43.470924722],[-1.533139722,43.470910556],[-1.533253889,43.470910278],[-1.533253333,43.470872778],[-1.533298333,43.470873611],[-1.533297222,43.470846944],[-1.533253889,43.470844722],[-1.533251389,43.470809444],[-1.533153333,43.470811111],[-1.533149444,43.470718333],[-1.532950278,43.470718611],[-1.532882778,43.470767778],[-1.532881667,43.470827778],[-1.532838333,43.470828056],[-1.5328275,43.470838056],[-1.532829167,43.470926111],[-1.532840556,43.470934167],[-1.532889444,43.470934444],[-1.532903333,43.470944444],[-1.532998611,43.470943611],[-1.533013889,43.470933333],[-1.533045278,43.470934167],[-1.533057222,43.470925833],[-1.533056667,43.470911667],[-1.533098611,43.470910278],[-1.533099167,43.470923889]]]}},{"type":"Feature","id":"LFBZ-e53171391bfe286eee9c","properties":{"airport":"LFBZ","name":"LFBZ AVISO","layer":"Buildings and structures","category":"Buildings","object_type":"Area","style_id":"polygon.building.394446","source_group":"LFBZ AVISO","vsmr_group_ids":[],"geometry_role":"filled_region"},"geometry":{"type":"Polygon","coordinates":[[[-1.533386667,43.470876111],[-1.533461111,43.4708775],[-1.5334625,43.471069167],[-1.533573333,43.471072778],[-1.533770278,43.471062778],[-1.533768889,43.470924444],[-1.533902778,43.470923889],[-1.533902778,43.470916111],[-1.534157778,43.470911944],[-1.534157222,43.470873889],[-1.534525556,43.470871111],[-1.534523056,43.470778611],[-1.5345575,43.470778611],[-1.534556111,43.470699167],[-1.533683056,43.470706389],[-1.533680556,43.470785],[-1.533568056,43.470785833],[-1.533385556,43.470778056],[-1.533386667,43.470876111]]]}},{"type":"Feature","id":"LFBZ-7d9208b03958f458a1c2","properties":{"airport":"LFBZ","name":"LFBZ AVISO","layer":"Buildings and structures","category":"Buildings","object_type":"Area","style_id":"polygon.building.394446","source_group":"LFBZ AVISO","vsmr_group_ids":[],"geometry_role":"filled_region"},"geometry":{"type":"Polygon","coordinates":[[[-1.535360833,43.470854722],[-1.535485556,43.470854722],[-1.535516667,43.4708925],[-1.535605278,43.4708575],[-1.535600556,43.470691667],[-1.535356667,43.470694722],[-1.535360833,43.470854722]]]}},{"type":"Feature","id":"LFBZ-22bae0c49f3940bd0b8f","properties":{"airport":"LFBZ","name":"LFBZ AVISO","layer":"Buildings and structures","category":"Buildings","object_type":"Area","style_id":"polygon.building.394446","source_group":"LFBZ AVISO","vsmr_group_ids":[],"geometry_role":"filled_region"},"geometry":{"type":"Polygon","coordinates":[[[-1.529558611,43.472014722],[-1.529464444,43.471985556],[-1.529468611,43.471976667],[-1.529398611,43.471953333],[-1.529370833,43.472002222],[-1.529500833,43.472045],[-1.529479722,43.472079444],[-1.529399167,43.472051389],[-1.529339444,43.472140833],[-1.529496389,43.472191667],[-1.529515,43.472165833],[-1.529548333,43.472176944],[-1.529640556,43.472022778],[-1.529564722,43.4720025],[-1.529558611,43.472014722]]]}},{"type":"Feature","id":"LFBZ-baaca632e154ed907c01","properties":{"airport":"LFBZ","name":"LFBZ AVISO","layer":"Buildings and structures","category":"Buildings","object_type":"Area","style_id":"polygon.building.394446","source_group":"LFBZ AVISO","vsmr_group_ids":[],"geometry_role":"filled_region"},"geometry":{"type":"Polygon","coordinates":[[[-1.529145556,43.471916667],[-1.529044167,43.471919722],[-1.529042778,43.471890278],[-1.528795833,43.471893333],[-1.528792778,43.471921667],[-1.528693611,43.471923056],[-1.528697778,43.472042778],[-1.528800833,43.472041944],[-1.528799444,43.472030278],[-1.529044167,43.4720275],[-1.529044167,43.472041944],[-1.529146944,43.472041389],[-1.529145556,43.471916667]]]}},{"type":"Feature","id":"LFBZ-973b420f9a0f6916aa82","properties":{"airport":"LFBZ","name":"LFBZ AVISO","layer":"Buildings and structures","category":"Buildings","object_type":"Area","style_id":"polygon.building.394446","source_group":"LFBZ AVISO","vsmr_group_ids":[],"geometry_role":"filled_region"},"geometry":{"type":"Polygon","coordinates":[[[-1.528163056,43.4719175],[-1.528164444,43.472046667],[-1.527870556,43.472050833],[-1.527873611,43.472171389],[-1.528040556,43.472168333],[-1.528040556,43.472124167],[-1.528546389,43.472119722],[-1.52854,43.471913611],[-1.528163056,43.4719175]]]}},{"type":"Feature","id":"LFBZ-fad93e819ac2b0839845","properties":{"airport":"LFBZ","name":"LFBZ AVISO","layer":"Surface markings","category":"Stopbars","object_type":"Area","style_id":"polygon.stopbar.7e0000","source_group":"LFBZ AVISO","vsmr_group_ids":[],"geometry_role":"filled_region"},"geometry":{"type":"Polygon","coordinates":[[[-1.531590278,43.469201667],[-1.531601667,43.46922],[-1.531866667,43.469128889],[-1.531855,43.469110556],[-1.531590278,43.469201667]]]}},{"type":"Feature","id":"LFBZ-e98b65d6861d8a80f054","properties":{"airport":"LFBZ","name":"LFBZ AVISO","layer":"Surface markings","category":"Stopbars","object_type":"Area","style_id":"polygon.stopbar.7e0000","source_group":"LFBZ AVISO","vsmr_group_ids":[],"geometry_role":"filled_region"},"geometry":{"type":"Polygon","coordinates":[[[-1.531490278,43.4669525],[-1.531368889,43.466952778],[-1.531368889,43.466974444],[-1.531490833,43.466972778],[-1.531490278,43.4669525]]]}},{"type":"Feature","id":"LFBZ-7fc3538ac1c37894b0cb","properties":{"airport":"LFBZ","name":"LFBZ AVISO","layer":"Surface markings","category":"Stopbars","object_type":"Area","style_id":"polygon.stopbar.7e0000","source_group":"LFBZ AVISO","vsmr_group_ids":[],"geometry_role":"filled_region"},"geometry":{"type":"Polygon","coordinates":[[[-1.521907222,43.467530833],[-1.521882778,43.467541111],[-1.521924167,43.467587778],[-1.521945833,43.467577778],[-1.521907222,43.467530833]]]}},{"type":"Feature","id":"LFBZ-ebdbf97db2f4f29586d3","properties":{"airport":"LFBZ","name":"LFBZ AVISO","layer":"Surface markings","category":"Stopbars","object_type":"Area","style_id":"polygon.stopbar.7e0000","source_group":"LFBZ AVISO","vsmr_group_ids":[],"geometry_role":"filled_region"},"geometry":{"type":"Polygon","coordinates":[[[-1.521915278,43.469223611],[-1.521583611,43.469226944],[-1.521587222,43.469246667],[-1.521918333,43.469244167],[-1.521915278,43.469223611]]]}},{"type":"Feature","id":"LFBZ-d2deead5bf60abeff188","properties":{"airport":"LFBZ","name":"LFBZ AVISO","layer":"Surface markings","category":"Stopbars","object_type":"Area","style_id":"polygon.stopbar.7e0000","source_group":"LFBZ AVISO","vsmr_group_ids":[],"geometry_role":"filled_region"},"geometry":{"type":"Polygon","coordinates":[[[-1.535212222,43.469529167],[-1.535222778,43.469538333],[-1.5352775,43.469502778],[-1.535268056,43.469494167],[-1.535212222,43.469529167]]]}},{"type":"Feature","id":"LFBZ-c20918754353b8b52854","properties":{"airport":"LFBZ","name":"LFBZ AVISO","layer":"Airfield surfaces","category":"Taxiway Orange","object_type":"Area","style_id":"polygon.taxiwayorange.cc6d00","source_group":"LFBZ AVISO","vsmr_group_ids":[],"geometry_role":"filled_region"},"geometry":{"type":"Polygon","coordinates":[[[-1.527854444,43.469830556],[-1.527860278,43.470038611],[-1.527870556,43.470039444],[-1.527868056,43.469830556],[-1.527854444,43.469830556]]]}},{"type":"Feature","id":"LFBZ-17f68323e28734275680","properties":{"airport":"LFBZ","name":"LFBZ AVISO","layer":"Airfield surfaces","category":"Taxiway Orange","object_type":"Area","style_id":"polygon.taxiwayorange.cc6d00","source_group":"LFBZ AVISO","vsmr_group_ids":[],"geometry_role":"filled_region"},"geometry":{"type":"Polygon","coordinates":[[[-1.522845278,43.469868611],[-1.522852222,43.470091389],[-1.522868056,43.470091667],[-1.522857778,43.469869444],[-1.522845278,43.469868611]]]}},{"type":"Feature","id":"LFBZ-9fd28b87323b5b6d015d","properties":{"airport":"LFBZ","name":"LFBZ AVISO","layer":"Airfield surfaces","category":"Taxiway Orange","object_type":"Area","style_id":"polygon.taxiwayorange.cc6d00","source_group":"LFBZ AVISO","vsmr_group_ids":[],"geometry_role":"filled_region"},"geometry":{"type":"Polygon","coordinates":[[[-1.5313825,43.469791111],[-1.531385278,43.470028889],[-1.531396667,43.470030833],[-1.531393611,43.469791389],[-1.5313825,43.469791111]]]}},{"type":"Feature","id":"LFBZ-8127b013d64156cbf173","properties":{"airport":"LFBZ","name":"LFBZ AVISO","layer":"Airfield surfaces","category":"Taxiway Orange","object_type":"Area","style_id":"polygon.taxiwayorange.cc6d00","source_group":"LFBZ AVISO","vsmr_group_ids":[],"geometry_role":"filled_region"},"geometry":{"type":"Polygon","coordinates":[[[-1.529925278,43.469811111],[-1.529925278,43.470015],[-1.529933889,43.470015556],[-1.529931944,43.469810556],[-1.529925278,43.469811111]]]}},{"type":"Feature","id":"LFBZ-f6227177cbcc2959812d","properties":{"airport":"LFBZ","name":"LFBZ AVISO","layer":"Airfield surfaces","category":"Taxiway Orange","object_type":"Area","style_id":"polygon.taxiwayorange.cc6d00","source_group":"LFBZ AVISO","vsmr_group_ids":[],"geometry_role":"filled_region"},"geometry":{"type":"Polygon","coordinates":[[[-1.5326425,43.469794722],[-1.532646389,43.469986111],[-1.532653889,43.469986667],[-1.53265,43.469795278],[-1.5326425,43.469794722]]]}},{"type":"Feature","id":"LFBZ-715c39bf1603f4775ba7","properties":{"airport":"LFBZ","name":"LFBZ AVISO","layer":"Airfield surfaces","category":"Taxiway Orange","object_type":"Area","style_id":"polygon.taxiwayorange.cc6d00","source_group":"LFBZ AVISO","vsmr_group_ids":[],"geometry_role":"filled_region"},"geometry":{"type":"Polygon","coordinates":[[[-1.531706944,43.470495556],[-1.531518056,43.470290556],[-1.531511667,43.470294722],[-1.531704167,43.470501111],[-1.532111944,43.470496667],[-1.532119167,43.470491389],[-1.531706944,43.470495556]]]}},{"type":"Feature","id":"LFBZ-3b1bcfda4be4c2564f3b","properties":{"airport":"LFBZ","name":"LFBZ AVISO","layer":"Airfield surfaces","category":"Taxiway Orange","object_type":"Area","style_id":"polygon.taxiwayorange.cc6d00","source_group":"LFBZ AVISO","vsmr_group_ids":[],"geometry_role":"filled_region"},"geometry":{"type":"Polygon","coordinates":[[[-1.5313325,43.466334444],[-1.531335556,43.466339444],[-1.531502222,43.466338889],[-1.531505,43.466333056],[-1.5313325,43.466334444]]]}},{"type":"Feature","id":"LFBZ-a637f398a33603160d2b","properties":{"airport":"LFBZ","name":"LFBZ AVISO","layer":"Airfield surfaces","category":"Taxiway Orange","object_type":"Area","style_id":"polygon.taxiwayorange.cc6d00","source_group":"LFBZ AVISO","vsmr_group_ids":[],"geometry_role":"filled_region"},"geometry":{"type":"Polygon","coordinates":[[[-1.531103333,43.466611667],[-1.531106389,43.466665556],[-1.531112222,43.466665556],[-1.531109167,43.466611667],[-1.531103333,43.466611667]]]}},{"type":"Feature","id":"LFBZ-2c1b720be14a21ed7e95","properties":{"airport":"LFBZ","name":"LFBZ AVISO","layer":"Airfield surfaces","category":"Taxiway Orange","object_type":"Area","style_id":"polygon.taxiwayorange.cc6d00","source_group":"LFBZ AVISO","vsmr_group_ids":[],"geometry_role":"filled_region"},"geometry":{"type":"Polygon","coordinates":[[[-1.531740278,43.466659167],[-1.531738333,43.466605278],[-1.531733056,43.466605278],[-1.531735556,43.466659167],[-1.531740278,43.466659167]]]}},{"type":"Feature","id":"LFBZ-f605b68bd1b6036ebfbc","properties":{"airport":"LFBZ","name":"TWR","layer":"Labels","category":"Gates","object_type":"Label","style_id":"label.gates","source_group":"LFBZ Gates","vsmr_group_ids":[],"geometry_role":"text_label","text-field":"TWR"},"geometry":{"type":"Point","coordinates":[-1.533102778,43.470833333]}},{"type":"Feature","id":"LFBZ-9711e5fb3ce130c914f0","properties":{"airport":"LFBZ","name":"Terminal","layer":"Labels","category":"Gates","object_type":"Label","style_id":"label.gates","source_group":"LFBZ Gates","vsmr_group_ids":[],"geometry_role":"text_label","text-field":"Terminal"},"geometry":{"type":"Point","coordinates":[-1.531351389,43.472038333]}},{"type":"Feature","id":"LFBZ-eb799a6baa6e2dff5a53","properties":{"airport":"LFBZ","name":"RFFS","layer":"Labels","category":"Gates","object_type":"Label","style_id":"label.gates","source_group":"LFBZ Gates","vsmr_group_ids":[],"geometry_role":"text_label","text-field":"RFFS"},"geometry":{"type":"Point","coordinates":[-1.528383889,43.471561944]}},{"type":"Feature","id":"LFBZ-0b602c2926cc8db9befc","properties":{"airport":"LFBZ","name":"Hangars","layer":"Labels","category":"Gates","object_type":"Label","style_id":"label.gates","source_group":"LFBZ Gates","vsmr_group_ids":[],"geometry_role":"text_label","text-field":"Hangars"},"geometry":{"type":"Point","coordinates":[-1.534623611,43.465556111]}},{"type":"Feature","id":"LFBZ-03592b00c63c6f9a1437","properties":{"airport":"LFBZ","name":"AVT","layer":"Labels","category":"Gates","object_type":"Label","style_id":"label.gates","source_group":"LFBZ Gates","vsmr_group_ids":[],"geometry_role":"text_label","text-field":"AVT"},"geometry":{"type":"Point","coordinates":[-1.536375833,43.470525556]}},{"type":"Feature","id":"LFBZ-62f632f643249be7c14a","properties":{"airport":"LFBZ","name":"Parking Alpha","layer":"Labels","category":"Gates","object_type":"Label","style_id":"label.gates","source_group":"LFBZ Gates","vsmr_group_ids":[],"geometry_role":"text_label","text-field":"Parking Alpha"},"geometry":{"type":"Point","coordinates":[-1.534289444,43.47067]}},{"type":"Feature","id":"LFBZ-e29cc5afe1faf1eed5ea","properties":{"airport":"LFBZ","name":"1","layer":"Labels","category":"Gates","object_type":"Label","style_id":"label.gates","source_group":"LFBZ Gates","vsmr_group_ids":[],"geometry_role":"text_label","text-field":"1"},"geometry":{"type":"Point","coordinates":[-1.533322222,43.470252778]}},{"type":"Feature","id":"LFBZ-9efa4467441d447194f7","properties":{"airport":"LFBZ","name":"2","layer":"Labels","category":"Gates","object_type":"Label","style_id":"label.gates","source_group":"LFBZ Gates","vsmr_group_ids":[],"geometry_role":"text_label","text-field":"2"},"geometry":{"type":"Point","coordinates":[-1.533319444,43.47055]}},{"type":"Feature","id":"LFBZ-e58df951fabc45761121","properties":{"airport":"LFBZ","name":"3","layer":"Labels","category":"Gates","object_type":"Label","style_id":"label.gates","source_group":"LFBZ Gates","vsmr_group_ids":[],"geometry_role":"text_label","text-field":"3"},"geometry":{"type":"Point","coordinates":[-1.534105556,43.470236111]}},{"type":"Feature","id":"LFBZ-f4db6c4078c93adc477f","properties":{"airport":"LFBZ","name":"4","layer":"Labels","category":"Gates","object_type":"Label","style_id":"label.gates","source_group":"LFBZ Gates","vsmr_group_ids":[],"geometry_role":"text_label","text-field":"4"},"geometry":{"type":"Point","coordinates":[-1.534141667,43.470538889]}},{"type":"Feature","id":"LFBZ-108562525380735b236e","properties":{"airport":"LFBZ","name":"5","layer":"Labels","category":"Gates","object_type":"Label","style_id":"label.gates","source_group":"LFBZ Gates","vsmr_group_ids":[],"geometry_role":"text_label","text-field":"5"},"geometry":{"type":"Point","coordinates":[-1.534888889,43.470091667]}},{"type":"Feature","id":"LFBZ-38f1886290af3ad516cd","properties":{"airport":"LFBZ","name":"6","layer":"Labels","category":"Gates","object_type":"Label","style_id":"label.gates","source_group":"LFBZ Gates","vsmr_group_ids":[],"geometry_role":"text_label","text-field":"6"},"geometry":{"type":"Point","coordinates":[-1.534869444,43.470291667]}},{"type":"Feature","id":"LFBZ-0343a0242a9a1c68ed79","properties":{"airport":"LFBZ","name":"7","layer":"Labels","category":"Gates","object_type":"Label","style_id":"label.gates","source_group":"LFBZ Gates","vsmr_group_ids":[],"geometry_role":"text_label","text-field":"7"},"geometry":{"type":"Point","coordinates":[-1.534861111,43.470511111]}},{"type":"Feature","id":"LFBZ-846b1803f74400388123","properties":{"airport":"LFBZ","name":"Parking Bravo","layer":"Labels","category":"Gates","object_type":"Label","style_id":"label.gates","source_group":"LFBZ Gates","vsmr_group_ids":[],"geometry_role":"text_label","text-field":"Parking Bravo"},"geometry":{"type":"Point","coordinates":[-1.528163333,43.470583333]}},{"type":"Feature","id":"LFBZ-bbfc2833487c6fd07d3f","properties":{"airport":"LFBZ","name":"Parking Charlie","layer":"Labels","category":"Gates","object_type":"Label","style_id":"label.gates","source_group":"LFBZ Gates","vsmr_group_ids":[],"geometry_role":"text_label","text-field":"Parking Charlie"},"geometry":{"type":"Point","coordinates":[-1.530660833,43.471623889]}},{"type":"Feature","id":"LFBZ-102aebc7cc944454516d","properties":{"airport":"LFBZ","name":"1","layer":"Labels","category":"Gates","object_type":"Label","style_id":"label.gates","source_group":"LFBZ Gates","vsmr_group_ids":[],"geometry_role":"text_label","text-field":"1"},"geometry":{"type":"Point","coordinates":[-1.532515556,43.470858056]}},{"type":"Feature","id":"LFBZ-5c0fa186ce99cfc5629a","properties":{"airport":"LFBZ","name":"2","layer":"Labels","category":"Gates","object_type":"Label","style_id":"label.gates","source_group":"LFBZ Gates","vsmr_group_ids":[],"geometry_role":"text_label","text-field":"2"},"geometry":{"type":"Point","coordinates":[-1.531762222,43.471126667]}},{"type":"Feature","id":"LFBZ-6830b860937fc965ec76","properties":{"airport":"LFBZ","name":"3","layer":"Labels","category":"Gates","object_type":"Label","style_id":"label.gates","source_group":"LFBZ Gates","vsmr_group_ids":[],"geometry_role":"text_label","text-field":"3"},"geometry":{"type":"Point","coordinates":[-1.531240833,43.471355]}},{"type":"Feature","id":"LFBZ-c18338f659a30f85cd22","properties":{"airport":"LFBZ","name":"34","layer":"Labels","category":"Gates","object_type":"Label","style_id":"label.gates","source_group":"LFBZ Gates","vsmr_group_ids":[],"geometry_role":"text_label","text-field":"34"},"geometry":{"type":"Point","coordinates":[-1.530943333,43.470941944]}},{"type":"Feature","id":"LFBZ-ffd2873909da73d7ae60","properties":{"airport":"LFBZ","name":"4","layer":"Labels","category":"Gates","object_type":"Label","style_id":"label.gates","source_group":"LFBZ Gates","vsmr_group_ids":[],"geometry_role":"text_label","text-field":"4"},"geometry":{"type":"Point","coordinates":[-1.530587778,43.471486667]}},{"type":"Feature","id":"LFBZ-93ba541796ff88446afc","properties":{"airport":"LFBZ","name":"5","layer":"Labels","category":"Gates","object_type":"Label","style_id":"label.gates","source_group":"LFBZ Gates","vsmr_group_ids":[],"geometry_role":"text_label","text-field":"5"},"geometry":{"type":"Point","coordinates":[-1.529911667,43.471415556]}},{"type":"Feature","id":"LFBZ-00717269e4d3609cc56a","properties":{"airport":"LFBZ","name":"56","layer":"Labels","category":"Gates","object_type":"Label","style_id":"label.gates","source_group":"LFBZ Gates","vsmr_group_ids":[],"geometry_role":"text_label","text-field":"56"},"geometry":{"type":"Point","coordinates":[-1.530258333,43.471395]}},{"type":"Feature","id":"LFBZ-6747c448e5d39598a9c3","properties":{"airport":"LFBZ","name":"6","layer":"Labels","category":"Gates","object_type":"Label","style_id":"label.gates","source_group":"LFBZ Gates","vsmr_group_ids":[],"geometry_role":"text_label","text-field":"6"},"geometry":{"type":"Point","coordinates":[-1.5296525,43.471492222]}},{"type":"Feature","id":"LFBZ-e2d8b1754ce9a896113c","properties":{"airport":"LFBZ","name":"67","layer":"Labels","category":"Gates","object_type":"Label","style_id":"label.gates","source_group":"LFBZ Gates","vsmr_group_ids":[],"geometry_role":"text_label","text-field":"67"},"geometry":{"type":"Point","coordinates":[-1.529161111,43.4715225]}},{"type":"Feature","id":"LFBZ-5076fa1db764b01a1091","properties":{"airport":"LFBZ","name":"78","layer":"Labels","category":"Gates","object_type":"Label","style_id":"label.gates","source_group":"LFBZ Gates","vsmr_group_ids":[],"geometry_role":"text_label","text-field":"78"},"geometry":{"type":"Point","coordinates":[-1.529369167,43.471360833]}},{"type":"Feature","id":"LFBZ-bb3e208001cd0fb6b63f","properties":{"airport":"LFBZ","name":"7","layer":"Labels","category":"Gates","object_type":"Label","style_id":"label.gates","source_group":"LFBZ Gates","vsmr_group_ids":[],"geometry_role":"text_label","text-field":"7"},"geometry":{"type":"Point","coordinates":[-1.5288375,43.47133]}},{"type":"Feature","id":"LFBZ-01c539bba5fde08a80e7","properties":{"airport":"LFBZ","name":"Hotel","layer":"Labels","category":"Gates","object_type":"Label","style_id":"label.gates","source_group":"LFBZ Gates","vsmr_group_ids":[],"geometry_role":"text_label","text-field":"Hotel"},"geometry":{"type":"Point","coordinates":[-1.535472222,43.470627778]}},{"type":"Feature","id":"LFBZ-c942273d1855d8059cbd","properties":{"airport":"LFBZ","name":"H","layer":"Labels","category":"Gates","object_type":"Label","style_id":"label.gates","source_group":"LFBZ Gates","vsmr_group_ids":[],"geometry_role":"text_label","text-field":"H"},"geometry":{"type":"Point","coordinates":[-1.535069444,43.469237778]}},{"type":"Feature","id":"LFBZ-6a8bfce714130d967865","properties":{"airport":"LFBZ","name":"H1","layer":"Labels","category":"Gates","object_type":"Label","style_id":"label.gates","source_group":"LFBZ Gates","vsmr_group_ids":[],"geometry_role":"text_label","text-field":"H1"},"geometry":{"type":"Point","coordinates":[-1.535471111,43.470064167]}},{"type":"Feature","id":"LFBZ-2392f15dc8f6b5075c66","properties":{"airport":"LFBZ","name":"H2","layer":"Labels","category":"Gates","object_type":"Label","style_id":"label.gates","source_group":"LFBZ Gates","vsmr_group_ids":[],"geometry_role":"text_label","text-field":"H2"},"geometry":{"type":"Point","coordinates":[-1.535452778,43.470266667]}},{"type":"Feature","id":"LFBZ-b9ca6c0a90001adb3a44","properties":{"airport":"LFBZ","name":"H3","layer":"Labels","category":"Gates","object_type":"Label","style_id":"label.gates","source_group":"LFBZ Gates","vsmr_group_ids":[],"geometry_role":"text_label","text-field":"H3"},"geometry":{"type":"Point","coordinates":[-1.535478889,43.470481389]}},{"type":"Feature","id":"LFBZ-e6bdfb5f78ffac3d82ba","properties":{"airport":"LFBZ","name":"Parking Kilo","layer":"Labels","category":"Gates","object_type":"Label","style_id":"label.gates","source_group":"LFBZ Gates","vsmr_group_ids":[],"geometry_role":"text_label","text-field":"Parking Kilo"},"geometry":{"type":"Point","coordinates":[-1.532288889,43.466177778]}},{"type":"Feature","id":"LFBZ-9ee51f3f6d40e7b3cdd8","properties":{"airport":"LFBZ","name":"1","layer":"Labels","category":"Gates","object_type":"Label","style_id":"label.gates","source_group":"LFBZ Gates","vsmr_group_ids":[],"geometry_role":"text_label","text-field":"1"},"geometry":{"type":"Point","coordinates":[-1.53085,43.466119444]}},{"type":"Feature","id":"LFBZ-88da38499c46cea6c571","properties":{"airport":"LFBZ","name":"2","layer":"Labels","category":"Gates","object_type":"Label","style_id":"label.gates","source_group":"LFBZ Gates","vsmr_group_ids":[],"geometry_role":"text_label","text-field":"2"},"geometry":{"type":"Point","coordinates":[-1.530853611,43.465844444]}},{"type":"Feature","id":"LFBZ-31851bd0226c76e74db5","properties":{"airport":"LFBZ","name":"3","layer":"Labels","category":"Gates","object_type":"Label","style_id":"label.gates","source_group":"LFBZ Gates","vsmr_group_ids":[],"geometry_role":"text_label","text-field":"3"},"geometry":{"type":"Point","coordinates":[-1.53105,43.465908333]}},{"type":"Feature","id":"LFBZ-c629570f8ae8a0a2c07e","properties":{"airport":"LFBZ","name":"4","layer":"Labels","category":"Gates","object_type":"Label","style_id":"label.gates","source_group":"LFBZ Gates","vsmr_group_ids":[],"geometry_role":"text_label","text-field":"4"},"geometry":{"type":"Point","coordinates":[-1.531613889,43.466008333]}},{"type":"Feature","id":"LFBZ-04781df6e6bbcb7c929d","properties":{"airport":"LFBZ","name":"5","layer":"Labels","category":"Gates","object_type":"Label","style_id":"label.gates","source_group":"LFBZ Gates","vsmr_group_ids":[],"geometry_role":"text_label","text-field":"5"},"geometry":{"type":"Point","coordinates":[-1.531925,43.465913889]}},{"type":"Feature","id":"LFBZ-5908810d10c19eaf1585","properties":{"airport":"LFBZ","name":"6","layer":"Labels","category":"Gates","object_type":"Label","style_id":"label.gates","source_group":"LFBZ Gates","vsmr_group_ids":[],"geometry_role":"text_label","text-field":"6"},"geometry":{"type":"Point","coordinates":[-1.532119444,43.465913889]}},{"type":"Feature","id":"LFBZ-52d31d0b2ee2adaa7ff6","properties":{"airport":"LFBZ","name":"7","layer":"Labels","category":"Gates","object_type":"Label","style_id":"label.gates","source_group":"LFBZ Gates","vsmr_group_ids":[],"geometry_role":"text_label","text-field":"7"},"geometry":{"type":"Point","coordinates":[-1.532377778,43.465913889]}},{"type":"Feature","id":"LFBZ-18bf5bf7665ed8327d5c","properties":{"airport":"LFBZ","name":"Parking Sud","layer":"Labels","category":"Gates","object_type":"Label","style_id":"label.gates","source_group":"LFBZ Gates","vsmr_group_ids":[],"geometry_role":"text_label","text-field":"Parking Sud"},"geometry":{"type":"Point","coordinates":[-1.534098611,43.465957778]}},{"type":"Feature","id":"LFBZ-86c8ce99910bc2a34972","properties":{"airport":"LFBZ","name":"LFBZ Groundlayout AVISO","layer":"Guidance lines","category":"Taxiways","object_type":"Line","style_id":"line.taxiway.c0b631","source_group":"LFBZ Groundlayout AVISO","vsmr_group_ids":[],"geometry_role":"linework"},"geometry":{"type":"MultiLineString","coordinates":[[[-1.534608056,43.470481667],[-1.535037222,43.470480278]],[[-1.53461,43.470265833],[-1.535033611,43.470260278]],[[-1.534993889,43.470055278],[-1.534596667,43.470059444]],[[-1.534348333,43.470485833],[-1.533885,43.47049]],[[-1.534340556,43.470201389],[-1.533873611,43.470205556]],[[-1.533581944,43.470493889],[-1.533052778,43.470499444]],[[-1.533563056,43.470206944],[-1.533062222,43.4702125]],[[-1.532363056,43.470804444],[-1.532355278,43.470411111]],[[-1.5317275,43.470913333],[-1.531871944,43.471224167]],[[-1.531269444,43.470901667],[-1.531029167,43.471412222]],[[-1.531068611,43.470904722],[-1.530761389,43.471559167]],[[-1.530727222,43.47156],[-1.530503056,43.470979167]],[[-1.530016111,43.471564722],[-1.530002778,43.4708575]],[[-1.529496944,43.471569167],[-1.529483611,43.470863056]],[[-1.528978056,43.471572222],[-1.528966111,43.470865278]],[[-1.528223333,43.470685833],[-1.528213611,43.470305]],[[-1.529396389,43.47145],[-1.528895278,43.471093611]],[[-1.530169722,43.471441389],[-1.529673056,43.471088333]],[[-1.529236667,43.471568056],[-1.529225833,43.470927778]],[[-1.530932778,43.466083333],[-1.530764722,43.466084444]],[[-1.531154722,43.46598],[-1.531001944,43.465880278]],[[-1.531122778,43.465885833],[-1.531289444,43.465979167]],[[-1.531665556,43.4659175],[-1.531476944,43.46605]],[[-1.531974722,43.465829167],[-1.5319775,43.466015278]],[[-1.532155833,43.46583],[-1.532158333,43.466006944]],[[-1.532422778,43.465996667],[-1.532423889,43.46583]],[[-1.535450278,43.470555833],[-1.535461111,43.470555833],[-1.5354725,43.470554722],[-1.535489167,43.470550833],[-1.535508056,43.470544444],[-1.535525833,43.470535278],[-1.535538333,43.470524444],[-1.535549167,43.470506944],[-1.535555,43.470488333],[-1.535553889,43.470470278],[-1.535546111,43.470452778],[-1.535534444,43.470439722],[-1.535521111,43.470430278],[-1.535506389,43.470421944],[-1.535492222,43.470416667],[-1.535476111,43.470413333],[-1.535458333,43.470411389],[-1.535440278,43.470411944],[-1.535426111,43.470415556],[-1.535409444,43.47042],[-1.535396389,43.470426944],[-1.535383889,43.470435556],[-1.535374167,43.470445],[-1.535364167,43.470456944],[-1.535359444,43.470469167],[-1.5353575,43.470481667],[-1.535358889,43.470496389],[-1.535364167,43.470510833],[-1.535373056,43.470521389],[-1.535385,43.470534167],[-1.535398056,43.4705425],[-1.535411667,43.470548611],[-1.535424722,43.4705525],[-1.535437222,43.470554167],[-1.535450278,43.470555833]],[[-1.535403889,43.470338056],[-1.535427778,43.470345278],[-1.535455,43.470345833],[-1.535477222,43.470343889],[-1.5354975,43.470338611],[-1.535514167,43.470331111],[-1.5355275,43.470323333],[-1.535540833,43.4703125],[-1.535549444,43.470299722],[-1.5355575,43.470283611],[-1.535559167,43.4702675],[-1.535555833,43.470248889],[-1.535546944,43.470236667],[-1.535535278,43.470223333],[-1.535519444,43.470211667],[-1.535501944,43.470203333],[-1.535477222,43.470196944],[-1.535448889,43.470195],[-1.535425,43.470198889],[-1.535404722,43.470204167],[-1.535386111,43.470213056],[-1.535375556,43.470220833],[-1.535363889,43.470233611],[-1.535356111,43.470248333],[-1.535351667,43.470261667],[-1.535351667,43.470274722],[-1.535353333,43.470291389],[-1.535361389,43.470306111],[-1.535372778,43.470316944],[-1.535383333,43.470327778],[-1.535403889,43.470338056]],[[-1.535443889,43.470134722],[-1.535455833,43.470135],[-1.535470833,43.470133611],[-1.535483889,43.470130556],[-1.535496111,43.470125833],[-1.53551,43.470119444],[-1.535521667,43.470112778],[-1.535533611,43.4701025],[-1.535541667,43.470094444],[-1.535547778,43.470081667],[-1.535551944,43.470066111],[-1.535551944,43.470051389],[-1.535548056,43.470038611],[-1.535542222,43.470029444],[-1.535530833,43.4700175],[-1.535520556,43.470008056],[-1.535505833,43.469999444],[-1.53549,43.469991944],[-1.535471667,43.469985556],[-1.535456944,43.469984167],[-1.535437222,43.469984167],[-1.535416389,43.469987778],[-1.535397778,43.469994167],[-1.535381944,43.470001389],[-1.535370278,43.470011389],[-1.535359444,43.470022222],[-1.535351111,43.470033889],[-1.535346944,43.470047222],[-1.535346111,43.470060556],[-1.535348889,43.470075556],[-1.535355833,43.470092222],[-1.535365556,43.470103889],[-1.535378611,43.470112778],[-1.535393889,43.470121389],[-1.535409722,43.470128333],[-1.535429444,43.470133333],[-1.535443889,43.470134722]],[[-1.535058056,43.469287222],[-1.535072222,43.469285556],[-1.535085556,43.469281944],[-1.535100278,43.469274444],[-1.535111389,43.469265278],[-1.535116389,43.469252778],[-1.535119444,43.469241111],[-1.535117222,43.469228333],[-1.535111389,43.469218611],[-1.535099444,43.469208333],[-1.535081667,43.469201389],[-1.535065556,43.469197222],[-1.535044722,43.469196667],[-1.535026389,43.4692025],[-1.535011667,43.469209444],[-1.535001944,43.469218056],[-1.534996667,43.469228611],[-1.534993889,43.469241111],[-1.534996111,43.469251667],[-1.535001111,43.469261944],[-1.535010833,43.469272222],[-1.535021944,43.469279167],[-1.535031389,43.4692825],[-1.5350425,43.469286667],[-1.535058056,43.469287222]],[[-1.5350825,43.469274444],[-1.5350825,43.469207778],[-1.535081667,43.469240556],[-1.535030833,43.469241111],[-1.535030833,43.469207778],[-1.53503,43.469274444],[-1.5350825,43.469274444]]]}},{"type":"Feature","id":"LFBZ-6a2ceeca55bd9b1d7a62","properties":{"airport":"LFBZ","name":"P","layer":"Labels","category":"Taxiways","object_type":"Label","style_id":"label.taxiways","source_group":"LFBZ Taxiways","vsmr_group_ids":[],"geometry_role":"text_label","text-field":"P"},"geometry":{"type":"Point","coordinates":[-1.531836111,43.469330556]}},{"type":"Feature","id":"LFBZ-42f618ce79a1f0f75a23","properties":{"airport":"LFBZ","name":"N2","layer":"Labels","category":"Taxiways","object_type":"Label","style_id":"label.taxiways","source_group":"LFBZ Taxiways","vsmr_group_ids":[],"geometry_role":"text_label","text-field":"N2"},"geometry":{"type":"Point","coordinates":[-1.530249444,43.469879722]}},{"type":"Feature","id":"LFBZ-b8434a2783486637836e","properties":{"airport":"LFBZ","name":"N1","layer":"Labels","category":"Taxiways","object_type":"Label","style_id":"label.taxiways","source_group":"LFBZ Taxiways","vsmr_group_ids":[],"geometry_role":"text_label","text-field":"N1"},"geometry":{"type":"Point","coordinates":[-1.525621667,43.4699375]}},{"type":"Feature","id":"LFBZ-a29309df5fd36d0ba9eb","properties":{"airport":"LFBZ","name":"N11","layer":"Labels","category":"Taxiways","object_type":"Label","style_id":"label.taxiways","source_group":"LFBZ Taxiways","vsmr_group_ids":[],"geometry_role":"text_label","text-field":"N11"},"geometry":{"type":"Point","coordinates":[-1.522982778,43.470220278]}},{"type":"Feature","id":"LFBZ-8c1600ed2353be406ad3","properties":{"airport":"LFBZ","name":"N","layer":"Labels","category":"Taxiways","object_type":"Label","style_id":"label.taxiways","source_group":"LFBZ Taxiways","vsmr_group_ids":[],"geometry_role":"text_label","text-field":"N"},"geometry":{"type":"Point","coordinates":[-1.521801944,43.469378611]}},{"type":"Feature","id":"LFBZ-7dadb651b70346e9ed1e","properties":{"airport":"LFBZ","name":"S","layer":"Labels","category":"Taxiways","object_type":"Label","style_id":"label.taxiways","source_group":"LFBZ Taxiways","vsmr_group_ids":[],"geometry_role":"text_label","text-field":"S"},"geometry":{"type":"Point","coordinates":[-1.52189,43.467721111]}},{"type":"Feature","id":"LFBZ-b88e2278a949f1d917a6","properties":{"airport":"LFBZ","name":"S1","layer":"Labels","category":"Taxiways","object_type":"Label","style_id":"label.taxiways","source_group":"LFBZ Taxiways","vsmr_group_ids":[],"geometry_role":"text_label","text-field":"S1"},"geometry":{"type":"Point","coordinates":[-1.527472778,43.466767222]}},{"type":"Feature","id":"LFBZ-e6c91efd83276ffaad4c","properties":{"airport":"LFBZ","name":"D","layer":"Labels","category":"Taxiways","object_type":"Label","style_id":"label.taxiways","source_group":"LFBZ Taxiways","vsmr_group_ids":[],"geometry_role":"text_label","text-field":"D"},"geometry":{"type":"Point","coordinates":[-1.531601111,43.467393611]}},{"type":"Feature","id":"LFBZ-0bfa0319848b46cf5217","properties":{"airport":"LFBZ","name":"D1","layer":"Labels","category":"Taxiways","object_type":"Label","style_id":"label.taxiways","source_group":"LFBZ Taxiways","vsmr_group_ids":[],"geometry_role":"text_label","text-field":"D1"},"geometry":{"type":"Point","coordinates":[-1.531594444,43.466330556]}},{"type":"Feature","id":"LFBZ-011467f966301dc0d75b","properties":{"airport":"LFBZ","name":"S2","layer":"Labels","category":"Taxiways","object_type":"Label","style_id":"label.taxiways","source_group":"LFBZ Taxiways","vsmr_group_ids":[],"geometry_role":"text_label","text-field":"S2"},"geometry":{"type":"Point","coordinates":[-1.532555833,43.466719167]}},{"type":"Feature","id":"LFBZ-be6e496ab4aca2064474","properties":{"airport":"LFBZ","name":"N3","layer":"Labels","category":"Taxiways","object_type":"Label","style_id":"label.taxiways","source_group":"LFBZ Taxiways","vsmr_group_ids":[],"geometry_role":"text_label","text-field":"N3"},"geometry":{"type":"Point","coordinates":[-1.534113333,43.469841389]}},{"type":"Feature","id":"LFBZ-664c5c9725c5eec37597","properties":{"airport":"LFBZ","name":"V","layer":"Labels","category":"Taxiways","object_type":"Label","style_id":"label.taxiways","source_group":"LFBZ Taxiways","vsmr_group_ids":[],"geometry_role":"text_label","text-field":"V"},"geometry":{"type":"Point","coordinates":[-1.530411111,43.470650833]}}]}
