{"type":"FeatureCollection","name":"LFCA AVISO","bbox":[0.548711389,46.779921667,0.548711389,46.779921667],"metadata":{"schema":"vSMR AVISO","schema_version":2,"geometry_mode":"shared","airport":"LFCA","coordinate_reference_system":"WGS84","coordinate_order":"longitude, latitude","default_color_palette":"dark","color_palettes":["dark","light"],"background_colors":{"dark":"#434A4F","light":"#434A4F"},"runways":[{"ends":["18","36"],"headings":[176,356],"thresholds":[[0.550207778,46.785760833],[0.550777778,46.779041944]]}],"saved_active_runways":[],"saved_active_airport_modes":[],"airport_reference":[0.550555833,46.780277778],"feature_count":2,"style_count":1,"layer_counts":{"Labels":2},"category_counts":{"Gates":2},"geometry_source":"local GNG/KMZ","geometry_source_url":"","geometry_license":"GPL-3.0"},"styles":{"label.gates":{"name":"Gates","layer":"Labels","object_type":"Label","paint":{"text-color":"#CCCCCC","text-font":"Arial","text-size":12,"text-halo-color":"#000000","text-halo-width":1,"text-anchor":"center","zoomLevel":9},"feature_count":2}},"vsmr_groups":[],"features":[{"type":"Feature","id":"LFCA-8ed275eca3954bd7a111","properties":{"airport":"LFCA","name":"Hangars","layer":"Labels","category":"Gates","object_type":"Label","style_id":"label.gates","source_group":"LFCA Gates","vsmr_group_ids":[],"geometry_role":"text_label","text-field":"Hangars"},"geometry":{"type":"Point","coordinates":[0.548711389,46.779921667]}},{"type":"Feature","id":"LFCA-7a233ba5b5776defaab3","properties":{"airport":"LFCA","name":"Hangars","layer":"Labels","category":"Gates","object_type":"Label","style_id":"label.gates","source_group":"LFCA Gates","vsmr_group_ids":[],"geometry_role":"text_label","text-field":"Hangars"},"geometry":{"type":"Point","coordinates":[0.548711389,46.779921667]}}]}
