{"type":"FeatureCollection","name":"LFCI AVISO","bbox":[2.100955278,43.913012222,2.121226944,43.915885556],"metadata":{"schema":"vSMR AVISO","schema_version":2,"geometry_mode":"shared","airport":"LFCI","coordinate_reference_system":"WGS84","coordinate_order":"longitude, latitude","default_color_palette":"dark","color_palettes":["dark","light"],"background_colors":{"dark":"#434A4F","light":"#434A4F"},"runways":[{"ends":["09","27"],"headings":[88,268],"thresholds":[[2.101807778,43.91315],[2.118257778,43.913288889]]}],"saved_active_runways":[],"saved_active_airport_modes":[],"airport_reference":[2.116666944,43.913332778],"feature_count":9,"style_count":8,"layer_counts":{"Guidance lines":7,"Labels":2},"category_counts":{"Apron Surface":1,"Centerlines":1,"Gates":2,"Labels":1,"Runways":1,"Stopbars":1,"TWR-CTR":1,"Taxiways":1},"geometry_source":"local GNG","geometry_source_url":"","geometry_license":"GPL-3.0"},"styles":{"line.runwayconcrete.555555":{"name":"Runways","layer":"Guidance lines","object_type":"Line","paint":{"stroke":"#111318","stroke-opacity":1,"stroke-width":1,"palette-overrides":{"light":{"stroke":"#555555"}}},"feature_count":1},"line.taxiway.c0b631":{"name":"Taxiways","layer":"Guidance lines","object_type":"Line","paint":{"stroke":"#4E5A69","stroke-opacity":1,"stroke-width":1,"palette-overrides":{"light":{"stroke":"#C0B631"}}},"feature_count":1},"line.apronsurface.808080":{"name":"Apron Surface","layer":"Guidance lines","object_type":"Line","paint":{"stroke":"#808080","stroke-opacity":1,"stroke-width":1,"palette-overrides":{"light":{"stroke":"#808080"}}},"feature_count":1},"line.centerlines.ffff00":{"name":"Centerlines","layer":"Guidance lines","object_type":"Line","paint":{"stroke":"#FFFF00","stroke-opacity":1,"stroke-width":1,"palette-overrides":{"light":{"stroke":"#FFFF00"}}},"feature_count":1},"line.stopbar.7e0000":{"name":"Stopbars","layer":"Guidance lines","object_type":"Line","paint":{"stroke":"#7E0000","stroke-opacity":1,"stroke-width":1,"palette-overrides":{"light":{"stroke":"#7E0000"}}},"feature_count":1},"line.twr-ctr.000000":{"name":"TWR-CTR","layer":"Guidance lines","object_type":"Line","paint":{"stroke":"#000000","stroke-opacity":1,"stroke-width":1,"palette-overrides":{"light":{"stroke":"#000000"}}},"feature_count":1},"line.labels.808080":{"name":"Labels","layer":"Guidance lines","object_type":"Line","paint":{"stroke":"#808080","stroke-opacity":1,"stroke-width":1,"palette-overrides":{"light":{"stroke":"#808080"}}},"feature_count":1},"label.gates":{"name":"Gates","layer":"Labels","object_type":"Label","paint":{"text-color":"#CCCCCC","text-font":"Arial","text-size":12,"text-halo-color":"#000000","text-halo-width":1,"text-anchor":"center","zoomLevel":9},"feature_count":2}},"vsmr_groups":[],"features":[{"type":"Feature","id":"LFCI-f0218db6fa54b07bcd24","properties":{"airport":"LFCI","name":"TWR","layer":"Labels","category":"Gates","object_type":"Label","style_id":"label.gates","source_group":"LFCI Gates","vsmr_group_ids":[],"geometry_role":"text_label","text-field":"TWR"},"geometry":{"type":"Point","coordinates":[2.116630278,43.915781944]}},{"type":"Feature","id":"LFCI-be4d39da4b19fbe23c78","properties":{"airport":"LFCI","name":"ACB-Hangars","layer":"Labels","category":"Gates","object_type":"Label","style_id":"label.gates","source_group":"LFCI Gates","vsmr_group_ids":[],"geometry_role":"text_label","text-field":"ACB-Hangars"},"geometry":{"type":"Point","coordinates":[2.116178889,43.915707222]}},{"type":"Feature","id":"LFCI-eba42f7f2c1ababad65b","properties":{"airport":"LFCI","name":"LFCI Groundlayout","layer":"Guidance lines","category":"Runways","object_type":"Line","style_id":"line.runwayconcrete.555555","source_group":"LFCI Groundlayout","vsmr_group_ids":[],"geometry_role":"linework"},"geometry":{"type":"LineString","coordinates":[[2.106424444,43.913326389],[2.106384167,43.913329444],[2.106346667,43.913337222],[2.106313056,43.913349444],[2.106274167,43.913364444],[2.106238056,43.913381389],[2.106208889,43.913398333],[2.106178333,43.913419444],[2.106150556,43.913440556],[2.1061225,43.913459444],[2.106087778,43.9134725],[2.106051667,43.913483611],[2.106019722,43.913491667],[2.105976667,43.9134975],[2.105936389,43.9135025],[2.105891667,43.913501667],[2.105852778,43.913499722],[2.105809722,43.9134925],[2.105768056,43.913485556],[2.105740556,43.913475556],[2.105715833,43.913461944],[2.105683056,43.913448056],[2.105662778,43.913430833],[2.105641389,43.913417222],[2.105618889,43.913400833],[2.105605278,43.913388611],[2.105591667,43.913375],[2.105577222,43.913358611],[2.1055625,43.9133375],[2.105545556,43.913325278],[2.105526389,43.913321111],[2.105498056,43.913316389],[2.100955278,43.91328],[2.1009575,43.913012222],[2.121226944,43.913181111],[2.121222778,43.913451667],[2.119276667,43.913445278],[2.119245278,43.913460833],[2.119221389,43.913488611],[2.119197222,43.913523056],[2.119158889,43.913550833],[2.119115556,43.913573333],[2.119074722,43.913585278],[2.119019722,43.913599167],[2.118981111,43.913609444],[2.118925833,43.913613056],[2.118875556,43.913611389],[2.1188275,43.913606111],[2.118781944,43.9135975],[2.118731389,43.913581944],[2.118697778,43.913566389],[2.118652222,43.913547222],[2.118620833,43.913523056],[2.118596944,43.913495278],[2.118573056,43.913471111],[2.118536944,43.913450556],[2.118508056,43.913438333],[2.118467222,43.913433056],[2.117340278,43.913425]]}},{"type":"Feature","id":"LFCI-104f409f728f459cec38","properties":{"airport":"LFCI","name":"LFCI Groundlayout","layer":"Guidance lines","category":"Taxiways","object_type":"Line","style_id":"line.taxiway.c0b631","source_group":"LFCI Groundlayout","vsmr_group_ids":[],"geometry_role":"linework"},"geometry":{"type":"MultiLineString","coordinates":[[[2.1173425,43.913424722],[2.117301389,43.913428056],[2.117253611,43.913437778],[2.117215556,43.913449444],[2.117175,43.913464444],[2.117138611,43.913478333],[2.117096111,43.913498056],[2.117070556,43.9135125],[2.117033889,43.913535278],[2.117004167,43.913556389],[2.1169725,43.913581389],[2.116946667,43.913607778],[2.116919167,43.913638611],[2.116894722,43.913669444],[2.116878611,43.913694444],[2.116861667,43.913721944],[2.116846111,43.913752778],[2.116834167,43.9137875],[2.116828333,43.91382],[2.116826111,43.913860833],[2.116825,43.913905833],[2.116814167,43.914526389],[2.116814444,43.914563333],[2.116833056,43.914599722],[2.116851667,43.914637222],[2.116879722,43.914666944],[2.116918333,43.914698611],[2.116960833,43.914724444],[2.117008611,43.914744444],[2.117063333,43.914764722],[2.117124444,43.914771389],[2.117173611,43.914774167]],[[2.115976111,43.913411389],[2.116028056,43.913416944],[2.116067222,43.913423889],[2.116110833,43.913431111],[2.116149444,43.913436389],[2.116190833,43.9134425],[2.116235278,43.913451667],[2.116275833,43.913458611],[2.116311389,43.913468889],[2.116344444,43.913478333],[2.116389722,43.913496111],[2.116423611,43.913515556],[2.116463611,43.9135425],[2.116490278,43.913561667],[2.116511944,43.91358],[2.116531944,43.913598333],[2.116546111,43.913616944],[2.116561944,43.913636389],[2.116576111,43.913657222],[2.1165925,43.913684167],[2.116607222,43.913714167],[2.116624722,43.913750556],[2.116635556,43.913783333],[2.116640833,43.913830833],[2.116641944,43.913873056],[2.116641944,43.913940833],[2.116641944,43.913996389],[2.116620833,43.914746667]]]}},{"type":"Feature","id":"LFCI-6e342e3eef5829b98529","properties":{"airport":"LFCI","name":"LFCI Groundlayout","layer":"Guidance lines","category":"Apron Surface","object_type":"Line","style_id":"line.apronsurface.808080","source_group":"LFCI Groundlayout","vsmr_group_ids":[],"geometry_role":"linework"},"geometry":{"type":"LineString","coordinates":[[2.117174167,43.914774444],[2.118105278,43.9147875],[2.118093611,43.915679444],[2.116113889,43.915663889],[2.116058333,43.915678333],[2.116018611,43.915703889],[2.115981111,43.915748333],[2.115923611,43.915885556],[2.115848056,43.915871944],[2.115993611,43.915612222],[2.116206111,43.915605833],[2.116400833,43.915572222],[2.116403889,43.9154925],[2.116601667,43.915413056],[2.116619722,43.914744444]]}},{"type":"Feature","id":"LFCI-9900a568454bb1c71604","properties":{"airport":"LFCI","name":"LFCI Groundlayout","layer":"Guidance lines","category":"Centerlines","object_type":"Line","style_id":"line.centerlines.ffff00","source_group":"LFCI Groundlayout","vsmr_group_ids":[],"geometry_role":"linework"},"geometry":{"type":"MultiLineString","coordinates":[[[2.116783889,43.915087778],[2.116911111,43.915089722]],[[2.116825833,43.915243889],[2.1168275,43.915186111]],[[2.116827222,43.915214444],[2.116898889,43.915215556]],[[2.116822222,43.915371111],[2.116823333,43.915311389]],[[2.116823611,43.915340556],[2.116893611,43.915341111]],[[2.116821944,43.915497778],[2.116820278,43.915436111]],[[2.116822222,43.915466667],[2.116894722,43.915467778]],[[2.117169444,43.915502222],[2.117168889,43.915440556]],[[2.117168056,43.915376111],[2.117171111,43.915314722]],[[2.117170556,43.915343889],[2.117266944,43.915346111]],[[2.117174167,43.915248889],[2.117175833,43.915188333]],[[2.117170556,43.915472778],[2.117248333,43.915473611]],[[2.117175278,43.915218889],[2.117246111,43.91522]],[[2.117178611,43.915123333],[2.117179722,43.915061667]],[[2.117179722,43.915093056],[2.117249722,43.915093611]],[[2.117518056,43.915505556],[2.117518889,43.915443889]],[[2.11752,43.915474167],[2.117591389,43.915475]],[[2.117520833,43.915379167],[2.117521667,43.915316944]],[[2.117523333,43.915348333],[2.117590278,43.915349167]],[[2.117523333,43.915253333],[2.117524722,43.915192222]],[[2.117524722,43.915222222],[2.117597778,43.915223611]],[[2.117525833,43.915128056],[2.117527222,43.915066111]],[[2.117528889,43.915097222],[2.117598889,43.915097778]],[[2.117920833,43.915038333],[2.117923611,43.914915556]],[[2.117922778,43.914978056],[2.118065278,43.914980556]]]}},{"type":"Feature","id":"LFCI-2c636ecd106736ccff28","properties":{"airport":"LFCI","name":"LFCI Groundlayout","layer":"Guidance lines","category":"Stopbars","object_type":"Line","style_id":"line.stopbar.7e0000","source_group":"LFCI Groundlayout","vsmr_group_ids":[],"geometry_role":"linework"},"geometry":{"type":"MultiLineString","coordinates":[[[2.116642778,43.9139575],[2.116823889,43.913959444]],[[2.116616944,43.914952778],[2.116737778,43.914953889]]]}},{"type":"Feature","id":"LFCI-854f2057d5b3b08fddd2","properties":{"airport":"LFCI","name":"LFCI Groundlayout","layer":"Guidance lines","category":"TWR-CTR","object_type":"Line","style_id":"line.twr-ctr.000000","source_group":"LFCI Groundlayout","vsmr_group_ids":[],"geometry_role":"linework"},"geometry":{"type":"LineString","coordinates":[[2.116648333,43.915719444],[2.116733056,43.915719444],[2.116732222,43.915673056],[2.116649167,43.915671667],[2.116648333,43.915719444]]}},{"type":"Feature","id":"LFCI-68d88bb46eab28b66bff","properties":{"airport":"LFCI","name":"LFCI Groundlayout","layer":"Guidance lines","category":"Labels","object_type":"Line","style_id":"line.labels.808080","source_group":"LFCI Groundlayout","vsmr_group_ids":[],"geometry_role":"linework"},"geometry":{"type":"MultiLineString","coordinates":[[[2.117385556,43.913371667],[2.117608889,43.913329167],[2.1176075,43.913315556],[2.117422222,43.913350833],[2.117423611,43.913309167],[2.117385,43.913308889],[2.117385556,43.913371667]],[[2.102479722,43.913220278],[2.102623333,43.913221111],[2.102623333,43.913199722],[2.102479722,43.913197778],[2.102479722,43.913220278]],[[2.102440556,43.913236667],[2.102661944,43.913238333],[2.102664167,43.913182778],[2.102439444,43.913180556],[2.102440556,43.913236667]],[[2.102566389,43.913125278],[2.102624444,43.913125556],[2.102624444,43.913103889],[2.102566389,43.913103889],[2.102566389,43.913125278]],[[2.102526389,43.913141389],[2.102665833,43.913141944],[2.102666667,43.913086389],[2.102477222,43.913083889],[2.102427222,43.913125278],[2.102453611,43.913126667],[2.102485,43.913102222],[2.102525556,43.913103056],[2.102526389,43.913141389]],[[2.117385278,43.913268056],[2.117461944,43.9132675],[2.117544167,43.913229167],[2.11757,43.913229444],[2.117570278,43.913269444],[2.117610278,43.91327],[2.117609722,43.913213611],[2.117545,43.913211667],[2.117458611,43.913251389],[2.117423333,43.913251667],[2.117423889,43.913229444],[2.117443889,43.913228889],[2.117445,43.913213056],[2.117385,43.913211944],[2.117385278,43.913268056]]]}}]}
