{"type":"FeatureCollection","name":"LFCL AVISO","bbox":[1.495138889,43.582694444,1.503472222,43.590694444],"metadata":{"schema":"vSMR AVISO","schema_version":2,"geometry_mode":"shared","airport":"LFCL","coordinate_reference_system":"WGS84","coordinate_order":"longitude, latitude","default_color_palette":"dark","color_palettes":["dark","light"],"background_colors":{"dark":"#434A4F","light":"#434A4F"},"runways":[{"ends":["15","33"],"headings":[154,334],"thresholds":[[1.497174722,43.59],[1.501357778,43.583382778]]}],"saved_active_runways":[],"saved_active_airport_modes":[],"airport_reference":[1.498610833,43.587777778],"feature_count":1,"style_count":1,"layer_counts":{"Guidance lines":1},"category_counts":{"Runways":1},"geometry_source":"local GNG/KMZ","geometry_source_url":"","geometry_license":"GPL-3.0"},"styles":{"line.runwayconcrete.555555":{"name":"Runways","layer":"Guidance lines","object_type":"Line","paint":{"stroke":"#111318","stroke-opacity":1,"stroke-width":1,"palette-overrides":{"light":{"stroke":"#555555"}}},"feature_count":1}},"vsmr_groups":[],"features":[{"type":"Feature","id":"LFCL-5ca88c0012f05c7b24e5","properties":{"airport":"LFCL","name":"LFCL Groundlayout","layer":"Guidance lines","category":"Runways","object_type":"Line","style_id":"line.runwayconcrete.555555","source_group":"LFCL Groundlayout","vsmr_group_ids":[],"geometry_role":"linework"},"geometry":{"type":"MultiLineString","coordinates":[[[1.495138889,43.589305556],[1.499333333,43.582694444]],[[1.49925,43.590694444],[1.495138889,43.589305556]],[[1.503472222,43.584111111],[1.499333333,43.582694444]]]}}]}
