{"type":"FeatureCollection","name":"LFCR AVISO","bbox":[2.469893056,44.400418889,2.494430833,44.414836667],"metadata":{"schema":"vSMR AVISO","schema_version":2,"geometry_mode":"shared","airport":"LFCR","coordinate_reference_system":"WGS84","coordinate_order":"longitude, latitude","default_color_palette":"dark","color_palettes":["dark","light"],"background_colors":{"dark":"#434A4F","light":"#434A4F"},"runways":[{"ends":["13","31"],"headings":[128,308],"thresholds":[[2.472660833,44.413657778],[2.492127778,44.402388889]]}],"saved_active_runways":[],"saved_active_airport_modes":[],"airport_reference":[2.483332778,44.407499722],"feature_count":38,"style_count":11,"layer_counts":{"Airfield surfaces":4,"Buildings and structures":7,"Guidance lines":2,"Labels":23,"Surface markings":1,"Terrain":1},"category_counts":{"Buildings":7,"Gates":17,"Grass":1,"Hard Surface 2":1,"Hard Surface 3":1,"Hard Surface 4":1,"Runways":1,"Stopbars":1,"Taxiway Orange":1,"Taxiways":7},"geometry_source":"local GNG","geometry_source_url":"","geometry_license":"GPL-3.0"},"styles":{"polygon.grassurface.00512f":{"name":"Grass","layer":"Terrain","object_type":"Area","paint":{"fill":"#010D19","fill-opacity":1,"palette-overrides":{"light":{"fill":"#00512F"}}},"feature_count":1},"polygon.hardsurface4.969393":{"name":"Hard Surface 4","layer":"Airfield surfaces","object_type":"Area","paint":{"fill":"#152841","fill-opacity":1,"palette-overrides":{"light":{"fill":"#969393"}}},"feature_count":1},"polygon.hardsurface3.8a807f":{"name":"Hard Surface 3","layer":"Airfield surfaces","object_type":"Area","paint":{"fill":"#222D3C","fill-opacity":1,"palette-overrides":{"light":{"fill":"#8A807F"}}},"feature_count":1},"polygon.hardsurface2.595e5b":{"name":"Hard Surface 2","layer":"Airfield surfaces","object_type":"Area","paint":{"fill":"#2F3949","fill-opacity":1,"palette-overrides":{"light":{"fill":"#595E5B"}}},"feature_count":1},"polygon.runwayconcrete.555555":{"name":"Runways","layer":"Airfield surfaces","object_type":"Area","paint":{"fill":"#111318","fill-opacity":1,"palette-overrides":{"light":{"fill":"#555555"}}},"feature_count":1},"polygon.building.394446":{"name":"Buildings","layer":"Buildings and structures","object_type":"Area","paint":{"fill":"#475570","fill-opacity":1,"palette-overrides":{"light":{"fill":"#394446"}}},"feature_count":7},"polygon.stopbar.7e0000":{"name":"Stopbars","layer":"Surface markings","object_type":"Area","paint":{"fill":"#7E0000","fill-opacity":1,"palette-overrides":{"light":{"fill":"#7E0000"}}},"feature_count":1},"line.taxiway.c0b631":{"name":"Taxiways","layer":"Guidance lines","object_type":"Line","paint":{"stroke":"#4E5A69","stroke-opacity":1,"stroke-width":1,"palette-overrides":{"light":{"stroke":"#C0B631"}}},"feature_count":1},"line.taxiwayorange.cc6d00":{"name":"Taxiway Orange","layer":"Guidance lines","object_type":"Line","paint":{"stroke":"#CC8B00","stroke-opacity":1,"stroke-width":1,"palette-overrides":{"light":{"stroke":"#CC6D00"}}},"feature_count":1},"label.gates":{"name":"Gates","layer":"Labels","object_type":"Label","paint":{"text-color":"#CCCCCC","text-font":"Arial","text-size":12,"text-halo-color":"#000000","text-halo-width":1,"text-anchor":"center","zoomLevel":9},"feature_count":17},"label.taxiways":{"name":"Taxiways","layer":"Labels","object_type":"Label","paint":{"text-color":"#CCCCCC","text-font":"Arial","text-size":12,"text-halo-color":"#000000","text-halo-width":1,"text-anchor":"center","zoomLevel":7},"feature_count":6}},"vsmr_groups":[],"features":[{"type":"Feature","id":"LFCR-c3e4319e3e7429c3242f","properties":{"airport":"LFCR","name":"LFCR AVISO","layer":"Terrain","category":"Grass","object_type":"Area","style_id":"polygon.grassurface.00512f","source_group":"LFCR AVISO","vsmr_group_ids":[],"geometry_role":"filled_region"},"geometry":{"type":"Polygon","coordinates":[[[2.491769444,44.400696111],[2.491923889,44.400793889],[2.492088056,44.400723333],[2.492870833,44.401468056],[2.493718611,44.400999167],[2.494403889,44.401589167],[2.493616944,44.402034722],[2.494430833,44.402874444],[2.493451389,44.403395278],[2.490676111,44.4048925],[2.4901375,44.405293333],[2.489811389,44.405578333],[2.4893425,44.405805833],[2.486606667,44.407516111],[2.4865825,44.407557222],[2.486569722,44.407610278],[2.486591111,44.407670278],[2.486653889,44.407742778],[2.4867425,44.407831667],[2.486810833,44.407901389],[2.486945278,44.408031389],[2.486995833,44.408124722],[2.487000278,44.408241111],[2.4869675,44.4083425],[2.486920278,44.408421667],[2.486798333,44.408513611],[2.486736389,44.408600833],[2.487241667,44.409071389],[2.486784167,44.409369167],[2.486540278,44.409509444],[2.486386944,44.409661111],[2.485725833,44.410150556],[2.485598889,44.410231389],[2.485389444,44.410312222],[2.485319722,44.410298056],[2.484910556,44.409910556],[2.483661111,44.410639167],[2.482818333,44.411087778],[2.481620833,44.4118975],[2.481536944,44.411895833],[2.481401389,44.411818611],[2.478452778,44.413521667],[2.477085,44.414010278],[2.475964167,44.41464],[2.475712778,44.4146575],[2.475521667,44.414643889],[2.475366389,44.414625556],[2.475218333,44.414575833],[2.475065556,44.414520833],[2.474821111,44.414451389],[2.474555278,44.414389167],[2.474208611,44.414303056],[2.473931111,44.414244444],[2.473796389,44.414217222],[2.473545556,44.414258056],[2.473209722,44.414309444],[2.472982778,44.414333611],[2.472665833,44.414374444],[2.472335278,44.414443056],[2.472155,44.414517778],[2.47174,44.4147275],[2.471535556,44.414836667],[2.471258333,44.414624444],[2.470958611,44.414378889],[2.470863333,44.414258333],[2.47078,44.414108611],[2.470115833,44.413331667],[2.469893056,44.412513056],[2.482321389,44.405059722],[2.483206111,44.404633056],[2.484674444,44.403915556],[2.485360833,44.403671667],[2.486232222,44.403236667],[2.48696,44.402624444],[2.487533333,44.402178611],[2.48824,44.401698056],[2.4888375,44.401203333],[2.489392222,44.400972222],[2.489983889,44.40072],[2.490585556,44.400556944],[2.491085556,44.400418889],[2.491466944,44.400504167],[2.4916625,44.400551389],[2.491769444,44.400696111]]]}},{"type":"Feature","id":"LFCR-a91092401f415d66b08a","properties":{"airport":"LFCR","name":"LFCR AVISO","layer":"Airfield surfaces","category":"Hard Surface 4","object_type":"Area","style_id":"polygon.hardsurface4.969393","source_group":"LFCR AVISO","vsmr_group_ids":[],"geometry_role":"filled_region"},"geometry":{"type":"Polygon","coordinates":[[[2.486225833,44.408800556],[2.486389167,44.408992222],[2.485743056,44.409380833],[2.485061111,44.409826389],[2.483599444,44.410643333],[2.48264,44.410883056],[2.482557222,44.410863056],[2.482508889,44.410801111],[2.482840833,44.410636389],[2.483340833,44.410342778],[2.486048889,44.408811667],[2.486225833,44.408800556]]]}},{"type":"Feature","id":"LFCR-48fe178299422ce42acf","properties":{"airport":"LFCR","name":"LFCR AVISO","layer":"Airfield surfaces","category":"Hard Surface 3","object_type":"Area","style_id":"polygon.hardsurface3.8a807f","source_group":"LFCR AVISO","vsmr_group_ids":[],"geometry_role":"filled_region"},"geometry":{"type":"Polygon","coordinates":[[[2.483333889,44.410354167],[2.483126111,44.410162222],[2.483291111,44.409730278],[2.484909167,44.408671389],[2.485584167,44.408295833],[2.485418333,44.408143611],[2.485720556,44.4079675],[2.4864875,44.408660278],[2.486111944,44.408869722],[2.486060556,44.408866944],[2.485990278,44.4088825],[2.485916111,44.408916389],[2.485705556,44.409037222],[2.485458056,44.409164444],[2.483333889,44.410354167]]]}},{"type":"Feature","id":"LFCR-d65f1f181b6e806e27b2","properties":{"airport":"LFCR","name":"LFCR AVISO","layer":"Airfield surfaces","category":"Hard Surface 2","object_type":"Area","style_id":"polygon.hardsurface2.595e5b","source_group":"LFCR AVISO","vsmr_group_ids":[],"geometry_role":"filled_region"},"geometry":{"type":"Polygon","coordinates":[[[2.484144722,44.408046667],[2.48438,44.408255278],[2.4844975,44.408316667],[2.484644444,44.4083575],[2.484754444,44.408366667],[2.4848525,44.408366389],[2.484946111,44.408356111],[2.485049722,44.408327778],[2.485174444,44.408283056],[2.485426111,44.408139444],[2.485604167,44.408295556],[2.484924167,44.408688056],[2.484656667,44.408969167],[2.483297222,44.409745556],[2.483138889,44.410175833],[2.483027778,44.410076111],[2.482845,44.410638333],[2.482532222,44.410823611],[2.482581389,44.410865],[2.482449167,44.411024167],[2.482448056,44.411048333],[2.48247,44.411081944],[2.482532222,44.411133333],[2.482350556,44.411235833],[2.481545556,44.411615278],[2.4813075,44.41173],[2.481124167,44.411569444],[2.481083889,44.411520833],[2.481036389,44.411416389],[2.482749444,44.410427222],[2.482781944,44.410386389],[2.483,44.409717222],[2.483035556,44.409614444],[2.483064722,44.409551111],[2.483117222,44.409486389],[2.483213056,44.409423056],[2.484027778,44.408960556],[2.484101111,44.408906667],[2.484161389,44.408843333],[2.484204167,44.408779167],[2.484229444,44.408710833],[2.484242222,44.408634167],[2.484239167,44.408584722],[2.484227222,44.408517222],[2.484191944,44.408444722],[2.484150278,44.408381944],[2.483921111,44.408176111],[2.484144722,44.408046667]]]}},{"type":"Feature","id":"LFCR-92f2b88a4a299868ce1a","properties":{"airport":"LFCR","name":"LFCR AVISO","layer":"Airfield surfaces","category":"Runways","object_type":"Area","style_id":"polygon.runwayconcrete.555555","source_group":"LFCR AVISO","vsmr_group_ids":[],"geometry_role":"filled_region"},"geometry":{"type":"Polygon","coordinates":[[[2.473535556,44.413405],[2.47334,44.413755],[2.473306389,44.413788056],[2.473261111,44.413810278],[2.473193333,44.413828056],[2.4731025,44.4138325],[2.472997778,44.41383],[2.472939722,44.413819444],[2.472824167,44.4138125],[2.472477222,44.413500278],[2.492481667,44.401920556],[2.492859167,44.402288056],[2.492876667,44.402318611],[2.492868056,44.402371944],[2.4928425,44.402450278],[2.492814722,44.402494722],[2.492778333,44.402528056],[2.492739444,44.402549722],[2.492681389,44.402559444],[2.492377778,44.402591667],[2.492266667,44.402606111],[2.492171667,44.402631944],[2.492099722,44.402656944],[2.484041944,44.407321389],[2.483941111,44.407419722],[2.483878889,44.407525],[2.4838625,44.407611111],[2.483858333,44.407701111],[2.483883611,44.407783333],[2.483931944,44.407854444],[2.484034722,44.407955556],[2.4841475,44.408046389],[2.483920556,44.408177778],[2.483738056,44.408011111],[2.483670833,44.407966389],[2.483573889,44.407926389],[2.483473056,44.407898611],[2.483346389,44.407880278],[2.483224444,44.407881389],[2.483084444,44.407905556],[2.482948056,44.4079525],[2.473535556,44.413405]]]}},{"type":"Feature","id":"LFCR-6b9e7360d0c24fd7d60c","properties":{"airport":"LFCR","name":"LFCR AVISO","layer":"Buildings and structures","category":"Buildings","object_type":"Area","style_id":"polygon.building.394446","source_group":"LFCR AVISO","vsmr_group_ids":[],"geometry_role":"filled_region"},"geometry":{"type":"Polygon","coordinates":[[[2.4867275,44.408851944],[2.486883889,44.408999722],[2.486726389,44.409086389],[2.486571111,44.408943889],[2.4867275,44.408851944]]]}},{"type":"Feature","id":"LFCR-aeb8e74b61ec241c5b1d","properties":{"airport":"LFCR","name":"LFCR AVISO","layer":"Buildings and structures","category":"Buildings","object_type":"Area","style_id":"polygon.building.394446","source_group":"LFCR AVISO","vsmr_group_ids":[],"geometry_role":"filled_region"},"geometry":{"type":"Polygon","coordinates":[[[2.485783056,44.409003056],[2.485850556,44.408966111],[2.485904722,44.409017778],[2.486073056,44.408923333],[2.486235556,44.409072778],[2.485998333,44.409205],[2.485783056,44.409003056]]]}},{"type":"Feature","id":"LFCR-c19e842231440f159df1","properties":{"airport":"LFCR","name":"LFCR AVISO","layer":"Buildings and structures","category":"Buildings","object_type":"Area","style_id":"polygon.building.394446","source_group":"LFCR AVISO","vsmr_group_ids":[],"geometry_role":"filled_region"},"geometry":{"type":"Polygon","coordinates":[[[2.485665,44.409212778],[2.485896389,44.40943],[2.485848889,44.409461944],[2.485895833,44.409509444],[2.485626667,44.409663056],[2.485709444,44.409740278],[2.485255833,44.409996111],[2.484802222,44.409588056],[2.485205278,44.409353056],[2.485291944,44.409427778],[2.485665,44.409212778]]]}},{"type":"Feature","id":"LFCR-a34d13bbff70d48151b9","properties":{"airport":"LFCR","name":"LFCR AVISO","layer":"Buildings and structures","category":"Buildings","object_type":"Area","style_id":"polygon.building.394446","source_group":"LFCR AVISO","vsmr_group_ids":[],"geometry_role":"filled_region"},"geometry":{"type":"Polygon","coordinates":[[[2.484450556,44.409826944],[2.484558333,44.409934722],[2.484343889,44.410059167],[2.4843375,44.410106111],[2.484308333,44.410126944],[2.484286944,44.410124444],[2.484289167,44.410096111],[2.48419,44.410090833],[2.484191944,44.410064444],[2.484139167,44.410011111],[2.484450556,44.409826944]]]}},{"type":"Feature","id":"LFCR-9ed96afa5be6d4d31d34","properties":{"airport":"LFCR","name":"LFCR AVISO","layer":"Buildings and structures","category":"Buildings","object_type":"Area","style_id":"polygon.building.394446","source_group":"LFCR AVISO","vsmr_group_ids":[],"geometry_role":"filled_region"},"geometry":{"type":"Polygon","coordinates":[[[2.483869722,44.410173333],[2.483981944,44.410111667],[2.483952778,44.410079722],[2.4840325,44.410033333],[2.484056944,44.41006],[2.4841275,44.410025278],[2.484241389,44.410136667],[2.484228333,44.410183333],[2.484078056,44.410181389],[2.4840675,44.410216389],[2.484041389,44.410243056],[2.483924444,44.410300556],[2.483869722,44.410173333]]]}},{"type":"Feature","id":"LFCR-3117de02cb7c6006705c","properties":{"airport":"LFCR","name":"LFCR AVISO","layer":"Buildings and structures","category":"Buildings","object_type":"Area","style_id":"polygon.building.394446","source_group":"LFCR AVISO","vsmr_group_ids":[],"geometry_role":"filled_region"},"geometry":{"type":"Polygon","coordinates":[[[2.483086944,44.410920278],[2.482848611,44.411048056],[2.482621111,44.410848611],[2.483840833,44.410136944],[2.483929167,44.410226667],[2.483933056,44.41031],[2.484158611,44.410322778],[2.483744444,44.410563889],[2.483711944,44.410531389],[2.483619444,44.410581389],[2.483661944,44.410623333],[2.483586389,44.410705833],[2.483506944,44.410769722],[2.483410556,44.410830278],[2.48331,44.410881667],[2.483195556,44.410926389],[2.483119444,44.410950833],[2.483086944,44.410920278]]]}},{"type":"Feature","id":"LFCR-9927b3a3132c0e547126","properties":{"airport":"LFCR","name":"LFCR AVISO","layer":"Buildings and structures","category":"Buildings","object_type":"Area","style_id":"polygon.building.394446","source_group":"LFCR AVISO","vsmr_group_ids":[],"geometry_role":"filled_region"},"geometry":{"type":"Polygon","coordinates":[[[2.482321111,44.41115],[2.482530833,44.411356944],[2.481953333,44.411693333],[2.481900833,44.411646389],[2.481691111,44.411764444],[2.481524444,44.411614722],[2.482321111,44.41115]]]}},{"type":"Feature","id":"LFCR-9f764951d3f9e72a84de","properties":{"airport":"LFCR","name":"LFCR AVISO","layer":"Surface markings","category":"Stopbars","object_type":"Area","style_id":"polygon.stopbar.7e0000","source_group":"LFCR AVISO","vsmr_group_ids":[],"geometry_role":"filled_region"},"geometry":{"type":"Polygon","coordinates":[[[2.484133056,44.4080325],[2.484153611,44.408051667],[2.483926944,44.408183889],[2.483906111,44.408165556],[2.484133056,44.4080325]]]}},{"type":"Feature","id":"LFCR-42f1f862e51090a0c8ce","properties":{"airport":"LFCR","name":"1","layer":"Labels","category":"Gates","object_type":"Label","style_id":"label.gates","source_group":"LFCR Gates","vsmr_group_ids":[],"geometry_role":"text_label","text-field":"1"},"geometry":{"type":"Point","coordinates":[2.483711667,44.409575]}},{"type":"Feature","id":"LFCR-195899d6224051d1d2dc","properties":{"airport":"LFCR","name":"2","layer":"Labels","category":"Gates","object_type":"Label","style_id":"label.gates","source_group":"LFCR Gates","vsmr_group_ids":[],"geometry_role":"text_label","text-field":"2"},"geometry":{"type":"Point","coordinates":[2.484558889,44.409097222]}},{"type":"Feature","id":"LFCR-5c9e539857c2db1f2362","properties":{"airport":"LFCR","name":"3","layer":"Labels","category":"Gates","object_type":"Label","style_id":"label.gates","source_group":"LFCR Gates","vsmr_group_ids":[],"geometry_role":"text_label","text-field":"3"},"geometry":{"type":"Point","coordinates":[2.485319444,44.408544444]}},{"type":"Feature","id":"LFCR-7862ab71f5f876eae37c","properties":{"airport":"LFCR","name":"3A","layer":"Labels","category":"Gates","object_type":"Label","style_id":"label.gates","source_group":"LFCR Gates","vsmr_group_ids":[],"geometry_role":"text_label","text-field":"3A"},"geometry":{"type":"Point","coordinates":[2.485411111,44.408577778]}},{"type":"Feature","id":"LFCR-5f89988650473a051efb","properties":{"airport":"LFCR","name":"4","layer":"Labels","category":"Gates","object_type":"Label","style_id":"label.gates","source_group":"LFCR Gates","vsmr_group_ids":[],"geometry_role":"text_label","text-field":"4"},"geometry":{"type":"Point","coordinates":[2.4855025,44.408697222]}},{"type":"Feature","id":"LFCR-bb034eaae3f49a4457f9","properties":{"airport":"LFCR","name":"3B","layer":"Labels","category":"Gates","object_type":"Label","style_id":"label.gates","source_group":"LFCR Gates","vsmr_group_ids":[],"geometry_role":"text_label","text-field":"3B"},"geometry":{"type":"Point","coordinates":[2.485641944,44.408783333]}},{"type":"Feature","id":"LFCR-aba7472a44c23f54441f","properties":{"airport":"LFCR","name":"5","layer":"Labels","category":"Gates","object_type":"Label","style_id":"label.gates","source_group":"LFCR Gates","vsmr_group_ids":[],"geometry_role":"text_label","text-field":"5"},"geometry":{"type":"Point","coordinates":[2.485666111,44.40885]}},{"type":"Feature","id":"LFCR-5b01b4dd45cae1682f98","properties":{"airport":"LFCR","name":"7","layer":"Labels","category":"Gates","object_type":"Label","style_id":"label.gates","source_group":"LFCR Gates","vsmr_group_ids":[],"geometry_role":"text_label","text-field":"7"},"geometry":{"type":"Point","coordinates":[2.484934444,44.408777778]}},{"type":"Feature","id":"LFCR-674c0777c369f05a9820","properties":{"airport":"LFCR","name":"7A","layer":"Labels","category":"Gates","object_type":"Label","style_id":"label.gates","source_group":"LFCR Gates","vsmr_group_ids":[],"geometry_role":"text_label","text-field":"7A"},"geometry":{"type":"Point","coordinates":[2.484934444,44.408852778]}},{"type":"Feature","id":"LFCR-a7b40e110b2b67a100e3","properties":{"airport":"LFCR","name":"8","layer":"Labels","category":"Gates","object_type":"Label","style_id":"label.gates","source_group":"LFCR Gates","vsmr_group_ids":[],"geometry_role":"text_label","text-field":"8"},"geometry":{"type":"Point","coordinates":[2.485103056,44.408927778]}},{"type":"Feature","id":"LFCR-e68ba98ac06680ffdd6a","properties":{"airport":"LFCR","name":"7B","layer":"Labels","category":"Gates","object_type":"Label","style_id":"label.gates","source_group":"LFCR Gates","vsmr_group_ids":[],"geometry_role":"text_label","text-field":"7B"},"geometry":{"type":"Point","coordinates":[2.485189444,44.409052778]}},{"type":"Feature","id":"LFCR-490d4b0ffef5026fbcff","properties":{"airport":"LFCR","name":"9","layer":"Labels","category":"Gates","object_type":"Label","style_id":"label.gates","source_group":"LFCR Gates","vsmr_group_ids":[],"geometry_role":"text_label","text-field":"9"},"geometry":{"type":"Point","coordinates":[2.485261667,44.409072222]}},{"type":"Feature","id":"LFCR-d933971278f01f46357b","properties":{"airport":"LFCR","name":"T10","layer":"Labels","category":"Gates","object_type":"Label","style_id":"label.gates","source_group":"LFCR Gates","vsmr_group_ids":[],"geometry_role":"text_label","text-field":"T10"},"geometry":{"type":"Point","coordinates":[2.4856275,44.408130556]}},{"type":"Feature","id":"LFCR-6bdfd2d397737a9cc6a1","properties":{"airport":"LFCR","name":"Hangar","layer":"Labels","category":"Gates","object_type":"Label","style_id":"label.gates","source_group":"LFCR Gates","vsmr_group_ids":[],"geometry_role":"text_label","text-field":"Hangar"},"geometry":{"type":"Point","coordinates":[2.482013889,44.411461111]}},{"type":"Feature","id":"LFCR-c107ab91dca5ca826839","properties":{"airport":"LFCR","name":"Hangar","layer":"Labels","category":"Gates","object_type":"Label","style_id":"label.gates","source_group":"LFCR Gates","vsmr_group_ids":[],"geometry_role":"text_label","text-field":"Hangar"},"geometry":{"type":"Point","coordinates":[2.485244444,44.409636111]}},{"type":"Feature","id":"LFCR-292228ce3a719ebf5c9f","properties":{"airport":"LFCR","name":"TWR","layer":"Labels","category":"Gates","object_type":"Label","style_id":"label.gates","source_group":"LFCR Gates","vsmr_group_ids":[],"geometry_role":"text_label","text-field":"TWR"},"geometry":{"type":"Point","coordinates":[2.483726389,44.410416667]}},{"type":"Feature","id":"LFCR-ca4e078a7f3c59aa1f74","properties":{"airport":"LFCR","name":"Terminal","layer":"Labels","category":"Gates","object_type":"Label","style_id":"label.gates","source_group":"LFCR Gates","vsmr_group_ids":[],"geometry_role":"text_label","text-field":"Terminal"},"geometry":{"type":"Point","coordinates":[2.483259722,44.410711111]}},{"type":"Feature","id":"LFCR-23fd8c1be6f66689aead","properties":{"airport":"LFCR","name":"LFCR Groundlayout AVISO","layer":"Guidance lines","category":"Taxiways","object_type":"Line","style_id":"line.taxiway.c0b631","source_group":"LFCR Groundlayout AVISO","vsmr_group_ids":[],"geometry_role":"linework"},"geometry":{"type":"MultiLineString","coordinates":[[[2.485319167,44.409042222],[2.485614167,44.408873889]],[[2.485277222,44.409001111],[2.485313333,44.408980556]],[[2.485157778,44.408896389],[2.485446111,44.408723056]],[[2.485031667,44.408783056],[2.48507,44.408760278]],[[2.484379167,44.409543889],[2.484530833,44.409166944],[2.484505833,44.409161389],[2.484552778,44.409171667]],[[2.483596111,44.409992778],[2.4836925,44.40964],[2.483664444,44.409636944],[2.483720278,44.409643056]],[[2.485363333,44.408951111],[2.485403333,44.408927778]],[[2.485452778,44.408898611],[2.485492778,44.408875278]],[[2.485532778,44.408853333],[2.485570278,44.408832222]],[[2.485119722,44.408733333],[2.4851575,44.408711389]],[[2.485205833,44.408683889],[2.485247222,44.408658333]],[[2.485288889,44.408636389],[2.485325833,44.408613333]],[[2.484987778,44.4087475],[2.485280556,44.408577778]],[[2.485686944,44.408168611],[2.4856575,44.408185833],[2.485673056,44.408176944],[2.485879167,44.408361389]]]}},{"type":"Feature","id":"LFCR-c12c444fb601c0012ac9","properties":{"airport":"LFCR","name":"LFCR Groundlayout AVISO","layer":"Guidance lines","category":"Taxiway Orange","object_type":"Line","style_id":"line.taxiwayorange.cc6d00","source_group":"LFCR Groundlayout AVISO","vsmr_group_ids":[],"geometry_role":"linework"},"geometry":{"type":"MultiLineString","coordinates":[[[2.4849375,44.408361944],[2.485007222,44.408487222]],[[2.483979722,44.408995278],[2.484088056,44.409089444]],[[2.482844722,44.410194444],[2.482981667,44.410217778]]]}},{"type":"Feature","id":"LFCR-4b28c1138986d7fb22f2","properties":{"airport":"LFCR","name":"13","layer":"Labels","category":"Taxiways","object_type":"Label","style_id":"label.taxiways","source_group":"LFCR Taxiways","vsmr_group_ids":[],"geometry_role":"text_label","text-field":"13"},"geometry":{"type":"Point","coordinates":[2.472995833,44.413444167]}},{"type":"Feature","id":"LFCR-6f006bb3f33356232667","properties":{"airport":"LFCR","name":"31","layer":"Labels","category":"Taxiways","object_type":"Label","style_id":"label.taxiways","source_group":"LFCR Taxiways","vsmr_group_ids":[],"geometry_role":"text_label","text-field":"31"},"geometry":{"type":"Point","coordinates":[2.492300833,44.402288333]}},{"type":"Feature","id":"LFCR-bd564f913033db58a230","properties":{"airport":"LFCR","name":"A1","layer":"Labels","category":"Taxiways","object_type":"Label","style_id":"label.taxiways","source_group":"LFCR Taxiways","vsmr_group_ids":[],"geometry_role":"text_label","text-field":"A1"},"geometry":{"type":"Point","coordinates":[2.483884444,44.408922778]}},{"type":"Feature","id":"LFCR-01fa9d735cefba91ae13","properties":{"airport":"LFCR","name":"A2","layer":"Labels","category":"Taxiways","object_type":"Label","style_id":"label.taxiways","source_group":"LFCR Taxiways","vsmr_group_ids":[],"geometry_role":"text_label","text-field":"A2"},"geometry":{"type":"Point","coordinates":[2.484893333,44.408253056]}},{"type":"Feature","id":"LFCR-3b30d051782c3b096b70","properties":{"airport":"LFCR","name":"A3","layer":"Labels","category":"Taxiways","object_type":"Label","style_id":"label.taxiways","source_group":"LFCR Taxiways","vsmr_group_ids":[],"geometry_role":"text_label","text-field":"A3"},"geometry":{"type":"Point","coordinates":[2.48268,44.4101675]}},{"type":"Feature","id":"LFCR-43337ce212df57faf7a3","properties":{"airport":"LFCR","name":"C","layer":"Labels","category":"Taxiways","object_type":"Label","style_id":"label.taxiways","source_group":"LFCR Taxiways","vsmr_group_ids":[],"geometry_role":"text_label","text-field":"C"},"geometry":{"type":"Point","coordinates":[2.483801389,44.408270833]}}]}
