{"type":"FeatureCollection","name":"LFCY AVISO","bbox":[-0.978833333,45.627361111,-0.966777778,45.633222222],"metadata":{"schema":"vSMR AVISO","schema_version":2,"geometry_mode":"shared","airport":"LFCY","coordinate_reference_system":"WGS84","coordinate_order":"longitude, latitude","default_color_palette":"dark","color_palettes":["dark","light"],"background_colors":{"dark":"#434A4F","light":"#434A4F"},"runways":[{"ends":["10R","28L"],"headings":[100,280],"thresholds":[[-0.977116944,45.630513889],[-0.967455833,45.629171944]]},{"ends":["10","28"],"headings":[100,280],"thresholds":[[-0.978341944,45.631557778],[-0.9674,45.630027778]]}],"saved_active_runways":[],"saved_active_airport_modes":[],"airport_reference":[-0.975555833,45.631110833],"feature_count":2,"style_count":2,"layer_counts":{"Guidance lines":2},"category_counts":{"Grass runways":1,"Runways":1},"geometry_source":"local GNG","geometry_source_url":"","geometry_license":"GPL-3.0"},"styles":{"line.runwayconcrete.555555":{"name":"Runways","layer":"Guidance lines","object_type":"Line","paint":{"stroke":"#111318","stroke-opacity":1,"stroke-width":1,"palette-overrides":{"light":{"stroke":"#555555"}}},"feature_count":1},"line.runwaygrass.008000":{"name":"Grass runways","layer":"Guidance lines","object_type":"Line","paint":{"stroke":"#859A77","stroke-opacity":1,"stroke-width":1,"palette-overrides":{"light":{"stroke":"#008000"}}},"feature_count":1}},"vsmr_groups":[],"features":[{"type":"Feature","id":"LFCY-8b35a0e12650f09c4574","properties":{"airport":"LFCY","name":"LFCY Groundlayout","layer":"Guidance lines","category":"Runways","object_type":"Line","style_id":"line.runwayconcrete.555555","source_group":"LFCY Groundlayout","vsmr_group_ids":[],"geometry_role":"linework"},"geometry":{"type":"MultiLineString","coordinates":[[[-0.978833333,45.629972222],[-0.967638889,45.628361111]],[[-0.977972222,45.633222222],[-0.978833333,45.629972222]],[[-0.966777778,45.631638889],[-0.967638889,45.628361111]]]}},{"type":"Feature","id":"LFCY-c7885175a23d7a0c5780","properties":{"airport":"LFCY","name":"LFCY Groundlayout","layer":"Guidance lines","category":"Grass runways","object_type":"Line","style_id":"line.runwaygrass.008000","source_group":"LFCY Groundlayout","vsmr_group_ids":[],"geometry_role":"linework"},"geometry":{"type":"MultiLineString","coordinates":[[[-0.976861111,45.632027778],[-0.967055556,45.630638889]],[[-0.977722222,45.628777778],[-0.967944444,45.627361111]],[[-0.976861111,45.632027778],[-0.977722222,45.628777778]],[[-0.967055556,45.630638889],[-0.967944444,45.627361111]]]}}]}
