{"type":"FeatureCollection","name":"LFDH AVISO","bbox":[0.598795556,43.675044444,0.603541944,43.692327222],"metadata":{"schema":"vSMR AVISO","schema_version":2,"geometry_mode":"shared","airport":"LFDH","coordinate_reference_system":"WGS84","coordinate_order":"longitude, latitude","default_color_palette":"dark","color_palettes":["dark","light"],"background_colors":{"dark":"#434A4F","light":"#434A4F"},"runways":[{"ends":["18L","36R"],"headings":[184,4],"thresholds":[[0.601110833,43.685277778],[0.600277778,43.677777778]]},{"ends":["18","36"],"headings":[183,3],"thresholds":[[0.600505833,43.692141944],[0.599196944,43.676963889]]}],"saved_active_runways":[],"saved_active_airport_modes":[],"airport_reference":[0.6,43.686943889],"feature_count":13,"style_count":9,"layer_counts":{"Guidance lines":7,"Labels":6},"category_counts":{"Apron Surface":1,"Centerlines":1,"Gates":4,"Grass runways":1,"Labels":1,"Runways":1,"Stopbars":1,"Taxiways":3},"geometry_source":"local GNG/KMZ","geometry_source_url":"","geometry_license":"GPL-3.0"},"styles":{"line.runwayconcrete.555555":{"name":"Runways","layer":"Guidance lines","object_type":"Line","paint":{"stroke":"#111318","stroke-opacity":1,"stroke-width":1,"palette-overrides":{"light":{"stroke":"#555555"}}},"feature_count":1},"line.runwaygrass.008000":{"name":"Grass runways","layer":"Guidance lines","object_type":"Line","paint":{"stroke":"#859A77","stroke-opacity":1,"stroke-width":1,"palette-overrides":{"light":{"stroke":"#008000"}}},"feature_count":1},"line.taxiway.c0b631":{"name":"Taxiways","layer":"Guidance lines","object_type":"Line","paint":{"stroke":"#4E5A69","stroke-opacity":1,"stroke-width":1,"palette-overrides":{"light":{"stroke":"#C0B631"}}},"feature_count":1},"line.apronsurface.808080":{"name":"Apron Surface","layer":"Guidance lines","object_type":"Line","paint":{"stroke":"#808080","stroke-opacity":1,"stroke-width":1,"palette-overrides":{"light":{"stroke":"#808080"}}},"feature_count":1},"line.stopbar.7e0000":{"name":"Stopbars","layer":"Guidance lines","object_type":"Line","paint":{"stroke":"#7E0000","stroke-opacity":1,"stroke-width":1,"palette-overrides":{"light":{"stroke":"#7E0000"}}},"feature_count":1},"line.centerlines.ffff00":{"name":"Centerlines","layer":"Guidance lines","object_type":"Line","paint":{"stroke":"#FFFF00","stroke-opacity":1,"stroke-width":1,"palette-overrides":{"light":{"stroke":"#FFFF00"}}},"feature_count":1},"line.labels.808080":{"name":"Labels","layer":"Guidance lines","object_type":"Line","paint":{"stroke":"#808080","stroke-opacity":1,"stroke-width":1,"palette-overrides":{"light":{"stroke":"#808080"}}},"feature_count":1},"label.gates":{"name":"Gates","layer":"Labels","object_type":"Label","paint":{"text-color":"#CCCCCC","text-font":"Arial","text-size":12,"text-halo-color":"#000000","text-halo-width":1,"text-anchor":"center","zoomLevel":9},"feature_count":4},"label.taxiways":{"name":"Taxiways","layer":"Labels","object_type":"Label","paint":{"text-color":"#CCCCCC","text-font":"Arial","text-size":12,"text-halo-color":"#000000","text-halo-width":1,"text-anchor":"center","zoomLevel":7},"feature_count":2}},"vsmr_groups":[],"features":[{"type":"Feature","id":"LFDH-0af58d121ad62d24c078","properties":{"airport":"LFDH","name":"Hangars","layer":"Labels","category":"Gates","object_type":"Label","style_id":"label.gates","source_group":"LFDH Gates","vsmr_group_ids":[],"geometry_role":"text_label","text-field":"Hangars"},"geometry":{"type":"Point","coordinates":[0.603435556,43.691873056]}},{"type":"Feature","id":"LFDH-4d675b6d3c8c9dc78a97","properties":{"airport":"LFDH","name":"Hangars","layer":"Labels","category":"Gates","object_type":"Label","style_id":"label.gates","source_group":"LFDH Gates","vsmr_group_ids":[],"geometry_role":"text_label","text-field":"Hangars"},"geometry":{"type":"Point","coordinates":[0.603541944,43.690097778]}},{"type":"Feature","id":"LFDH-82439d260a3d801a7ea7","properties":{"airport":"LFDH","name":"Hangars","layer":"Labels","category":"Gates","object_type":"Label","style_id":"label.gates","source_group":"LFDH Gates","vsmr_group_ids":[],"geometry_role":"text_label","text-field":"Hangars"},"geometry":{"type":"Point","coordinates":[0.602981111,43.688411111]}},{"type":"Feature","id":"LFDH-81b8642ab23c9da4dda2","properties":{"airport":"LFDH","name":"Terminal","layer":"Labels","category":"Gates","object_type":"Label","style_id":"label.gates","source_group":"LFDH Gates","vsmr_group_ids":[],"geometry_role":"text_label","text-field":"Terminal"},"geometry":{"type":"Point","coordinates":[0.602700833,43.688075278]}},{"type":"Feature","id":"LFDH-a4b26c9af65a69472a54","properties":{"airport":"LFDH","name":"LFDH Groundlayout","layer":"Guidance lines","category":"Runways","object_type":"Line","style_id":"line.runwayconcrete.555555","source_group":"LFDH Groundlayout","vsmr_group_ids":[],"geometry_role":"linework"},"geometry":{"type":"LineString","coordinates":[[0.600544722,43.690434722],[0.600645833,43.691619722],[0.600654167,43.691657222],[0.600666389,43.691696389],[0.600688056,43.691726111],[0.600715556,43.691755556],[0.600833611,43.691884722],[0.600853889,43.691905],[0.600868889,43.691926667],[0.600878611,43.691946944],[0.600883056,43.691966944],[0.600883889,43.691991944],[0.600873333,43.692011389],[0.600858333,43.692029167],[0.600835833,43.692048056],[0.600810833,43.692063056],[0.600783889,43.692075833],[0.600753889,43.692085556],[0.600766389,43.692165],[0.60076,43.692173333],[0.600746667,43.692175556],[0.600722778,43.692175556],[0.600274167,43.692195278],[0.60027,43.692187778],[0.600293889,43.692163611],[0.600315556,43.692160556],[0.600315556,43.692141944],[0.598848889,43.675113611],[0.598834444,43.675101667],[0.598804444,43.675081389],[0.598795556,43.675074167],[0.5988,43.675066944],[0.598821111,43.675068611],[0.598837778,43.675074167],[0.599225556,43.675055],[0.59925,43.675046111],[0.599262222,43.675044444],[0.599274444,43.6750525],[0.599286667,43.675076667],[0.599281111,43.675110556],[0.599316944,43.675121667],[0.599343611,43.675132222],[0.599370278,43.675149167],[0.599391389,43.675167778],[0.599414722,43.675190278],[0.599431667,43.675211111],[0.599445,43.675236111],[0.599449722,43.675258611],[0.599440556,43.675278611],[0.599427778,43.675298889],[0.599396389,43.6753325],[0.599370833,43.675363333],[0.599347778,43.675391944],[0.599326944,43.675423056],[0.5993025,43.675459167],[0.599286111,43.6754825],[0.599275833,43.675507778],[0.59927,43.675524444],[0.599266389,43.675543889],[0.599264167,43.675595],[0.599380278,43.676952778],[0.599483611,43.676961944],[0.599541389,43.676974722],[0.599601944,43.676994722],[0.599642222,43.677020278],[0.5996925,43.677053056],[0.599720278,43.677091389],[0.599755556,43.677125833],[0.599775556,43.677173333],[0.599778333,43.677213333],[0.599770556,43.6772625],[0.599753056,43.677306111],[0.599732778,43.67735],[0.599702778,43.677384444],[0.5996725,43.677413611],[0.599609444,43.677459167],[0.599561667,43.677488333],[0.599523889,43.677519167],[0.599493611,43.677555833],[0.599465833,43.677595833],[0.599446111,43.677630833],[0.599443333,43.677655556],[0.59945,43.677698333],[0.600230278,43.686751667]]}},{"type":"Feature","id":"LFDH-8baf59b4dac7b10be8cc","properties":{"airport":"LFDH","name":"LFDH Groundlayout","layer":"Guidance lines","category":"Grass runways","object_type":"Line","style_id":"line.runwaygrass.008000","source_group":"LFDH Groundlayout","vsmr_group_ids":[],"geometry_role":"linework"},"geometry":{"type":"LineString","coordinates":[[0.601331111,43.685277778],[0.600572778,43.685309167],[0.599931944,43.678111389],[0.600663889,43.678084167],[0.601331111,43.685277778]]}},{"type":"Feature","id":"LFDH-86dae0a7f1184fa7c20d","properties":{"airport":"LFDH","name":"LFDH Groundlayout","layer":"Guidance lines","category":"Taxiways","object_type":"Line","style_id":"line.taxiway.c0b631","source_group":"LFDH Groundlayout","vsmr_group_ids":[],"geometry_role":"linework"},"geometry":{"type":"MultiLineString","coordinates":[[[0.600231111,43.686749444],[0.600240833,43.686787222],[0.600259722,43.686815556],[0.600282778,43.6868425],[0.600305556,43.686865278],[0.600328611,43.686883333],[0.600365833,43.686906667],[0.600396389,43.686921944],[0.600430833,43.686935],[0.600468056,43.686945278],[0.600501389,43.686956389],[0.60053,43.686964722],[0.600571111,43.686964167],[0.600783889,43.686958611],[0.60197,43.686896667],[0.601999722,43.686891667],[0.602016111,43.686881944],[0.602014722,43.686866389]],[[0.600545833,43.6904375],[0.600593611,43.690428333],[0.600648611,43.690416111],[0.600689444,43.690403889],[0.600721667,43.690389444],[0.600754167,43.690371111],[0.600786389,43.690350833],[0.600814444,43.690326389],[0.600838611,43.690301944],[0.600855278,43.690278611],[0.600868056,43.690251111],[0.600875,43.690226667],[0.600876389,43.690205278],[0.600879444,43.690188056],[0.600901944,43.690183056],[0.600948333,43.690180833],[0.6011875,43.690172778],[0.601303056,43.690170833],[0.601437222,43.6901725],[0.6015425,43.690175278],[0.601611944,43.690183889],[0.601675556,43.690189722],[0.601721111,43.690203889],[0.601754722,43.690221111],[0.601776667,43.690246944],[0.601798333,43.690274167],[0.601822222,43.690303056],[0.601836111,43.690334444]],[[0.600486111,43.689696944],[0.600506667,43.689764722],[0.600518889,43.689798611],[0.600535278,43.689829167],[0.600557778,43.689851667],[0.600584722,43.68987],[0.600614167,43.689889167],[0.600656667,43.689908611],[0.600697222,43.689926111],[0.600736389,43.689943056],[0.600759722,43.689956944],[0.6008075,43.6899875],[0.600831667,43.690011944],[0.600855,43.690030278],[0.600883611,43.690044167],[0.600911111,43.690047222],[0.600945833,43.690045556],[0.601123333,43.690034167],[0.601261667,43.690021944],[0.601506944,43.689993056],[0.601578333,43.68998],[0.601632222,43.689966667],[0.601681111,43.6899525],[0.601720833,43.689940833],[0.601750556,43.689926944],[0.601776111,43.689910556],[0.601803611,43.689890833],[0.601817778,43.689870833],[0.60183,43.689850833],[0.601840278,43.689831111],[0.601847222,43.689811944],[0.601851389,43.689789722]],[[0.600282778,43.687338056],[0.600288333,43.687298611],[0.6003,43.687258056],[0.600317222,43.687226944],[0.60033,43.687201111],[0.600348611,43.687176111],[0.600375833,43.687153333],[0.600406111,43.687135833],[0.6004475,43.687122222],[0.600507778,43.687106667],[0.600565278,43.687092222],[0.600626944,43.687081944],[0.600682778,43.687071389],[0.600744444,43.687065278],[0.600816111,43.687063333],[0.601181667,43.687048611],[0.6013025,43.687046389],[0.601354444,43.6870525],[0.601395556,43.687061111],[0.601442778,43.687073333],[0.601485,43.687084722],[0.601529722,43.6871075],[0.601562222,43.687128333],[0.60159,43.687151111],[0.601614167,43.687180833],[0.601639722,43.687211389],[0.601652778,43.687242778]]]}},{"type":"Feature","id":"LFDH-f7c1f6c60f294222031a","properties":{"airport":"LFDH","name":"LFDH Groundlayout","layer":"Guidance lines","category":"Apron Surface","object_type":"Line","style_id":"line.apronsurface.808080","source_group":"LFDH Groundlayout","vsmr_group_ids":[],"geometry_role":"linework"},"geometry":{"type":"MultiLineString","coordinates":[[[0.601851389,43.689790833],[0.601859444,43.689755833],[0.6018675,43.689702778],[0.601866389,43.689607222],[0.601859722,43.689408333],[0.601818611,43.688863056],[0.601768056,43.6882875],[0.60174,43.688040833],[0.601664167,43.687298889],[0.601659444,43.687268056],[0.601656111,43.687250833],[0.601653611,43.687241389]],[[0.601836667,43.690333611],[0.601848333,43.690360556],[0.601858333,43.690393056],[0.6018675,43.690434444],[0.6018775,43.690473611],[0.601887222,43.690509444],[0.601895556,43.690541389],[0.6019,43.690569722],[0.601906389,43.690603611],[0.601908889,43.690629167],[0.601920833,43.690699167],[0.601926944,43.690761389],[0.601934167,43.690816111],[0.601938333,43.69088],[0.601944444,43.690948889],[0.601967778,43.691198056],[0.60199,43.691412778],[0.602044722,43.692185556],[0.602495278,43.6921625],[0.602986389,43.692327222],[0.602926389,43.691501111],[0.602616389,43.691578611],[0.60259,43.691581389],[0.602537222,43.691583889],[0.602398333,43.691583889],[0.602357778,43.691581389],[0.602324444,43.6915775],[0.602299722,43.691569722],[0.602268056,43.691559722],[0.602241667,43.691546944],[0.602222222,43.691535556],[0.602202778,43.691520278],[0.602188889,43.6915075],[0.602183056,43.691499722],[0.602178333,43.691476667],[0.602164167,43.691350278],[0.602141944,43.691078611],[0.602118333,43.690821667],[0.602110278,43.690709444],[0.602071111,43.690304444],[0.602061111,43.690142222],[0.6020425,43.689929722],[0.602066111,43.689733889],[0.602072778,43.6897],[0.602079167,43.6896825],[0.602098889,43.689669444],[0.602128056,43.689658056],[0.602144722,43.689657222],[0.602162778,43.689674167],[0.602348889,43.689823333],[0.602365833,43.689838056],[0.602370556,43.689860556],[0.602435556,43.690629444],[0.602970833,43.690601667],[0.603021389,43.690590556],[0.603045556,43.690564444],[0.60307,43.690530833],[0.603074722,43.690483611],[0.603021111,43.6897475],[0.603005833,43.689728611],[0.602975,43.689715833],[0.602937778,43.689719167],[0.602476944,43.689741389],[0.602448333,43.6897475],[0.602433056,43.689742778],[0.602145278,43.6895175],[0.602116667,43.689451944],[0.602047778,43.689356667],[0.602047778,43.689220833],[0.6019975,43.688518889],[0.60248,43.688496944],[0.602359167,43.687017778],[0.602368333,43.687003056],[0.602410833,43.686997222],[0.602538333,43.686991667],[0.602571111,43.687004444],[0.602600278,43.687018333],[0.602627222,43.687046389],[0.602658056,43.687179167],[0.602768333,43.687166389],[0.602665833,43.686833889],[0.602683333,43.686819722],[0.602685278,43.686801667],[0.602669722,43.686794722],[0.602633056,43.686798889],[0.602569167,43.686812778],[0.602569167,43.6868325],[0.602470556,43.686868611],[0.602332778,43.686876667],[0.602315833,43.68687],[0.602314444,43.686850278],[0.602248889,43.686853611],[0.602226111,43.686624722],[0.602273333,43.686621389],[0.602255,43.686471667],[0.601974444,43.686483889],[0.602001667,43.686733889],[0.602015278,43.686868889]]]}},{"type":"Feature","id":"LFDH-d61cc73e7f958c21103e","properties":{"airport":"LFDH","name":"LFDH Groundlayout","layer":"Guidance lines","category":"Stopbars","object_type":"Line","style_id":"line.stopbar.7e0000","source_group":"LFDH Groundlayout","vsmr_group_ids":[],"geometry_role":"linework"},"geometry":{"type":"MultiLineString","coordinates":[[[0.601010278,43.687055556],[0.601001389,43.686947222]],[[0.601272778,43.690171111],[0.601260278,43.690023333]]]}},{"type":"Feature","id":"LFDH-d091b9ff8eb3e3ad1d43","properties":{"airport":"LFDH","name":"LFDH Groundlayout","layer":"Guidance lines","category":"Centerlines","object_type":"Line","style_id":"line.centerlines.ffff00","source_group":"LFDH Groundlayout","vsmr_group_ids":[],"geometry_role":"linework"},"geometry":{"type":"MultiLineString","coordinates":[[[0.601845278,43.68718],[0.602033056,43.687170556]],[[0.602916111,43.692062222],[0.602686111,43.692071944]],[[0.602661111,43.6919375],[0.6029075,43.691927222]],[[0.602706667,43.691701111],[0.602886389,43.691693333]],[[0.601963889,43.688418056],[0.602148611,43.688408611]],[[0.601947222,43.688256944],[0.602133056,43.688247778]],[[0.601930556,43.688095278],[0.602120278,43.688085556]],[[0.601913056,43.687933056],[0.602106389,43.687924444]],[[0.601904444,43.687808056],[0.602094722,43.687798889]],[[0.601893333,43.687682222],[0.602084167,43.687673056]],[[0.601880556,43.687556389],[0.602069722,43.6875475]],[[0.601867778,43.687430833],[0.602058333,43.687421111]],[[0.601854722,43.687304722],[0.602045278,43.687296111]]]}},{"type":"Feature","id":"LFDH-b559a0254e42d0d5962a","properties":{"airport":"LFDH","name":"LFDH Groundlayout","layer":"Guidance lines","category":"Labels","object_type":"Line","style_id":"line.labels.808080","source_group":"LFDH Groundlayout","vsmr_group_ids":[],"geometry_role":"linework"},"geometry":{"type":"MultiLineString","coordinates":[[[0.599275278,43.677533056],[0.599333889,43.677558333],[0.599332222,43.677540278],[0.599294722,43.677523889],[0.599293333,43.677497222],[0.599345278,43.677494167],[0.599337778,43.677395278],[0.599260278,43.677396389],[0.599275278,43.677533056]],[[0.599145833,43.677565833],[0.59922,43.677563889],[0.599216111,43.677516389],[0.599196111,43.677498333],[0.599214444,43.677478056],[0.599205833,43.677400833],[0.599129444,43.6774025],[0.5991325,43.677431667],[0.599185,43.677430833],[0.599189444,43.677474722],[0.599165556,43.677499167],[0.599191944,43.677521667],[0.599194167,43.677535833],[0.599141111,43.677538056],[0.599145833,43.677565833]],[[0.600395833,43.691585833],[0.6003975,43.691615278],[0.600427222,43.691613889],[0.600425833,43.691584444],[0.600395833,43.691585833]],[[0.600403889,43.691689722],[0.600436111,43.691688611],[0.600430556,43.691635833],[0.600398889,43.691636944],[0.600403889,43.691689722]],[[0.600371389,43.691554722],[0.600375278,43.691616944],[0.600389167,43.691626667],[0.600376111,43.691635833],[0.600385278,43.691719444],[0.600461111,43.691716111],[0.600454444,43.691632222],[0.600439444,43.691624444],[0.600451944,43.691614444],[0.600446667,43.6915525],[0.600371389,43.691554722]],[[0.6005,43.691549722],[0.600514444,43.691713056],[0.600535278,43.691712222],[0.600524167,43.691578333],[0.600530833,43.691576667],[0.600529444,43.691553889],[0.600520833,43.691549167],[0.6005,43.691549722]],[[0.599291111,43.677466389],[0.599319167,43.677465833],[0.599317222,43.677425556],[0.599287222,43.677426667],[0.599291111,43.677466389]]]}},{"type":"Feature","id":"LFDH-2b5e3914c837f8ca1dce","properties":{"airport":"LFDH","name":"A","layer":"Labels","category":"Taxiways","object_type":"Label","style_id":"label.taxiways","source_group":"LFDH Taxiways","vsmr_group_ids":[],"geometry_role":"text_label","text-field":"A"},"geometry":{"type":"Point","coordinates":[0.601210278,43.690266944]}},{"type":"Feature","id":"LFDH-108aa00a53e527d5380c","properties":{"airport":"LFDH","name":"B","layer":"Labels","category":"Taxiways","object_type":"Label","style_id":"label.taxiways","source_group":"LFDH Taxiways","vsmr_group_ids":[],"geometry_role":"text_label","text-field":"B"},"geometry":{"type":"Point","coordinates":[0.600949444,43.687168889]}}]}
