{"type":"FeatureCollection","name":"LFDJ AVISO","bbox":[1.689972222,43.090277778,1.705944444,43.092805556],"metadata":{"schema":"vSMR AVISO","schema_version":2,"geometry_mode":"shared","airport":"LFDJ","coordinate_reference_system":"WGS84","coordinate_order":"longitude, latitude","default_color_palette":"dark","color_palettes":["dark","light"],"background_colors":{"dark":"#434A4F","light":"#434A4F"},"runways":[{"ends":["09","27"],"headings":[91,271],"thresholds":[[1.689966944,43.090843889],[1.705918889,43.090405833]]}],"saved_active_runways":[],"saved_active_airport_modes":[],"airport_reference":[1.695832778,43.090555833],"feature_count":7,"style_count":4,"layer_counts":{"Guidance lines":3,"Labels":4},"category_counts":{"Apron Surface":1,"Gates":4,"Runways":1,"Taxiways":1},"geometry_source":"local GNG/KMZ","geometry_source_url":"","geometry_license":"GPL-3.0"},"styles":{"line.taxiway.c0b631":{"name":"Taxiways","layer":"Guidance lines","object_type":"Line","paint":{"stroke":"#4E5A69","stroke-opacity":1,"stroke-width":1,"palette-overrides":{"light":{"stroke":"#C0B631"}}},"feature_count":1},"line.runwayconcrete.555555":{"name":"Runways","layer":"Guidance lines","object_type":"Line","paint":{"stroke":"#111318","stroke-opacity":1,"stroke-width":1,"palette-overrides":{"light":{"stroke":"#555555"}}},"feature_count":1},"line.apronsurface.808080":{"name":"Apron Surface","layer":"Guidance lines","object_type":"Line","paint":{"stroke":"#808080","stroke-opacity":1,"stroke-width":1,"palette-overrides":{"light":{"stroke":"#808080"}}},"feature_count":1},"label.gates":{"name":"Gates","layer":"Labels","object_type":"Label","paint":{"text-color":"#CCCCCC","text-font":"Arial","text-size":12,"text-halo-color":"#000000","text-halo-width":1,"text-anchor":"center","zoomLevel":9},"feature_count":4}},"vsmr_groups":[],"features":[{"type":"Feature","id":"LFDJ-d1bf44c0bfa8ce07c40b","properties":{"airport":"LFDJ","name":"1","layer":"Labels","category":"Gates","object_type":"Label","style_id":"label.gates","source_group":"LFDJ Gates","vsmr_group_ids":[],"geometry_role":"text_label","text-field":"1"},"geometry":{"type":"Point","coordinates":[1.695361111,43.092666667]}},{"type":"Feature","id":"LFDJ-10e7498035e18efa292c","properties":{"airport":"LFDJ","name":"2","layer":"Labels","category":"Gates","object_type":"Label","style_id":"label.gates","source_group":"LFDJ Gates","vsmr_group_ids":[],"geometry_role":"text_label","text-field":"2"},"geometry":{"type":"Point","coordinates":[1.695916667,43.092666667]}},{"type":"Feature","id":"LFDJ-c78fedb2b15e225ae0ed","properties":{"airport":"LFDJ","name":"3","layer":"Labels","category":"Gates","object_type":"Label","style_id":"label.gates","source_group":"LFDJ Gates","vsmr_group_ids":[],"geometry_role":"text_label","text-field":"3"},"geometry":{"type":"Point","coordinates":[1.697138889,43.09225]}},{"type":"Feature","id":"LFDJ-c1e837122965b450dc4b","properties":{"airport":"LFDJ","name":"4","layer":"Labels","category":"Gates","object_type":"Label","style_id":"label.gates","source_group":"LFDJ Gates","vsmr_group_ids":[],"geometry_role":"text_label","text-field":"4"},"geometry":{"type":"Point","coordinates":[1.696611111,43.092277778]}},{"type":"Feature","id":"LFDJ-ca7cc50f6b7b60d07c3e","properties":{"airport":"LFDJ","name":"LFDJ Groundlayout","layer":"Guidance lines","category":"Taxiways","object_type":"Line","style_id":"line.taxiway.c0b631","source_group":"LFDJ Groundlayout","vsmr_group_ids":[],"geometry_role":"linework"},"geometry":{"type":"MultiLineString","coordinates":[[[1.690333333,43.090972222],[1.690333333,43.091166667]],[[1.690083333,43.091166667],[1.690111111,43.092555556]],[[1.690333333,43.091166667],[1.690388889,43.092333333]],[[1.690111111,43.092555556],[1.695333333,43.092416667]],[[1.690388889,43.092333333],[1.695333333,43.092222222]],[[1.695333333,43.092416667],[1.696027778,43.092388889]],[[1.695333333,43.092222222],[1.69575,43.092194444]],[[1.696027778,43.092388889],[1.696027778,43.092138889]],[[1.69575,43.092194444],[1.69575,43.092027778]],[[1.696,43.091944444],[1.695972222,43.091]],[[1.69575,43.092027778],[1.695722222,43.091]],[[1.695972222,43.091],[1.695972222,43.090805556]],[[1.695722222,43.091],[1.695722222,43.090833333]],[[1.697111111,43.091916667],[1.696611111,43.091916667]],[[1.697111111,43.092083333],[1.696611111,43.092111111]],[[1.697111111,43.091916667],[1.697111111,43.092083333]],[[1.696611111,43.091916667],[1.696,43.091944444]],[[1.696611111,43.092111111],[1.696027778,43.092138889]]]}},{"type":"Feature","id":"LFDJ-45e2d64b64935248a2eb","properties":{"airport":"LFDJ","name":"LFDJ Groundlayout","layer":"Guidance lines","category":"Runways","object_type":"Line","style_id":"line.runwayconcrete.555555","source_group":"LFDJ Groundlayout","vsmr_group_ids":[],"geometry_role":"linework"},"geometry":{"type":"MultiLineString","coordinates":[[[1.705916667,43.090277778],[1.695833333,43.090555556]],[[1.705916667,43.090527778],[1.695972222,43.090805556]],[[1.705916667,43.090277778],[1.705916667,43.090527778]],[[1.695833333,43.090555556],[1.690194444,43.090694444]],[[1.695722222,43.090833333],[1.690333333,43.090972222]],[[1.690194444,43.090694444],[1.689972222,43.090722222]],[[1.690083333,43.090972222],[1.689972222,43.090972222]],[[1.689972222,43.090722222],[1.689972222,43.090972222]]]}},{"type":"Feature","id":"LFDJ-7dd541fc192f7c61340f","properties":{"airport":"LFDJ","name":"LFDJ Groundlayout","layer":"Guidance lines","category":"Apron Surface","object_type":"Line","style_id":"line.apronsurface.808080","source_group":"LFDJ Groundlayout","vsmr_group_ids":[],"geometry_role":"linework"},"geometry":{"type":"MultiLineString","coordinates":[[[1.693972222,43.092388889],[1.694361111,43.092555556],[1.694388889,43.092805556],[1.697583333,43.092722222],[1.697583333,43.0925],[1.696916667,43.092527778],[1.696916667,43.092361111],[1.698555556,43.092333333],[1.698555556,43.091888889],[1.695833333,43.091972222],[1.695861111,43.09225]],[[1.693972222,43.092388889],[1.695861111,43.09225]],[[1.695333333,43.09075],[1.695805556,43.091222222],[1.696305556,43.090722222]],[[1.695333333,43.09075],[1.696305556,43.090722222]],[[1.705944444,43.090472222],[1.705944444,43.090666667],[1.705916667,43.090777778],[1.705805556,43.090861111],[1.705666667,43.090861111],[1.705527778,43.090861111],[1.705388889,43.090777778],[1.705361111,43.090666667],[1.705333333,43.0905]],[[1.705944444,43.090472222],[1.705333333,43.0905]]]}}]}
