{"type":"FeatureCollection","name":"LFDN AVISO","bbox":[-0.995805556,45.883916667,-0.972416667,45.894805556],"metadata":{"schema":"vSMR AVISO","schema_version":2,"geometry_mode":"shared","airport":"LFDN","coordinate_reference_system":"WGS84","coordinate_order":"longitude, latitude","default_color_palette":"dark","color_palettes":["dark","light"],"background_colors":{"dark":"#434A4F","light":"#434A4F"},"runways":[{"ends":["12","30"],"headings":[122,302],"thresholds":[[-0.997260833,45.896171944],[-0.972518889,45.885113889]]}],"saved_active_runways":[],"saved_active_airport_modes":[],"airport_reference":[-0.982221944,45.889443889],"feature_count":7,"style_count":4,"layer_counts":{"Guidance lines":3,"Labels":4},"category_counts":{"Apron Surface":1,"Gates":4,"Runways":1,"Taxiways":1},"geometry_source":"local GNG/KMZ","geometry_source_url":"","geometry_license":"GPL-3.0"},"styles":{"line.taxiway.c0b631":{"name":"Taxiways","layer":"Guidance lines","object_type":"Line","paint":{"stroke":"#4E5A69","stroke-opacity":1,"stroke-width":1,"palette-overrides":{"light":{"stroke":"#C0B631"}}},"feature_count":1},"line.runwayconcrete.555555":{"name":"Runways","layer":"Guidance lines","object_type":"Line","paint":{"stroke":"#111318","stroke-opacity":1,"stroke-width":1,"palette-overrides":{"light":{"stroke":"#555555"}}},"feature_count":1},"line.apronsurface.808080":{"name":"Apron Surface","layer":"Guidance lines","object_type":"Line","paint":{"stroke":"#808080","stroke-opacity":1,"stroke-width":1,"palette-overrides":{"light":{"stroke":"#808080"}}},"feature_count":1},"label.gates":{"name":"Gates","layer":"Labels","object_type":"Label","paint":{"text-color":"#CCCCCC","text-font":"Arial","text-size":12,"text-halo-color":"#000000","text-halo-width":1,"text-anchor":"center","zoomLevel":9},"feature_count":4}},"vsmr_groups":[],"features":[{"type":"Feature","id":"LFDN-969243a64e822da07834","properties":{"airport":"LFDN","name":"1","layer":"Labels","category":"Gates","object_type":"Label","style_id":"label.gates","source_group":"LFDN Gates","vsmr_group_ids":[],"geometry_role":"text_label","text-field":"1"},"geometry":{"type":"Point","coordinates":[-0.982333333,45.886527778]}},{"type":"Feature","id":"LFDN-8321c80e597328f7e405","properties":{"airport":"LFDN","name":"2","layer":"Labels","category":"Gates","object_type":"Label","style_id":"label.gates","source_group":"LFDN Gates","vsmr_group_ids":[],"geometry_role":"text_label","text-field":"2"},"geometry":{"type":"Point","coordinates":[-0.983222222,45.886916667]}},{"type":"Feature","id":"LFDN-37792ea72f142eaa2f54","properties":{"airport":"LFDN","name":"3","layer":"Labels","category":"Gates","object_type":"Label","style_id":"label.gates","source_group":"LFDN Gates","vsmr_group_ids":[],"geometry_role":"text_label","text-field":"3"},"geometry":{"type":"Point","coordinates":[-0.982888889,45.886777778]}},{"type":"Feature","id":"LFDN-9c78ef3da6c11165996f","properties":{"airport":"LFDN","name":"4","layer":"Labels","category":"Gates","object_type":"Label","style_id":"label.gates","source_group":"LFDN Gates","vsmr_group_ids":[],"geometry_role":"text_label","text-field":"4"},"geometry":{"type":"Point","coordinates":[-0.982611111,45.886638889]}},{"type":"Feature","id":"LFDN-a040d8b3e5c700f0e4c8","properties":{"airport":"LFDN","name":"LFDN Groundlayout","layer":"Guidance lines","category":"Taxiways","object_type":"Line","style_id":"line.taxiway.c0b631","source_group":"LFDN Groundlayout","vsmr_group_ids":[],"geometry_role":"linework"},"geometry":{"type":"MultiLineString","coordinates":[[[-0.985194444,45.88925],[-0.985333333,45.889083333]],[[-0.985111111,45.889],[-0.985138889,45.888972222]],[[-0.985333333,45.889083333],[-0.9855,45.888916667]],[[-0.985138889,45.888972222],[-0.982583333,45.88775]],[[-0.9855,45.888916667],[-0.982722222,45.887583333]],[[-0.981527778,45.888972222],[-0.981666667,45.888833333]],[[-0.98175,45.889083333],[-0.981888889,45.888916667]],[[-0.981666667,45.888833333],[-0.982305556,45.888027778]],[[-0.981888889,45.888916667],[-0.982666667,45.887972222]],[[-0.982305556,45.888027778],[-0.981972222,45.887861111]],[[-0.982666667,45.887972222],[-0.982222222,45.88775]],[[-0.981972222,45.887861111],[-0.981666667,45.887722222]],[[-0.982,45.887666667],[-0.981916667,45.887611111]],[[-0.981666667,45.887722222],[-0.978055556,45.886138889]],[[-0.981694444,45.887527778],[-0.978083333,45.885916667]],[[-0.977833333,45.886027778],[-0.973666667,45.884194444]],[[-0.978083333,45.885916667],[-0.973583333,45.883916667]],[[-0.973666667,45.884194444],[-0.973027778,45.884972222]],[[-0.973583333,45.883916667],[-0.972805556,45.884861111]],[[-0.973027778,45.884972222],[-0.972888889,45.885138889]],[[-0.972805556,45.884861111],[-0.972666667,45.885027778]],[[-0.978055556,45.886138889],[-0.977416667,45.886916667]],[[-0.977833333,45.886027778],[-0.977166667,45.886805556]],[[-0.977416667,45.886916667],[-0.977277778,45.887083333]],[[-0.977166667,45.886805556],[-0.977027778,45.886972222]],[[-0.977083333,45.887305556],[-0.976944444,45.887472222]],[[-0.976833333,45.887194444],[-0.976694444,45.887388889]],[[-0.976944444,45.887472222],[-0.976444444,45.888055556]],[[-0.976694444,45.887388889],[-0.976222222,45.887944444]],[[-0.976444444,45.888055556],[-0.976222222,45.887944444]],[[-0.982111111,45.88675],[-0.982416667,45.886888889]],[[-0.981972222,45.886916667],[-0.982138889,45.887]],[[-0.982111111,45.88675],[-0.981972222,45.886916667]],[[-0.982416667,45.886888889],[-0.982694444,45.887]],[[-0.982388889,45.887111111],[-0.982444444,45.887111111]],[[-0.982694444,45.887],[-0.983055556,45.887166667]],[[-0.982666667,45.887222222],[-0.982888889,45.887333333]],[[-0.983055556,45.887166667],[-0.982888889,45.887333333]],[[-0.982666667,45.887222222],[-0.982472222,45.887472222]],[[-0.982444444,45.887111111],[-0.98225,45.887361111]],[[-0.982333333,45.887638889],[-0.982222222,45.88775]],[[-0.982111111,45.887527778],[-0.982,45.887666667]],[[-0.982388889,45.887111111],[-0.982194444,45.887333333]],[[-0.982138889,45.887],[-0.981888889,45.887305556]],[[-0.982055556,45.887472222],[-0.981916667,45.887611111]],[[-0.981888889,45.887305556],[-0.981694444,45.887527778]],[[-0.982194444,45.887333333],[-0.98225,45.887361111]],[[-0.982055556,45.887472222],[-0.982111111,45.887527778]],[[-0.982472222,45.887472222],[-0.982722222,45.887583333]],[[-0.982333333,45.887638889],[-0.982583333,45.88775]]]}},{"type":"Feature","id":"LFDN-0290700bdccfa2d1d502","properties":{"airport":"LFDN","name":"LFDN Groundlayout","layer":"Guidance lines","category":"Runways","object_type":"Line","style_id":"line.runwayconcrete.555555","source_group":"LFDN Groundlayout","vsmr_group_ids":[],"geometry_role":"linework"},"geometry":{"type":"MultiLineString","coordinates":[[[-0.972611111,45.885],[-0.972666667,45.885027778]],[[-0.972416667,45.885222222],[-0.972583333,45.885305556]],[[-0.972611111,45.885],[-0.972416667,45.885222222]],[[-0.972888889,45.885138889],[-0.977027778,45.886972222]],[[-0.972583333,45.885305556],[-0.976833333,45.887194444]],[[-0.977277778,45.887083333],[-0.981527778,45.888972222]],[[-0.977083333,45.887305556],[-0.981444444,45.88925]],[[-0.98175,45.889083333],[-0.993222222,45.894194444]],[[-0.981444444,45.88925],[-0.993027778,45.894416667]],[[-0.993222222,45.894194444],[-0.993027778,45.894416667]],[[-0.984277778,45.889916667],[-0.984388889,45.889944444]],[[-0.984972222,45.889166667],[-0.984277778,45.889916667]],[[-0.985194444,45.88925],[-0.995805556,45.894055556]],[[-0.984388889,45.889944444],[-0.995111111,45.894805556]],[[-0.995805556,45.894055556],[-0.995111111,45.894805556]]]}},{"type":"Feature","id":"LFDN-80662b0661235bb51157","properties":{"airport":"LFDN","name":"LFDN Groundlayout","layer":"Guidance lines","category":"Apron Surface","object_type":"Line","style_id":"line.apronsurface.808080","source_group":"LFDN Groundlayout","vsmr_group_ids":[],"geometry_role":"linework"},"geometry":{"type":"MultiLineString","coordinates":[[[-0.982361111,45.888333333],[-0.982027778,45.887805556],[-0.981222222,45.887416667],[-0.982166667,45.886305556],[-0.983583333,45.886944444]],[[-0.982361111,45.888333333],[-0.983583333,45.886944444]],[[-0.978305556,45.886166667],[-0.977777778,45.886333333],[-0.977611111,45.885861111]],[[-0.978305556,45.886166667],[-0.977611111,45.885861111]],[[-0.976833333,45.887944444],[-0.976583333,45.887694444],[-0.976194444,45.887638889],[-0.975972222,45.887805556],[-0.975888889,45.888055556],[-0.976111111,45.888277778],[-0.9765,45.888333333],[-0.97675,45.888194444]],[[-0.976833333,45.887944444],[-0.97675,45.888194444]],[[-0.973111111,45.88525],[-0.973222222,45.885166667],[-0.97325,45.885055556],[-0.973194444,45.884944444],[-0.973083333,45.884888889],[-0.972944444,45.884805556],[-0.972694444,45.885083333]],[[-0.973111111,45.88525],[-0.972694444,45.885083333]],[[-0.993055556,45.894416667],[-0.992944444,45.894555556],[-0.992805556,45.894583333],[-0.992638889,45.894555556],[-0.9925,45.894444444],[-0.9925,45.894305556],[-0.992583333,45.894194444]],[[-0.993055556,45.894416667],[-0.992583333,45.894194444]]]}}]}
