{"type":"FeatureCollection","name":"LFEA AVISO","bbox":[-3.204722222,47.323055556,-3.194694444,47.329166667],"metadata":{"schema":"vSMR AVISO","schema_version":2,"geometry_mode":"shared","airport":"LFEA","coordinate_reference_system":"WGS84","coordinate_order":"longitude, latitude","default_color_palette":"dark","color_palettes":["dark","light"],"background_colors":{"dark":"#434A4F","light":"#434A4F"},"runways":[{"ends":["06","24"],"headings":[61,241],"thresholds":[[-3.205018889,47.323830833],[-3.197413889,47.326768889]]}],"saved_active_runways":[],"saved_active_airport_modes":[],"airport_reference":[-3.198888889,47.326110833],"feature_count":1,"style_count":1,"layer_counts":{"Guidance lines":1},"category_counts":{"Runways":1},"geometry_source":"local GNG","geometry_source_url":"","geometry_license":"GPL-3.0"},"styles":{"line.runwayconcrete.555555":{"name":"Runways","layer":"Guidance lines","object_type":"Line","paint":{"stroke":"#111318","stroke-opacity":1,"stroke-width":1,"palette-overrides":{"light":{"stroke":"#555555"}}},"feature_count":1}},"vsmr_groups":[],"features":[{"type":"Feature","id":"LFEA-d62c35c8ac5c0c55d612","properties":{"airport":"LFEA","name":"LFEA Groundlayout","layer":"Guidance lines","category":"Runways","object_type":"Line","style_id":"line.runwayconcrete.555555","source_group":"LFEA Groundlayout","vsmr_group_ids":[],"geometry_role":"linework"},"geometry":{"type":"MultiLineString","coordinates":[[[-3.2025,47.323055556],[-3.194694444,47.32625]],[[-3.204722222,47.325944444],[-3.2025,47.323055556]],[[-3.196916667,47.329166667],[-3.194694444,47.32625]]]}}]}
