{"type":"FeatureCollection","name":"LFEQ AVISO","bbox":[-3.103855278,47.4791475,-3.093763056,47.482098056],"metadata":{"schema":"vSMR AVISO","schema_version":2,"geometry_mode":"shared","airport":"LFEQ","coordinate_reference_system":"WGS84","coordinate_order":"longitude, latitude","default_color_palette":"dark","color_palettes":["dark","light"],"background_colors":{"dark":"#434A4F","light":"#434A4F"},"runways":[{"ends":["11","29"],"headings":[112,292],"thresholds":[[-3.102527778,47.481574722],[-3.094905833,47.479596944]]}],"saved_active_runways":[],"saved_active_airport_modes":[],"airport_reference":[-3.101666944,47.481388889],"feature_count":11,"style_count":7,"layer_counts":{"Guidance lines":5,"Labels":6},"category_counts":{"Apron Surface":1,"Gates":2,"Labels":1,"Runways":1,"Stopbars":1,"Taxiways":5},"geometry_source":"local GNG/KMZ","geometry_source_url":"","geometry_license":"GPL-3.0"},"styles":{"line.runwayconcrete.555555":{"name":"Runways","layer":"Guidance lines","object_type":"Line","paint":{"stroke":"#111318","stroke-opacity":1,"stroke-width":1,"palette-overrides":{"light":{"stroke":"#555555"}}},"feature_count":1},"line.taxiway.c0b631":{"name":"Taxiways","layer":"Guidance lines","object_type":"Line","paint":{"stroke":"#4E5A69","stroke-opacity":1,"stroke-width":1,"palette-overrides":{"light":{"stroke":"#C0B631"}}},"feature_count":1},"line.apronsurface.808080":{"name":"Apron Surface","layer":"Guidance lines","object_type":"Line","paint":{"stroke":"#808080","stroke-opacity":1,"stroke-width":1,"palette-overrides":{"light":{"stroke":"#808080"}}},"feature_count":1},"line.stopbar.7e0000":{"name":"Stopbars","layer":"Guidance lines","object_type":"Line","paint":{"stroke":"#7E0000","stroke-opacity":1,"stroke-width":1,"palette-overrides":{"light":{"stroke":"#7E0000"}}},"feature_count":1},"line.labels.808080":{"name":"Labels","layer":"Guidance lines","object_type":"Line","paint":{"stroke":"#808080","stroke-opacity":1,"stroke-width":1,"palette-overrides":{"light":{"stroke":"#808080"}}},"feature_count":1},"label.gates":{"name":"Gates","layer":"Labels","object_type":"Label","paint":{"text-color":"#CCCCCC","text-font":"Arial","text-size":12,"text-halo-color":"#000000","text-halo-width":1,"text-anchor":"center","zoomLevel":9},"feature_count":2},"label.taxiways":{"name":"Taxiways","layer":"Labels","object_type":"Label","paint":{"text-color":"#CCCCCC","text-font":"Arial","text-size":12,"text-halo-color":"#000000","text-halo-width":1,"text-anchor":"center","zoomLevel":7},"feature_count":4}},"vsmr_groups":[],"features":[{"type":"Feature","id":"LFEQ-914cc6f81c24d3569ee5","properties":{"airport":"LFEQ","name":"Hangars","layer":"Labels","category":"Gates","object_type":"Label","style_id":"label.gates","source_group":"LFEQ Gates","vsmr_group_ids":[],"geometry_role":"text_label","text-field":"Hangars"},"geometry":{"type":"Point","coordinates":[-3.102973889,47.480530556]}},{"type":"Feature","id":"LFEQ-a8bbb9d02d5abb168b12","properties":{"airport":"LFEQ","name":"Aire D'Attente","layer":"Labels","category":"Gates","object_type":"Label","style_id":"label.gates","source_group":"LFEQ Gates","vsmr_group_ids":[],"geometry_role":"text_label","text-field":"Aire D'Attente"},"geometry":{"type":"Point","coordinates":[-3.094456389,47.479821944]}},{"type":"Feature","id":"LFEQ-3787446a9aaabb8a6f7a","properties":{"airport":"LFEQ","name":"LFEQ Groundlayout","layer":"Guidance lines","category":"Runways","object_type":"Line","style_id":"line.runwayconcrete.555555","source_group":"LFEQ Groundlayout","vsmr_group_ids":[],"geometry_role":"linework"},"geometry":{"type":"MultiLineString","coordinates":[[[-3.100384167,47.480905556],[-3.094078611,47.479272222],[-3.094123889,47.479189722],[-3.093942222,47.4791475],[-3.093902222,47.479233889],[-3.093871111,47.479278056],[-3.093834167,47.479318333],[-3.093805556,47.479353056],[-3.093785833,47.479385556],[-3.093774444,47.479420278],[-3.093768611,47.479460556],[-3.093763056,47.479496944],[-3.093763056,47.479539167],[-3.093765833,47.479577778],[-3.093782778,47.479604722],[-3.093802778,47.479627778],[-3.093834167,47.479658333],[-3.093876667,47.479681389],[-3.093919167,47.479700556],[-3.093956111,47.479719722],[-3.093990278,47.4797275]],[[-3.094174722,47.479731667],[-3.094206111,47.479724167],[-3.094235556,47.479718056],[-3.094261389,47.479708056],[-3.094285278,47.479695556],[-3.094301944,47.479678056],[-3.094327778,47.479660833],[-3.094351667,47.479641944],[-3.094381111,47.479614722],[-3.0943975,47.479607222],[-3.094414167,47.479604722],[-3.094430833,47.479609722],[-3.094456667,47.479612222],[-3.103358889,47.481914444],[-3.103372778,47.481927778],[-3.103366944,47.481949167],[-3.103362778,47.481970833],[-3.103365,47.481993611],[-3.103372778,47.482017778],[-3.103384722,47.482033889],[-3.103398611,47.482053889],[-3.103420556,47.482067222],[-3.103446389,47.482079444],[-3.103476111,47.4820875],[-3.103509722,47.482094167],[-3.103541667,47.482098056],[-3.103581389,47.482095556],[-3.103609167,47.482095556],[-3.103633056,47.4820875],[-3.103662778,47.48207],[-3.103684722,47.482051111],[-3.103855278,47.481812222],[-3.102225833,47.481383056]],[[-3.102095833,47.481349444],[-3.101838333,47.481283611]]]}},{"type":"Feature","id":"LFEQ-37fe0bf24c56bf92c05a","properties":{"airport":"LFEQ","name":"LFEQ Groundlayout","layer":"Guidance lines","category":"Taxiways","object_type":"Line","style_id":"line.taxiway.c0b631","source_group":"LFEQ Groundlayout","vsmr_group_ids":[],"geometry_role":"linework"},"geometry":{"type":"MultiLineString","coordinates":[[[-3.100381389,47.480908333],[-3.100411944,47.480892222],[-3.100434444,47.480879444],[-3.100455278,47.480854722],[-3.100478056,47.480821667],[-3.100538889,47.480717222],[-3.100566667,47.480667778],[-3.100599722,47.48061]],[[-3.102225,47.481380556],[-3.10223,47.481358889],[-3.102242222,47.481329167],[-3.102256944,47.481294167],[-3.102372222,47.481081944]],[[-3.102088889,47.481346944],[-3.102140833,47.481266667],[-3.102171111,47.481224167],[-3.102233611,47.481098889],[-3.102263889,47.481049167]],[[-3.101841944,47.481283611],[-3.10182,47.481276944],[-3.101798056,47.481266944],[-3.101780833,47.481253056],[-3.101758056,47.481235278],[-3.101748889,47.481211111],[-3.101745278,47.481193333],[-3.101745278,47.481165278],[-3.101752222,47.481146111],[-3.101767222,47.481120278],[-3.101849722,47.480984722],[-3.101953056,47.480793611],[-3.101967778,47.480767778],[-3.101985,47.480750556],[-3.102003611,47.480736389],[-3.10203,47.480725556],[-3.102064444,47.480713056],[-3.102095,47.480709444],[-3.102122778,47.480710278],[-3.102146667,47.480714722]],[[-3.101437222,47.481178889],[-3.101475,47.481188056],[-3.101523889,47.481186389],[-3.101563611,47.481173056],[-3.101603611,47.481153611],[-3.1016325,47.4811175],[-3.101845556,47.480755833],[-3.101852778,47.480738889],[-3.101851667,47.480714444],[-3.101851667,47.480693333],[-3.101840833,47.480676944],[-3.101826389,47.480658333],[-3.101804722,47.480641944],[-3.101782778,47.480628056],[-3.1017575,47.480615833],[-3.101725,47.480606111]],[[-3.1006075,47.480958611],[-3.100583611,47.480946389],[-3.100578333,47.480925556],[-3.100574722,47.480908056],[-3.100613056,47.480855],[-3.100735278,47.480645278]]]}},{"type":"Feature","id":"LFEQ-866b8a47e4d2f23cf1a8","properties":{"airport":"LFEQ","name":"LFEQ Groundlayout","layer":"Guidance lines","category":"Apron Surface","object_type":"Line","style_id":"line.apronsurface.808080","source_group":"LFEQ Groundlayout","vsmr_group_ids":[],"geometry_role":"linework"},"geometry":{"type":"MultiLineString","coordinates":[[[-3.094176111,47.479730556],[-3.0941775,47.479743889],[-3.094215556,47.479782778],[-3.094318056,47.479772222],[-3.094417778,47.479748611],[-3.094535833,47.479721111],[-3.094726667,47.479797778],[-3.094537222,47.479841667],[-3.094371389,47.4798825],[-3.094243611,47.479908889],[-3.094138333,47.479902222],[-3.094077778,47.479886111],[-3.094020278,47.479838611],[-3.093989444,47.479786389],[-3.093989444,47.479726667]],[[-3.102374722,47.481078889],[-3.103442778,47.4813675],[-3.103540556,47.481236944],[-3.102772222,47.480915278],[-3.102888333,47.480786667],[-3.102303333,47.480518889],[-3.102368611,47.48045],[-3.102366944,47.480434167],[-3.102351944,47.480428611],[-3.102348611,47.480403611],[-3.101759167,47.480230278],[-3.101725,47.480259167],[-3.1012475,47.480130833],[-3.1012125,47.480190556],[-3.100986111,47.480130833],[-3.100999167,47.480108056],[-3.100939722,47.480093889],[-3.100786667,47.480352222],[-3.100688611,47.480328333],[-3.100535278,47.480595278],[-3.100598056,47.480608889]],[[-3.102265,47.481046111],[-3.101876111,47.480940833]],[[-3.1017475,47.480910556],[-3.100736944,47.480643889]]]}},{"type":"Feature","id":"LFEQ-661a3953356f1e948ee2","properties":{"airport":"LFEQ","name":"LFEQ Groundlayout","layer":"Guidance lines","category":"Stopbars","object_type":"Line","style_id":"line.stopbar.7e0000","source_group":"LFEQ Groundlayout","vsmr_group_ids":[],"geometry_role":"linework"},"geometry":{"type":"MultiLineString","coordinates":[[[-3.101848333,47.480985],[-3.101730556,47.480954167]],[[-3.094073611,47.479716667],[-3.093943889,47.479681944]]]}},{"type":"Feature","id":"LFEQ-8144a35ee5c241e6b4c5","properties":{"airport":"LFEQ","name":"LFEQ Groundlayout","layer":"Guidance lines","category":"Labels","object_type":"Line","style_id":"line.labels.808080","source_group":"LFEQ Groundlayout","vsmr_group_ids":[],"geometry_role":"linework"},"geometry":{"type":"MultiLineString","coordinates":[[[-3.095744444,47.479866389],[-3.095731111,47.479839444],[-3.095747222,47.479843333],[-3.095755278,47.479858611],[-3.095773056,47.4798625],[-3.095782778,47.479844167],[-3.095855278,47.479863611],[-3.095839722,47.479891667],[-3.095744444,47.479866389]],[[-3.101925,47.481441667],[-3.101919722,47.481448611],[-3.101830278,47.481424722],[-3.101828056,47.481427778],[-3.101813056,47.481423611],[-3.101809722,47.481419167],[-3.101814167,47.481411389],[-3.101925,47.481441667]],[[-3.1019475,47.481408333],[-3.101941389,47.481418056],[-3.101849722,47.481391944],[-3.101846944,47.481395556],[-3.101831389,47.481390556],[-3.101829444,47.481384444],[-3.101834167,47.4813775],[-3.1019475,47.481408333]],[[-3.095864444,47.479845556],[-3.095821389,47.479834167],[-3.095793056,47.479806944],[-3.095782222,47.479803889],[-3.095772778,47.479820278],[-3.095752222,47.479816111],[-3.095766111,47.479789722],[-3.095799167,47.4797975],[-3.0958325,47.4798275],[-3.095848056,47.479831389],[-3.095854722,47.4798225],[-3.0958425,47.479819167],[-3.095849444,47.479810278],[-3.095880278,47.479818333],[-3.095864444,47.479845556]],[[-3.095796111,47.479868889],[-3.095801111,47.479859167],[-3.095828889,47.479866667],[-3.095822778,47.479876667],[-3.095796111,47.479868889]]]}},{"type":"Feature","id":"LFEQ-39d446eab775f6fde9a3","properties":{"airport":"LFEQ","name":"B","layer":"Labels","category":"Taxiways","object_type":"Label","style_id":"label.taxiways","source_group":"LFEQ Taxiways","vsmr_group_ids":[],"geometry_role":"text_label","text-field":"B"},"geometry":{"type":"Point","coordinates":[-3.0940725,47.479743889]}},{"type":"Feature","id":"LFEQ-9fa60785a4171f46a21a","properties":{"airport":"LFEQ","name":"A1","layer":"Labels","category":"Taxiways","object_type":"Label","style_id":"label.taxiways","source_group":"LFEQ Taxiways","vsmr_group_ids":[],"geometry_role":"text_label","text-field":"A1"},"geometry":{"type":"Point","coordinates":[-3.102386389,47.481302778]}},{"type":"Feature","id":"LFEQ-684c3ba1cedf3594b7c4","properties":{"airport":"LFEQ","name":"A","layer":"Labels","category":"Taxiways","object_type":"Label","style_id":"label.taxiways","source_group":"LFEQ Taxiways","vsmr_group_ids":[],"geometry_role":"text_label","text-field":"A"},"geometry":{"type":"Point","coordinates":[-3.101945278,47.481040278]}},{"type":"Feature","id":"LFEQ-53e2f976e6a7331b2ac5","properties":{"airport":"LFEQ","name":"A2","layer":"Labels","category":"Taxiways","object_type":"Label","style_id":"label.taxiways","source_group":"LFEQ Taxiways","vsmr_group_ids":[],"geometry_role":"text_label","text-field":"A2"},"geometry":{"type":"Point","coordinates":[-3.100778611,47.480844722]}}]}
