{"type":"FeatureCollection","name":"LFEY AVISO","bbox":[-2.396945833,46.712618889,-2.3866975,46.721420833],"metadata":{"schema":"vSMR AVISO","schema_version":2,"geometry_mode":"shared","airport":"LFEY","coordinate_reference_system":"WGS84","coordinate_order":"longitude, latitude","default_color_palette":"dark","color_palettes":["dark","light"],"background_colors":{"dark":"#434A4F","light":"#434A4F"},"runways":[{"ends":["14","32"],"headings":[142,322],"thresholds":[[-2.396813889,46.721321944],[-2.386902778,46.712685833]]},{"ends":["04","22"],"headings":[35,215],"thresholds":[[-2.394371944,46.715782778],[-2.390638889,46.719496944]]}],"saved_active_runways":[],"saved_active_airport_modes":[],"airport_reference":[-2.3925,46.7175],"feature_count":12,"style_count":8,"layer_counts":{"Guidance lines":6,"Labels":6},"category_counts":{"Apron Surface":1,"Gates":5,"Grass runways":1,"Labels":1,"Runways":1,"Stopbars":1,"Taxiways":2},"geometry_source":"local GNG/KMZ","geometry_source_url":"","geometry_license":"GPL-3.0"},"styles":{"line.runwayconcrete.555555":{"name":"Runways","layer":"Guidance lines","object_type":"Line","paint":{"stroke":"#111318","stroke-opacity":1,"stroke-width":1,"palette-overrides":{"light":{"stroke":"#555555"}}},"feature_count":1},"line.runwaygrass.008000":{"name":"Grass runways","layer":"Guidance lines","object_type":"Line","paint":{"stroke":"#859A77","stroke-opacity":1,"stroke-width":1,"palette-overrides":{"light":{"stroke":"#008000"}}},"feature_count":1},"line.taxiway.c0b631":{"name":"Taxiways","layer":"Guidance lines","object_type":"Line","paint":{"stroke":"#4E5A69","stroke-opacity":1,"stroke-width":1,"palette-overrides":{"light":{"stroke":"#C0B631"}}},"feature_count":1},"line.apronsurface.808080":{"name":"Apron Surface","layer":"Guidance lines","object_type":"Line","paint":{"stroke":"#808080","stroke-opacity":1,"stroke-width":1,"palette-overrides":{"light":{"stroke":"#808080"}}},"feature_count":1},"line.stopbar.7e0000":{"name":"Stopbars","layer":"Guidance lines","object_type":"Line","paint":{"stroke":"#7E0000","stroke-opacity":1,"stroke-width":1,"palette-overrides":{"light":{"stroke":"#7E0000"}}},"feature_count":1},"line.labels.808080":{"name":"Labels","layer":"Guidance lines","object_type":"Line","paint":{"stroke":"#808080","stroke-opacity":1,"stroke-width":1,"palette-overrides":{"light":{"stroke":"#808080"}}},"feature_count":1},"label.gates":{"name":"Gates","layer":"Labels","object_type":"Label","paint":{"text-color":"#CCCCCC","text-font":"Arial","text-size":12,"text-halo-color":"#000000","text-halo-width":1,"text-anchor":"center","zoomLevel":9},"feature_count":5},"label.taxiways":{"name":"Taxiways","layer":"Labels","object_type":"Label","paint":{"text-color":"#CCCCCC","text-font":"Arial","text-size":12,"text-halo-color":"#000000","text-halo-width":1,"text-anchor":"center","zoomLevel":7},"feature_count":1}},"vsmr_groups":[],"features":[{"type":"Feature","id":"LFEY-226ad8a930f79f0743dd","properties":{"airport":"LFEY","name":"AFIS","layer":"Labels","category":"Gates","object_type":"Label","style_id":"label.gates","source_group":"LFEY Gates","vsmr_group_ids":[],"geometry_role":"text_label","text-field":"AFIS"},"geometry":{"type":"Point","coordinates":[-2.389454722,46.717615278]}},{"type":"Feature","id":"LFEY-22a429028465abcfdada","properties":{"airport":"LFEY","name":"P4","layer":"Labels","category":"Gates","object_type":"Label","style_id":"label.gates","source_group":"LFEY Gates","vsmr_group_ids":[],"geometry_role":"text_label","text-field":"P4"},"geometry":{"type":"Point","coordinates":[-2.388662778,46.716994444]}},{"type":"Feature","id":"LFEY-8664f0cb7d317c9c42d6","properties":{"airport":"LFEY","name":"P3","layer":"Labels","category":"Gates","object_type":"Label","style_id":"label.gates","source_group":"LFEY Gates","vsmr_group_ids":[],"geometry_role":"text_label","text-field":"P3"},"geometry":{"type":"Point","coordinates":[-2.390546111,46.718236111]}},{"type":"Feature","id":"LFEY-68f7fddba1d6354a6d94","properties":{"airport":"LFEY","name":"P2","layer":"Labels","category":"Gates","object_type":"Label","style_id":"label.gates","source_group":"LFEY Gates","vsmr_group_ids":[],"geometry_role":"text_label","text-field":"P2"},"geometry":{"type":"Point","coordinates":[-2.390014722,46.717593056]}},{"type":"Feature","id":"LFEY-aa515312a80cf4bae0ad","properties":{"airport":"LFEY","name":"P1","layer":"Labels","category":"Gates","object_type":"Label","style_id":"label.gates","source_group":"LFEY Gates","vsmr_group_ids":[],"geometry_role":"text_label","text-field":"P1"},"geometry":{"type":"Point","coordinates":[-2.389087778,46.716737778]}},{"type":"Feature","id":"LFEY-2bcaf8d8eb0b8482f50a","properties":{"airport":"LFEY","name":"LFEY Groundlayout","layer":"Guidance lines","category":"Runways","object_type":"Line","style_id":"line.runwayconcrete.555555","source_group":"LFEY Groundlayout","vsmr_group_ids":[],"geometry_role":"linework"},"geometry":{"type":"MultiLineString","coordinates":[[[-2.387147778,46.713106111],[-2.387125556,46.7130925],[-2.386938611,46.713030278],[-2.386894444,46.713020833],[-2.386854167,46.713011111],[-2.386816111,46.713004167],[-2.386781944,46.7129875],[-2.386761667,46.712966944],[-2.3867375,46.712943611],[-2.386721389,46.712907778],[-2.3867075,46.712877222],[-2.3866975,46.712846944],[-2.3866975,46.712815278],[-2.386705556,46.712783611],[-2.386723611,46.712765556],[-2.387005556,46.712618889],[-2.392433056,46.717343611]],[[-2.392655278,46.717904444],[-2.396340278,46.721109167],[-2.3963425,46.721139722],[-2.396329167,46.721249167],[-2.396333611,46.721275],[-2.396349167,46.721300833],[-2.3963625,46.721320556],[-2.396380278,46.721341944],[-2.396400278,46.721361667],[-2.396424722,46.721378333],[-2.396455556,46.721390556],[-2.396488889,46.721401111],[-2.396535556,46.721410278],[-2.396590833,46.721416389],[-2.396639722,46.721420833],[-2.396945833,46.721267222],[-2.392844167,46.7177025]],[[-2.392219167,46.717525833],[-2.390851389,46.716323056]]]}},{"type":"Feature","id":"LFEY-50bdad5492f4de2d99a8","properties":{"airport":"LFEY","name":"LFEY Groundlayout","layer":"Guidance lines","category":"Grass runways","object_type":"Line","style_id":"line.runwaygrass.008000","source_group":"LFEY Groundlayout","vsmr_group_ids":[],"geometry_role":"linework"},"geometry":{"type":"MultiLineString","coordinates":[[[-2.392650278,46.717900556],[-2.390896111,46.719629167],[-2.390351944,46.71937],[-2.391619167,46.718121944]],[[-2.391761389,46.717985556],[-2.392221111,46.717524167]],[[-2.392843333,46.717700833],[-2.395180833,46.715355833],[-2.394645278,46.715105833],[-2.392426389,46.717339167]]]}},{"type":"Feature","id":"LFEY-61416c31998879c8a20f","properties":{"airport":"LFEY","name":"LFEY Groundlayout","layer":"Guidance lines","category":"Taxiways","object_type":"Line","style_id":"line.taxiway.c0b631","source_group":"LFEY Groundlayout","vsmr_group_ids":[],"geometry_role":"linework"},"geometry":{"type":"MultiLineString","coordinates":[[[-2.390848611,46.716322222],[-2.390828333,46.716310556],[-2.390803611,46.716301944],[-2.390771944,46.716291944],[-2.390743889,46.716289722],[-2.390711111,46.716285833],[-2.390686389,46.716285],[-2.390658056,46.716286667],[-2.390628611,46.716290556],[-2.390599444,46.716296667],[-2.390563333,46.716303611],[-2.390531667,46.716313611],[-2.3905025,46.716326944],[-2.389729722,46.716745278],[-2.389584167,46.716840556],[-2.389564167,46.716858056],[-2.389548056,46.716876667],[-2.389551111,46.716894722],[-2.389561111,46.716909444]],[[-2.388546667,46.717231667],[-2.389010833,46.716976944],[-2.388899444,46.716881667]],[[-2.390489722,46.716015],[-2.390504722,46.716043056],[-2.390513333,46.716054167],[-2.390516944,46.716067222],[-2.390516944,46.716081667],[-2.390515278,46.716094167],[-2.390514722,46.716108056],[-2.390508333,46.716126389],[-2.390501389,46.7161425],[-2.390491111,46.716154167],[-2.390480556,46.716166389],[-2.390472778,46.716174444],[-2.390463333,46.716183611],[-2.390453333,46.716190556],[-2.390441389,46.716199722],[-2.389918889,46.716483889],[-2.389676944,46.716619722],[-2.389583056,46.716670556],[-2.389510556,46.716705833],[-2.389472778,46.716713889],[-2.389433333,46.716722222],[-2.389391111,46.716723333],[-2.389354722,46.716722222],[-2.389318611,46.716715]],[[-2.390157778,46.717463611],[-2.390431667,46.7174475],[-2.390579722,46.717428056],[-2.390702222,46.717424722],[-2.390800556,46.717425833],[-2.390903889,46.717453056],[-2.3910425,46.7175425],[-2.391124722,46.717605833],[-2.3913275,46.717750278],[-2.391482778,46.717859722],[-2.391611111,46.717916944],[-2.391765278,46.717984444]],[[-2.390301944,46.717590278],[-2.390506944,46.717572222],[-2.390635556,46.717576389],[-2.390728056,46.717626111],[-2.390088611,46.717981944]],[[-2.391618333,46.718123333],[-2.391490556,46.718038333],[-2.391374167,46.717953333],[-2.3912875,46.718016667],[-2.3912325,46.718071944],[-2.391171389,46.718132778],[-2.391116111,46.718188333],[-2.391058889,46.718250278],[-2.391003889,46.718309722],[-2.390863889,46.718439444],[-2.390777222,46.718516389],[-2.3906925,46.718589444],[-2.39061,46.718639167],[-2.390536944,46.718687778]]]}},{"type":"Feature","id":"LFEY-a23d610e27f80c105d0d","properties":{"airport":"LFEY","name":"LFEY Groundlayout","layer":"Guidance lines","category":"Apron Surface","object_type":"Line","style_id":"line.apronsurface.808080","source_group":"LFEY Groundlayout","vsmr_group_ids":[],"geometry_role":"linework"},"geometry":{"type":"MultiLineString","coordinates":[[[-2.389564444,46.716911389],[-2.389613889,46.716973056],[-2.390158889,46.717463611]],[[-2.390296111,46.717591944],[-2.390425,46.717714167],[-2.3900925,46.717919444],[-2.389679722,46.717571667],[-2.389659444,46.717566111],[-2.389631111,46.7175725],[-2.38961,46.717586389],[-2.389607778,46.717574167],[-2.389282778,46.717374722],[-2.389386111,46.717303056],[-2.389239444,46.717174444],[-2.389136111,46.717083611],[-2.388903889,46.717210556],[-2.388950833,46.717255556],[-2.388726667,46.717387778],[-2.388546667,46.717236111],[-2.388448333,46.717279444],[-2.388138889,46.717024722],[-2.389079444,46.716539722],[-2.389217222,46.716649167],[-2.389226111,46.716661667],[-2.389238889,46.716676389],[-2.389263611,46.716691667],[-2.389286111,46.716701944],[-2.389318056,46.716714444]],[[-2.39054,46.718686111],[-2.390448611,46.7186725],[-2.390229722,46.718570833],[-2.390128056,46.7185325],[-2.390048889,46.718492778],[-2.389950278,46.718449167],[-2.389634722,46.718261111],[-2.389473333,46.718184167],[-2.389374722,46.718136944],[-2.389345278,46.718108611],[-2.3893375,46.718083056],[-2.389356944,46.718054722],[-2.389768611,46.717771111],[-2.390061389,46.717990556],[-2.390089722,46.717981667]]]}},{"type":"Feature","id":"LFEY-aafbe55e319cbb84b96e","properties":{"airport":"LFEY","name":"LFEY Groundlayout","layer":"Guidance lines","category":"Stopbars","object_type":"Line","style_id":"line.stopbar.7e0000","source_group":"LFEY Groundlayout","vsmr_group_ids":[],"geometry_role":"linework"},"geometry":{"type":"LineString","coordinates":[[-2.390074167,46.716558611],[-2.389963889,46.716459167]]}},{"type":"Feature","id":"LFEY-4a1a23d5b0cb730d7f72","properties":{"airport":"LFEY","name":"LFEY Groundlayout","layer":"Guidance lines","category":"Labels","object_type":"Line","style_id":"line.labels.808080","source_group":"LFEY Groundlayout","vsmr_group_ids":[],"geometry_role":"linework"},"geometry":{"type":"MultiLineString","coordinates":[[[-2.396369722,46.721021944],[-2.396350556,46.721030556],[-2.396229722,46.720925833],[-2.3962175,46.720932222],[-2.396200278,46.720917778],[-2.396196944,46.720905278],[-2.396220278,46.720893056],[-2.396369722,46.721021944]],[[-2.396292778,46.720854444],[-2.396313056,46.720843889],[-2.396377222,46.720936944],[-2.3964,46.720925278],[-2.396356111,46.720884167],[-2.396373056,46.720874167],[-2.396420278,46.720915278],[-2.396433333,46.720906944],[-2.396459722,46.720929167],[-2.396445,46.720936111],[-2.396475556,46.720964444],[-2.3964575,46.720973056],[-2.396426944,46.720945556],[-2.396377778,46.720971944],[-2.396292778,46.720854444]],[[-2.387437222,46.71314],[-2.387396944,46.713104167],[-2.387407778,46.713074167],[-2.387362222,46.713074722],[-2.387290833,46.713011389],[-2.387354722,46.712978056],[-2.387380556,46.712999722],[-2.387335278,46.713023611],[-2.387379444,46.713062222],[-2.387427778,46.713064167],[-2.387415278,46.713094444],[-2.387430833,46.713108056],[-2.387476944,46.713084722],[-2.387501667,46.7131075],[-2.387437222,46.71314]],[[-2.387326944,46.713194444],[-2.387272778,46.713148611],[-2.3872625,46.713077778],[-2.387249167,46.713067222],[-2.387203333,46.713089722],[-2.387177222,46.713066667],[-2.387242778,46.7130325],[-2.387287778,46.713071944],[-2.387297222,46.713145],[-2.387318611,46.713163333],[-2.3873475,46.713148889],[-2.3873325,46.713136667],[-2.38735,46.7131275],[-2.387391111,46.7131625],[-2.387326944,46.713194444]]]}},{"type":"Feature","id":"LFEY-b315442c578502a4b87a","properties":{"airport":"LFEY","name":"A","layer":"Labels","category":"Taxiways","object_type":"Label","style_id":"label.taxiways","source_group":"LFEY Taxiways","vsmr_group_ids":[],"geometry_role":"text_label","text-field":"A"},"geometry":{"type":"Point","coordinates":[-2.389811944,46.716430556]}}]}
