{"type":"FeatureCollection","name":"LFGA AVISO","bbox":[7.356625278,48.102532222,7.3636925,48.116821667],"metadata":{"schema":"vSMR AVISO","schema_version":2,"geometry_mode":"shared","airport":"LFGA","coordinate_reference_system":"WGS84","coordinate_order":"longitude, latitude","default_color_palette":"dark","color_palettes":["dark","light"],"background_colors":{"dark":"#434A4F","light":"#434A4F"},"runways":[{"ends":["01L","19R"],"headings":[9,189],"thresholds":[[7.357641944,48.108010833],[7.359060833,48.112891944]]},{"ends":["01","19"],"headings":[9,189],"thresholds":[[7.357427778,48.104435833],[7.361021944,48.116796944]]}],"saved_active_runways":[],"saved_active_airport_modes":[],"airport_reference":[7.359166944,48.110277778],"feature_count":32,"style_count":10,"layer_counts":{"Guidance lines":8,"Labels":24},"category_counts":{"Apron Surface":1,"Centerlines":1,"Gates":16,"Grass runways":1,"Labels":1,"Runways":1,"Stopbars":1,"TWR-CTR":1,"Taxiways":9},"geometry_source":"local GNG/KMZ","geometry_source_url":"","geometry_license":"GPL-3.0"},"styles":{"line.runwayconcrete.555555":{"name":"Runways","layer":"Guidance lines","object_type":"Line","paint":{"stroke":"#111318","stroke-opacity":1,"stroke-width":1,"palette-overrides":{"light":{"stroke":"#555555"}}},"feature_count":1},"line.runwaygrass.008000":{"name":"Grass runways","layer":"Guidance lines","object_type":"Line","paint":{"stroke":"#859A77","stroke-opacity":1,"stroke-width":1,"palette-overrides":{"light":{"stroke":"#008000"}}},"feature_count":1},"line.taxiway.c0b631":{"name":"Taxiways","layer":"Guidance lines","object_type":"Line","paint":{"stroke":"#4E5A69","stroke-opacity":1,"stroke-width":1,"palette-overrides":{"light":{"stroke":"#C0B631"}}},"feature_count":1},"line.apronsurface.808080":{"name":"Apron Surface","layer":"Guidance lines","object_type":"Line","paint":{"stroke":"#808080","stroke-opacity":1,"stroke-width":1,"palette-overrides":{"light":{"stroke":"#808080"}}},"feature_count":1},"line.stopbar.7e0000":{"name":"Stopbars","layer":"Guidance lines","object_type":"Line","paint":{"stroke":"#7E0000","stroke-opacity":1,"stroke-width":1,"palette-overrides":{"light":{"stroke":"#7E0000"}}},"feature_count":1},"line.centerlines.ffff00":{"name":"Centerlines","layer":"Guidance lines","object_type":"Line","paint":{"stroke":"#FFFF00","stroke-opacity":1,"stroke-width":1,"palette-overrides":{"light":{"stroke":"#FFFF00"}}},"feature_count":1},"line.twr-ctr.000000":{"name":"TWR-CTR","layer":"Guidance lines","object_type":"Line","paint":{"stroke":"#000000","stroke-opacity":1,"stroke-width":1,"palette-overrides":{"light":{"stroke":"#000000"}}},"feature_count":1},"line.labels.808080":{"name":"Labels","layer":"Guidance lines","object_type":"Line","paint":{"stroke":"#808080","stroke-opacity":1,"stroke-width":1,"palette-overrides":{"light":{"stroke":"#808080"}}},"feature_count":1},"label.gates":{"name":"Gates","layer":"Labels","object_type":"Label","paint":{"text-color":"#CCCCCC","text-font":"Arial","text-size":12,"text-halo-color":"#000000","text-halo-width":1,"text-anchor":"center","zoomLevel":9},"feature_count":16},"label.taxiways":{"name":"Taxiways","layer":"Labels","object_type":"Label","paint":{"text-color":"#CCCCCC","text-font":"Arial","text-size":12,"text-halo-color":"#000000","text-halo-width":1,"text-anchor":"center","zoomLevel":7},"feature_count":8}},"vsmr_groups":[],"features":[{"type":"Feature","id":"LFGA-fe36b2be7230eba93a76","properties":{"airport":"LFGA","name":"TWR","layer":"Labels","category":"Gates","object_type":"Label","style_id":"label.gates","source_group":"LFGA Gates","vsmr_group_ids":[],"geometry_role":"text_label","text-field":"TWR"},"geometry":{"type":"Point","coordinates":[7.362359167,48.109339722]}},{"type":"Feature","id":"LFGA-b312b2d3b2abb7437589","properties":{"airport":"LFGA","name":"Hangars","layer":"Labels","category":"Gates","object_type":"Label","style_id":"label.gates","source_group":"LFGA Gates","vsmr_group_ids":[],"geometry_role":"text_label","text-field":"Hangars"},"geometry":{"type":"Point","coordinates":[7.3636925,48.113466667]}},{"type":"Feature","id":"LFGA-ada8f47fb3f4bf413807","properties":{"airport":"LFGA","name":"ACB","layer":"Labels","category":"Gates","object_type":"Label","style_id":"label.gates","source_group":"LFGA Gates","vsmr_group_ids":[],"geometry_role":"text_label","text-field":"ACB"},"geometry":{"type":"Point","coordinates":[7.362031111,48.110862778]}},{"type":"Feature","id":"LFGA-8c1ef82bf5eeb29d286f","properties":{"airport":"LFGA","name":"Hangars","layer":"Labels","category":"Gates","object_type":"Label","style_id":"label.gates","source_group":"LFGA Gates","vsmr_group_ids":[],"geometry_role":"text_label","text-field":"Hangars"},"geometry":{"type":"Point","coordinates":[7.362185556,48.106981944]}},{"type":"Feature","id":"LFGA-d4efc42a6cd41d890a25","properties":{"airport":"LFGA","name":"P-Commercial","layer":"Labels","category":"Gates","object_type":"Label","style_id":"label.gates","source_group":"LFGA Gates","vsmr_group_ids":[],"geometry_role":"text_label","text-field":"P-Commercial"},"geometry":{"type":"Point","coordinates":[7.361563889,48.109871944]}},{"type":"Feature","id":"LFGA-23d6454402f0e213d8f4","properties":{"airport":"LFGA","name":"P-Aviation Generale","layer":"Labels","category":"Gates","object_type":"Label","style_id":"label.gates","source_group":"LFGA Gates","vsmr_group_ids":[],"geometry_role":"text_label","text-field":"P-Aviation Generale"},"geometry":{"type":"Point","coordinates":[7.362293056,48.108188889]}},{"type":"Feature","id":"LFGA-e5a8bd348b948b6439fb","properties":{"airport":"LFGA","name":"P-Sierra","layer":"Labels","category":"Gates","object_type":"Label","style_id":"label.gates","source_group":"LFGA Gates","vsmr_group_ids":[],"geometry_role":"text_label","text-field":"P-Sierra"},"geometry":{"type":"Point","coordinates":[7.360834444,48.104821389]}},{"type":"Feature","id":"LFGA-0ce14c446bae080da205","properties":{"airport":"LFGA","name":"1","layer":"Labels","category":"Gates","object_type":"Label","style_id":"label.gates","source_group":"LFGA Gates","vsmr_group_ids":[],"geometry_role":"text_label","text-field":"1"},"geometry":{"type":"Point","coordinates":[7.361883056,48.1094225]}},{"type":"Feature","id":"LFGA-8c26e663fb6582c5a1db","properties":{"airport":"LFGA","name":"2","layer":"Labels","category":"Gates","object_type":"Label","style_id":"label.gates","source_group":"LFGA Gates","vsmr_group_ids":[],"geometry_role":"text_label","text-field":"2"},"geometry":{"type":"Point","coordinates":[7.361826389,48.109215]}},{"type":"Feature","id":"LFGA-9af040f536db0daac126","properties":{"airport":"LFGA","name":"3","layer":"Labels","category":"Gates","object_type":"Label","style_id":"label.gates","source_group":"LFGA Gates","vsmr_group_ids":[],"geometry_role":"text_label","text-field":"3"},"geometry":{"type":"Point","coordinates":[7.361761944,48.109005556]}},{"type":"Feature","id":"LFGA-0a42d07927292296c6a3","properties":{"airport":"LFGA","name":"4","layer":"Labels","category":"Gates","object_type":"Label","style_id":"label.gates","source_group":"LFGA Gates","vsmr_group_ids":[],"geometry_role":"text_label","text-field":"4"},"geometry":{"type":"Point","coordinates":[7.361764444,48.108801389]}},{"type":"Feature","id":"LFGA-207bb679241941072b40","properties":{"airport":"LFGA","name":"A","layer":"Labels","category":"Gates","object_type":"Label","style_id":"label.gates","source_group":"LFGA Gates","vsmr_group_ids":[],"geometry_role":"text_label","text-field":"A"},"geometry":{"type":"Point","coordinates":[7.361725,48.10861]}},{"type":"Feature","id":"LFGA-6c6588ebe943f2f20ae6","properties":{"airport":"LFGA","name":"B","layer":"Labels","category":"Gates","object_type":"Label","style_id":"label.gates","source_group":"LFGA Gates","vsmr_group_ids":[],"geometry_role":"text_label","text-field":"B"},"geometry":{"type":"Point","coordinates":[7.361692778,48.108483333]}},{"type":"Feature","id":"LFGA-0b63745bc9cb2e4a0a17","properties":{"airport":"LFGA","name":"C","layer":"Labels","category":"Gates","object_type":"Label","style_id":"label.gates","source_group":"LFGA Gates","vsmr_group_ids":[],"geometry_role":"text_label","text-field":"C"},"geometry":{"type":"Point","coordinates":[7.361623611,48.108353611]}},{"type":"Feature","id":"LFGA-8eee311ba0ef9074eb7f","properties":{"airport":"LFGA","name":"D","layer":"Labels","category":"Gates","object_type":"Label","style_id":"label.gates","source_group":"LFGA Gates","vsmr_group_ids":[],"geometry_role":"text_label","text-field":"D"},"geometry":{"type":"Point","coordinates":[7.361596389,48.108210833]}},{"type":"Feature","id":"LFGA-fdb2f4fa1f52734b24c0","properties":{"airport":"LFGA","name":"E","layer":"Labels","category":"Gates","object_type":"Label","style_id":"label.gates","source_group":"LFGA Gates","vsmr_group_ids":[],"geometry_role":"text_label","text-field":"E"},"geometry":{"type":"Point","coordinates":[7.361578889,48.108078056]}},{"type":"Feature","id":"LFGA-f92169b650c36358dc9c","properties":{"airport":"LFGA","name":"LFGA Groundlayout","layer":"Guidance lines","category":"Runways","object_type":"Line","style_id":"line.runwayconcrete.555555","source_group":"LFGA Groundlayout","vsmr_group_ids":[],"geometry_role":"linework"},"geometry":{"type":"MultiLineString","coordinates":[[[7.360143889,48.114423889],[7.359798056,48.113218889]],[[7.359780833,48.113166389],[7.358989167,48.110446389]],[[7.358951667,48.110314722],[7.356713611,48.102616667],[7.357303333,48.102532222],[7.357333056,48.102641944]],[[7.360448056,48.114059167],[7.360188056,48.113198889]],[[7.360601389,48.114623056],[7.3610575,48.116208056],[7.361065,48.116221389],[7.361077222,48.116232778],[7.361109444,48.1162525],[7.36126,48.116357222],[7.361300833,48.116390278],[7.361324167,48.116405833],[7.361335278,48.116416667],[7.361337778,48.116433889],[7.361421111,48.116744444],[7.360840556,48.116821667],[7.3601575,48.114468889]],[[7.357262778,48.1031425],[7.357696944,48.104631944],[7.359266944,48.110020556]]]}},{"type":"Feature","id":"LFGA-94f85e165e80a3fefed6","properties":{"airport":"LFGA","name":"LFGA Groundlayout","layer":"Guidance lines","category":"Grass runways","object_type":"Line","style_id":"line.runwaygrass.008000","source_group":"LFGA Groundlayout","vsmr_group_ids":[],"geometry_role":"linework"},"geometry":{"type":"MultiLineString","coordinates":[[[7.356625278,48.106335556],[7.357666389,48.1062],[7.358871111,48.110329444]],[[7.358905,48.110455],[7.359708333,48.113184444]],[[7.359725,48.1132325],[7.360071389,48.114438333]],[[7.360079444,48.114480833],[7.360107222,48.114572778],[7.359065833,48.114708889],[7.356626667,48.106335556]]]}},{"type":"Feature","id":"LFGA-00d1b4360949596e2c66","properties":{"airport":"LFGA","name":"LFGA Groundlayout","layer":"Guidance lines","category":"Taxiways","object_type":"Line","style_id":"line.taxiway.c0b631","source_group":"LFGA Groundlayout","vsmr_group_ids":[],"geometry_role":"linework"},"geometry":{"type":"MultiLineString","coordinates":[[[7.362724444,48.113128889],[7.362693056,48.113128333],[7.3626775,48.113128333],[7.362664722,48.113131111],[7.362654444,48.113138889],[7.362643889,48.113143056],[7.362628333,48.113143611],[7.362448333,48.113151944],[7.362431389,48.113156111],[7.362423056,48.113164722],[7.362414722,48.113175833],[7.362409444,48.113188333],[7.362408333,48.113203611],[7.362412778,48.113221944],[7.362433611,48.113282778],[7.362588056,48.113877778],[7.362610278,48.113934722],[7.3626275,48.113968611],[7.362644444,48.114],[7.362680278,48.114031944],[7.362723333,48.114059722],[7.362773333,48.114078056],[7.362806944,48.114090278],[7.362843889,48.114097222],[7.362868889,48.114099722],[7.362886944,48.114095833]],[[7.360603333,48.114624167],[7.360623889,48.114601111],[7.3606575,48.114568611],[7.360685278,48.114537778],[7.360716389,48.114511389],[7.360753611,48.114478333],[7.360788056,48.114455],[7.360829722,48.114439722],[7.360870278,48.114425833],[7.36092,48.1144125],[7.360989444,48.114398611],[7.361054167,48.114388056],[7.361153611,48.114374167],[7.361263333,48.114357778],[7.362161111,48.114233056],[7.362326944,48.114208056],[7.362445278,48.114192778],[7.362540556,48.114178889],[7.362638056,48.114171944],[7.362719167,48.114165],[7.362808333,48.114161111],[7.362901667,48.114158333]],[[7.360450278,48.114056389],[7.360464167,48.114088333],[7.360488056,48.114121944],[7.360517222,48.114155556],[7.360563889,48.114194444],[7.360614167,48.114224722],[7.360668333,48.114251667],[7.360737778,48.114268333],[7.360806944,48.114274444],[7.360868889,48.114274444],[7.360953333,48.114266667],[7.361330278,48.114216389],[7.362076111,48.114107778],[7.362150833,48.114091111],[7.362220833,48.114064444],[7.362283889,48.114024444],[7.362335556,48.113975556],[7.362368611,48.113923611],[7.362381944,48.113870278],[7.362385278,48.113791389],[7.362366111,48.113733056],[7.362127778,48.112924444],[7.360203611,48.113164722],[7.360182778,48.113186667],[7.360187222,48.1132]],[[7.360160833,48.113098889],[7.360166111,48.113118889],[7.360208889,48.113119444],[7.362111389,48.112869444],[7.362079722,48.112773056],[7.362073056,48.112742222],[7.361941667,48.112282222],[7.361414722,48.110424444],[7.361395833,48.110367222],[7.361361111,48.110321111],[7.361327222,48.110288611],[7.361283056,48.110256389],[7.361222778,48.110228889],[7.361150556,48.110206111],[7.361081667,48.110191389],[7.361031667,48.110185556],[7.360999167,48.110186667],[7.360881389,48.110200278],[7.3606375,48.110231667],[7.359718333,48.110358889],[7.359652222,48.110370833],[7.359611111,48.110388889],[7.359573611,48.110413889],[7.359529167,48.110443611],[7.359495278,48.110479444],[7.359465,48.11052],[7.359448889,48.110562778],[7.359445278,48.110596111],[7.359445278,48.110640278]],[[7.359265556,48.110021389],[7.359289722,48.110056111],[7.359326389,48.110101389],[7.359375833,48.110139167],[7.359425278,48.110165278],[7.359471667,48.110186667],[7.359518056,48.110204167],[7.359558611,48.110212778],[7.359600833,48.1102175],[7.359656111,48.110215556],[7.359721389,48.110210833],[7.360342778,48.110133333],[7.361021944,48.110042222],[7.361095,48.110023333],[7.361143889,48.109993333],[7.361185,48.109955833],[7.361205556,48.109918056],[7.3612225,48.109875556],[7.361231944,48.109831667],[7.361220556,48.109779167],[7.361209444,48.109723889],[7.360849722,48.108485556],[7.360577778,48.107573889],[7.360165833,48.106138333],[7.359492222,48.103843056],[7.359483333,48.103815],[7.359468889,48.103793889],[7.359448889,48.103765833],[7.359396944,48.103719722],[7.359180278,48.103561389],[7.358195833,48.102861389],[7.35812,48.102818611],[7.358053889,48.102788333],[7.357989722,48.102771944],[7.357916111,48.102763056],[7.357823611,48.102766667],[7.357715833,48.102780556],[7.357510278,48.102803056],[7.357471667,48.10282],[7.357428889,48.1028475],[7.357411389,48.102877222],[7.357399444,48.102906667],[7.357264722,48.103142222]],[[7.357333889,48.1026425],[7.357353611,48.102656944],[7.3573875,48.102673611],[7.357426944,48.102671111],[7.357491389,48.102666389],[7.357620278,48.102653333],[7.357745556,48.102638889],[7.357851111,48.102631944],[7.357940556,48.102630556],[7.358024722,48.102637778],[7.358092778,48.102652222],[7.3581625,48.102677222],[7.358237778,48.102705833],[7.358306389,48.102751111],[7.358998056,48.103228611],[7.359586111,48.103659167],[7.359637222,48.103719167],[7.359666944,48.103763889],[7.359686389,48.103817778],[7.360013333,48.104929167],[7.360336389,48.106035556]],[[7.360376667,48.106181389],[7.360690833,48.107267778],[7.3607275,48.107364167],[7.360764167,48.107439167],[7.36081,48.107518889],[7.360862778,48.107598333],[7.360929167,48.107683889],[7.360968056,48.107740556],[7.361081389,48.107875]],[[7.361650556,48.110530556],[7.362307222,48.1128325],[7.362321389,48.11284],[7.362346389,48.112841389],[7.362367222,48.112837222]],[[7.362383056,48.112885556],[7.362335556,48.112889444],[7.362322778,48.112896111],[7.362326944,48.112910556],[7.362365833,48.113054167],[7.362381389,48.113066667],[7.362397222,48.113078889],[7.362410278,48.113084722],[7.362438889,48.113087778],[7.362491944,48.1130875],[7.362560833,48.113083889],[7.362608056,48.113082778],[7.3626425,48.113086667],[7.362655278,48.1130925],[7.362671111,48.1130925]],[[7.360081944,48.114481111],[7.360159444,48.114469167]],[[7.360071667,48.114437222],[7.360143889,48.114425]],[[7.3598,48.113220556],[7.359725833,48.113231667]],[[7.359780833,48.11317],[7.359709167,48.113183889]],[[7.358991111,48.110443333],[7.3589075,48.110452222]],[[7.358950833,48.110313056],[7.358873889,48.110328889]]]}},{"type":"Feature","id":"LFGA-1e431368113106e4b8ba","properties":{"airport":"LFGA","name":"LFGA Groundlayout","layer":"Guidance lines","category":"Apron Surface","object_type":"Line","style_id":"line.apronsurface.808080","source_group":"LFGA Groundlayout","vsmr_group_ids":[],"geometry_role":"linework"},"geometry":{"type":"MultiLineString","coordinates":[[[7.361650278,48.110531667],[7.361650278,48.110509722],[7.361655278,48.110481944],[7.361669167,48.110458889],[7.361688333,48.110435833],[7.361715833,48.110412778],[7.361752222,48.110393333],[7.361796944,48.110379444],[7.361847222,48.110365556],[7.361993889,48.110347222],[7.362123333,48.110340278],[7.362250833,48.110334722],[7.362241667,48.110228056],[7.362299167,48.1102075],[7.362285833,48.1100375],[7.362175833,48.109100278],[7.362131944,48.108592778],[7.362114722,48.108521389],[7.361918611,48.107895833],[7.362068611,48.107871667],[7.362024722,48.107726111],[7.362345,48.107676667],[7.362330833,48.1076325],[7.3618725,48.107691389],[7.361600278,48.106828611],[7.361662778,48.106819167],[7.3615775,48.1065075],[7.361463056,48.106150833],[7.361212778,48.106186944],[7.361355833,48.106678333],[7.361200556,48.106849444],[7.361313333,48.107199722],[7.361491111,48.107778333],[7.361484167,48.107800833],[7.361466111,48.1078175],[7.361441389,48.107829722],[7.361362222,48.107838611],[7.361079444,48.107873333]],[[7.362888056,48.114095],[7.362894444,48.114084167],[7.362895556,48.114059167],[7.362893056,48.114014722],[7.362879167,48.113874722],[7.362864167,48.113740556],[7.362861944,48.113714444],[7.362852222,48.11367],[7.362784444,48.113448889],[7.362769722,48.113414167],[7.362763333,48.113387222],[7.362748056,48.113297222],[7.362738611,48.113276389],[7.362733889,48.113265833],[7.362733889,48.113228333],[7.362733889,48.113147778],[7.362733889,48.113135],[7.362726111,48.113128889]],[[7.362901667,48.114158056],[7.362972222,48.114156944],[7.363059722,48.114156111],[7.363168333,48.114156944],[7.363238056,48.11416],[7.363275278,48.114156111],[7.363316944,48.114148611],[7.363355278,48.114135833],[7.363384722,48.114120556],[7.363398056,48.114105278],[7.363402778,48.114085],[7.363402778,48.114060833],[7.363396944,48.113970833],[7.363406111,48.113965833],[7.3634225,48.113962778],[7.363442778,48.113961111],[7.363502222,48.113961111],[7.3634975,48.113921111],[7.363395556,48.113925],[7.363388611,48.1138625],[7.363491944,48.113857778],[7.363488611,48.113814444],[7.363380556,48.113818889],[7.363377222,48.113753611],[7.363483056,48.11375],[7.363479444,48.113705278],[7.363381111,48.113709444],[7.363373889,48.113647778],[7.3634725,48.113644444],[7.363467222,48.113596667],[7.363364722,48.113601389],[7.363354722,48.113539167],[7.363462222,48.113534444],[7.363458333,48.113490556],[7.363341111,48.113495833],[7.363338333,48.113433056],[7.363453611,48.113429722],[7.363449722,48.113383333],[7.3633325,48.1133875],[7.363324167,48.113324722],[7.363441389,48.113318611],[7.363438056,48.113273889],[7.363318333,48.113278611],[7.3633125,48.113216667],[7.363428611,48.113211944],[7.363425,48.113163611],[7.363306667,48.113170556],[7.363301944,48.113110278],[7.363421667,48.113106389],[7.363415278,48.113058611],[7.363293333,48.113065278],[7.363291389,48.113023889],[7.363271111,48.113022778],[7.363260278,48.112990833],[7.36324,48.112988611],[7.363216111,48.11298],[7.363188611,48.112981111],[7.363115278,48.113048611],[7.363098611,48.113051111],[7.363073056,48.113054722],[7.362955556,48.113064444],[7.362670278,48.113091667]],[[7.363052778,48.114116389],[7.363155,48.114120278],[7.363223611,48.114119722],[7.363266944,48.114115278],[7.363298889,48.114109444],[7.363321944,48.114097222],[7.363339444,48.114083056],[7.363346111,48.114065],[7.363340278,48.113988333],[7.363234167,48.113990278],[7.363230278,48.113948333],[7.363329722,48.113943333],[7.363326111,48.113875278],[7.363223333,48.113879167],[7.363219444,48.113834444],[7.363319167,48.113832222],[7.363318333,48.113778333],[7.3632125,48.113782222],[7.363206389,48.113721944],[7.363309722,48.113719167],[7.363297222,48.113593889],[7.363158333,48.113598611],[7.363154167,48.113554722],[7.3632825,48.113549167],[7.363275833,48.113483611],[7.363144722,48.113488611],[7.363140556,48.113443889],[7.363264167,48.113439444],[7.363261111,48.113368333],[7.363134722,48.113373333],[7.363130556,48.113330833],[7.363253056,48.113323889],[7.363245833,48.113258056],[7.3631225,48.113261944],[7.363118611,48.113218889],[7.363238056,48.113210833],[7.363224444,48.113107778],[7.363211111,48.113097778],[7.363188333,48.113089722],[7.363151944,48.113093333],[7.362938611,48.113110278],[7.362831944,48.113118889],[7.362811111,48.1131225],[7.362797222,48.113134444],[7.362793333,48.113165],[7.362809722,48.113287778],[7.362915,48.113285],[7.3629175,48.113329167],[7.362820833,48.113336667],[7.362827778,48.113402222],[7.362920278,48.113396667],[7.362927222,48.113442778],[7.362855556,48.113447222],[7.362867778,48.113513889],[7.362932778,48.113511944],[7.362939167,48.113553056],[7.362885833,48.113559444],[7.362916389,48.113675556],[7.362985,48.113673056],[7.362990833,48.113721389],[7.362931667,48.113724167],[7.362931667,48.113793056],[7.363000556,48.113789167],[7.363,48.113835278],[7.362940556,48.113839167],[7.3629425,48.113910833],[7.363011111,48.113908333],[7.363012778,48.113946667],[7.362946944,48.113949444],[7.362950278,48.114033611],[7.362955556,48.114063056],[7.362966667,48.114081389],[7.36299,48.1141],[7.363016389,48.114110278],[7.363052778,48.114116389]],[[7.362384167,48.112885],[7.362926667,48.112669722],[7.363284444,48.112508611],[7.363261111,48.112126944],[7.362996944,48.112144722],[7.363003611,48.112356667],[7.3625125,48.112749444],[7.362398611,48.112821111],[7.362376111,48.112835],[7.362361389,48.112837778]],[[7.360379722,48.106180833],[7.360617778,48.106147222],[7.360650833,48.106253056],[7.360995278,48.106207778],[7.360836944,48.10567],[7.360478333,48.104434167],[7.36029,48.103770833],[7.359721667,48.103843889],[7.360356111,48.106028611],[7.360335556,48.106030833]]]}},{"type":"Feature","id":"LFGA-4d31daef6fd64a6901bf","properties":{"airport":"LFGA","name":"LFGA Groundlayout","layer":"Guidance lines","category":"Stopbars","object_type":"Line","style_id":"line.stopbar.7e0000","source_group":"LFGA Groundlayout","vsmr_group_ids":[],"geometry_role":"linework"},"geometry":{"type":"MultiLineString","coordinates":[[[7.358366667,48.102789444],[7.358224444,48.102881667]],[[7.361548333,48.114317778],[7.3615075,48.114190833]],[[7.361871111,48.112958333],[7.361855,48.1129025]],[[7.360333611,48.110134722],[7.360370278,48.110269167]],[[7.361176389,48.113043333],[7.361162778,48.112994444]]]}},{"type":"Feature","id":"LFGA-113a78d2a5ba7e9f9c5f","properties":{"airport":"LFGA","name":"LFGA Groundlayout","layer":"Guidance lines","category":"Centerlines","object_type":"Line","style_id":"line.centerlines.ffff00","source_group":"LFGA Groundlayout","vsmr_group_ids":[],"geometry_role":"linework"},"geometry":{"type":"MultiLineString","coordinates":[[[7.361409722,48.108041944],[7.361427778,48.108102222]],[[7.361339444,48.109447778],[7.361800278,48.109391111]],[[7.361318611,48.109248889],[7.361767222,48.109192222]],[[7.361261667,48.109055],[7.361702222,48.108995278]],[[7.361209444,48.108859722],[7.3616975,48.10879]],[[7.361651667,48.108589444],[7.361572778,48.108600833]],[[7.361581389,48.108630278],[7.361561944,48.108570556]],[[7.361635833,48.108454444],[7.361536944,48.108467778]],[[7.361541389,48.108498611],[7.361524722,48.108438611]],[[7.361575556,48.108325],[7.3614975,48.108336667]],[[7.361487778,48.108306111],[7.361503889,48.108366667]],[[7.361455833,48.108199722],[7.361556389,48.108185833]],[[7.361448333,48.108173889],[7.361468333,48.108235]],[[7.361523889,48.108056111],[7.361417778,48.108069722]]]}},{"type":"Feature","id":"LFGA-25c8780fbfca16c54282","properties":{"airport":"LFGA","name":"LFGA Groundlayout","layer":"Guidance lines","category":"TWR-CTR","object_type":"Line","style_id":"line.twr-ctr.000000","source_group":"LFGA Groundlayout","vsmr_group_ids":[],"geometry_role":"linework"},"geometry":{"type":"LineString","coordinates":[[7.362291389,48.109376389],[7.362387222,48.109433889],[7.362513611,48.109338611],[7.362375833,48.109255278],[7.362270278,48.109335278],[7.362286667,48.109346111],[7.362291389,48.109376389]]}},{"type":"Feature","id":"LFGA-f7e569797766707e4c44","properties":{"airport":"LFGA","name":"LFGA Groundlayout","layer":"Guidance lines","category":"Labels","object_type":"Line","style_id":"line.labels.808080","source_group":"LFGA Groundlayout","vsmr_group_ids":[],"geometry_role":"linework"},"geometry":{"type":"MultiLineString","coordinates":[[[7.360965278,48.116370833],[7.360990556,48.116368333],[7.360949722,48.116236667],[7.360959722,48.116234167],[7.360955278,48.116216111],[7.360940833,48.116206944],[7.360918056,48.116209444],[7.360965278,48.116370833]],[[7.360813611,48.116255556],[7.360825556,48.116296389],[7.360857778,48.116290833],[7.360846389,48.116250556],[7.360813611,48.116255556]],[[7.360862778,48.116216944],[7.360780278,48.116228333],[7.360819444,48.116361389],[7.360890556,48.11639],[7.360886667,48.116367778],[7.3608425,48.116351389],[7.360835833,48.116325],[7.360891111,48.116316944],[7.360862778,48.116216944]],[[7.3575425,48.105005556],[7.357574444,48.105000556],[7.357546389,48.104896944],[7.357512778,48.104901389],[7.3575425,48.105005556]],[[7.357530278,48.105036944],[7.357608889,48.105025556],[7.357562222,48.104865278],[7.357480833,48.104876944],[7.357530278,48.105036944]],[[7.35765,48.104853889],[7.357624722,48.104858333],[7.357666944,48.104989444],[7.357655556,48.104990556],[7.357662222,48.105011944],[7.357674444,48.105018056],[7.357696944,48.105013611],[7.35765,48.104853889]]]}},{"type":"Feature","id":"LFGA-230d94483e7e6e4eeb5c","properties":{"airport":"LFGA","name":"EN","layer":"Labels","category":"Taxiways","object_type":"Label","style_id":"label.taxiways","source_group":"LFGA Taxiways","vsmr_group_ids":[],"geometry_role":"text_label","text-field":"EN"},"geometry":{"type":"Point","coordinates":[7.361379167,48.114130556]}},{"type":"Feature","id":"LFGA-519462fe08bc3a3c89e7","properties":{"airport":"LFGA","name":"E1","layer":"Labels","category":"Taxiways","object_type":"Label","style_id":"label.taxiways","source_group":"LFGA Taxiways","vsmr_group_ids":[],"geometry_role":"text_label","text-field":"E1"},"geometry":{"type":"Point","coordinates":[7.362862778,48.114213333]}},{"type":"Feature","id":"LFGA-3ad60a1eb765d604c456","properties":{"airport":"LFGA","name":"E2","layer":"Labels","category":"Taxiways","object_type":"Label","style_id":"label.taxiways","source_group":"LFGA Taxiways","vsmr_group_ids":[],"geometry_role":"text_label","text-field":"E2"},"geometry":{"type":"Point","coordinates":[7.362553889,48.113204444]}},{"type":"Feature","id":"LFGA-f17433b3e5fdaaadbb47","properties":{"airport":"LFGA","name":"E3","layer":"Labels","category":"Taxiways","object_type":"Label","style_id":"label.taxiways","source_group":"LFGA Taxiways","vsmr_group_ids":[],"geometry_role":"text_label","text-field":"E3"},"geometry":{"type":"Point","coordinates":[7.3624375,48.112925556]}},{"type":"Feature","id":"LFGA-73c1e4cc3329f717b1da","properties":{"airport":"LFGA","name":"E4","layer":"Labels","category":"Taxiways","object_type":"Label","style_id":"label.taxiways","source_group":"LFGA Taxiways","vsmr_group_ids":[],"geometry_role":"text_label","text-field":"E4"},"geometry":{"type":"Point","coordinates":[7.361803333,48.112866944]}},{"type":"Feature","id":"LFGA-0a775ba63d0dd9e7ebfc","properties":{"airport":"LFGA","name":"E5","layer":"Labels","category":"Taxiways","object_type":"Label","style_id":"label.taxiways","source_group":"LFGA Taxiways","vsmr_group_ids":[],"geometry_role":"text_label","text-field":"E5"},"geometry":{"type":"Point","coordinates":[7.361099167,48.11295]}},{"type":"Feature","id":"LFGA-dc4a4313302ce9aaf1d3","properties":{"airport":"LFGA","name":"EC","layer":"Labels","category":"Taxiways","object_type":"Label","style_id":"label.taxiways","source_group":"LFGA Taxiways","vsmr_group_ids":[],"geometry_role":"text_label","text-field":"EC"},"geometry":{"type":"Point","coordinates":[7.360299722,48.110421667]}},{"type":"Feature","id":"LFGA-c8826fd805df8f0c7285","properties":{"airport":"LFGA","name":"ES","layer":"Labels","category":"Taxiways","object_type":"Label","style_id":"label.taxiways","source_group":"LFGA Taxiways","vsmr_group_ids":[],"geometry_role":"text_label","text-field":"ES"},"geometry":{"type":"Point","coordinates":[7.357956944,48.103011667]}}]}
