{"type":"FeatureCollection","name":"LFGJ AVISO","bbox":[5.415182222,47.032823333,5.443520833,47.0476325],"metadata":{"schema":"vSMR AVISO","schema_version":2,"geometry_mode":"shared","airport":"LFGJ","coordinate_reference_system":"WGS84","coordinate_order":"longitude, latitude","default_color_palette":"dark","color_palettes":["dark","light"],"background_colors":{"dark":"#434A4F","light":"#434A4F"},"runways":[{"ends":["05","23"],"headings":[52,232],"thresholds":[[5.415338889,47.033088889],[5.439188889,47.044780833]]}],"saved_active_runways":[],"saved_active_airport_modes":[],"airport_reference":[5.434999722,47.042777778],"feature_count":58,"style_count":9,"layer_counts":{"Guidance lines":14,"Labels":44},"category_counts":{"Apron Surface":2,"Centerlines":2,"Gates":40,"Labels":2,"Runways":2,"Stopbars":2,"TWR-CTR":2,"Taxiways":6},"geometry_source":"local GNG","geometry_source_url":"","geometry_license":"GPL-3.0"},"styles":{"line.runwayconcrete.555555":{"name":"Runways","layer":"Guidance lines","object_type":"Line","paint":{"stroke":"#111318","stroke-opacity":1,"stroke-width":1,"palette-overrides":{"light":{"stroke":"#555555"}}},"feature_count":2},"line.taxiway.c0b631":{"name":"Taxiways","layer":"Guidance lines","object_type":"Line","paint":{"stroke":"#4E5A69","stroke-opacity":1,"stroke-width":1,"palette-overrides":{"light":{"stroke":"#C0B631"}}},"feature_count":2},"line.apronsurface.808080":{"name":"Apron Surface","layer":"Guidance lines","object_type":"Line","paint":{"stroke":"#808080","stroke-opacity":1,"stroke-width":1,"palette-overrides":{"light":{"stroke":"#808080"}}},"feature_count":2},"line.stopbar.7e0000":{"name":"Stopbars","layer":"Guidance lines","object_type":"Line","paint":{"stroke":"#7E0000","stroke-opacity":1,"stroke-width":1,"palette-overrides":{"light":{"stroke":"#7E0000"}}},"feature_count":2},"line.twr-ctr.000000":{"name":"TWR-CTR","layer":"Guidance lines","object_type":"Line","paint":{"stroke":"#000000","stroke-opacity":1,"stroke-width":1,"palette-overrides":{"light":{"stroke":"#000000"}}},"feature_count":2},"line.centerlines.ffff00":{"name":"Centerlines","layer":"Guidance lines","object_type":"Line","paint":{"stroke":"#FFFF00","stroke-opacity":1,"stroke-width":1,"palette-overrides":{"light":{"stroke":"#FFFF00"}}},"feature_count":2},"line.labels.808080":{"name":"Labels","layer":"Guidance lines","object_type":"Line","paint":{"stroke":"#808080","stroke-opacity":1,"stroke-width":1,"palette-overrides":{"light":{"stroke":"#808080"}}},"feature_count":2},"label.gates":{"name":"Gates","layer":"Labels","object_type":"Label","paint":{"text-color":"#CCCCCC","text-font":"Arial","text-size":12,"text-halo-color":"#000000","text-halo-width":1,"text-anchor":"center","zoomLevel":9},"feature_count":40},"label.taxiways":{"name":"Taxiways","layer":"Labels","object_type":"Label","paint":{"text-color":"#CCCCCC","text-font":"Arial","text-size":12,"text-halo-color":"#000000","text-halo-width":1,"text-anchor":"center","zoomLevel":7},"feature_count":4}},"vsmr_groups":[],"features":[{"type":"Feature","id":"LFGJ-9f3f8ab30de8dcda6292","properties":{"airport":"LFGJ","name":"LFGJ Groundlayout","layer":"Guidance lines","category":"Runways","object_type":"Line","style_id":"line.runwayconcrete.555555","source_group":"LFGJ Groundlayout","vsmr_group_ids":[],"geometry_role":"linework"},"geometry":{"type":"MultiLineString","coordinates":[[[5.43349,47.041745278],[5.439740278,47.044803333],[5.441409444,47.045618611],[5.441976111,47.045895833],[5.442052778,47.045895833],[5.4421525,47.045885278],[5.442275278,47.045869722],[5.4423825,47.04585],[5.442518611,47.045818611],[5.44263,47.045778056],[5.442766111,47.045723333],[5.442971111,47.045823889],[5.4429175,47.045873611],[5.442846667,47.045942778],[5.442833056,47.045996389],[5.442841944,47.046039444],[5.442864167,47.0460775],[5.442895833,47.046103333],[5.442943611,47.046126111],[5.442986667,47.046134722],[5.443056667,47.0461325],[5.443520833,47.046114167],[5.443398333,47.046426111],[5.443349722,47.046526389],[5.443338611,47.046545556],[5.442925278,47.046917222],[5.442418889,47.047159444],[5.442347222,47.046958889],[5.442325833,47.046908056],[5.442301944,47.046864722],[5.4422675,47.046826667],[5.442214444,47.046799722],[5.442166667,47.0467925],[5.442108333,47.046788889],[5.4420525,47.046797778],[5.441978333,47.046832222],[5.441890833,47.046908056]],[[5.441686944,47.0468425],[5.441713889,47.046771389],[5.441739167,47.046694722],[5.441748889,47.046634167],[5.441751667,47.046572778],[5.441751667,47.046506389],[5.441743333,47.046449722],[5.441720833,47.046373889],[5.441672222,47.046258611],[5.441619167,47.046228611],[5.441235833,47.046040833],[5.435387778,47.043164167]],[[5.434166389,47.042565],[5.433248056,47.042115278],[5.427849167,47.039469444]],[[5.426907222,47.039006389],[5.420514444,47.035873889]],[[5.419172222,47.035214722],[5.415182222,47.033256389],[5.415546389,47.032908056],[5.415624444,47.032874444],[5.415710278,47.032847222],[5.415794722,47.032831667],[5.415873056,47.032824167],[5.415943611,47.032823333],[5.416001944,47.032826389],[5.416041944,47.032833611],[5.416068056,47.0328525],[5.416167778,47.032998889],[5.416415,47.033375278],[5.419495278,47.034886667]]]}},{"type":"Feature","id":"LFGJ-1d3ef9b7767f24d2f77b","properties":{"airport":"LFGJ","name":"LFGJ Groundlayout","layer":"Guidance lines","category":"Taxiways","object_type":"Line","style_id":"line.taxiway.c0b631","source_group":"LFGJ Groundlayout","vsmr_group_ids":[],"geometry_role":"linework"},"geometry":{"type":"MultiLineString","coordinates":[[[5.435391389,47.043165278],[5.435281944,47.043155833],[5.435172778,47.043140556],[5.435076111,47.043136944],[5.434995278,47.043139167],[5.434928333,47.043143611],[5.434872222,47.043153611],[5.4347575,47.043186944],[5.434669722,47.043228611],[5.4346025,47.043263333],[5.434544167,47.043301667],[5.43449,47.043334722],[5.434435,47.043366944],[5.434381111,47.043393056],[5.434301667,47.043426111],[5.434236667,47.043453333],[5.434165556,47.043476944],[5.434061944,47.043501667],[5.433969167,47.043519722],[5.433889722,47.043531944],[5.433824722,47.043538611],[5.4337475,47.043545],[5.433664444,47.043545833],[5.433509167,47.043540278],[5.433451389,47.043536944],[5.432866111,47.043504167],[5.432435833,47.043479444],[5.4308625,47.043384722],[5.428565,47.043252222],[5.428193611,47.043236389],[5.427952222,47.043249167],[5.427731944,47.04328],[5.4274125,47.043349444],[5.42729,47.043385556],[5.427175,47.043423611],[5.427074167,47.043461667],[5.426981111,47.043513333],[5.426878889,47.043566111]],[[5.419169444,47.035213889],[5.419188056,47.035241944],[5.419138889,47.035234722],[5.419098056,47.035226667],[5.41904,47.035230556],[5.418986111,47.035237222],[5.418930278,47.035251667],[5.418895278,47.035270556],[5.418858333,47.035302778],[5.418658889,47.035500833],[5.418742778,47.035568889],[5.418785556,47.035598056],[5.418845278,47.035627222],[5.418897222,47.035658611],[5.418950833,47.035664722],[5.419024167,47.035662778],[5.419468333,47.035640833],[5.419520278,47.035653333],[5.419558611,47.035669167],[5.419592222,47.035693056],[5.419621389,47.035728611],[5.419628333,47.035766389],[5.419630278,47.035806389],[5.419606111,47.035845278],[5.419569444,47.035885278],[5.419488333,47.035966667],[5.419127222,47.036330278],[5.418076667,47.037333056],[5.416753333,47.0385875]],[[5.420512778,47.035876389],[5.420424722,47.035872222],[5.420269444,47.035884167],[5.420154167,47.035899444],[5.42005,47.035923333],[5.419944167,47.035951944],[5.419830556,47.035994444],[5.41974,47.036032778],[5.419637778,47.036088611],[5.41953,47.036159167],[5.4194175,47.036256389],[5.419342778,47.036341667],[5.418718889,47.036925833],[5.416904444,47.038653889]],[[5.417215833,47.039842222],[5.419918611,47.041493333],[5.421005833,47.042161111],[5.421068056,47.042177778],[5.421141944,47.042189444],[5.4212325,47.042202222],[5.421334722,47.042208611],[5.421463056,47.042213889],[5.421640833,47.042219167],[5.422706944,47.042257778],[5.422737778,47.042255833],[5.422757222,47.042253333],[5.422781667,47.042244444]],[[5.417080833,47.039931667],[5.420175278,47.04183],[5.421137778,47.042420833],[5.421265833,47.042323333],[5.421252222,47.042314722],[5.421262222,47.042307222],[5.421284444,47.042300278],[5.421309444,47.042295278],[5.421340556,47.042291111],[5.421396667,47.042290278],[5.421544722,47.042292778],[5.4226325,47.0423225],[5.422661667,47.0423225],[5.42268,47.042331389],[5.42268,47.0423425],[5.422667222,47.0423525]],[[5.419495833,47.034883611],[5.419526667,47.034871389],[5.419521389,47.034836111],[5.419506111,47.034797778],[5.419511111,47.034743333],[5.419536944,47.034694444],[5.419593333,47.034641944],[5.419804167,47.034480833],[5.419878611,47.034458056],[5.419960833,47.034493056],[5.4200225,47.034531667],[5.420094444,47.034678611],[5.420215,47.034951944],[5.420248333,47.034980833],[5.420291944,47.035001944],[5.420331944,47.035014444],[5.420384722,47.035016944],[5.420443056,47.035009444],[5.420495833,47.034992222],[5.4205375,47.034961111],[5.420625,47.034881667],[5.421014167,47.034587222],[5.421303333,47.034451389],[5.421493056,47.034392222],[5.421702222,47.034350556],[5.421943333,47.034322222],[5.422155556,47.034322222],[5.422313056,47.034341944],[5.422483333,47.034381389],[5.422883611,47.034533333],[5.4230175,47.034591667],[5.423151667,47.034630556],[5.423268611,47.034651944],[5.423368333,47.034673333],[5.423453889,47.034696667],[5.423539444,47.034733611],[5.4235225,47.034788056],[5.423476667,47.034838611],[5.4234025,47.034896944],[5.423345556,47.034941667],[5.423305556,47.034961111],[5.423251389,47.034980556],[5.423205833,47.034951389],[5.423123056,47.034854167],[5.423046111,47.034764722],[5.422929167,47.034663611],[5.422792222,47.034587778],[5.422609722,47.034502222],[5.422404444,47.03444],[5.422256111,47.034406944],[5.422050833,47.034385556],[5.421899722,47.034385556],[5.421742778,47.034401111],[5.421445833,47.034484722],[5.421255,47.034564722],[5.421064167,47.034674167],[5.4209525,47.034763333],[5.420881667,47.034856389],[5.420824444,47.034976944],[5.420788889,47.035110833],[5.420778056,47.035251944],[5.420771667,47.035328056],[5.420786667,47.035389444],[5.420809167,47.035456944],[5.420825833,47.035511944],[5.420831667,47.035541389]],[[5.433359167,47.041682778],[5.433380833,47.041667222],[5.433426667,47.041635833],[5.433594722,47.041469167],[5.434348889,47.040757778]],[[5.433493056,47.041746667],[5.433493056,47.0417375],[5.433505556,47.041718889],[5.433739444,47.041491389],[5.434460833,47.0408125]],[[5.427853889,47.039470556],[5.427738611,47.039463889],[5.427609444,47.039461111],[5.427518611,47.039466111],[5.427451389,47.039473333],[5.427385278,47.039485],[5.427295278,47.039513333],[5.427217778,47.039554167],[5.427128611,47.039616667],[5.427055833,47.039681389],[5.426998333,47.039750278],[5.426961944,47.039816667],[5.426934722,47.039884444],[5.426898889,47.039994722],[5.426891944,47.040105],[5.426897222,47.040215556],[5.426923889,47.040346389],[5.427191944,47.041621667],[5.427438333,47.042770278],[5.427461389,47.042891111],[5.427512778,47.042949444],[5.427569167,47.042987778],[5.427620556,47.043013333],[5.427681389,47.043029167],[5.427793611,47.043038889],[5.428520556,47.043079167],[5.431238056,47.0432525],[5.433291667,47.043356111],[5.4335625,47.043353889],[5.433720833,47.043343611],[5.433888056,47.043314444],[5.434025556,47.043268889],[5.434133056,47.043209722],[5.434214444,47.043136667],[5.434282778,47.043064722],[5.4343125,47.043005556],[5.434328889,47.042931111],[5.434330833,47.042864167],[5.434293056,47.042766667],[5.434242222,47.042669722],[5.434194167,47.042607222],[5.434162778,47.042564722]],[[5.426907222,47.039005833],[5.426946667,47.039071667],[5.427012778,47.039144167],[5.427046944,47.039203056],[5.427067222,47.039257778],[5.427068611,47.039320833],[5.427067222,47.039386667],[5.427048333,47.039436944],[5.427021667,47.039485278],[5.42695,47.039563611],[5.4268725,47.039645556],[5.426823889,47.039707222],[5.426779444,47.039779444],[5.426747778,47.039850833],[5.426707222,47.039952778],[5.426695833,47.040039167],[5.426689722,47.040110833],[5.426697222,47.040183333],[5.426730556,47.040365556],[5.426755278,47.04048],[5.426775278,47.040593056],[5.4270975,47.042074167],[5.427235556,47.042763611],[5.4272375,47.042812778],[5.427205,47.042889444],[5.427147222,47.043003611],[5.427074722,47.043100833],[5.427014722,47.043185833],[5.426957222,47.043250833],[5.426917222,47.043284722],[5.426864722,47.043315556],[5.426829722,47.043334167],[5.426782222,47.043347778],[5.426717222,47.043358056],[5.426664444,47.043361389],[5.426596944,47.043359722],[5.426574444,47.043353056],[5.426519444,47.043330833]]]}},{"type":"Feature","id":"LFGJ-cf0586a407b3eff4aade","properties":{"airport":"LFGJ","name":"LFGJ Groundlayout","layer":"Guidance lines","category":"Apron Surface","object_type":"Line","style_id":"line.apronsurface.808080","source_group":"LFGJ Groundlayout","vsmr_group_ids":[],"geometry_role":"linework"},"geometry":{"type":"MultiLineString","coordinates":[[[5.441687222,47.046841667],[5.441608889,47.046971389],[5.441519167,47.047059444],[5.441432222,47.047149167],[5.441331389,47.047221667],[5.441233333,47.047269444],[5.441076389,47.0473325],[5.440922222,47.047374444],[5.440779444,47.0473975],[5.440580278,47.047433889],[5.440473889,47.047443333],[5.440350556,47.047422222],[5.4403225,47.047447222],[5.440311389,47.047491111],[5.440314167,47.047540833],[5.440364444,47.047594167],[5.440401111,47.0476325],[5.440454167,47.047630556],[5.440515833,47.047601944],[5.440630833,47.047546389],[5.440711944,47.04751],[5.440838056,47.047481389],[5.440936389,47.047466111],[5.441042778,47.047452778],[5.441079167,47.047460556],[5.441126944,47.047450833],[5.441283889,47.047511944],[5.441339722,47.047487222],[5.44141,47.047418333],[5.441569722,47.047250278],[5.441603333,47.047214167],[5.441622778,47.047175833],[5.441673333,47.047126111],[5.441743333,47.047051667],[5.441900278,47.046900833]],[[5.416755556,47.038586944],[5.416594722,47.038726389],[5.416515,47.038809444],[5.416437222,47.038908056],[5.416393889,47.038985833],[5.416374444,47.039064722],[5.416361944,47.039143333],[5.416355833,47.039166667],[5.416215278,47.039174167],[5.416215278,47.039275278],[5.416365278,47.039255],[5.416377778,47.039319444],[5.416418889,47.039396667],[5.416473889,47.039479444],[5.416516944,47.039538611],[5.416564167,47.039591111],[5.416576389,47.039607778],[5.416571111,47.039617222],[5.416543056,47.039623333],[5.416497778,47.039625556],[5.416270278,47.0396375],[5.416273889,47.039688889],[5.416541389,47.039673333],[5.416606111,47.039670833],[5.416653333,47.039668611],[5.416684722,47.039678056],[5.416719722,47.039698333],[5.416831667,47.0397675],[5.416892778,47.039803333],[5.417081667,47.039931944]],[[5.416903889,47.038654722],[5.416839722,47.038739167],[5.416773333,47.038828889],[5.416748611,47.038863889],[5.416716111,47.038950833],[5.416698056,47.039004444],[5.416691389,47.039056667],[5.416688611,47.039104722],[5.416699444,47.039245],[5.416716389,47.039315278],[5.4167325,47.039366944],[5.416758889,47.039418333],[5.416792778,47.039474444],[5.416903611,47.039600833],[5.416989167,47.039684722],[5.417065,47.039745833],[5.417148333,47.039800278],[5.417182222,47.039816389],[5.417216667,47.039842222]],[[5.426521667,47.043331667],[5.425536944,47.0428525],[5.425208611,47.042691111],[5.425223333,47.042669167],[5.425014444,47.042561667],[5.424618889,47.042373611],[5.424485,47.042314167],[5.424426944,47.042288333],[5.4243825,47.042278056],[5.424360833,47.042274722],[5.424380833,47.042251111],[5.424074722,47.042104444],[5.423311944,47.041733611],[5.423036389,47.042003056],[5.422780556,47.042245556]],[[5.422666944,47.042352222],[5.422641667,47.042386667],[5.422766389,47.042448889],[5.422890833,47.042508333],[5.422920278,47.042488056],[5.4232,47.042620556],[5.423190833,47.042630833],[5.424390556,47.043215],[5.426141944,47.044065833],[5.426540278,47.043787778],[5.426766944,47.04363],[5.426821111,47.043599722],[5.426858889,47.04358],[5.42688,47.043565556]],[[5.4343525,47.040754722],[5.434079167,47.040613056],[5.434689167,47.0403175],[5.434620556,47.040245833],[5.435082778,47.040027222],[5.435041389,47.039981111],[5.435095833,47.039956667],[5.435093333,47.0399475],[5.435133056,47.039931389],[5.435220833,47.040011944],[5.435325833,47.039961944],[5.435660556,47.040303889],[5.435244444,47.040503611],[5.435483889,47.040734167],[5.434951111,47.040988056],[5.434877778,47.040969444],[5.434694167,47.040892222],[5.434651389,47.040885],[5.434617222,47.040885],[5.434583056,47.040875],[5.434455,47.040813889]]]}},{"type":"Feature","id":"LFGJ-2243e5af8e33561afaab","properties":{"airport":"LFGJ","name":"LFGJ Groundlayout","layer":"Guidance lines","category":"Stopbars","object_type":"Line","style_id":"line.stopbar.7e0000","source_group":"LFGJ Groundlayout","vsmr_group_ids":[],"geometry_role":"linework"},"geometry":{"type":"MultiLineString","coordinates":[[[5.432888333,47.043338056],[5.4328675,47.043503611]],[[5.418934722,47.036514444],[5.419079722,47.036586944]],[[5.42675,47.040450833],[5.426940833,47.040434167]]]}},{"type":"Feature","id":"LFGJ-340c08ff294c152f9e8b","properties":{"airport":"LFGJ","name":"LFGJ Groundlayout","layer":"Guidance lines","category":"TWR-CTR","object_type":"Line","style_id":"line.twr-ctr.000000","source_group":"LFGJ Groundlayout","vsmr_group_ids":[],"geometry_role":"linework"},"geometry":{"type":"LineString","coordinates":[[5.425074444,47.043810278],[5.425123889,47.043763056],[5.425213611,47.043808611],[5.425164167,47.043851667],[5.425074444,47.043810278]]}},{"type":"Feature","id":"LFGJ-aa75ffbdf57470a44ba2","properties":{"airport":"LFGJ","name":"LFGJ Groundlayout","layer":"Guidance lines","category":"Centerlines","object_type":"Line","style_id":"line.centerlines.ffff00","source_group":"LFGJ Groundlayout","vsmr_group_ids":[],"geometry_role":"linework"},"geometry":{"type":"MultiLineString","coordinates":[[[5.423272778,47.041991389],[5.423361667,47.042035278]],[[5.425679167,47.043766389],[5.426163333,47.043767222]],[[5.4251125,47.043476944],[5.425489167,47.043361944]],[[5.425246667,47.0433225],[5.425448611,47.043418611]],[[5.425099444,47.043274167],[5.425338889,47.043388333]],[[5.424695278,47.043088056],[5.424821389,47.043149722]],[[5.424483056,47.042984444],[5.4246375,47.04306]],[[5.424003056,47.04288],[5.424138333,47.0429475]],[[5.423794167,47.042779444],[5.423941111,47.042851111]],[[5.424093056,47.042803333],[5.424230278,47.04287]],[[5.423873611,47.042696667],[5.424049722,47.042782778]],[[5.424181389,47.042724722],[5.4243175,47.042793333]],[[5.423966667,47.042622222],[5.424135278,47.042703611]],[[5.424296389,47.0426325],[5.424413889,47.042691667]],[[5.424071111,47.042523056],[5.424205278,47.042589167]],[[5.424363889,47.042587778],[5.424463611,47.042636111]],[[5.424126389,47.042471944],[5.424259722,47.042536389]],[[5.423574722,47.042503056],[5.423706111,47.042566667]],[[5.423417222,47.042425],[5.4235275,47.042480833]],[[5.423704722,47.042384167],[5.423830278,47.042445556]],[[5.423538056,47.042303333],[5.423655,47.042359167]],[[5.423829167,47.042263611],[5.423940556,47.0423175]],[[5.423684444,47.042192222],[5.423794722,47.042246111]],[[5.423094722,47.042471667],[5.423270556,47.042559444]],[[5.423170556,47.042306944],[5.4232525,47.042346389]],[[5.423023611,47.042233889],[5.423109167,47.042276389]],[[5.423299722,47.042186944],[5.423386111,47.042228056]],[[5.423150278,47.042113611],[5.423236944,47.042156667]],[[5.423415,47.042060278],[5.423510556,47.042107778]]]}},{"type":"Feature","id":"LFGJ-d9caf0824e6ef7926db3","properties":{"airport":"LFGJ","name":"LFGJ Groundlayout","layer":"Guidance lines","category":"Labels","object_type":"Line","style_id":"line.labels.808080","source_group":"LFGJ Groundlayout","vsmr_group_ids":[],"geometry_role":"linework"},"geometry":{"type":"MultiLineString","coordinates":[[[5.438426111,47.044501944],[5.438481389,47.044529167],[5.438519444,47.044525278],[5.438525833,47.044551667],[5.438619444,47.044596389],[5.438667778,47.044553056],[5.438633056,47.044534444],[5.438599444,47.044565833],[5.438551111,47.0445425],[5.43854,47.044506389],[5.438487222,47.04451],[5.438475556,47.044504722],[5.438507222,47.044473056],[5.438473611,47.0444575],[5.438426111,47.044501944]],[[5.415968611,47.033468889],[5.415988611,47.033450556],[5.415861944,47.033391389],[5.415843889,47.033408056],[5.415968611,47.033468889]],[[5.415989444,47.033498611],[5.416036667,47.033455556],[5.41584,47.033360278],[5.4157925,47.033404444],[5.415989444,47.033498611]],[[5.416071667,47.033422778],[5.416117778,47.033376389],[5.416091389,47.033362778],[5.416056667,47.033395278],[5.416029444,47.033380556],[5.416060833,47.033349722],[5.415925,47.033281667],[5.415873611,47.033327222],[5.41591,47.033343889],[5.415942778,47.033312778],[5.416008889,47.033345278],[5.415978889,47.033378333],[5.416071667,47.033422778]],[[5.438508611,47.044423889],[5.438575556,47.044458611],[5.438681389,47.044463333],[5.4387,47.044472222],[5.438665833,47.044501667],[5.438700833,47.044518611],[5.438749722,47.044474722],[5.438692222,47.044445278],[5.438583333,47.044440833],[5.4385575,47.044427778],[5.438574167,47.044410278],[5.438594167,47.044418056],[5.438607222,47.044405],[5.438553611,47.044379722],[5.438508611,47.044423889]]]}},{"type":"Feature","id":"LFGJ-862c4feef4b725432c02","properties":{"airport":"LFGJ","name":"TWR","layer":"Labels","category":"Gates","object_type":"Label","style_id":"label.gates","source_group":"LFGJ Gates","vsmr_group_ids":[],"geometry_role":"text_label","text-field":"TWR"},"geometry":{"type":"Point","coordinates":[5.425058889,47.043871944]}},{"type":"Feature","id":"LFGJ-212a1f1c73c6e0ad98fa","properties":{"airport":"LFGJ","name":"Terminal","layer":"Labels","category":"Gates","object_type":"Label","style_id":"label.gates","source_group":"LFGJ Gates","vsmr_group_ids":[],"geometry_role":"text_label","text-field":"Terminal"},"geometry":{"type":"Point","coordinates":[5.425383611,47.043878889]}},{"type":"Feature","id":"LFGJ-6f0dd5575ebe0caace56","properties":{"airport":"LFGJ","name":"Hangars","layer":"Labels","category":"Gates","object_type":"Label","style_id":"label.gates","source_group":"LFGJ Gates","vsmr_group_ids":[],"geometry_role":"text_label","text-field":"Hangars"},"geometry":{"type":"Point","coordinates":[5.424315278,47.043489722]}},{"type":"Feature","id":"LFGJ-c69a35cd7a4bd73d3831","properties":{"airport":"LFGJ","name":"Hangars ACB","layer":"Labels","category":"Gates","object_type":"Label","style_id":"label.gates","source_group":"LFGJ Gates","vsmr_group_ids":[],"geometry_role":"text_label","text-field":"Hangars ACB"},"geometry":{"type":"Point","coordinates":[5.415608611,47.039580833]}},{"type":"Feature","id":"LFGJ-ac40d0c1ac330caf07a0","properties":{"airport":"LFGJ","name":"Hangar","layer":"Labels","category":"Gates","object_type":"Label","style_id":"label.gates","source_group":"LFGJ Gates","vsmr_group_ids":[],"geometry_role":"text_label","text-field":"Hangar"},"geometry":{"type":"Point","coordinates":[5.435534167,47.039639722]}},{"type":"Feature","id":"LFGJ-0eaf596d37978ed8cddf","properties":{"airport":"LFGJ","name":"1A","layer":"Labels","category":"Gates","object_type":"Label","style_id":"label.gates","source_group":"LFGJ Gates","vsmr_group_ids":[],"geometry_role":"text_label","text-field":"1A"},"geometry":{"type":"Point","coordinates":[5.425866667,47.043799444]}},{"type":"Feature","id":"LFGJ-a88fec4ec1a58d41568d","properties":{"airport":"LFGJ","name":"2B","layer":"Labels","category":"Gates","object_type":"Label","style_id":"label.gates","source_group":"LFGJ Gates","vsmr_group_ids":[],"geometry_role":"text_label","text-field":"2B"},"geometry":{"type":"Point","coordinates":[5.425201389,47.043478889]}},{"type":"Feature","id":"LFGJ-fbb60968a2d623ae2c71","properties":{"airport":"LFGJ","name":"2E","layer":"Labels","category":"Gates","object_type":"Label","style_id":"label.gates","source_group":"LFGJ Gates","vsmr_group_ids":[],"geometry_role":"text_label","text-field":"2E"},"geometry":{"type":"Point","coordinates":[5.425408056,47.043428056]}},{"type":"Feature","id":"LFGJ-0faf5d3875c806254d06","properties":{"airport":"LFGJ","name":"2W","layer":"Labels","category":"Gates","object_type":"Label","style_id":"label.gates","source_group":"LFGJ Gates","vsmr_group_ids":[],"geometry_role":"text_label","text-field":"2W"},"geometry":{"type":"Point","coordinates":[5.4251325,47.043267222]}},{"type":"Feature","id":"LFGJ-e2d67cf1cd801212bf4d","properties":{"airport":"LFGJ","name":"3E","layer":"Labels","category":"Gates","object_type":"Label","style_id":"label.gates","source_group":"LFGJ Gates","vsmr_group_ids":[],"geometry_role":"text_label","text-field":"3E"},"geometry":{"type":"Point","coordinates":[5.424771389,47.043156667]}},{"type":"Feature","id":"LFGJ-cd930f960160fe0b85e2","properties":{"airport":"LFGJ","name":"3W","layer":"Labels","category":"Gates","object_type":"Label","style_id":"label.gates","source_group":"LFGJ Gates","vsmr_group_ids":[],"geometry_role":"text_label","text-field":"3W"},"geometry":{"type":"Point","coordinates":[5.42446,47.043007222]}},{"type":"Feature","id":"LFGJ-564436e2d46cd29ba754","properties":{"airport":"LFGJ","name":"OPS","layer":"Labels","category":"Gates","object_type":"Label","style_id":"label.gates","source_group":"LFGJ Gates","vsmr_group_ids":[],"geometry_role":"text_label","text-field":"OPS"},"geometry":{"type":"Point","coordinates":[5.424165833,47.043368889]}},{"type":"Feature","id":"LFGJ-760507e48aa6afb81c02","properties":{"airport":"LFGJ","name":"P-Aviation Commerciale","layer":"Labels","category":"Gates","object_type":"Label","style_id":"label.gates","source_group":"LFGJ Gates","vsmr_group_ids":[],"geometry_role":"text_label","text-field":"P-Aviation Commerciale"},"geometry":{"type":"Point","coordinates":[5.425335556,47.043081389]}},{"type":"Feature","id":"LFGJ-e2b49a888314f3320ab4","properties":{"airport":"LFGJ","name":"45E","layer":"Labels","category":"Gates","object_type":"Label","style_id":"label.gates","source_group":"LFGJ Gates","vsmr_group_ids":[],"geometry_role":"text_label","text-field":"45E"},"geometry":{"type":"Point","coordinates":[5.424091111,47.042955]}},{"type":"Feature","id":"LFGJ-7492fa1031d6f626c73a","properties":{"airport":"LFGJ","name":"44E","layer":"Labels","category":"Gates","object_type":"Label","style_id":"label.gates","source_group":"LFGJ Gates","vsmr_group_ids":[],"geometry_role":"text_label","text-field":"44E"},"geometry":{"type":"Point","coordinates":[5.424209444,47.042893056]}},{"type":"Feature","id":"LFGJ-f66a0cc8507009df8099","properties":{"airport":"LFGJ","name":"43E","layer":"Labels","category":"Gates","object_type":"Label","style_id":"label.gates","source_group":"LFGJ Gates","vsmr_group_ids":[],"geometry_role":"text_label","text-field":"43E"},"geometry":{"type":"Point","coordinates":[5.424301667,47.042811389]}},{"type":"Feature","id":"LFGJ-805e9a1518f6ae9b358c","properties":{"airport":"LFGJ","name":"42E","layer":"Labels","category":"Gates","object_type":"Label","style_id":"label.gates","source_group":"LFGJ Gates","vsmr_group_ids":[],"geometry_role":"text_label","text-field":"42E"},"geometry":{"type":"Point","coordinates":[5.424384722,47.042711111]}},{"type":"Feature","id":"LFGJ-48f9f72e63fff9e4118a","properties":{"airport":"LFGJ","name":"41E","layer":"Labels","category":"Gates","object_type":"Label","style_id":"label.gates","source_group":"LFGJ Gates","vsmr_group_ids":[],"geometry_role":"text_label","text-field":"41E"},"geometry":{"type":"Point","coordinates":[5.42445,47.042651944]}},{"type":"Feature","id":"LFGJ-0d9462348b03a1453a13","properties":{"airport":"LFGJ","name":"45W","layer":"Labels","category":"Gates","object_type":"Label","style_id":"label.gates","source_group":"LFGJ Gates","vsmr_group_ids":[],"geometry_role":"text_label","text-field":"45W"},"geometry":{"type":"Point","coordinates":[5.423742222,47.042784722]}},{"type":"Feature","id":"LFGJ-d4c3ea3369538ec7a28c","properties":{"airport":"LFGJ","name":"44W","layer":"Labels","category":"Gates","object_type":"Label","style_id":"label.gates","source_group":"LFGJ Gates","vsmr_group_ids":[],"geometry_role":"text_label","text-field":"44W"},"geometry":{"type":"Point","coordinates":[5.423825278,47.042704444]}},{"type":"Feature","id":"LFGJ-8a8d53b63ae75f07f53c","properties":{"airport":"LFGJ","name":"43W","layer":"Labels","category":"Gates","object_type":"Label","style_id":"label.gates","source_group":"LFGJ Gates","vsmr_group_ids":[],"geometry_role":"text_label","text-field":"43W"},"geometry":{"type":"Point","coordinates":[5.423931111,47.042632222]}},{"type":"Feature","id":"LFGJ-a7103c9f93cc64547f8f","properties":{"airport":"LFGJ","name":"42W","layer":"Labels","category":"Gates","object_type":"Label","style_id":"label.gates","source_group":"LFGJ Gates","vsmr_group_ids":[],"geometry_role":"text_label","text-field":"42W"},"geometry":{"type":"Point","coordinates":[5.424033889,47.042534722]}},{"type":"Feature","id":"LFGJ-e7575989d5ba66bf05bc","properties":{"airport":"LFGJ","name":"41W","layer":"Labels","category":"Gates","object_type":"Label","style_id":"label.gates","source_group":"LFGJ Gates","vsmr_group_ids":[],"geometry_role":"text_label","text-field":"41W"},"geometry":{"type":"Point","coordinates":[5.424084722,47.042476944]}},{"type":"Feature","id":"LFGJ-2d64fbd8138c6bd333fd","properties":{"airport":"LFGJ","name":"P-Aviation Generale code A, B","layer":"Labels","category":"Gates","object_type":"Label","style_id":"label.gates","source_group":"LFGJ Gates","vsmr_group_ids":[],"geometry_role":"text_label","text-field":"P-Aviation Generale code A, B"},"geometry":{"type":"Point","coordinates":[5.424388333,47.042446667]}},{"type":"Feature","id":"LFGJ-ca60e02e7cc2532ba902","properties":{"airport":"LFGJ","name":"C","layer":"Labels","category":"Gates","object_type":"Label","style_id":"label.gates","source_group":"LFGJ Gates","vsmr_group_ids":[],"geometry_role":"text_label","text-field":"C"},"geometry":{"type":"Point","coordinates":[5.423143333,47.042542222]}},{"type":"Feature","id":"LFGJ-733d7c4de83acce9c2ed","properties":{"airport":"LFGJ","name":"53E","layer":"Labels","category":"Gates","object_type":"Label","style_id":"label.gates","source_group":"LFGJ Gates","vsmr_group_ids":[],"geometry_role":"text_label","text-field":"53E"},"geometry":{"type":"Point","coordinates":[5.423665278,47.042580833]}},{"type":"Feature","id":"LFGJ-4efe565b0cc278824917","properties":{"airport":"LFGJ","name":"52E","layer":"Labels","category":"Gates","object_type":"Label","style_id":"label.gates","source_group":"LFGJ Gates","vsmr_group_ids":[],"geometry_role":"text_label","text-field":"52E"},"geometry":{"type":"Point","coordinates":[5.423802222,47.042464444]}},{"type":"Feature","id":"LFGJ-8231c3b867824d806777","properties":{"airport":"LFGJ","name":"51E","layer":"Labels","category":"Gates","object_type":"Label","style_id":"label.gates","source_group":"LFGJ Gates","vsmr_group_ids":[],"geometry_role":"text_label","text-field":"51E"},"geometry":{"type":"Point","coordinates":[5.423910278,47.042340556]}},{"type":"Feature","id":"LFGJ-5d799cbe3f08da42526c","properties":{"airport":"LFGJ","name":"53W","layer":"Labels","category":"Gates","object_type":"Label","style_id":"label.gates","source_group":"LFGJ Gates","vsmr_group_ids":[],"geometry_role":"text_label","text-field":"53W"},"geometry":{"type":"Point","coordinates":[5.423374722,47.042437222]}},{"type":"Feature","id":"LFGJ-8589b82c9c587a5633f4","properties":{"airport":"LFGJ","name":"52W","layer":"Labels","category":"Gates","object_type":"Label","style_id":"label.gates","source_group":"LFGJ Gates","vsmr_group_ids":[],"geometry_role":"text_label","text-field":"52W"},"geometry":{"type":"Point","coordinates":[5.4234825,47.042322222]}},{"type":"Feature","id":"LFGJ-e524fae7f519645d2bc1","properties":{"airport":"LFGJ","name":"51W","layer":"Labels","category":"Gates","object_type":"Label","style_id":"label.gates","source_group":"LFGJ Gates","vsmr_group_ids":[],"geometry_role":"text_label","text-field":"51W"},"geometry":{"type":"Point","coordinates":[5.423636111,47.042208333]}},{"type":"Feature","id":"LFGJ-18e66099fbe2af902a6f","properties":{"airport":"LFGJ","name":"63E","layer":"Labels","category":"Gates","object_type":"Label","style_id":"label.gates","source_group":"LFGJ Gates","vsmr_group_ids":[],"geometry_role":"text_label","text-field":"63E"},"geometry":{"type":"Point","coordinates":[5.423202222,47.042369167]}},{"type":"Feature","id":"LFGJ-cfebd897097019be3ecf","properties":{"airport":"LFGJ","name":"62E","layer":"Labels","category":"Gates","object_type":"Label","style_id":"label.gates","source_group":"LFGJ Gates","vsmr_group_ids":[],"geometry_role":"text_label","text-field":"62E"},"geometry":{"type":"Point","coordinates":[5.423348611,47.042243056]}},{"type":"Feature","id":"LFGJ-15cab3e2b0341620b1fd","properties":{"airport":"LFGJ","name":"61E","layer":"Labels","category":"Gates","object_type":"Label","style_id":"label.gates","source_group":"LFGJ Gates","vsmr_group_ids":[],"geometry_role":"text_label","text-field":"61E"},"geometry":{"type":"Point","coordinates":[5.423488889,47.042129444]}},{"type":"Feature","id":"LFGJ-6d8280e1d6ed57ff6a92","properties":{"airport":"LFGJ","name":"63W","layer":"Labels","category":"Gates","object_type":"Label","style_id":"label.gates","source_group":"LFGJ Gates","vsmr_group_ids":[],"geometry_role":"text_label","text-field":"63W"},"geometry":{"type":"Point","coordinates":[5.422971944,47.042247778]}},{"type":"Feature","id":"LFGJ-ba477786a5b38efd9f60","properties":{"airport":"LFGJ","name":"62W","layer":"Labels","category":"Gates","object_type":"Label","style_id":"label.gates","source_group":"LFGJ Gates","vsmr_group_ids":[],"geometry_role":"text_label","text-field":"62W"},"geometry":{"type":"Point","coordinates":[5.423100556,47.0421275]}},{"type":"Feature","id":"LFGJ-5f8c8a3b84685b9b822c","properties":{"airport":"LFGJ","name":"61W","layer":"Labels","category":"Gates","object_type":"Label","style_id":"label.gates","source_group":"LFGJ Gates","vsmr_group_ids":[],"geometry_role":"text_label","text-field":"61W"},"geometry":{"type":"Point","coordinates":[5.423233611,47.042008333]}},{"type":"Feature","id":"LFGJ-a78972db293e8ebef0cd","properties":{"airport":"LFGJ","name":"AVT","layer":"Labels","category":"Gates","object_type":"Label","style_id":"label.gates","source_group":"LFGJ Gates","vsmr_group_ids":[],"geometry_role":"text_label","text-field":"AVT"},"geometry":{"type":"Point","coordinates":[5.422960556,47.042590278]}},{"type":"Feature","id":"LFGJ-9ace0095329eb7035417","properties":{"airport":"LFGJ","name":"Hangars","layer":"Labels","category":"Gates","object_type":"Label","style_id":"label.gates","source_group":"LFGJ Gates","vsmr_group_ids":[],"geometry_role":"text_label","text-field":"Hangars"},"geometry":{"type":"Point","coordinates":[5.422586111,47.042514722]}},{"type":"Feature","id":"LFGJ-b92f61c812eb0610ccb0","properties":{"airport":"LFGJ","name":"P-Aviation Generale code A","layer":"Labels","category":"Gates","object_type":"Label","style_id":"label.gates","source_group":"LFGJ Gates","vsmr_group_ids":[],"geometry_role":"text_label","text-field":"P-Aviation Generale code A"},"geometry":{"type":"Point","coordinates":[5.4236775,47.04206]}},{"type":"Feature","id":"LFGJ-ac2434c3591a239e206b","properties":{"airport":"LFGJ","name":"LFGJ Groundlayout","layer":"Guidance lines","category":"Runways","object_type":"Line","style_id":"line.runwayconcrete.555555","source_group":"LFGJ Groundlayout","vsmr_group_ids":[],"geometry_role":"linework"},"geometry":{"type":"MultiLineString","coordinates":[[[5.43349,47.041745278],[5.439740278,47.044803333],[5.441409444,47.045618611],[5.441976111,47.045895833],[5.442052778,47.045895833],[5.4421525,47.045885278],[5.442275278,47.045869722],[5.4423825,47.04585],[5.442518611,47.045818611],[5.44263,47.045778056],[5.442766111,47.045723333],[5.442971111,47.045823889],[5.4429175,47.045873611],[5.442846667,47.045942778],[5.442833056,47.045996389],[5.442841944,47.046039444],[5.442864167,47.0460775],[5.442895833,47.046103333],[5.442943611,47.046126111],[5.442986667,47.046134722],[5.443056667,47.0461325],[5.443520833,47.046114167],[5.443398333,47.046426111],[5.443349722,47.046526389],[5.443338611,47.046545556],[5.442925278,47.046917222],[5.442418889,47.047159444],[5.442347222,47.046958889],[5.442325833,47.046908056],[5.442301944,47.046864722],[5.4422675,47.046826667],[5.442214444,47.046799722],[5.442166667,47.0467925],[5.442108333,47.046788889],[5.4420525,47.046797778],[5.441978333,47.046832222],[5.441890833,47.046908056]],[[5.441686944,47.0468425],[5.441713889,47.046771389],[5.441739167,47.046694722],[5.441748889,47.046634167],[5.441751667,47.046572778],[5.441751667,47.046506389],[5.441743333,47.046449722],[5.441720833,47.046373889],[5.441672222,47.046258611],[5.441619167,47.046228611],[5.441235833,47.046040833],[5.435387778,47.043164167]],[[5.434166389,47.042565],[5.433248056,47.042115278],[5.427849167,47.039469444]],[[5.426907222,47.039006389],[5.420514444,47.035873889]],[[5.419172222,47.035214722],[5.415182222,47.033256389],[5.415546389,47.032908056],[5.415624444,47.032874444],[5.415710278,47.032847222],[5.415794722,47.032831667],[5.415873056,47.032824167],[5.415943611,47.032823333],[5.416001944,47.032826389],[5.416041944,47.032833611],[5.416068056,47.0328525],[5.416167778,47.032998889],[5.416415,47.033375278],[5.419495278,47.034886667]]]}},{"type":"Feature","id":"LFGJ-4e0d87e9d785fef08f01","properties":{"airport":"LFGJ","name":"LFGJ Groundlayout","layer":"Guidance lines","category":"Taxiways","object_type":"Line","style_id":"line.taxiway.c0b631","source_group":"LFGJ Groundlayout","vsmr_group_ids":[],"geometry_role":"linework"},"geometry":{"type":"MultiLineString","coordinates":[[[5.435391389,47.043165278],[5.435281944,47.043155833],[5.435172778,47.043140556],[5.435076111,47.043136944],[5.434995278,47.043139167],[5.434928333,47.043143611],[5.434872222,47.043153611],[5.4347575,47.043186944],[5.434669722,47.043228611],[5.4346025,47.043263333],[5.434544167,47.043301667],[5.43449,47.043334722],[5.434435,47.043366944],[5.434381111,47.043393056],[5.434301667,47.043426111],[5.434236667,47.043453333],[5.434165556,47.043476944],[5.434061944,47.043501667],[5.433969167,47.043519722],[5.433889722,47.043531944],[5.433824722,47.043538611],[5.4337475,47.043545],[5.433664444,47.043545833],[5.433509167,47.043540278],[5.433451389,47.043536944],[5.432866111,47.043504167],[5.432435833,47.043479444],[5.4308625,47.043384722],[5.428565,47.043252222],[5.428193611,47.043236389],[5.427952222,47.043249167],[5.427731944,47.04328],[5.4274125,47.043349444],[5.42729,47.043385556],[5.427175,47.043423611],[5.427074167,47.043461667],[5.426981111,47.043513333],[5.426878889,47.043566111]],[[5.419169444,47.035213889],[5.419188056,47.035241944],[5.419138889,47.035234722],[5.419098056,47.035226667],[5.41904,47.035230556],[5.418986111,47.035237222],[5.418930278,47.035251667],[5.418895278,47.035270556],[5.418858333,47.035302778],[5.418658889,47.035500833],[5.418742778,47.035568889],[5.418785556,47.035598056],[5.418845278,47.035627222],[5.418897222,47.035658611],[5.418950833,47.035664722],[5.419024167,47.035662778],[5.419468333,47.035640833],[5.419520278,47.035653333],[5.419558611,47.035669167],[5.419592222,47.035693056],[5.419621389,47.035728611],[5.419628333,47.035766389],[5.419630278,47.035806389],[5.419606111,47.035845278],[5.419569444,47.035885278],[5.419488333,47.035966667],[5.419127222,47.036330278],[5.418076667,47.037333056],[5.416753333,47.0385875]],[[5.420512778,47.035876389],[5.420424722,47.035872222],[5.420269444,47.035884167],[5.420154167,47.035899444],[5.42005,47.035923333],[5.419944167,47.035951944],[5.419830556,47.035994444],[5.41974,47.036032778],[5.419637778,47.036088611],[5.41953,47.036159167],[5.4194175,47.036256389],[5.419342778,47.036341667],[5.418718889,47.036925833],[5.416904444,47.038653889]],[[5.417215833,47.039842222],[5.419918611,47.041493333],[5.421005833,47.042161111],[5.421068056,47.042177778],[5.421141944,47.042189444],[5.4212325,47.042202222],[5.421334722,47.042208611],[5.421463056,47.042213889],[5.421640833,47.042219167],[5.422706944,47.042257778],[5.422737778,47.042255833],[5.422757222,47.042253333],[5.422781667,47.042244444]],[[5.417080833,47.039931667],[5.420175278,47.04183],[5.421137778,47.042420833],[5.421265833,47.042323333],[5.421252222,47.042314722],[5.421262222,47.042307222],[5.421284444,47.042300278],[5.421309444,47.042295278],[5.421340556,47.042291111],[5.421396667,47.042290278],[5.421544722,47.042292778],[5.4226325,47.0423225],[5.422661667,47.0423225],[5.42268,47.042331389],[5.42268,47.0423425],[5.422667222,47.0423525]],[[5.419495833,47.034883611],[5.419526667,47.034871389],[5.419521389,47.034836111],[5.419506111,47.034797778],[5.419511111,47.034743333],[5.419536944,47.034694444],[5.419593333,47.034641944],[5.419804167,47.034480833],[5.419878611,47.034458056],[5.419960833,47.034493056],[5.4200225,47.034531667],[5.420094444,47.034678611],[5.420215,47.034951944],[5.420248333,47.034980833],[5.420291944,47.035001944],[5.420331944,47.035014444],[5.420384722,47.035016944],[5.420443056,47.035009444],[5.420495833,47.034992222],[5.4205375,47.034961111],[5.420625,47.034881667],[5.421014167,47.034587222],[5.421303333,47.034451389],[5.421493056,47.034392222],[5.421702222,47.034350556],[5.421943333,47.034322222],[5.422155556,47.034322222],[5.422313056,47.034341944],[5.422483333,47.034381389],[5.422883611,47.034533333],[5.4230175,47.034591667],[5.423151667,47.034630556],[5.423268611,47.034651944],[5.423368333,47.034673333],[5.423453889,47.034696667],[5.423539444,47.034733611],[5.4235225,47.034788056],[5.423476667,47.034838611],[5.4234025,47.034896944],[5.423345556,47.034941667],[5.423305556,47.034961111],[5.423251389,47.034980556],[5.423205833,47.034951389],[5.423123056,47.034854167],[5.423046111,47.034764722],[5.422929167,47.034663611],[5.422792222,47.034587778],[5.422609722,47.034502222],[5.422404444,47.03444],[5.422256111,47.034406944],[5.422050833,47.034385556],[5.421899722,47.034385556],[5.421742778,47.034401111],[5.421445833,47.034484722],[5.421255,47.034564722],[5.421064167,47.034674167],[5.4209525,47.034763333],[5.420881667,47.034856389],[5.420824444,47.034976944],[5.420788889,47.035110833],[5.420778056,47.035251944],[5.420771667,47.035328056],[5.420786667,47.035389444],[5.420809167,47.035456944],[5.420825833,47.035511944],[5.420831667,47.035541389]],[[5.433359167,47.041682778],[5.433380833,47.041667222],[5.433426667,47.041635833],[5.433594722,47.041469167],[5.434348889,47.040757778]],[[5.433493056,47.041746667],[5.433493056,47.0417375],[5.433505556,47.041718889],[5.433739444,47.041491389],[5.434460833,47.0408125]],[[5.427853889,47.039470556],[5.427738611,47.039463889],[5.427609444,47.039461111],[5.427518611,47.039466111],[5.427451389,47.039473333],[5.427385278,47.039485],[5.427295278,47.039513333],[5.427217778,47.039554167],[5.427128611,47.039616667],[5.427055833,47.039681389],[5.426998333,47.039750278],[5.426961944,47.039816667],[5.426934722,47.039884444],[5.426898889,47.039994722],[5.426891944,47.040105],[5.426897222,47.040215556],[5.426923889,47.040346389],[5.427191944,47.041621667],[5.427438333,47.042770278],[5.427461389,47.042891111],[5.427512778,47.042949444],[5.427569167,47.042987778],[5.427620556,47.043013333],[5.427681389,47.043029167],[5.427793611,47.043038889],[5.428520556,47.043079167],[5.431238056,47.0432525],[5.433291667,47.043356111],[5.4335625,47.043353889],[5.433720833,47.043343611],[5.433888056,47.043314444],[5.434025556,47.043268889],[5.434133056,47.043209722],[5.434214444,47.043136667],[5.434282778,47.043064722],[5.4343125,47.043005556],[5.434328889,47.042931111],[5.434330833,47.042864167],[5.434293056,47.042766667],[5.434242222,47.042669722],[5.434194167,47.042607222],[5.434162778,47.042564722]],[[5.426907222,47.039005833],[5.426946667,47.039071667],[5.427012778,47.039144167],[5.427046944,47.039203056],[5.427067222,47.039257778],[5.427068611,47.039320833],[5.427067222,47.039386667],[5.427048333,47.039436944],[5.427021667,47.039485278],[5.42695,47.039563611],[5.4268725,47.039645556],[5.426823889,47.039707222],[5.426779444,47.039779444],[5.426747778,47.039850833],[5.426707222,47.039952778],[5.426695833,47.040039167],[5.426689722,47.040110833],[5.426697222,47.040183333],[5.426730556,47.040365556],[5.426755278,47.04048],[5.426775278,47.040593056],[5.4270975,47.042074167],[5.427235556,47.042763611],[5.4272375,47.042812778],[5.427205,47.042889444],[5.427147222,47.043003611],[5.427074722,47.043100833],[5.427014722,47.043185833],[5.426957222,47.043250833],[5.426917222,47.043284722],[5.426864722,47.043315556],[5.426829722,47.043334167],[5.426782222,47.043347778],[5.426717222,47.043358056],[5.426664444,47.043361389],[5.426596944,47.043359722],[5.426574444,47.043353056],[5.426519444,47.043330833]]]}},{"type":"Feature","id":"LFGJ-7a59a3c1c59d85a9e70e","properties":{"airport":"LFGJ","name":"LFGJ Groundlayout","layer":"Guidance lines","category":"Apron Surface","object_type":"Line","style_id":"line.apronsurface.808080","source_group":"LFGJ Groundlayout","vsmr_group_ids":[],"geometry_role":"linework"},"geometry":{"type":"MultiLineString","coordinates":[[[5.441687222,47.046841667],[5.441608889,47.046971389],[5.441519167,47.047059444],[5.441432222,47.047149167],[5.441331389,47.047221667],[5.441233333,47.047269444],[5.441076389,47.0473325],[5.440922222,47.047374444],[5.440779444,47.0473975],[5.440580278,47.047433889],[5.440473889,47.047443333],[5.440350556,47.047422222],[5.4403225,47.047447222],[5.440311389,47.047491111],[5.440314167,47.047540833],[5.440364444,47.047594167],[5.440401111,47.0476325],[5.440454167,47.047630556],[5.440515833,47.047601944],[5.440630833,47.047546389],[5.440711944,47.04751],[5.440838056,47.047481389],[5.440936389,47.047466111],[5.441042778,47.047452778],[5.441079167,47.047460556],[5.441126944,47.047450833],[5.441283889,47.047511944],[5.441339722,47.047487222],[5.44141,47.047418333],[5.441569722,47.047250278],[5.441603333,47.047214167],[5.441622778,47.047175833],[5.441673333,47.047126111],[5.441743333,47.047051667],[5.441900278,47.046900833]],[[5.416755556,47.038586944],[5.416594722,47.038726389],[5.416515,47.038809444],[5.416437222,47.038908056],[5.416393889,47.038985833],[5.416374444,47.039064722],[5.416361944,47.039143333],[5.416355833,47.039166667],[5.416215278,47.039174167],[5.416215278,47.039275278],[5.416365278,47.039255],[5.416377778,47.039319444],[5.416418889,47.039396667],[5.416473889,47.039479444],[5.416516944,47.039538611],[5.416564167,47.039591111],[5.416576389,47.039607778],[5.416571111,47.039617222],[5.416543056,47.039623333],[5.416497778,47.039625556],[5.416270278,47.0396375],[5.416273889,47.039688889],[5.416541389,47.039673333],[5.416606111,47.039670833],[5.416653333,47.039668611],[5.416684722,47.039678056],[5.416719722,47.039698333],[5.416831667,47.0397675],[5.416892778,47.039803333],[5.417081667,47.039931944]],[[5.416903889,47.038654722],[5.416839722,47.038739167],[5.416773333,47.038828889],[5.416748611,47.038863889],[5.416716111,47.038950833],[5.416698056,47.039004444],[5.416691389,47.039056667],[5.416688611,47.039104722],[5.416699444,47.039245],[5.416716389,47.039315278],[5.4167325,47.039366944],[5.416758889,47.039418333],[5.416792778,47.039474444],[5.416903611,47.039600833],[5.416989167,47.039684722],[5.417065,47.039745833],[5.417148333,47.039800278],[5.417182222,47.039816389],[5.417216667,47.039842222]],[[5.426521667,47.043331667],[5.425536944,47.0428525],[5.425208611,47.042691111],[5.425223333,47.042669167],[5.425014444,47.042561667],[5.424618889,47.042373611],[5.424485,47.042314167],[5.424426944,47.042288333],[5.4243825,47.042278056],[5.424360833,47.042274722],[5.424380833,47.042251111],[5.424074722,47.042104444],[5.423311944,47.041733611],[5.423036389,47.042003056],[5.422780556,47.042245556]],[[5.422666944,47.042352222],[5.422641667,47.042386667],[5.422766389,47.042448889],[5.422890833,47.042508333],[5.422920278,47.042488056],[5.4232,47.042620556],[5.423190833,47.042630833],[5.424390556,47.043215],[5.426141944,47.044065833],[5.426540278,47.043787778],[5.426766944,47.04363],[5.426821111,47.043599722],[5.426858889,47.04358],[5.42688,47.043565556]],[[5.4343525,47.040754722],[5.434079167,47.040613056],[5.434689167,47.0403175],[5.434620556,47.040245833],[5.435082778,47.040027222],[5.435041389,47.039981111],[5.435095833,47.039956667],[5.435093333,47.0399475],[5.435133056,47.039931389],[5.435220833,47.040011944],[5.435325833,47.039961944],[5.435660556,47.040303889],[5.435244444,47.040503611],[5.435483889,47.040734167],[5.434951111,47.040988056],[5.434877778,47.040969444],[5.434694167,47.040892222],[5.434651389,47.040885],[5.434617222,47.040885],[5.434583056,47.040875],[5.434455,47.040813889]]]}},{"type":"Feature","id":"LFGJ-f15efdf592c31da3b356","properties":{"airport":"LFGJ","name":"LFGJ Groundlayout","layer":"Guidance lines","category":"Stopbars","object_type":"Line","style_id":"line.stopbar.7e0000","source_group":"LFGJ Groundlayout","vsmr_group_ids":[],"geometry_role":"linework"},"geometry":{"type":"MultiLineString","coordinates":[[[5.432888333,47.043338056],[5.4328675,47.043503611]],[[5.418934722,47.036514444],[5.419079722,47.036586944]],[[5.42675,47.040450833],[5.426940833,47.040434167]]]}},{"type":"Feature","id":"LFGJ-9f99c10b2d59b8603a47","properties":{"airport":"LFGJ","name":"LFGJ Groundlayout","layer":"Guidance lines","category":"TWR-CTR","object_type":"Line","style_id":"line.twr-ctr.000000","source_group":"LFGJ Groundlayout","vsmr_group_ids":[],"geometry_role":"linework"},"geometry":{"type":"LineString","coordinates":[[5.425074444,47.043810278],[5.425123889,47.043763056],[5.425213611,47.043808611],[5.425164167,47.043851667],[5.425074444,47.043810278]]}},{"type":"Feature","id":"LFGJ-7c7444cc588f35e749bb","properties":{"airport":"LFGJ","name":"LFGJ Groundlayout","layer":"Guidance lines","category":"Centerlines","object_type":"Line","style_id":"line.centerlines.ffff00","source_group":"LFGJ Groundlayout","vsmr_group_ids":[],"geometry_role":"linework"},"geometry":{"type":"MultiLineString","coordinates":[[[5.423272778,47.041991389],[5.423361667,47.042035278]],[[5.425679167,47.043766389],[5.426163333,47.043767222]],[[5.4251125,47.043476944],[5.425489167,47.043361944]],[[5.425246667,47.0433225],[5.425448611,47.043418611]],[[5.425099444,47.043274167],[5.425338889,47.043388333]],[[5.424695278,47.043088056],[5.424821389,47.043149722]],[[5.424483056,47.042984444],[5.4246375,47.04306]],[[5.424003056,47.04288],[5.424138333,47.0429475]],[[5.423794167,47.042779444],[5.423941111,47.042851111]],[[5.424093056,47.042803333],[5.424230278,47.04287]],[[5.423873611,47.042696667],[5.424049722,47.042782778]],[[5.424181389,47.042724722],[5.4243175,47.042793333]],[[5.423966667,47.042622222],[5.424135278,47.042703611]],[[5.424296389,47.0426325],[5.424413889,47.042691667]],[[5.424071111,47.042523056],[5.424205278,47.042589167]],[[5.424363889,47.042587778],[5.424463611,47.042636111]],[[5.424126389,47.042471944],[5.424259722,47.042536389]],[[5.423574722,47.042503056],[5.423706111,47.042566667]],[[5.423417222,47.042425],[5.4235275,47.042480833]],[[5.423704722,47.042384167],[5.423830278,47.042445556]],[[5.423538056,47.042303333],[5.423655,47.042359167]],[[5.423829167,47.042263611],[5.423940556,47.0423175]],[[5.423684444,47.042192222],[5.423794722,47.042246111]],[[5.423094722,47.042471667],[5.423270556,47.042559444]],[[5.423170556,47.042306944],[5.4232525,47.042346389]],[[5.423023611,47.042233889],[5.423109167,47.042276389]],[[5.423299722,47.042186944],[5.423386111,47.042228056]],[[5.423150278,47.042113611],[5.423236944,47.042156667]],[[5.423415,47.042060278],[5.423510556,47.042107778]]]}},{"type":"Feature","id":"LFGJ-45eacc847895d646d13b","properties":{"airport":"LFGJ","name":"LFGJ Groundlayout","layer":"Guidance lines","category":"Labels","object_type":"Line","style_id":"line.labels.808080","source_group":"LFGJ Groundlayout","vsmr_group_ids":[],"geometry_role":"linework"},"geometry":{"type":"MultiLineString","coordinates":[[[5.438426111,47.044501944],[5.438481389,47.044529167],[5.438519444,47.044525278],[5.438525833,47.044551667],[5.438619444,47.044596389],[5.438667778,47.044553056],[5.438633056,47.044534444],[5.438599444,47.044565833],[5.438551111,47.0445425],[5.43854,47.044506389],[5.438487222,47.04451],[5.438475556,47.044504722],[5.438507222,47.044473056],[5.438473611,47.0444575],[5.438426111,47.044501944]],[[5.415968611,47.033468889],[5.415988611,47.033450556],[5.415861944,47.033391389],[5.415843889,47.033408056],[5.415968611,47.033468889]],[[5.415989444,47.033498611],[5.416036667,47.033455556],[5.41584,47.033360278],[5.4157925,47.033404444],[5.415989444,47.033498611]],[[5.416071667,47.033422778],[5.416117778,47.033376389],[5.416091389,47.033362778],[5.416056667,47.033395278],[5.416029444,47.033380556],[5.416060833,47.033349722],[5.415925,47.033281667],[5.415873611,47.033327222],[5.41591,47.033343889],[5.415942778,47.033312778],[5.416008889,47.033345278],[5.415978889,47.033378333],[5.416071667,47.033422778]],[[5.438508611,47.044423889],[5.438575556,47.044458611],[5.438681389,47.044463333],[5.4387,47.044472222],[5.438665833,47.044501667],[5.438700833,47.044518611],[5.438749722,47.044474722],[5.438692222,47.044445278],[5.438583333,47.044440833],[5.4385575,47.044427778],[5.438574167,47.044410278],[5.438594167,47.044418056],[5.438607222,47.044405],[5.438553611,47.044379722],[5.438508611,47.044423889]]]}},{"type":"Feature","id":"LFGJ-a07c034ee0a06b1203c6","properties":{"airport":"LFGJ","name":"A","layer":"Labels","category":"Taxiways","object_type":"Label","style_id":"label.taxiways","source_group":"LFGJ Taxiways","vsmr_group_ids":[],"geometry_role":"text_label","text-field":"A"},"geometry":{"type":"Point","coordinates":[5.418021111,47.036667222]}},{"type":"Feature","id":"LFGJ-5dd2c2f8173a8289aa0d","properties":{"airport":"LFGJ","name":"B","layer":"Labels","category":"Taxiways","object_type":"Label","style_id":"label.taxiways","source_group":"LFGJ Taxiways","vsmr_group_ids":[],"geometry_role":"text_label","text-field":"B"},"geometry":{"type":"Point","coordinates":[5.426455,47.040833611]}},{"type":"Feature","id":"LFGJ-f78097121fac05487a3a","properties":{"airport":"LFGJ","name":"C","layer":"Labels","category":"Taxiways","object_type":"Label","style_id":"label.taxiways","source_group":"LFGJ Taxiways","vsmr_group_ids":[],"geometry_role":"text_label","text-field":"C"},"geometry":{"type":"Point","coordinates":[5.432804167,47.043135556]}},{"type":"Feature","id":"LFGJ-0fac66e8292445ac1471","properties":{"airport":"LFGJ","name":"J","layer":"Labels","category":"Taxiways","object_type":"Label","style_id":"label.taxiways","source_group":"LFGJ Taxiways","vsmr_group_ids":[],"geometry_role":"text_label","text-field":"J"},"geometry":{"type":"Point","coordinates":[5.433947222,47.041473889]}}]}
