{"type":"FeatureCollection","name":"LFGS AVISO","bbox":[5.567805556,49.482444444,5.578194444,49.486361111],"metadata":{"schema":"vSMR AVISO","schema_version":2,"geometry_mode":"shared","airport":"LFGS","coordinate_reference_system":"WGS84","coordinate_order":"longitude, latitude","default_color_palette":"dark","color_palettes":["dark","light"],"background_colors":{"dark":"#434A4F","light":"#434A4F"},"runways":[],"saved_active_runways":[],"saved_active_airport_modes":[],"feature_count":1,"style_count":1,"layer_counts":{"Guidance lines":1},"category_counts":{"Grass runways":1},"geometry_source":"local GNG/KMZ","geometry_source_url":"","geometry_license":"GPL-3.0"},"styles":{"line.runwaygrass.008000":{"name":"Grass runways","layer":"Guidance lines","object_type":"Line","paint":{"stroke":"#859A77","stroke-opacity":1,"stroke-width":1,"palette-overrides":{"light":{"stroke":"#008000"}}},"feature_count":1}},"vsmr_groups":[],"features":[{"type":"Feature","id":"LFGS-79e7792e6d77aa1c577a","properties":{"airport":"LFGS","name":"LFGS Groundlayout","layer":"Guidance lines","category":"Grass runways","object_type":"Line","style_id":"line.runwaygrass.008000","source_group":"LFGS Groundlayout","vsmr_group_ids":[],"geometry_role":"linework"},"geometry":{"type":"MultiLineString","coordinates":[[[5.567805556,49.483027778],[5.577805556,49.482444444]],[[5.568194444,49.486361111],[5.567805556,49.483027778]],[[5.578194444,49.48575],[5.577805556,49.482444444]]]}}]}
