{"type":"FeatureCollection","name":"LFHP AVISO","bbox":[3.756527778,45.074055556,3.769166667,45.086027778],"metadata":{"schema":"vSMR AVISO","schema_version":2,"geometry_mode":"shared","airport":"LFHP","coordinate_reference_system":"WGS84","coordinate_order":"longitude, latitude","default_color_palette":"dark","color_palettes":["dark","light"],"background_colors":{"dark":"#434A4F","light":"#434A4F"},"runways":[{"ends":["15R","33L"],"headings":[149,329],"thresholds":[[3.758930833,45.083674722],[3.763766944,45.077496944]]},{"ends":["15","33"],"headings":[149,329],"thresholds":[[3.758421944,45.086068889],[3.767005833,45.075102778]]}],"saved_active_runways":[],"saved_active_airport_modes":[],"airport_reference":[3.763332778,45.079721944],"feature_count":2,"style_count":2,"layer_counts":{"Guidance lines":2},"category_counts":{"Grass runways":1,"Runways":1},"geometry_source":"local GNG","geometry_source_url":"","geometry_license":"GPL-3.0"},"styles":{"line.runwayconcrete.555555":{"name":"Runways","layer":"Guidance lines","object_type":"Line","paint":{"stroke":"#111318","stroke-opacity":1,"stroke-width":1,"palette-overrides":{"light":{"stroke":"#555555"}}},"feature_count":1},"line.runwaygrass.008000":{"name":"Grass runways","layer":"Guidance lines","object_type":"Line","paint":{"stroke":"#859A77","stroke-opacity":1,"stroke-width":1,"palette-overrides":{"light":{"stroke":"#008000"}}},"feature_count":1}},"vsmr_groups":[],"features":[{"type":"Feature","id":"LFHP-7e919c9437f8c5203003","properties":{"airport":"LFHP","name":"LFHP Groundlayout","layer":"Guidance lines","category":"Runways","object_type":"Line","style_id":"line.runwayconcrete.555555","source_group":"LFHP Groundlayout","vsmr_group_ids":[],"geometry_role":"linework"},"geometry":{"type":"MultiLineString","coordinates":[[[3.757138889,45.084361111],[3.765222222,45.074055556]],[[3.761055556,45.086027778],[3.757138889,45.084361111]],[[3.769166667,45.075722222],[3.765222222,45.074055556]]]}},{"type":"Feature","id":"LFHP-7cdee74980ac73a6daf6","properties":{"airport":"LFHP","name":"LFHP Groundlayout","layer":"Guidance lines","category":"Grass runways","object_type":"Line","style_id":"line.runwaygrass.008000","source_group":"LFHP Groundlayout","vsmr_group_ids":[],"geometry_role":"linework"},"geometry":{"type":"MultiLineString","coordinates":[[[3.760472222,45.084638889],[3.764777778,45.079138889]],[[3.756527778,45.082972222],[3.760833333,45.077472222]],[[3.760472222,45.084638889],[3.756527778,45.082972222]],[[3.764777778,45.079138889],[3.760833333,45.077472222]]]}}]}
