{"type":"FeatureCollection","name":"LFJL AVISO","bbox":[6.229116667,48.965637222,6.265475556,48.993097222],"metadata":{"schema":"vSMR AVISO","schema_version":2,"geometry_mode":"shared","airport":"LFJL","coordinate_reference_system":"WGS84","coordinate_order":"longitude, latitude","default_color_palette":"dark","color_palettes":["dark","light"],"background_colors":{"dark":"#434A4F","light":"#434A4F"},"runways":[{"ends":["04","22"],"headings":[37,217],"thresholds":[[6.237510833,48.970999722],[6.262102778,48.990841944]]}],"saved_active_runways":[],"saved_active_airport_modes":[],"airport_reference":[6.246666944,48.978332778],"feature_count":52,"style_count":11,"layer_counts":{"Airfield surfaces":6,"Buildings and structures":7,"Guidance lines":2,"Labels":32,"Surface markings":3,"Terrain":2},"category_counts":{"Buildings":7,"Gates":15,"Grass":2,"Hard Surface 2":1,"Hard Surface 3":1,"Hard Surface 4":3,"Runway Border":1,"Runways":1,"Stopbars":3,"Taxiways":18},"geometry_source":"local GNG/KMZ","geometry_source_url":"","geometry_license":"GPL-3.0"},"styles":{"polygon.grassurface.00512f":{"name":"Grass","layer":"Terrain","object_type":"Area","paint":{"fill":"#010D19","fill-opacity":1,"palette-overrides":{"light":{"fill":"#00512F"}}},"feature_count":2},"polygon.hardsurface4.969393":{"name":"Hard Surface 4","layer":"Airfield surfaces","object_type":"Area","paint":{"fill":"#152841","fill-opacity":1,"palette-overrides":{"light":{"fill":"#969393"}}},"feature_count":3},"polygon.hardsurface3.8a807f":{"name":"Hard Surface 3","layer":"Airfield surfaces","object_type":"Area","paint":{"fill":"#222D3C","fill-opacity":1,"palette-overrides":{"light":{"fill":"#8A807F"}}},"feature_count":1},"polygon.hardsurface2.595e5b":{"name":"Hard Surface 2","layer":"Airfield surfaces","object_type":"Area","paint":{"fill":"#2F3949","fill-opacity":1,"palette-overrides":{"light":{"fill":"#595E5B"}}},"feature_count":1},"polygon.runwayconcrete.555555":{"name":"Runways","layer":"Airfield surfaces","object_type":"Area","paint":{"fill":"#111318","fill-opacity":1,"palette-overrides":{"light":{"fill":"#555555"}}},"feature_count":1},"polygon.building.394446":{"name":"Buildings","layer":"Buildings and structures","object_type":"Area","paint":{"fill":"#475570","fill-opacity":1,"palette-overrides":{"light":{"fill":"#394446"}}},"feature_count":7},"polygon.stopbar.7e0000":{"name":"Stopbars","layer":"Surface markings","object_type":"Area","paint":{"fill":"#7E0000","fill-opacity":1,"palette-overrides":{"light":{"fill":"#7E0000"}}},"feature_count":3},"line.runwayborder.808080":{"name":"Runway Border","layer":"Guidance lines","object_type":"Line","paint":{"stroke":"#808080","stroke-opacity":1,"stroke-width":1,"palette-overrides":{"light":{"stroke":"#808080"}}},"feature_count":1},"line.taxiway.c0b631":{"name":"Taxiways","layer":"Guidance lines","object_type":"Line","paint":{"stroke":"#4E5A69","stroke-opacity":1,"stroke-width":1,"palette-overrides":{"light":{"stroke":"#C0B631"}}},"feature_count":1},"label.gates":{"name":"Gates","layer":"Labels","object_type":"Label","paint":{"text-color":"#CCCCCC","text-font":"Arial","text-size":12,"text-halo-color":"#000000","text-halo-width":1,"text-anchor":"center","zoomLevel":9},"feature_count":15},"label.taxiways":{"name":"Taxiways","layer":"Labels","object_type":"Label","paint":{"text-color":"#CCCCCC","text-font":"Arial","text-size":12,"text-halo-color":"#000000","text-halo-width":1,"text-anchor":"center","zoomLevel":7},"feature_count":17}},"vsmr_groups":[],"features":[{"type":"Feature","id":"LFJL-bf671423cdae82a159e9","properties":{"airport":"LFJL","name":"LFJL AVISO","layer":"Terrain","category":"Grass","object_type":"Area","style_id":"polygon.grassurface.00512f","source_group":"LFJL AVISO","vsmr_group_ids":[],"geometry_role":"filled_region"},"geometry":{"type":"Polygon","coordinates":[[[6.259468333,48.992364722],[6.259384444,48.992337222],[6.259341667,48.992314167],[6.257606944,48.990892222],[6.2527025,48.986933333],[6.249984167,48.984736111],[6.249879722,48.984654722],[6.249858333,48.984646389],[6.246741944,48.984150556],[6.245638611,48.983972778],[6.2459975,48.983514444],[6.245276944,48.982942778],[6.244889444,48.983141944],[6.244339444,48.982699167],[6.243769167,48.982225833],[6.242065278,48.980855833],[6.242013611,48.980819444],[6.241967778,48.980797222],[6.241909444,48.980775833],[6.241848056,48.980758611],[6.241767222,48.980740833],[6.24169,48.980728333],[6.240176667,48.980565833],[6.240139722,48.980552222],[6.240112222,48.980533611],[6.240098333,48.980510556],[6.240092778,48.980483611],[6.2400825,48.980450278],[6.240071944,48.980422222],[6.240056667,48.980391111],[6.240038056,48.980363056],[6.240013056,48.980336944],[6.23999,48.980316389],[6.239954722,48.980294722],[6.239917222,48.980276944],[6.239871389,48.980259722],[6.239808333,48.980236944],[6.239761389,48.980227222],[6.239712222,48.98022],[6.239690278,48.980213611],[6.239672222,48.980205556],[6.239652778,48.980191667],[6.239632778,48.980170556],[6.239618056,48.980150278],[6.239613889,48.980130556],[6.239606667,48.980066667],[6.2395975,48.979988611],[6.239583333,48.979923333],[6.239566944,48.979858056],[6.239542778,48.979789167],[6.239514444,48.979716389],[6.239487222,48.979647778],[6.239458056,48.979589444],[6.239420556,48.979521111],[6.239377778,48.979458333],[6.239339167,48.979405],[6.2392975,48.979354722],[6.239234167,48.979288889],[6.239040556,48.979101667],[6.239660833,48.978776944],[6.238951667,48.978211111],[6.239441944,48.977939167],[6.238659167,48.977287222],[6.239541111,48.976868611],[6.234205833,48.972566667],[6.233364722,48.971878889],[6.2323775,48.9710925],[6.231248611,48.970180833],[6.230895278,48.969895278],[6.229161389,48.968495278],[6.22915,48.968484167],[6.229145833,48.968471667],[6.229116667,48.965637222],[6.232904444,48.965888333],[6.232966389,48.965999167],[6.233305833,48.966021389],[6.233448056,48.965921111],[6.2367325,48.966138333],[6.240356389,48.969060278],[6.240388333,48.969092778],[6.240406944,48.969126111],[6.240509167,48.970161111],[6.240516111,48.970185278],[6.240529722,48.970208333],[6.241755278,48.971189444],[6.241863056,48.971134167],[6.243721111,48.972635556],[6.247068333,48.975329722],[6.248075278,48.976148611],[6.248187222,48.9760975],[6.249221389,48.976929444],[6.249323333,48.976873611],[6.250377778,48.977722222],[6.252959444,48.979806944],[6.254124444,48.980745278],[6.2538175,48.980906389],[6.253979722,48.981035833],[6.253469444,48.981498889],[6.254004722,48.981934444],[6.254593333,48.982403333],[6.255223056,48.982061111],[6.258773333,48.984936944],[6.2587625,48.985023056],[6.260338056,48.986296389],[6.262098333,48.986474167],[6.262516944,48.986636389],[6.263511667,48.9874375],[6.263590833,48.987513056],[6.263653889,48.987606667],[6.263814444,48.987945833],[6.263725278,48.98805],[6.264450833,48.989565278],[6.264478056,48.989605556],[6.265426944,48.990544167],[6.265438889,48.990563611],[6.265475556,48.991183333],[6.264161944,48.991895833],[6.264615833,48.992260556],[6.2638175,48.992734722],[6.263440833,48.992493889],[6.263345278,48.992425556],[6.263282778,48.992391667],[6.263245278,48.992378889],[6.261939444,48.993097222],[6.259468333,48.992364722]]]}},{"type":"Feature","id":"LFJL-1d221982cd0347175074","properties":{"airport":"LFJL","name":"LFJL AVISO","layer":"Airfield surfaces","category":"Hard Surface 4","object_type":"Area","style_id":"polygon.hardsurface4.969393","source_group":"LFJL AVISO","vsmr_group_ids":[],"geometry_role":"filled_region"},"geometry":{"type":"Polygon","coordinates":[[[6.243320556,48.978453611],[6.243275833,48.978417222],[6.243240556,48.978392778],[6.243204722,48.978373889],[6.243155556,48.978352778],[6.243103889,48.978334722],[6.243046111,48.978318611],[6.242997222,48.978306667],[6.242944444,48.978296944],[6.242896111,48.97829],[6.242845556,48.978285833],[6.242775,48.978285],[6.242723333,48.978286944],[6.242676389,48.978290833],[6.242632222,48.978296944],[6.242585556,48.978305278],[6.242540833,48.978315833],[6.242495,48.978330278],[6.242451111,48.9783475],[6.242421111,48.978360278],[6.242367222,48.978386111],[6.242130833,48.978508333],[6.241183889,48.979018333],[6.241316667,48.9791225],[6.240596944,48.979501944],[6.239758611,48.978835556],[6.239833333,48.978788056],[6.239797778,48.978751389],[6.239787222,48.978739167],[6.239779722,48.978726111],[6.239775833,48.978711944],[6.239776667,48.978696389],[6.239783056,48.978678889],[6.239793056,48.978660833],[6.239808889,48.978645],[6.239835278,48.978626389],[6.240351944,48.978348611],[6.239155278,48.977382222],[6.23925,48.977331944],[6.240112778,48.976866944],[6.240258333,48.97679],[6.240305556,48.976764167],[6.240346944,48.976741667],[6.240384444,48.976720278],[6.240414722,48.976699722],[6.240443333,48.976676111],[6.240468333,48.976653056],[6.240495,48.976626667],[6.240516111,48.976602222],[6.240531389,48.976579167],[6.240546944,48.976553611],[6.240559722,48.976528889],[6.240569444,48.976506944],[6.240575,48.97648],[6.240581944,48.97644],[6.240584722,48.976400278],[6.240585,48.9763525],[6.240584722,48.976330278],[6.240581944,48.976312222],[6.240575556,48.976295],[6.240563889,48.976271389],[6.240545556,48.976243889],[6.240514167,48.976203611],[6.240476667,48.976161389],[6.240443611,48.976126667],[6.240399722,48.976087778],[6.239050278,48.974996111],[6.238883611,48.974863333],[6.238842778,48.974828889],[6.238819167,48.974808611],[6.238803889,48.974792222],[6.238789167,48.974773333],[6.238776667,48.974750833],[6.238760833,48.974718056],[6.238743333,48.974682778],[6.238733889,48.974650833],[6.238728333,48.974621111],[6.2387275,48.974589722],[6.238730556,48.97456],[6.238738611,48.974533611],[6.238751389,48.974504167],[6.238778889,48.974458611],[6.238811667,48.974412778],[6.238840278,48.974380278],[6.238861389,48.974360278],[6.238881944,48.974344444],[6.238917778,48.974321389],[6.239057222,48.974241944],[6.239183889,48.974174167],[6.239278056,48.974124722],[6.239360278,48.974079167],[6.239428889,48.974038056],[6.239487778,48.974002222],[6.239586944,48.973936944],[6.2397175,48.9738475],[6.239796944,48.973792222],[6.239858611,48.973747222],[6.239900556,48.973714167],[6.2399325,48.973683889],[6.239953333,48.973656667],[6.239973889,48.973625278],[6.23999,48.973590556],[6.240000833,48.973558333],[6.240006667,48.973525],[6.240010556,48.973490278],[6.240011111,48.973466389],[6.240010556,48.973442222],[6.240008333,48.973419722],[6.240000833,48.973394167],[6.239991111,48.97337],[6.239978889,48.973345833],[6.239961667,48.973319444],[6.239944167,48.973294444],[6.239926389,48.973273333],[6.2399025,48.973246389],[6.241025833,48.974150833],[6.240975833,48.974120278],[6.240935833,48.974100556],[6.2408975,48.974084444],[6.240833333,48.974061111],[6.240764444,48.974038889],[6.240659444,48.974010278],[6.240482778,48.973969167],[6.240410278,48.973955556],[6.240360278,48.973950278],[6.240314167,48.973948056],[6.2402775,48.97395],[6.240233056,48.973955556],[6.240188889,48.973965278],[6.2401025,48.973988889],[6.240005833,48.974023056],[6.239875278,48.974075833],[6.239791944,48.974113056],[6.239738889,48.974141944],[6.239657778,48.974190833],[6.239574444,48.974245278],[6.239504167,48.974296944],[6.239445,48.974343611],[6.239399167,48.974383611],[6.23936,48.974419722],[6.239342222,48.974440833],[6.239325833,48.9744625],[6.239312222,48.974488611],[6.239298056,48.974521111],[6.239285833,48.974554167],[6.239278611,48.974586111],[6.239273611,48.97461],[6.239271389,48.97464],[6.239274444,48.974671667],[6.239281389,48.974703611],[6.239294444,48.97474],[6.239310278,48.974774167],[6.239330278,48.974806389],[6.239373889,48.974862778],[6.239432778,48.974933611],[6.239515,48.975028056],[6.239561667,48.975078611],[6.239613611,48.975128333],[6.239666944,48.975175833],[6.2400525,48.975486667],[6.243143611,48.977982222],[6.243540278,48.978301111],[6.243705,48.978437778],[6.243803056,48.978518333],[6.243859722,48.978565278],[6.243910556,48.978604167],[6.243973333,48.978647222],[6.244021667,48.978679167],[6.243773333,48.978814722],[6.243320556,48.978453611]]]}},{"type":"Feature","id":"LFJL-6828704973f34857185f","properties":{"airport":"LFJL","name":"LFJL AVISO","layer":"Airfield surfaces","category":"Hard Surface 4","object_type":"Area","style_id":"polygon.hardsurface4.969393","source_group":"LFJL AVISO","vsmr_group_ids":[],"geometry_role":"filled_region"},"geometry":{"type":"Polygon","coordinates":[[[6.245504444,48.982247778],[6.244686944,48.9815875],[6.244668611,48.981575],[6.244649722,48.9815675],[6.244630278,48.981564722],[6.244613056,48.981565],[6.244594444,48.981568056],[6.2445675,48.981581667],[6.244524444,48.981603333],[6.244004722,48.981884167],[6.243828333,48.981743056],[6.244378611,48.981435278],[6.244397778,48.981425556],[6.244411111,48.981415833],[6.2444175,48.981407222],[6.244420278,48.981397222],[6.244420278,48.981382778],[6.2444175,48.981378889],[6.244412222,48.981378056],[6.244406111,48.981378333],[6.244398333,48.981381944],[6.244374167,48.981394444],[6.244326667,48.981417778],[6.244186667,48.981495],[6.244115556,48.981438611],[6.244345,48.981317778],[6.244257222,48.981241667],[6.244251667,48.981241111],[6.244245,48.981243333],[6.244017222,48.981365278],[6.243971667,48.981328611],[6.244207222,48.981204722],[6.243919444,48.980974167],[6.243685,48.9810975],[6.243642778,48.981061389],[6.243875,48.980937222],[6.243781111,48.980862222],[6.243550833,48.980981944],[6.243478333,48.980927778],[6.243701111,48.9808075],[6.243702222,48.980804167],[6.243701667,48.980801944],[6.243698333,48.980799722],[6.243688333,48.980796389],[6.243673889,48.980794167],[6.243659444,48.980793611],[6.2436475,48.980795556],[6.243635,48.980799167],[6.243391111,48.9809275],[6.243066389,48.980663611],[6.243280556,48.980542778],[6.24329,48.980535556],[6.243301389,48.980523333],[6.243308056,48.980512778],[6.243313611,48.980501389],[6.243315833,48.980486111],[6.242868889,48.980125556],[6.242943611,48.980086111],[6.245579722,48.982206389],[6.245504444,48.982247778]]]}},{"type":"Feature","id":"LFJL-4fd6ebde6953a75ab93f","properties":{"airport":"LFJL","name":"LFJL AVISO","layer":"Airfield surfaces","category":"Hard Surface 4","object_type":"Area","style_id":"polygon.hardsurface4.969393","source_group":"LFJL AVISO","vsmr_group_ids":[],"geometry_role":"filled_region"},"geometry":{"type":"Polygon","coordinates":[[[6.244194722,48.981541111],[6.244164722,48.981516111],[6.244138611,48.981530556],[6.244116111,48.981514444],[6.244145278,48.981499722],[6.244129722,48.9814875],[6.244101111,48.981501111],[6.244085,48.981487222],[6.244111389,48.981471667],[6.244000833,48.981382222],[6.2439725,48.9813975],[6.243951667,48.981383611],[6.243983056,48.981368056],[6.243958056,48.981348056],[6.243928611,48.981360278],[6.243909167,48.981345278],[6.243936389,48.981332222],[6.243886944,48.981293889],[6.243857778,48.981309167],[6.243829444,48.981284722],[6.243858889,48.981268889],[6.243723056,48.981159722],[6.243675,48.981119167],[6.243644444,48.981134444],[6.243625556,48.981119722],[6.243656389,48.981104444],[6.2436075,48.981063056],[6.243578889,48.981078056],[6.243560278,48.9810625],[6.243587222,48.981048333],[6.243563611,48.981029167],[6.243535,48.981043611],[6.243514444,48.981028611],[6.243545278,48.981014167],[6.243518611,48.980993889],[6.243491944,48.981008333],[6.243468056,48.980995833],[6.243498611,48.980978056],[6.243469167,48.9809525],[6.243441667,48.980966389],[6.24342,48.980953056],[6.24345,48.9809375],[6.243414722,48.980908889],[6.243449444,48.980893611],[6.244230278,48.981523056],[6.244194722,48.981541111]]]}},{"type":"Feature","id":"LFJL-65cc3ed3c62d4a3fa194","properties":{"airport":"LFJL","name":"LFJL AVISO","layer":"Airfield surfaces","category":"Hard Surface 3","object_type":"Area","style_id":"polygon.hardsurface3.8a807f","source_group":"LFJL AVISO","vsmr_group_ids":[],"geometry_role":"filled_region"},"geometry":{"type":"Polygon","coordinates":[[[6.246627222,48.981662778],[6.246598611,48.9816725],[6.246569167,48.981683056],[6.246541667,48.981695],[6.246502778,48.981713611],[6.245575,48.982209167],[6.2429425,48.980086389],[6.243872778,48.979589722],[6.243906667,48.979567222],[6.243944722,48.97954],[6.243973611,48.979516944],[6.243989722,48.979502778],[6.246655278,48.981654722],[6.246627222,48.981662778]]]}},{"type":"Feature","id":"LFJL-bd902ef06db1cb9fcfa5","properties":{"airport":"LFJL","name":"LFJL AVISO","layer":"Airfield surfaces","category":"Hard Surface 2","object_type":"Area","style_id":"polygon.hardsurface2.595e5b","source_group":"LFJL AVISO","vsmr_group_ids":[],"geometry_role":"filled_region"},"geometry":{"type":"Polygon","coordinates":[[[6.24414,48.978751111],[6.244222778,48.978801667],[6.244293611,48.978841667],[6.244364167,48.978876944],[6.244416111,48.978898889],[6.24447,48.978915556],[6.244531944,48.978932222],[6.24457,48.978941389],[6.244604444,48.978947222],[6.244640278,48.978950278],[6.244691389,48.978952222],[6.245196667,48.979358056],[6.245193611,48.979385556],[6.245193611,48.979420833],[6.245197222,48.979456667],[6.245206667,48.979496944],[6.2452175,48.97953],[6.245235556,48.979564167],[6.245257222,48.9796],[6.245279444,48.9796275],[6.2453225,48.979671944],[6.245794444,48.980128056],[6.245821111,48.980151389],[6.247356944,48.981391667],[6.247798611,48.98175],[6.249408889,48.983048333],[6.250961111,48.984298889],[6.25233,48.985401944],[6.253370278,48.986240278],[6.253947778,48.986706944],[6.254093056,48.986816111],[6.254228889,48.986910556],[6.254390833,48.987021389],[6.254568333,48.987141111],[6.254659444,48.987201389],[6.254701667,48.987228056],[6.254750556,48.987253889],[6.254795556,48.987273056],[6.254842778,48.987290833],[6.254890833,48.987305556],[6.254955,48.98732],[6.255009167,48.987329444],[6.255061667,48.987335556],[6.255117222,48.987338333],[6.255170556,48.987338611],[6.255211667,48.987336667],[6.255250278,48.987333333],[6.255638889,48.987644444],[6.255624722,48.987676667],[6.255611111,48.987711389],[6.255604167,48.987743333],[6.255599444,48.987777222],[6.255600833,48.987816111],[6.255606667,48.987859444],[6.255620556,48.987908056],[6.255638889,48.9879475],[6.255662778,48.987988611],[6.255688333,48.988023333],[6.255721667,48.988058611],[6.255942778,48.988275556],[6.2561625,48.988485556],[6.256226389,48.988542778],[6.256306111,48.988609167],[6.257991944,48.989974167],[6.258822222,48.990643889],[6.259031389,48.99081],[6.259091667,48.9908575],[6.2591575,48.990905556],[6.259256667,48.9909725],[6.259347778,48.991035833],[6.259460833,48.991111944],[6.259659167,48.991245833],[6.259721389,48.991286944],[6.259772222,48.991318611],[6.259818889,48.991343056],[6.259871111,48.991363889],[6.259924167,48.991381944],[6.259976944,48.991396667],[6.260042222,48.991410278],[6.2601025,48.991419167],[6.260156111,48.991423056],[6.260203056,48.991425],[6.260256389,48.991424444],[6.260311944,48.991420278],[6.260365833,48.991414722],[6.2604075,48.991408056],[6.2604475,48.991399167],[6.2604975,48.991385833],[6.260536944,48.991372222],[6.260578056,48.991357222],[6.2608075,48.991544444],[6.260701944,48.991600833],[6.260645556,48.991629167],[6.260596111,48.991649444],[6.260551944,48.991665],[6.260502222,48.991681111],[6.260454167,48.991693333],[6.260409722,48.9917025],[6.260360556,48.991711111],[6.260309444,48.991717222],[6.260258611,48.991721111],[6.260206667,48.991723333],[6.260144167,48.991723333],[6.260089167,48.991720833],[6.260029444,48.991715556],[6.259984444,48.991709167],[6.259931111,48.991699167],[6.259884444,48.991688889],[6.259839444,48.991677222],[6.259794444,48.991662778],[6.259753889,48.991648333],[6.259705833,48.991628056],[6.2596675,48.991610278],[6.259629722,48.991589444],[6.259589444,48.991564722],[6.259530278,48.991522778],[6.2594025,48.991419444],[6.258551667,48.990734167],[6.256133611,48.988780556],[6.252261944,48.985657222],[6.249991944,48.983828333],[6.248895278,48.982948333],[6.247513889,48.981828889],[6.247457222,48.981780833],[6.247415278,48.981751389],[6.247365556,48.981721389],[6.247323056,48.981700278],[6.247283333,48.981683333],[6.247231667,48.981665],[6.247187222,48.981651111],[6.247143611,48.981640278],[6.247095,48.981630278],[6.247040833,48.9816225],[6.246992222,48.981618611],[6.246944167,48.981616944],[6.246893611,48.9816175],[6.246846667,48.981619444],[6.246801667,48.981624444],[6.246756389,48.981630833],[6.246714167,48.981639722],[6.246676111,48.981649167],[6.246652778,48.981655556],[6.243988333,48.979504167],[6.244011111,48.979479444],[6.244034444,48.979451111],[6.244056389,48.9794225],[6.244074167,48.979393611],[6.244086944,48.979367778],[6.2441,48.979332222],[6.244108611,48.979300556],[6.244111944,48.979273333],[6.244112778,48.979239167],[6.244108889,48.979199444],[6.244102222,48.979171389],[6.244089444,48.9791325],[6.244073889,48.979098056],[6.244049444,48.979055],[6.244028611,48.979028611],[6.243996667,48.978996667],[6.243922778,48.978936944],[6.243770278,48.978812778],[6.244019444,48.9786775],[6.24414,48.978751111]]]}},{"type":"Feature","id":"LFJL-d072bbe6dfba61992d2f","properties":{"airport":"LFJL","name":"LFJL AVISO","layer":"Airfield surfaces","category":"Runways","object_type":"Area","style_id":"polygon.runwayconcrete.555555","source_group":"LFJL AVISO","vsmr_group_ids":[],"geometry_role":"filled_region"},"geometry":{"type":"Polygon","coordinates":[[[6.262346667,48.990721944],[6.261869722,48.990979167],[6.261863889,48.990974722],[6.261156944,48.991356111],[6.260877778,48.991506667],[6.260805556,48.991545278],[6.260574167,48.991358056],[6.260636111,48.991333333],[6.260802778,48.991265556],[6.26088,48.9912325],[6.260927778,48.99121],[6.260954167,48.991196389],[6.260981389,48.991180833],[6.261250278,48.9909975],[6.2612625,48.990988333],[6.261270278,48.99098],[6.261274167,48.990970833],[6.261275833,48.990961389],[6.261275833,48.990950556],[6.261185278,48.99055],[6.261176389,48.990516944],[6.261169444,48.990495],[6.261149444,48.990451944],[6.261127222,48.99041],[6.261114722,48.990388889],[6.261103611,48.990373611],[6.261090556,48.99036],[6.261030833,48.990300833],[6.257178889,48.987194167],[6.257130833,48.987169167],[6.257090278,48.987151944],[6.257036111,48.987131667],[6.256988889,48.987118056],[6.2569375,48.9871075],[6.256879444,48.987098889],[6.256817222,48.987091667],[6.256769444,48.987090556],[6.256716111,48.987091111],[6.256664167,48.987095],[6.2566025,48.987102222],[6.256536111,48.987113611],[6.256470833,48.987129167],[6.256393611,48.987151944],[6.256310278,48.987180556],[6.256251667,48.987203611],[6.256187222,48.987233611],[6.256133333,48.987260278],[6.256084444,48.987287778],[6.256039722,48.987315556],[6.255987778,48.987351111],[6.25583,48.987459444],[6.255800278,48.987479167],[6.255772778,48.987498333],[6.255746667,48.987519167],[6.255723889,48.987538611],[6.255701111,48.987560278],[6.25568,48.987583889],[6.255663889,48.987604722],[6.255651389,48.987623611],[6.255642778,48.987638889],[6.255637778,48.987646944],[6.255248056,48.987333056],[6.255290278,48.987328889],[6.255325833,48.987323611],[6.255366667,48.987315833],[6.255408611,48.987305278],[6.255452778,48.987291389],[6.2555075,48.987271944],[6.255734444,48.987179167],[6.255813056,48.987145833],[6.255851944,48.987127222],[6.255901944,48.9871],[6.255955556,48.987069167],[6.256006389,48.987035556],[6.256073611,48.986987222],[6.256163611,48.986915833],[6.256208333,48.9868775],[6.256233056,48.986851944],[6.256256389,48.986825556],[6.256275556,48.986798889],[6.256293889,48.986765556],[6.256308056,48.98673],[6.256318333,48.986699722],[6.256325556,48.986668056],[6.256329167,48.986643889],[6.256328889,48.986619167],[6.256325278,48.986595278],[6.25632,48.986571944],[6.256312778,48.986548889],[6.256299167,48.986522778],[6.256282778,48.986496111],[6.256260556,48.9864675],[6.256235,48.986439444],[6.256203333,48.986406667],[6.246838889,48.978850278],[6.246766389,48.978804444],[6.246718333,48.978776389],[6.246655278,48.9787475],[6.246613889,48.978732222],[6.246571667,48.978719722],[6.24653,48.978710556],[6.246473333,48.978701944],[6.246411667,48.978696667],[6.246350833,48.978694444],[6.246293611,48.978695278],[6.246242222,48.978698611],[6.246189444,48.978706111],[6.246138056,48.978718333],[6.246095,48.978730833],[6.246011389,48.97876],[6.245750833,48.978866111],[6.245708889,48.978885],[6.245681111,48.978898889],[6.245452778,48.979053889],[6.245380556,48.9791025],[6.245349167,48.979126111],[6.2453225,48.979152222],[6.245300278,48.979176111],[6.2452725,48.979209722],[6.245252222,48.979238889],[6.245235833,48.979265],[6.245221667,48.979293889],[6.245210556,48.979319444],[6.245202222,48.979341667],[6.245196389,48.979360556],[6.244688333,48.978951667],[6.244738333,48.978952222],[6.244782222,48.97895],[6.244825833,48.978946389],[6.244862222,48.978941667],[6.244899167,48.978935833],[6.244937222,48.978928333],[6.244978056,48.978918333],[6.245018056,48.978907778],[6.2450625,48.978894167],[6.245106667,48.978878889],[6.24515,48.978862778],[6.245208333,48.978838889],[6.245269167,48.978811944],[6.245333333,48.978783611],[6.245406944,48.978749722],[6.245461111,48.978723056],[6.245504444,48.978700278],[6.2455575,48.978669722],[6.245628889,48.9786225],[6.245685,48.978584444],[6.245731667,48.978550833],[6.245769722,48.978523056],[6.245799444,48.978496667],[6.245826389,48.9784675],[6.2458525,48.9784325],[6.245873889,48.978398056],[6.245886944,48.978363333],[6.245899722,48.978327222],[6.245907222,48.978291667],[6.245911389,48.978261667],[6.245910833,48.978231667],[6.245909167,48.978205278],[6.245904444,48.978179444],[6.245897222,48.978156111],[6.245888333,48.978132222],[6.245873333,48.978102778],[6.245853333,48.9780725],[6.245828889,48.978041667],[6.245797222,48.978006667],[6.240998611,48.974131389],[6.23988,48.973231389],[6.236659722,48.970630833],[6.236519167,48.9705875],[6.236373611,48.970544167],[6.236254444,48.970510833],[6.236120556,48.970475],[6.236008889,48.970446111],[6.235817222,48.970398056],[6.2357325,48.970375556],[6.235661111,48.970353889],[6.235586111,48.970329722],[6.235523889,48.970307222],[6.235465556,48.970283611],[6.235441667,48.970272222],[6.235415833,48.970256667],[6.235387778,48.970235],[6.235362778,48.970210278],[6.235340556,48.970181667],[6.235318889,48.970143333],[6.235310833,48.970119444],[6.235303056,48.970094167],[6.235297222,48.9700675],[6.235293889,48.970036389],[6.235295,48.970003056],[6.235301667,48.969969444],[6.235314722,48.969933056],[6.235330833,48.969902778],[6.235354167,48.969866111],[6.235388611,48.969824167],[6.235424167,48.969791667],[6.2354625,48.969759167],[6.235503056,48.969730833],[6.235529444,48.969715833],[6.236004722,48.969461111],[6.262346667,48.990721944]]]}},{"type":"Feature","id":"LFJL-188e3ab1afbd4af01f07","properties":{"airport":"LFJL","name":"LFJL AVISO","layer":"Terrain","category":"Grass","object_type":"Area","style_id":"polygon.grassurface.00512f","source_group":"LFJL AVISO","vsmr_group_ids":[],"geometry_role":"filled_region"},"geometry":{"type":"Polygon","coordinates":[[[6.2434375,48.980765833],[6.243326944,48.980677778],[6.243318333,48.980670556],[6.243314722,48.980664722],[6.243312222,48.980655833],[6.243313889,48.980640278],[6.243316944,48.980627222],[6.243321111,48.980618333],[6.243329444,48.980611389],[6.243344722,48.980600833],[6.243359722,48.980593333],[6.243373611,48.980588889],[6.2433875,48.980586111],[6.243403333,48.980584444],[6.24342,48.980583889],[6.243432222,48.980584167],[6.243440278,48.980586389],[6.24356,48.980683056],[6.243566111,48.980688889],[6.243572778,48.980695833],[6.243575,48.980704444],[6.243575556,48.980713611],[6.243573333,48.980723333],[6.243568333,48.980731944],[6.243561667,48.98074],[6.2435525,48.980748056],[6.24351,48.980770833],[6.2435025,48.980773333],[6.243490278,48.980774722],[6.243473611,48.980775],[6.243457222,48.980773611],[6.243447222,48.980770833],[6.2434375,48.980765833]]]}},{"type":"Feature","id":"LFJL-65e0db13aa210857b208","properties":{"airport":"LFJL","name":"LFJL AVISO","layer":"Buildings and structures","category":"Buildings","object_type":"Area","style_id":"polygon.building.394446","source_group":"LFJL AVISO","vsmr_group_ids":[],"geometry_role":"filled_region"},"geometry":{"type":"Polygon","coordinates":[[[6.240401111,48.978478889],[6.240926111,48.978904167],[6.240444444,48.979161111],[6.240493611,48.979201944],[6.240469167,48.979213889],[6.240443889,48.979225278],[6.240420556,48.979234722],[6.240398611,48.979243333],[6.240377222,48.979252222],[6.240359167,48.979260833],[6.240337222,48.979271111],[6.240317778,48.979280833],[6.240296389,48.979291944],[6.240275278,48.979301667],[6.240256944,48.979309444],[6.240246111,48.979314167],[6.240239167,48.979315],[6.239674444,48.978858611],[6.239704722,48.978846389],[6.240401111,48.978478889]]]}},{"type":"Feature","id":"LFJL-92886320b8d764749007","properties":{"airport":"LFJL","name":"LFJL AVISO","layer":"Buildings and structures","category":"Buildings","object_type":"Area","style_id":"polygon.building.394446","source_group":"LFJL AVISO","vsmr_group_ids":[],"geometry_role":"filled_region"},"geometry":{"type":"Polygon","coordinates":[[[6.240356667,48.9793475],[6.240378333,48.979338056],[6.240406944,48.979323889],[6.24046,48.979298333],[6.240678333,48.979466667],[6.240656111,48.979477778],[6.240635833,48.9794875],[6.2406175,48.979496111],[6.240598611,48.979504722],[6.240579167,48.979513056],[6.240564444,48.979518611],[6.240553889,48.979522778],[6.240547778,48.979524722],[6.240336111,48.979355],[6.240356667,48.9793475]]]}},{"type":"Feature","id":"LFJL-26c0ae1c7045ac4f897e","properties":{"airport":"LFJL","name":"LFJL AVISO","layer":"Buildings and structures","category":"Buildings","object_type":"Area","style_id":"polygon.building.394446","source_group":"LFJL AVISO","vsmr_group_ids":[],"geometry_role":"filled_region"},"geometry":{"type":"Polygon","coordinates":[[[6.241384722,48.979296389],[6.242113333,48.979887222],[6.241971667,48.979963333],[6.241833889,48.979852222],[6.241718889,48.979914722],[6.241126389,48.979434167],[6.241384722,48.979296389]]]}},{"type":"Feature","id":"LFJL-73cffb72d0fbb15cc0e6","properties":{"airport":"LFJL","name":"LFJL AVISO","layer":"Buildings and structures","category":"Buildings","object_type":"Area","style_id":"polygon.building.394446","source_group":"LFJL AVISO","vsmr_group_ids":[],"geometry_role":"filled_region"},"geometry":{"type":"Polygon","coordinates":[[[6.242350278,48.980256944],[6.242314722,48.980273611],[6.242263333,48.9802325],[6.242206667,48.980186389],[6.2421375,48.980126111],[6.242189722,48.980098333],[6.242214444,48.98012],[6.242262222,48.980096389],[6.242234167,48.980071667],[6.2422875,48.980043056],[6.242526667,48.980230278],[6.242535833,48.980226389],[6.242805278,48.9804425],[6.242671111,48.980513333],[6.2423675,48.980270556],[6.242350278,48.980256944]]]}},{"type":"Feature","id":"LFJL-dbdd6ee411b80882992f","properties":{"airport":"LFJL","name":"LFJL AVISO","layer":"Buildings and structures","category":"Buildings","object_type":"Area","style_id":"polygon.building.394446","source_group":"LFJL AVISO","vsmr_group_ids":[],"geometry_role":"filled_region"},"geometry":{"type":"Polygon","coordinates":[[[6.241868333,48.980267222],[6.242103333,48.980459722],[6.242108611,48.980456944],[6.242206944,48.980539444],[6.242261944,48.980511111],[6.242415833,48.980634167],[6.242301389,48.980696111],[6.241806389,48.9803025],[6.241868333,48.980267222]]]}},{"type":"Feature","id":"LFJL-7c40434d8cc70f1c5015","properties":{"airport":"LFJL","name":"LFJL AVISO","layer":"Buildings and structures","category":"Buildings","object_type":"Area","style_id":"polygon.building.394446","source_group":"LFJL AVISO","vsmr_group_ids":[],"geometry_role":"filled_region"},"geometry":{"type":"Polygon","coordinates":[[[6.243695278,48.981161944],[6.243569167,48.981229167],[6.243601111,48.981254167],[6.243721111,48.981191667],[6.244321389,48.981674167],[6.244145556,48.98177],[6.244089722,48.981725833],[6.244023611,48.981761667],[6.244017778,48.981816111],[6.243932222,48.981810556],[6.243914167,48.981820556],[6.243745833,48.981688611],[6.243510556,48.981817778],[6.243308333,48.981656667],[6.243240833,48.981695],[6.243051389,48.981536944],[6.243120556,48.981499167],[6.242933611,48.98135],[6.242975833,48.981328333],[6.242771667,48.981166111],[6.243331389,48.980865833],[6.243695278,48.981161944]]]}},{"type":"Feature","id":"LFJL-68f496c9b9967ce61152","properties":{"airport":"LFJL","name":"LFJL AVISO","layer":"Buildings and structures","category":"Buildings","object_type":"Area","style_id":"polygon.building.394446","source_group":"LFJL AVISO","vsmr_group_ids":[],"geometry_role":"filled_region"},"geometry":{"type":"Polygon","coordinates":[[[6.245543889,48.982666389],[6.245065,48.982923056],[6.244894167,48.982786667],[6.245364167,48.982534167],[6.245543889,48.982666389]]]}},{"type":"Feature","id":"LFJL-8e462b6409717d393d9c","properties":{"airport":"LFJL","name":"LFJL AVISO","layer":"Surface markings","category":"Stopbars","object_type":"Area","style_id":"polygon.stopbar.7e0000","source_group":"LFJL AVISO","vsmr_group_ids":[],"geometry_role":"filled_region"},"geometry":{"type":"Polygon","coordinates":[[[6.260800556,48.991548333],[6.260566944,48.991360833],[6.260593889,48.99135],[6.260823611,48.991535833],[6.260800556,48.991548333]]]}},{"type":"Feature","id":"LFJL-f0d50d762e32e51856b2","properties":{"airport":"LFJL","name":"LFJL AVISO","layer":"Surface markings","category":"Stopbars","object_type":"Area","style_id":"polygon.stopbar.7e0000","source_group":"LFJL AVISO","vsmr_group_ids":[],"geometry_role":"filled_region"},"geometry":{"type":"Polygon","coordinates":[[[6.255640833,48.987643056],[6.255635556,48.987653333],[6.25524,48.987333611],[6.255250833,48.987332778],[6.255275278,48.987330278],[6.2556475,48.987631111],[6.255640833,48.987643056]]]}},{"type":"Feature","id":"LFJL-ce7dc3453d72d6fa447b","properties":{"airport":"LFJL","name":"LFJL AVISO","layer":"Surface markings","category":"Stopbars","object_type":"Area","style_id":"polygon.stopbar.7e0000","source_group":"LFJL AVISO","vsmr_group_ids":[],"geometry_role":"filled_region"},"geometry":{"type":"Polygon","coordinates":[[[6.244698333,48.978951667],[6.244712222,48.978951667],[6.2447175,48.978951667],[6.2452025,48.979341944],[6.245197222,48.97936],[6.245195833,48.979368889],[6.244678333,48.978951389],[6.244698333,48.978951667]]]}},{"type":"Feature","id":"LFJL-6faa0ee58962133440f1","properties":{"airport":"LFJL","name":"P1","layer":"Labels","category":"Gates","object_type":"Label","style_id":"label.gates","source_group":"LFJL Gates","vsmr_group_ids":[],"geometry_role":"text_label","text-field":"P1"},"geometry":{"type":"Point","coordinates":[6.2434975,48.979945833]}},{"type":"Feature","id":"LFJL-e8fc48cf2788bf334871","properties":{"airport":"LFJL","name":"PE","layer":"Labels","category":"Gates","object_type":"Label","style_id":"label.gates","source_group":"LFJL Gates","vsmr_group_ids":[],"geometry_role":"text_label","text-field":"PE"},"geometry":{"type":"Point","coordinates":[6.243885,48.979936667]}},{"type":"Feature","id":"LFJL-4ed0b11daccafa79f25f","properties":{"airport":"LFJL","name":"P2","layer":"Labels","category":"Gates","object_type":"Label","style_id":"label.gates","source_group":"LFJL Gates","vsmr_group_ids":[],"geometry_role":"text_label","text-field":"P2"},"geometry":{"type":"Point","coordinates":[6.244305556,48.980423611]}},{"type":"Feature","id":"LFJL-c7e20f98a2a5aae21474","properties":{"airport":"LFJL","name":"P3","layer":"Labels","category":"Gates","object_type":"Label","style_id":"label.gates","source_group":"LFJL Gates","vsmr_group_ids":[],"geometry_role":"text_label","text-field":"P3"},"geometry":{"type":"Point","coordinates":[6.244806389,48.980808056]}},{"type":"Feature","id":"LFJL-189eae5012b969c95ed5","properties":{"airport":"LFJL","name":"P4","layer":"Labels","category":"Gates","object_type":"Label","style_id":"label.gates","source_group":"LFJL Gates","vsmr_group_ids":[],"geometry_role":"text_label","text-field":"P4"},"geometry":{"type":"Point","coordinates":[6.245321389,48.981171111]}},{"type":"Feature","id":"LFJL-be747e1636c2380461ba","properties":{"airport":"LFJL","name":"P5","layer":"Labels","category":"Gates","object_type":"Label","style_id":"label.gates","source_group":"LFJL Gates","vsmr_group_ids":[],"geometry_role":"text_label","text-field":"P5"},"geometry":{"type":"Point","coordinates":[6.245316667,48.981868889]}},{"type":"Feature","id":"LFJL-fdd025533bb3fc16452d","properties":{"airport":"LFJL","name":"P6N","layer":"Labels","category":"Gates","object_type":"Label","style_id":"label.gates","source_group":"LFJL Gates","vsmr_group_ids":[],"geometry_role":"text_label","text-field":"P6N"},"geometry":{"type":"Point","coordinates":[6.2459075,48.981859722]}},{"type":"Feature","id":"LFJL-8418ce31db43fe232c08","properties":{"airport":"LFJL","name":"P6S","layer":"Labels","category":"Gates","object_type":"Label","style_id":"label.gates","source_group":"LFJL Gates","vsmr_group_ids":[],"geometry_role":"text_label","text-field":"P6S"},"geometry":{"type":"Point","coordinates":[6.245623889,48.981626944]}},{"type":"Feature","id":"LFJL-17945007550a6cf33ea2","properties":{"airport":"LFJL","name":"P7N","layer":"Labels","category":"Gates","object_type":"Label","style_id":"label.gates","source_group":"LFJL Gates","vsmr_group_ids":[],"geometry_role":"text_label","text-field":"P7N"},"geometry":{"type":"Point","coordinates":[6.246143889,48.981729444]}},{"type":"Feature","id":"LFJL-575c2a2ac132bafbd04d","properties":{"airport":"LFJL","name":"P7S","layer":"Labels","category":"Gates","object_type":"Label","style_id":"label.gates","source_group":"LFJL Gates","vsmr_group_ids":[],"geometry_role":"text_label","text-field":"P7S"},"geometry":{"type":"Point","coordinates":[6.245874444,48.981490556]}},{"type":"Feature","id":"LFJL-49476b301303c9cd0990","properties":{"airport":"LFJL","name":"P8N","layer":"Labels","category":"Gates","object_type":"Label","style_id":"label.gates","source_group":"LFJL Gates","vsmr_group_ids":[],"geometry_role":"text_label","text-field":"P8N"},"geometry":{"type":"Point","coordinates":[6.246389444,48.981595833]}},{"type":"Feature","id":"LFJL-2f709e5544baed8772b8","properties":{"airport":"LFJL","name":"P8S","layer":"Labels","category":"Gates","object_type":"Label","style_id":"label.gates","source_group":"LFJL Gates","vsmr_group_ids":[],"geometry_role":"text_label","text-field":"P8S"},"geometry":{"type":"Point","coordinates":[6.246110556,48.981357222]}},{"type":"Feature","id":"LFJL-e078bfa766618603f205","properties":{"airport":"LFJL","name":"P9","layer":"Labels","category":"Gates","object_type":"Label","style_id":"label.gates","source_group":"LFJL Gates","vsmr_group_ids":[],"geometry_role":"text_label","text-field":"P9"},"geometry":{"type":"Point","coordinates":[6.245656944,48.981506111]}},{"type":"Feature","id":"LFJL-d3faa5924ceb38e1e835","properties":{"airport":"LFJL","name":"Terminal","layer":"Labels","category":"Gates","object_type":"Label","style_id":"label.gates","source_group":"LFJL Gates","vsmr_group_ids":[],"geometry_role":"text_label","text-field":"Terminal"},"geometry":{"type":"Point","coordinates":[6.243405278,48.981463611]}},{"type":"Feature","id":"LFJL-dd3bb52908052cfee970","properties":{"airport":"LFJL","name":"TWR","layer":"Labels","category":"Gates","object_type":"Label","style_id":"label.gates","source_group":"LFJL Gates","vsmr_group_ids":[],"geometry_role":"text_label","text-field":"TWR"},"geometry":{"type":"Point","coordinates":[6.242463889,48.980258056]}},{"type":"Feature","id":"LFJL-bbf05addc9f17e31a27b","properties":{"airport":"LFJL","name":"LFJL Groundlayout AVISO","layer":"Guidance lines","category":"Runway Border","object_type":"Line","style_id":"line.runwayborder.808080","source_group":"LFJL Groundlayout AVISO","vsmr_group_ids":[],"geometry_role":"linework"},"geometry":{"type":"MultiLineString","coordinates":[[[6.235843889,48.969653056],[6.236018333,48.9697925]],[[6.235998056,48.969801944],[6.236104444,48.969862778],[6.236036667,48.969781944]],[[6.236275556,48.970000556],[6.236450278,48.970141389]],[[6.236430278,48.970150556],[6.236534444,48.970210278],[6.236468889,48.970130833]],[[6.2367075,48.970348889],[6.236880833,48.97049]],[[6.236860833,48.970499444],[6.236966111,48.970559167],[6.236899167,48.970479167]],[[6.237137222,48.9706975],[6.237311944,48.9708375]],[[6.237291667,48.970847778],[6.237396944,48.970907222],[6.237330278,48.970827222]],[[6.237281111,48.971132778],[6.237758889,48.970876667]]]}},{"type":"Feature","id":"LFJL-4abd241c854633636d28","properties":{"airport":"LFJL","name":"LFJL Groundlayout AVISO","layer":"Guidance lines","category":"Taxiways","object_type":"Line","style_id":"line.taxiway.c0b631","source_group":"LFJL Groundlayout AVISO","vsmr_group_ids":[],"geometry_role":"linework"},"geometry":{"type":"MultiLineString","coordinates":[[[6.243686667,48.979740833],[6.243608611,48.980233056]],[[6.244068611,48.979665278],[6.244061944,48.979706944]],[[6.244058056,48.979741944],[6.244052222,48.979782222]],[[6.244046667,48.979818056],[6.244039167,48.979858056]],[[6.244033611,48.979893889],[6.244028611,48.979935]],[[6.244023889,48.979970278],[6.244018333,48.980011667]],[[6.244012222,48.980046389],[6.244006111,48.9800875]],[[6.244,48.980122778],[6.243993333,48.980165278]],[[6.243988056,48.980198333],[6.243981667,48.98024]],[[6.244216389,48.980080833],[6.244128333,48.980651111]],[[6.244735,48.980499444],[6.244645833,48.981070278]],[[6.245254167,48.980915833],[6.245163889,48.981488611]],[[6.245546389,48.981929167],[6.245265278,48.981702222]],[[6.245848333,48.981806111],[6.245676667,48.981666111]],[[6.245920278,48.981533889],[6.246090556,48.981674167]],[[6.246161667,48.981403056],[6.246334167,48.981543611]],[[6.246215,48.981446667],[6.246209444,48.981450556],[6.246204167,48.981455278],[6.246199722,48.981460278],[6.246196944,48.981466389],[6.246195833,48.981473611],[6.246196667,48.981480556],[6.246199722,48.981487778],[6.246204444,48.981493611],[6.246210833,48.981498333],[6.246218333,48.9815025],[6.246226389,48.981505556],[6.246234167,48.9815075],[6.246245278,48.981508889],[6.246255556,48.981508611],[6.246268056,48.981506389],[6.246276667,48.981503611],[6.246285278,48.981498611],[6.2462925,48.981493333],[6.246297222,48.981488056],[6.246300556,48.981481111],[6.246301667,48.981473611],[6.246300556,48.981466944],[6.246297778,48.981460833],[6.246292778,48.981455],[6.246286111,48.981449167],[6.246276667,48.981445],[6.246265278,48.981441389],[6.246254444,48.98144],[6.246241944,48.98144],[6.246230556,48.981441389],[6.246221389,48.981444167],[6.246215,48.981446667]],[[6.245774167,48.981429722],[6.245767778,48.981468056]],[[6.2457625,48.9815],[6.245755833,48.981540833]],[[6.245750833,48.981571111],[6.245745556,48.981611667]],[[6.245741389,48.981644444],[6.245735278,48.981685278]],[[6.245730278,48.981716667],[6.245724444,48.9817575]]]}},{"type":"Feature","id":"LFJL-0d9095cfd51cbaa387c5","properties":{"airport":"LFJL","name":"04","layer":"Labels","category":"Taxiways","object_type":"Label","style_id":"label.taxiways","source_group":"LFJL Taxiways","vsmr_group_ids":[],"geometry_role":"text_label","text-field":"04"},"geometry":{"type":"Point","coordinates":[6.237864167,48.9712925]}},{"type":"Feature","id":"LFJL-e84b8b9a486059354ca5","properties":{"airport":"LFJL","name":"22","layer":"Labels","category":"Taxiways","object_type":"Label","style_id":"label.taxiways","source_group":"LFJL Taxiways","vsmr_group_ids":[],"geometry_role":"text_label","text-field":"22"},"geometry":{"type":"Point","coordinates":[6.261720556,48.990623889]}},{"type":"Feature","id":"LFJL-48bc0f7bfc93f1c5c0be","properties":{"airport":"LFJL","name":"A","layer":"Labels","category":"Taxiways","object_type":"Label","style_id":"label.taxiways","source_group":"LFJL Taxiways","vsmr_group_ids":[],"geometry_role":"text_label","text-field":"A"},"geometry":{"type":"Point","coordinates":[6.260417778,48.991086111]}},{"type":"Feature","id":"LFJL-73e8424b06511a3c8724","properties":{"airport":"LFJL","name":"B","layer":"Labels","category":"Taxiways","object_type":"Label","style_id":"label.taxiways","source_group":"LFJL Taxiways","vsmr_group_ids":[],"geometry_role":"text_label","text-field":"B"},"geometry":{"type":"Point","coordinates":[6.2553475,48.986926389]}},{"type":"Feature","id":"LFJL-e8396af82a3f33e009be","properties":{"airport":"LFJL","name":"C","layer":"Labels","category":"Taxiways","object_type":"Label","style_id":"label.taxiways","source_group":"LFJL Taxiways","vsmr_group_ids":[],"geometry_role":"text_label","text-field":"C"},"geometry":{"type":"Point","coordinates":[6.245543056,48.979421111]}},{"type":"Feature","id":"LFJL-290b19daad74ac0ef939","properties":{"airport":"LFJL","name":"T1","layer":"Labels","category":"Taxiways","object_type":"Label","style_id":"label.taxiways","source_group":"LFJL Taxiways","vsmr_group_ids":[],"geometry_role":"text_label","text-field":"T1"},"geometry":{"type":"Point","coordinates":[6.257706667,48.989930556]}},{"type":"Feature","id":"LFJL-6ee15fd6c4efca02e955","properties":{"airport":"LFJL","name":"T2","layer":"Labels","category":"Taxiways","object_type":"Label","style_id":"label.taxiways","source_group":"LFJL Taxiways","vsmr_group_ids":[],"geometry_role":"text_label","text-field":"T2"},"geometry":{"type":"Point","coordinates":[6.250763611,48.984299722]}},{"type":"Feature","id":"LFJL-4c0bc873531ee187f236","properties":{"airport":"LFJL","name":"T3","layer":"Labels","category":"Taxiways","object_type":"Label","style_id":"label.taxiways","source_group":"LFJL Taxiways","vsmr_group_ids":[],"geometry_role":"text_label","text-field":"T3"},"geometry":{"type":"Point","coordinates":[6.245715833,48.980276944]}},{"type":"Feature","id":"LFJL-27635cbce94c0e7cbc4d","properties":{"airport":"LFJL","name":"X","layer":"Labels","category":"Taxiways","object_type":"Label","style_id":"label.taxiways","source_group":"LFJL Taxiways","vsmr_group_ids":[],"geometry_role":"text_label","text-field":"X"},"geometry":{"type":"Point","coordinates":[6.239915278,48.973897222]}},{"type":"Feature","id":"LFJL-0afe779c8b699fdcfad2","properties":{"airport":"LFJL","name":"X","layer":"Labels","category":"Taxiways","object_type":"Label","style_id":"label.taxiways","source_group":"LFJL Taxiways","vsmr_group_ids":[],"geometry_role":"text_label","text-field":"X"},"geometry":{"type":"Point","coordinates":[6.239036111,48.974605556]}},{"type":"Feature","id":"LFJL-7207f8687fb9b38f4dd1","properties":{"airport":"LFJL","name":"X","layer":"Labels","category":"Taxiways","object_type":"Label","style_id":"label.taxiways","source_group":"LFJL Taxiways","vsmr_group_ids":[],"geometry_role":"text_label","text-field":"X"},"geometry":{"type":"Point","coordinates":[6.239957778,48.975561111]}},{"type":"Feature","id":"LFJL-fc6f83d09f36332a75fe","properties":{"airport":"LFJL","name":"X","layer":"Labels","category":"Taxiways","object_type":"Label","style_id":"label.taxiways","source_group":"LFJL Taxiways","vsmr_group_ids":[],"geometry_role":"text_label","text-field":"X"},"geometry":{"type":"Point","coordinates":[6.240971667,48.976936667]}},{"type":"Feature","id":"LFJL-5875971e1b908f854603","properties":{"airport":"LFJL","name":"X","layer":"Labels","category":"Taxiways","object_type":"Label","style_id":"label.taxiways","source_group":"LFJL Taxiways","vsmr_group_ids":[],"geometry_role":"text_label","text-field":"X"},"geometry":{"type":"Point","coordinates":[6.240025278,48.977424722]}},{"type":"Feature","id":"LFJL-e594a7657d9f6e461d07","properties":{"airport":"LFJL","name":"X","layer":"Labels","category":"Taxiways","object_type":"Label","style_id":"label.taxiways","source_group":"LFJL Taxiways","vsmr_group_ids":[],"geometry_role":"text_label","text-field":"X"},"geometry":{"type":"Point","coordinates":[6.241151944,48.978356667]}},{"type":"Feature","id":"LFJL-95a764fb3c73d1b28d27","properties":{"airport":"LFJL","name":"X","layer":"Labels","category":"Taxiways","object_type":"Label","style_id":"label.taxiways","source_group":"LFJL Taxiways","vsmr_group_ids":[],"geometry_role":"text_label","text-field":"X"},"geometry":{"type":"Point","coordinates":[6.241985556,48.977883333]}},{"type":"Feature","id":"LFJL-82d0cdc1ed8ea1ae6fa2","properties":{"airport":"LFJL","name":"X","layer":"Labels","category":"Taxiways","object_type":"Label","style_id":"label.taxiways","source_group":"LFJL Taxiways","vsmr_group_ids":[],"geometry_role":"text_label","text-field":"X"},"geometry":{"type":"Point","coordinates":[6.241782778,48.977173333]}},{"type":"Feature","id":"LFJL-d1c099d6c596d2177281","properties":{"airport":"LFJL","name":"X","layer":"Labels","category":"Taxiways","object_type":"Label","style_id":"label.taxiways","source_group":"LFJL Taxiways","vsmr_group_ids":[],"geometry_role":"text_label","text-field":"X"},"geometry":{"type":"Point","coordinates":[6.243639167,48.978544722]}}]}
