{"type":"FeatureCollection","name":"LFJR AVISO","bbox":[-0.324721667,47.557433333,-0.299668333,47.56377],"metadata":{"schema":"vSMR AVISO","schema_version":2,"geometry_mode":"shared","airport":"LFJR","coordinate_reference_system":"WGS84","coordinate_order":"longitude, latitude","default_color_palette":"dark","color_palettes":["dark","light"],"background_colors":{"dark":"#434A4F","light":"#434A4F"},"runways":[{"ends":["08R","26L"],"headings":[81,261],"thresholds":[[-0.314257778,47.558075],[-0.299816944,47.5596]]},{"ends":["08L","26R"],"headings":[81,261],"thresholds":[[-0.322438889,47.559588889],[-0.312988889,47.560585833]]},{"ends":["08","26"],"headings":[81,261],"thresholds":[[-0.324674722,47.558885833],[-0.303002778,47.561174722]]}],"saved_active_runways":[],"saved_active_airport_modes":[],"airport_reference":[-0.312221944,47.560277778],"feature_count":38,"style_count":10,"layer_counts":{"Guidance lines":8,"Labels":30},"category_counts":{"Apron Surface":1,"Centerlines":1,"Gates":26,"Grass runways":1,"Labels":1,"Runways":1,"Stopbars":1,"TWR-CTR":1,"Taxiways":5},"geometry_source":"local GNG","geometry_source_url":"","geometry_license":"GPL-3.0"},"styles":{"line.runwayconcrete.555555":{"name":"Runways","layer":"Guidance lines","object_type":"Line","paint":{"stroke":"#111318","stroke-opacity":1,"stroke-width":1,"palette-overrides":{"light":{"stroke":"#555555"}}},"feature_count":1},"line.runwaygrass.008000":{"name":"Grass runways","layer":"Guidance lines","object_type":"Line","paint":{"stroke":"#859A77","stroke-opacity":1,"stroke-width":1,"palette-overrides":{"light":{"stroke":"#008000"}}},"feature_count":1},"line.taxiway.c0b631":{"name":"Taxiways","layer":"Guidance lines","object_type":"Line","paint":{"stroke":"#4E5A69","stroke-opacity":1,"stroke-width":1,"palette-overrides":{"light":{"stroke":"#C0B631"}}},"feature_count":1},"line.apronsurface.808080":{"name":"Apron Surface","layer":"Guidance lines","object_type":"Line","paint":{"stroke":"#808080","stroke-opacity":1,"stroke-width":1,"palette-overrides":{"light":{"stroke":"#808080"}}},"feature_count":1},"line.stopbar.7e0000":{"name":"Stopbars","layer":"Guidance lines","object_type":"Line","paint":{"stroke":"#7E0000","stroke-opacity":1,"stroke-width":1,"palette-overrides":{"light":{"stroke":"#7E0000"}}},"feature_count":1},"line.twr-ctr.000000":{"name":"TWR-CTR","layer":"Guidance lines","object_type":"Line","paint":{"stroke":"#000000","stroke-opacity":1,"stroke-width":1,"palette-overrides":{"light":{"stroke":"#000000"}}},"feature_count":1},"line.centerlines.ffff00":{"name":"Centerlines","layer":"Guidance lines","object_type":"Line","paint":{"stroke":"#FFFF00","stroke-opacity":1,"stroke-width":1,"palette-overrides":{"light":{"stroke":"#FFFF00"}}},"feature_count":1},"line.labels.808080":{"name":"Labels","layer":"Guidance lines","object_type":"Line","paint":{"stroke":"#808080","stroke-opacity":1,"stroke-width":1,"palette-overrides":{"light":{"stroke":"#808080"}}},"feature_count":1},"label.gates":{"name":"Gates","layer":"Labels","object_type":"Label","paint":{"text-color":"#CCCCCC","text-font":"Arial","text-size":12,"text-halo-color":"#000000","text-halo-width":1,"text-anchor":"center","zoomLevel":9},"feature_count":26},"label.taxiways":{"name":"Taxiways","layer":"Labels","object_type":"Label","paint":{"text-color":"#CCCCCC","text-font":"Arial","text-size":12,"text-halo-color":"#000000","text-halo-width":1,"text-anchor":"center","zoomLevel":7},"feature_count":4}},"vsmr_groups":[],"features":[{"type":"Feature","id":"LFJR-4b13a3f96a12bcf99a48","properties":{"airport":"LFJR","name":"TWR","layer":"Labels","category":"Gates","object_type":"Label","style_id":"label.gates","source_group":"LFJR Gates","vsmr_group_ids":[],"geometry_role":"text_label","text-field":"TWR"},"geometry":{"type":"Point","coordinates":[-0.312649444,47.562909444]}},{"type":"Feature","id":"LFJR-8f2cd10bcce2f70614eb","properties":{"airport":"LFJR","name":"A","layer":"Labels","category":"Gates","object_type":"Label","style_id":"label.gates","source_group":"LFJR Gates","vsmr_group_ids":[],"geometry_role":"text_label","text-field":"A"},"geometry":{"type":"Point","coordinates":[-0.313219167,47.5621825]}},{"type":"Feature","id":"LFJR-baf947ca6c8d4ab86ab2","properties":{"airport":"LFJR","name":"A1","layer":"Labels","category":"Gates","object_type":"Label","style_id":"label.gates","source_group":"LFJR Gates","vsmr_group_ids":[],"geometry_role":"text_label","text-field":"A1"},"geometry":{"type":"Point","coordinates":[-0.313194722,47.562286111]}},{"type":"Feature","id":"LFJR-a2a73638ab9e33fcf9c1","properties":{"airport":"LFJR","name":"A2","layer":"Labels","category":"Gates","object_type":"Label","style_id":"label.gates","source_group":"LFJR Gates","vsmr_group_ids":[],"geometry_role":"text_label","text-field":"A2"},"geometry":{"type":"Point","coordinates":[-0.313225278,47.562396667]}},{"type":"Feature","id":"LFJR-72393fe50ff4f5b8d1b1","properties":{"airport":"LFJR","name":"A3","layer":"Labels","category":"Gates","object_type":"Label","style_id":"label.gates","source_group":"LFJR Gates","vsmr_group_ids":[],"geometry_role":"text_label","text-field":"A3"},"geometry":{"type":"Point","coordinates":[-0.313267778,47.562501667]}},{"type":"Feature","id":"LFJR-214ebaece0b91b91b7fb","properties":{"airport":"LFJR","name":"B","layer":"Labels","category":"Gates","object_type":"Label","style_id":"label.gates","source_group":"LFJR Gates","vsmr_group_ids":[],"geometry_role":"text_label","text-field":"B"},"geometry":{"type":"Point","coordinates":[-0.313509722,47.562157222]}},{"type":"Feature","id":"LFJR-a77fe2d474999320e2d7","properties":{"airport":"LFJR","name":"B1","layer":"Labels","category":"Gates","object_type":"Label","style_id":"label.gates","source_group":"LFJR Gates","vsmr_group_ids":[],"geometry_role":"text_label","text-field":"B1"},"geometry":{"type":"Point","coordinates":[-0.313453056,47.562259722]}},{"type":"Feature","id":"LFJR-81701ae5f944253d6bba","properties":{"airport":"LFJR","name":"B2","layer":"Labels","category":"Gates","object_type":"Label","style_id":"label.gates","source_group":"LFJR Gates","vsmr_group_ids":[],"geometry_role":"text_label","text-field":"B2"},"geometry":{"type":"Point","coordinates":[-0.3134975,47.562364722]}},{"type":"Feature","id":"LFJR-1e4e0ea17dc69f91a166","properties":{"airport":"LFJR","name":"B3","layer":"Labels","category":"Gates","object_type":"Label","style_id":"label.gates","source_group":"LFJR Gates","vsmr_group_ids":[],"geometry_role":"text_label","text-field":"B3"},"geometry":{"type":"Point","coordinates":[-0.31354,47.562472222]}},{"type":"Feature","id":"LFJR-7426c9c8c74c273d9af1","properties":{"airport":"LFJR","name":"C","layer":"Labels","category":"Gates","object_type":"Label","style_id":"label.gates","source_group":"LFJR Gates","vsmr_group_ids":[],"geometry_role":"text_label","text-field":"C"},"geometry":{"type":"Point","coordinates":[-0.313773333,47.5621425]}},{"type":"Feature","id":"LFJR-a9542c6010054479b28e","properties":{"airport":"LFJR","name":"C1","layer":"Labels","category":"Gates","object_type":"Label","style_id":"label.gates","source_group":"LFJR Gates","vsmr_group_ids":[],"geometry_role":"text_label","text-field":"C1"},"geometry":{"type":"Point","coordinates":[-0.313738889,47.562227778]}},{"type":"Feature","id":"LFJR-78c5062b269732d41a03","properties":{"airport":"LFJR","name":"C2","layer":"Labels","category":"Gates","object_type":"Label","style_id":"label.gates","source_group":"LFJR Gates","vsmr_group_ids":[],"geometry_role":"text_label","text-field":"C2"},"geometry":{"type":"Point","coordinates":[-0.313761111,47.562332778]}},{"type":"Feature","id":"LFJR-604f0bdc8e02f94d2675","properties":{"airport":"LFJR","name":"C3","layer":"Labels","category":"Gates","object_type":"Label","style_id":"label.gates","source_group":"LFJR Gates","vsmr_group_ids":[],"geometry_role":"text_label","text-field":"C3"},"geometry":{"type":"Point","coordinates":[-0.313795556,47.562441667]}},{"type":"Feature","id":"LFJR-6153e497704e77911c14","properties":{"airport":"LFJR","name":"D","layer":"Labels","category":"Gates","object_type":"Label","style_id":"label.gates","source_group":"LFJR Gates","vsmr_group_ids":[],"geometry_role":"text_label","text-field":"D"},"geometry":{"type":"Point","coordinates":[-0.314028889,47.562120556]}},{"type":"Feature","id":"LFJR-fe2aceb4ccd569edb5ed","properties":{"airport":"LFJR","name":"D1","layer":"Labels","category":"Gates","object_type":"Label","style_id":"label.gates","source_group":"LFJR Gates","vsmr_group_ids":[],"geometry_role":"text_label","text-field":"D1"},"geometry":{"type":"Point","coordinates":[-0.313998611,47.562197778]}},{"type":"Feature","id":"LFJR-447ab746ed51a20397f8","properties":{"airport":"LFJR","name":"D2","layer":"Labels","category":"Gates","object_type":"Label","style_id":"label.gates","source_group":"LFJR Gates","vsmr_group_ids":[],"geometry_role":"text_label","text-field":"D2"},"geometry":{"type":"Point","coordinates":[-0.314025,47.562303889]}},{"type":"Feature","id":"LFJR-bf0b9d30a1531e8f546f","properties":{"airport":"LFJR","name":"D3","layer":"Labels","category":"Gates","object_type":"Label","style_id":"label.gates","source_group":"LFJR Gates","vsmr_group_ids":[],"geometry_role":"text_label","text-field":"D3"},"geometry":{"type":"Point","coordinates":[-0.314049167,47.562414444]}},{"type":"Feature","id":"LFJR-57dc0f5465140f539a88","properties":{"airport":"LFJR","name":"E","layer":"Labels","category":"Gates","object_type":"Label","style_id":"label.gates","source_group":"LFJR Gates","vsmr_group_ids":[],"geometry_role":"text_label","text-field":"E"},"geometry":{"type":"Point","coordinates":[-0.3142925,47.562103333]}},{"type":"Feature","id":"LFJR-312987fe0388f3796104","properties":{"airport":"LFJR","name":"J","layer":"Labels","category":"Gates","object_type":"Label","style_id":"label.gates","source_group":"LFJR Gates","vsmr_group_ids":[],"geometry_role":"text_label","text-field":"J"},"geometry":{"type":"Point","coordinates":[-0.311543333,47.562506111]}},{"type":"Feature","id":"LFJR-0952d660645f30268336","properties":{"airport":"LFJR","name":"K","layer":"Labels","category":"Gates","object_type":"Label","style_id":"label.gates","source_group":"LFJR Gates","vsmr_group_ids":[],"geometry_role":"text_label","text-field":"K"},"geometry":{"type":"Point","coordinates":[-0.311369167,47.562454167]}},{"type":"Feature","id":"LFJR-b4f2ab72cb6d5680479d","properties":{"airport":"LFJR","name":"L","layer":"Labels","category":"Gates","object_type":"Label","style_id":"label.gates","source_group":"LFJR Gates","vsmr_group_ids":[],"geometry_role":"text_label","text-field":"L"},"geometry":{"type":"Point","coordinates":[-0.311006111,47.562495]}},{"type":"Feature","id":"LFJR-064e8dc50692ce45d1e4","properties":{"airport":"LFJR","name":"M","layer":"Labels","category":"Gates","object_type":"Label","style_id":"label.gates","source_group":"LFJR Gates","vsmr_group_ids":[],"geometry_role":"text_label","text-field":"M"},"geometry":{"type":"Point","coordinates":[-0.310636944,47.562531111]}},{"type":"Feature","id":"LFJR-5779b34733113ed4b76f","properties":{"airport":"LFJR","name":"N","layer":"Labels","category":"Gates","object_type":"Label","style_id":"label.gates","source_group":"LFJR Gates","vsmr_group_ids":[],"geometry_role":"text_label","text-field":"N"},"geometry":{"type":"Point","coordinates":[-0.310274167,47.5625775]}},{"type":"Feature","id":"LFJR-bf9ce939ae013798201b","properties":{"airport":"LFJR","name":"P","layer":"Labels","category":"Gates","object_type":"Label","style_id":"label.gates","source_group":"LFJR Gates","vsmr_group_ids":[],"geometry_role":"text_label","text-field":"P"},"geometry":{"type":"Point","coordinates":[-0.309901111,47.562616111]}},{"type":"Feature","id":"LFJR-ccf9632d8ce739567c2e","properties":{"airport":"LFJR","name":"Terminal","layer":"Labels","category":"Gates","object_type":"Label","style_id":"label.gates","source_group":"LFJR Gates","vsmr_group_ids":[],"geometry_role":"text_label","text-field":"Terminal"},"geometry":{"type":"Point","coordinates":[-0.313880833,47.562849167]}},{"type":"Feature","id":"LFJR-3e474b94f850a3079f2a","properties":{"airport":"LFJR","name":"ACB","layer":"Labels","category":"Gates","object_type":"Label","style_id":"label.gates","source_group":"LFJR Gates","vsmr_group_ids":[],"geometry_role":"text_label","text-field":"ACB"},"geometry":{"type":"Point","coordinates":[-0.310718056,47.563219444]}},{"type":"Feature","id":"LFJR-577dcd76ab157b4a5ae4","properties":{"airport":"LFJR","name":"LFJR Groundlayout","layer":"Guidance lines","category":"Runways","object_type":"Line","style_id":"line.runwayconcrete.555555","source_group":"LFJR Groundlayout","vsmr_group_ids":[],"geometry_role":"linework"},"geometry":{"type":"MultiLineString","coordinates":[[[-0.312524722,47.560375833],[-0.324721667,47.559088056],[-0.324630556,47.558699167],[-0.312198889,47.560008056]],[[-0.311941389,47.560037222],[-0.300950833,47.561191944],[-0.301038889,47.561585833],[-0.3079725,47.5608525]]]}},{"type":"Feature","id":"LFJR-a7f3b8cbe20bae72691f","properties":{"airport":"LFJR","name":"LFJR Groundlayout","layer":"Guidance lines","category":"Grass runways","object_type":"Line","style_id":"line.runwaygrass.008000","source_group":"LFJR Groundlayout","vsmr_group_ids":[],"geometry_role":"linework"},"geometry":{"type":"MultiLineString","coordinates":[[[-0.315463611,47.560546389],[-0.322470556,47.559813611],[-0.322374444,47.559376111],[-0.312924444,47.560372222],[-0.313022778,47.560807222],[-0.315119722,47.560581944]],[[-0.311926944,47.558790556],[-0.314332778,47.558519444],[-0.314141667,47.557640556],[-0.302933889,47.558813889]],[[-0.3116625,47.558820278],[-0.299904722,47.560041667],[-0.299713611,47.559160278],[-0.301010833,47.559026944]]]}},{"type":"Feature","id":"LFJR-e21d31587a5c72944440","properties":{"airport":"LFJR","name":"LFJR Groundlayout","layer":"Guidance lines","category":"Taxiways","object_type":"Line","style_id":"line.taxiway.c0b631","source_group":"LFJR Groundlayout","vsmr_group_ids":[],"geometry_role":"linework"},"geometry":{"type":"MultiLineString","coordinates":[[[-0.313613333,47.557433333],[-0.302883056,47.558580278],[-0.3028075,47.558555],[-0.302753056,47.558469167],[-0.302730278,47.558364722],[-0.302666667,47.558045556],[-0.302616667,47.558021111],[-0.3025075,47.558018056],[-0.302239444,47.558021111],[-0.302166667,47.557984167],[-0.302139444,47.557932222],[-0.302121111,47.557864722]],[[-0.315845278,47.562691111],[-0.315726944,47.562191667],[-0.315699167,47.562065],[-0.315700833,47.562032222],[-0.315723333,47.562003056],[-0.315721667,47.561856389],[-0.315708333,47.561654167],[-0.315595278,47.561098056],[-0.3154675,47.5605475]],[[-0.315706944,47.562704167],[-0.315581389,47.562152778],[-0.315564167,47.562119444],[-0.315543333,47.562096389],[-0.315516667,47.562071944],[-0.315488056,47.562055278],[-0.315451944,47.562043611],[-0.315413611,47.562035833],[-0.315366111,47.562037222],[-0.314699444,47.562105278],[-0.314684167,47.562118333]],[[-0.314666389,47.562024167],[-0.315371111,47.561950278],[-0.315381944,47.561933611],[-0.315365,47.561679444],[-0.315249444,47.561120556],[-0.315123333,47.560581667]],[[-0.312900278,47.562096667],[-0.312857778,47.562089444],[-0.312826111,47.562080556],[-0.3127975,47.562069444],[-0.312765833,47.562056667],[-0.312735,47.562041667],[-0.3127125,47.562031389],[-0.312687778,47.562012222],[-0.31267,47.561996111],[-0.312654722,47.561981944],[-0.312639444,47.561965],[-0.312626389,47.561945278],[-0.312612222,47.561916667],[-0.312602778,47.561886944],[-0.312298333,47.560601111],[-0.312293611,47.560581111],[-0.312301667,47.560564444],[-0.312311667,47.560542222],[-0.312321667,47.5605175],[-0.312336389,47.560493056],[-0.312357778,47.5604675],[-0.3123775,47.560448611],[-0.312397222,47.560433056],[-0.312420556,47.560419722],[-0.312448333,47.560405278],[-0.312481389,47.560391944],[-0.312502778,47.560383056],[-0.312529167,47.560374167]],[[-0.312375278,47.562221111],[-0.312399167,47.5622],[-0.312427222,47.56218],[-0.312440556,47.562160833],[-0.312451111,47.562137778],[-0.312451111,47.562112778],[-0.312446667,47.562082778],[-0.312439167,47.562046667],[-0.312241389,47.561187778],[-0.312127778,47.560705833],[-0.312117778,47.560671944],[-0.312104444,47.560634444],[-0.312085,47.560598056],[-0.312063889,47.560566944],[-0.312037222,47.5605425],[-0.312006389,47.560521667],[-0.311966111,47.560499722],[-0.311931389,47.560485278],[-0.311889167,47.560473611],[-0.311845,47.560461944],[-0.311802778,47.560451667],[-0.311721944,47.560459444]],[[-0.309489167,47.562547222],[-0.309463333,47.562549444],[-0.309328056,47.562541944],[-0.309245,47.562529722],[-0.309188056,47.562517778],[-0.309140833,47.562503333],[-0.309088889,47.562484722],[-0.309026944,47.562463889],[-0.308974722,47.562444167],[-0.308921111,47.562412222],[-0.308872222,47.562380278],[-0.30883,47.5623475],[-0.308769722,47.562270556],[-0.308655833,47.562125556],[-0.308580833,47.56201],[-0.308506111,47.561823333],[-0.3084475,47.561564167],[-0.308383889,47.561289444],[-0.308325278,47.561018056],[-0.308418056,47.560836667],[-0.308431111,47.560811389]],[[-0.309528611,47.562721667],[-0.309502222,47.562720278],[-0.309388611,47.562698333],[-0.309262778,47.562673611],[-0.309047778,47.562624444],[-0.30892,47.562576389],[-0.308808611,47.562513611],[-0.308711111,47.562441111],[-0.308621944,47.562363056],[-0.308481944,47.562194722],[-0.308394722,47.562060556],[-0.3083075,47.561845556],[-0.308246667,47.561577222],[-0.308188056,47.561307778],[-0.308125,47.5610325],[-0.307991389,47.560881944],[-0.307971111,47.560850556]],[[-0.309559722,47.562899722],[-0.308471944,47.563015833],[-0.308223889,47.563042222],[-0.308113889,47.563054722],[-0.308081944,47.5630625],[-0.308061111,47.563070556],[-0.308036944,47.563078889],[-0.308018333,47.5630875],[-0.308000556,47.563097222],[-0.307986944,47.563107222],[-0.307972778,47.563118333],[-0.30796,47.56313],[-0.307948611,47.563144444],[-0.307935833,47.563158333],[-0.30793,47.563169444],[-0.307924167,47.563184167],[-0.307921389,47.563198333],[-0.307922222,47.563209722],[-0.307923611,47.563223333],[-0.307925,47.563236111],[-0.307952778,47.563361944],[-0.307967778,47.563410833]],[[-0.309584722,47.563006667],[-0.309368056,47.563028611],[-0.309348333,47.563048611],[-0.309326944,47.563062222],[-0.309305833,47.563080278],[-0.309287222,47.563100278],[-0.309254722,47.563132778],[-0.309250556,47.563140556],[-0.309250556,47.563151944],[-0.309253889,47.5631725],[-0.3092675,47.563274444]],[[-0.309144444,47.563291389],[-0.309135556,47.563235556],[-0.309132778,47.563204722],[-0.309128333,47.563181667],[-0.3091275,47.5631625],[-0.309123056,47.563151667],[-0.309107778,47.563146111],[-0.308956111,47.563071389],[-0.308811389,47.5630925],[-0.308791667,47.563099722],[-0.308771944,47.563109444],[-0.308755,47.563123333],[-0.30874,47.563136667],[-0.308731944,47.563149722],[-0.30873,47.563164167],[-0.308732778,47.56318],[-0.308743333,47.563204167]],[[-0.308551389,47.56317],[-0.308570556,47.56316],[-0.308589444,47.563151111],[-0.308589444,47.563141389],[-0.308577778,47.5631325],[-0.308554444,47.563118611],[-0.308503333,47.563121667],[-0.308368611,47.563135556],[-0.308155278,47.563158056],[-0.308125833,47.563165],[-0.308105556,47.563175833],[-0.308092222,47.563191667],[-0.308080556,47.563206389],[-0.308076111,47.563222222],[-0.308123056,47.563396944]],[[-0.312199444,47.560009167],[-0.312156667,47.559862222],[-0.312048333,47.559391944],[-0.311944722,47.558914722],[-0.311930833,47.558788889]],[[-0.311940833,47.560036667],[-0.311928056,47.560008056],[-0.311916389,47.559874722],[-0.311813889,47.559421944],[-0.3117025,47.558933889],[-0.311655833,47.558821389]],[[-0.299668333,47.558931111],[-0.300993889,47.558783889],[-0.301079167,47.558744444],[-0.301128333,47.558696111],[-0.301150833,47.558647778],[-0.301168889,47.558563056],[-0.301168889,47.558478333],[-0.3010075,47.557988611]]]}},{"type":"Feature","id":"LFJR-ad965b3e235bf933544e","properties":{"airport":"LFJR","name":"LFJR Groundlayout","layer":"Guidance lines","category":"Apron Surface","object_type":"Line","style_id":"line.apronsurface.808080","source_group":"LFJR Groundlayout","vsmr_group_ids":[],"geometry_role":"linework"},"geometry":{"type":"MultiLineString","coordinates":[[[-0.302126111,47.557864722],[-0.302853611,47.557789444],[-0.302826111,47.557655556],[-0.302745,47.557663056],[-0.302742222,47.557674167],[-0.302733333,47.557681389],[-0.302723611,47.557689444],[-0.302713056,47.557695833],[-0.302700278,47.5577025],[-0.302598333,47.557713056],[-0.302600278,47.557730556],[-0.302200278,47.557775833],[-0.302196389,47.557760833],[-0.301928056,47.557788056],[-0.301931389,47.557802222],[-0.301021667,47.5578975],[-0.301015556,47.557885833],[-0.300986389,47.557887778],[-0.300989167,47.557900833],[-0.300966944,47.557903611],[-0.300985,47.557986944],[-0.301003056,47.557985278]],[[-0.315844167,47.562690278],[-0.31679,47.562598889],[-0.316808056,47.562677778],[-0.316542222,47.5627075],[-0.316521389,47.562697778],[-0.316496111,47.562686667],[-0.316468611,47.562681389],[-0.316441944,47.562681389],[-0.316197222,47.562703056],[-0.316225833,47.562837222],[-0.316121389,47.5628475],[-0.316115278,47.562824722],[-0.315860833,47.562851389],[-0.315853889,47.562825278],[-0.315631944,47.562848056],[-0.315638056,47.562875],[-0.315471944,47.562892222],[-0.315444444,47.562781667],[-0.315245833,47.562803611],[-0.315264444,47.562886944],[-0.315223611,47.562891667],[-0.315211944,47.562847222],[-0.314775556,47.562881389],[-0.314745,47.562763889],[-0.314621389,47.5627775],[-0.314616389,47.562767222],[-0.314574167,47.562770556],[-0.314565556,47.562731944],[-0.314296667,47.562761389],[-0.314165556,47.562776667],[-0.314174722,47.562813889],[-0.314155556,47.562816389],[-0.314157778,47.562828611],[-0.313977778,47.562846111],[-0.313998056,47.562926944],[-0.3132625,47.563010556],[-0.313241111,47.562926667],[-0.312919444,47.562957222],[-0.312911667,47.562924444],[-0.312743889,47.562941389],[-0.312726667,47.562856667],[-0.312581389,47.562872222],[-0.312599722,47.562955278],[-0.31254,47.562961944],[-0.312543611,47.562976111],[-0.312299722,47.563001389],[-0.312281389,47.562990833],[-0.312261944,47.562981667],[-0.312244722,47.562971111],[-0.312221667,47.562961944],[-0.312198333,47.562956111],[-0.312173889,47.562951389],[-0.312144722,47.562947222],[-0.312122778,47.562948056],[-0.312097222,47.562948889],[-0.312073889,47.562952222],[-0.312049722,47.562957778],[-0.312026389,47.562966111],[-0.312001944,47.562975278],[-0.311981389,47.562986667],[-0.311965278,47.562999167],[-0.311947222,47.563008889],[-0.311936111,47.563023056],[-0.311921389,47.563041944],[-0.311667778,47.563073056],[-0.311660278,47.563051667],[-0.310435278,47.563185556],[-0.310420833,47.563135278],[-0.309371389,47.563248889],[-0.309458611,47.563595556],[-0.309496944,47.5635925],[-0.309506389,47.563626667],[-0.309088056,47.563670833],[-0.309015,47.563300833],[-0.309143889,47.563289722]],[[-0.309374444,47.563265833],[-0.3092675,47.563274167]],[[-0.309646111,47.563218611],[-0.309594167,47.56315],[-0.309616111,47.563146944],[-0.309584722,47.563006389]],[[-0.308743333,47.563203056],[-0.308778889,47.563323056],[-0.308461111,47.563353889],[-0.308419444,47.563181944],[-0.308550556,47.563169167]],[[-0.307965556,47.563411667],[-0.308045833,47.56377],[-0.308345833,47.5637375],[-0.308262778,47.563381944],[-0.3081225,47.563396667]],[[-0.309561389,47.562897778],[-0.309528333,47.562721111]],[[-0.309488611,47.562547778],[-0.309487778,47.562542222],[-0.312287222,47.562245278],[-0.312310278,47.562241389],[-0.312330833,47.562234722],[-0.31235,47.562229167],[-0.312375278,47.562219444]],[[-0.312899444,47.5620975],[-0.312932222,47.562102222],[-0.312956389,47.562105],[-0.312985,47.562106111],[-0.313004167,47.562105556],[-0.313026944,47.562104722],[-0.313046111,47.562103611],[-0.313071667,47.562100833],[-0.313088056,47.562098889],[-0.313112778,47.562096111],[-0.313136111,47.562093056],[-0.314645556,47.561931944],[-0.314664722,47.562024167]],[[-0.314684167,47.562118889],[-0.314821667,47.562659167],[-0.314999444,47.562640278],[-0.315028889,47.562773611],[-0.315707222,47.562706389]],[[-0.312112222,47.562440278],[-0.312150833,47.562578889],[-0.312149444,47.562586944],[-0.312143611,47.562597222],[-0.3121375,47.562608889],[-0.312128889,47.562621667],[-0.312115278,47.562633611],[-0.312100833,47.562643611],[-0.312088056,47.562651667],[-0.312070833,47.562656111],[-0.312055556,47.562660833],[-0.312034167,47.562664167],[-0.312014444,47.562667222],[-0.311992222,47.562668889],[-0.311975,47.562668333],[-0.311958056,47.562666111],[-0.311941667,47.562661944],[-0.311926389,47.562658611],[-0.311912778,47.562652778],[-0.311898056,47.562646944],[-0.311886111,47.562638333],[-0.311880278,47.562626111],[-0.3118725,47.562613333],[-0.311810833,47.562618056],[-0.3118075,47.562631944],[-0.311801389,47.562642222],[-0.311795556,47.562651667],[-0.311786111,47.5626625],[-0.311775,47.56267],[-0.311766389,47.562675833],[-0.311756944,47.562681111],[-0.311745833,47.562687222],[-0.311735278,47.562691667],[-0.311726111,47.562695278],[-0.311714444,47.562696667],[-0.311702222,47.562696111],[-0.311694167,47.562694167],[-0.311686944,47.562689444],[-0.311680833,47.562680833],[-0.311625,47.562451389],[-0.311625833,47.562442778],[-0.311629722,47.562436389],[-0.311634444,47.562430556],[-0.311640833,47.562425833],[-0.311647222,47.562421111],[-0.311656389,47.562417778],[-0.311665278,47.562415556],[-0.311675833,47.562414167],[-0.311687778,47.562414722],[-0.311697222,47.562417778],[-0.311706389,47.562420833],[-0.311718056,47.562424722],[-0.311726389,47.562429167],[-0.311734444,47.562434167],[-0.311745556,47.56244],[-0.311753611,47.562446111],[-0.311833889,47.562438889],[-0.311838056,47.562432222],[-0.311843611,47.562426389],[-0.31185,47.562420278],[-0.311856389,47.562414444],[-0.3118625,47.562408056],[-0.311870556,47.562403056],[-0.311878611,47.562398333],[-0.311888611,47.5623925],[-0.311900278,47.5623875],[-0.3119125,47.562383889],[-0.311923889,47.562381389],[-0.311937222,47.56238],[-0.311948889,47.562378056],[-0.31196,47.562376667],[-0.311972778,47.562376111],[-0.311986111,47.562375556],[-0.311996111,47.562375556],[-0.312005833,47.562377222],[-0.3120175,47.562378611],[-0.312030278,47.562380556],[-0.312036944,47.562383056],[-0.312045556,47.562385833],[-0.312053056,47.562389167],[-0.312061667,47.562393333],[-0.312068889,47.562397222],[-0.312075278,47.562401111],[-0.312082778,47.562405556],[-0.312089722,47.562411944],[-0.312094444,47.562415833],[-0.312099722,47.562420278],[-0.312104722,47.562426667],[-0.312112222,47.562440278]]]}},{"type":"Feature","id":"LFJR-1e93835ee9677165c97b","properties":{"airport":"LFJR","name":"LFJR Groundlayout","layer":"Guidance lines","category":"Stopbars","object_type":"Line","style_id":"line.stopbar.7e0000","source_group":"LFJR Groundlayout","vsmr_group_ids":[],"geometry_role":"linework"},"geometry":{"type":"MultiLineString","coordinates":[[[-0.312345278,47.561644444],[-0.31254,47.561625278]],[[-0.315619722,47.561212778],[-0.315275556,47.561249167]],[[-0.30836,47.561978056],[-0.308559167,47.561953333]],[[-0.311794167,47.559338611],[-0.312033333,47.559313889]]]}},{"type":"Feature","id":"LFJR-4ed81cd0814095dcbd59","properties":{"airport":"LFJR","name":"LFJR Groundlayout","layer":"Guidance lines","category":"TWR-CTR","object_type":"Line","style_id":"line.twr-ctr.000000","source_group":"LFJR Groundlayout","vsmr_group_ids":[],"geometry_role":"linework"},"geometry":{"type":"LineString","coordinates":[[-0.312725833,47.562935833],[-0.3127125,47.562865556],[-0.312596389,47.562876944],[-0.312608333,47.562947222],[-0.312725833,47.562935833]]}},{"type":"Feature","id":"LFJR-a7ba65688afa82b937c5","properties":{"airport":"LFJR","name":"LFJR Groundlayout","layer":"Guidance lines","category":"Centerlines","object_type":"Line","style_id":"line.centerlines.ffff00","source_group":"LFJR Groundlayout","vsmr_group_ids":[],"geometry_role":"linework"},"geometry":{"type":"MultiLineString","coordinates":[[[-0.312306667,47.562556667],[-0.312280278,47.562435278]],[[-0.313345833,47.562564167],[-0.313251667,47.56223]],[[-0.313277222,47.562276667],[-0.313252778,47.562279722]],[[-0.313310278,47.562385],[-0.313284444,47.562388056]],[[-0.313342222,47.562491667],[-0.313313056,47.562495278]],[[-0.3136,47.562540833],[-0.313513333,47.562202222]],[[-0.313538889,47.562248611],[-0.313515,47.562251111]],[[-0.313566389,47.562357222],[-0.3135375,47.562359722]],[[-0.313592778,47.562463056],[-0.313567222,47.562465556]],[[-0.313858333,47.562516944],[-0.313775833,47.5621775]],[[-0.313800833,47.562220278],[-0.313774167,47.562223056]],[[-0.313824722,47.562325833],[-0.313797778,47.562329722]],[[-0.313851944,47.562435],[-0.313826389,47.562437778]],[[-0.314121944,47.5624875],[-0.314038889,47.562150556]],[[-0.314062222,47.562190278],[-0.314035556,47.562193611]],[[-0.314087222,47.562298333],[-0.3140625,47.562301389]],[[-0.314111944,47.562407778],[-0.314089167,47.56241]],[[-0.314359167,47.562378611],[-0.314308056,47.562166389]],[[-0.314308333,47.562165833],[-0.314293333,47.562167222]],[[-0.314333611,47.562271667],[-0.314321389,47.562273333]],[[-0.314359167,47.562378889],[-0.314349167,47.56238]],[[-0.311604167,47.562801111],[-0.311564444,47.562641667]],[[-0.311468333,47.562951944],[-0.311368333,47.562519444]],[[-0.311373333,47.562550278],[-0.311298056,47.5625575]],[[-0.311402778,47.562673056],[-0.311304444,47.562682222]],[[-0.311433611,47.562799722],[-0.311353333,47.562807222]],[[-0.311461389,47.562921389],[-0.311362778,47.562929444]],[[-0.311005833,47.562559444],[-0.311096111,47.562988333]],[[-0.311012222,47.562588889],[-0.310935278,47.562597222]],[[-0.311035556,47.5627075],[-0.310959444,47.562716389]],[[-0.311064167,47.562834444],[-0.310975833,47.562844444]],[[-0.311089722,47.56296],[-0.311006111,47.562970278]],[[-0.310643056,47.562597222],[-0.310735278,47.563028611]],[[-0.31065,47.562628889],[-0.310576667,47.562636111]],[[-0.310676389,47.562752778],[-0.310601111,47.562760278]],[[-0.310703056,47.562876111],[-0.310626389,47.562884444]],[[-0.310729444,47.563],[-0.310647222,47.563008611]],[[-0.310341389,47.562945556],[-0.310273889,47.562635278]],[[-0.310280833,47.562665833],[-0.310203333,47.562674167]],[[-0.3103075,47.562789722],[-0.310226111,47.5627975]],[[-0.310334722,47.562915],[-0.310255278,47.562922222]],[[-0.309968333,47.562981667],[-0.309902222,47.562668889]],[[-0.309909444,47.562704167],[-0.309829722,47.562712222]],[[-0.309936111,47.562828333],[-0.309858889,47.562836667]],[[-0.309962222,47.562953056],[-0.309881389,47.562959722]]]}},{"type":"Feature","id":"LFJR-aca477e7bdd84d7574e1","properties":{"airport":"LFJR","name":"LFJR Groundlayout","layer":"Guidance lines","category":"Labels","object_type":"Line","style_id":"line.labels.808080","source_group":"LFJR Groundlayout","vsmr_group_ids":[],"geometry_role":"linework"},"geometry":{"type":"MultiLineString","coordinates":[[[-0.303747778,47.561160833],[-0.303681111,47.561167778],[-0.303675833,47.561145],[-0.303743333,47.561138056],[-0.303747778,47.561160833]],[[-0.324051111,47.559031111],[-0.323823611,47.559055],[-0.323811111,47.559008889],[-0.324038611,47.558982222],[-0.324051111,47.559031111]],[[-0.324008056,47.559022222],[-0.323854722,47.559037778],[-0.323848611,47.559015833],[-0.324003333,47.558998056],[-0.324008056,47.559022222]],[[-0.324031389,47.5589375],[-0.323910556,47.558952222],[-0.323896667,47.558945],[-0.3238825,47.558955278],[-0.323795833,47.558963611],[-0.323783333,47.558909444],[-0.323867222,47.5589],[-0.323884167,47.558907222],[-0.323899722,47.558895833],[-0.324018889,47.558884167],[-0.324031389,47.5589375]],[[-0.323986389,47.558928056],[-0.323916389,47.558934722],[-0.323910556,47.5589125],[-0.323981389,47.558904722],[-0.323986389,47.558928056]],[[-0.323869444,47.558940278],[-0.323832778,47.558943889],[-0.323827222,47.558921389],[-0.323863333,47.558917222],[-0.323869444,47.558940278]],[[-0.303856111,47.561014167],[-0.303865556,47.561066111],[-0.303778056,47.561075833],[-0.303679444,47.561048056],[-0.303653889,47.561051389],[-0.303662222,47.5610875],[-0.303623056,47.561091111],[-0.303611667,47.561040556],[-0.303681667,47.561030833],[-0.303781111,47.56106],[-0.303820278,47.561056389],[-0.303815278,47.561033611],[-0.3037925,47.561035556],[-0.303789444,47.561018889],[-0.303856111,47.561014167]],[[-0.303893056,47.561147222],[-0.303865,47.56115],[-0.303828056,47.561128333],[-0.303782222,47.561133611],[-0.303791944,47.561171667],[-0.303645278,47.561186944],[-0.3036325,47.561134167],[-0.303834722,47.561112222],[-0.303893056,47.561147222]]]}},{"type":"Feature","id":"LFJR-8ed5160c977518033707","properties":{"airport":"LFJR","name":"A","layer":"Labels","category":"Taxiways","object_type":"Label","style_id":"label.taxiways","source_group":"LFJR Taxiways","vsmr_group_ids":[],"geometry_role":"text_label","text-field":"A"},"geometry":{"type":"Point","coordinates":[-0.315787778,47.561219167]}},{"type":"Feature","id":"LFJR-9e04a2cc2bf87838f928","properties":{"airport":"LFJR","name":"B","layer":"Labels","category":"Taxiways","object_type":"Label","style_id":"label.taxiways","source_group":"LFJR Taxiways","vsmr_group_ids":[],"geometry_role":"text_label","text-field":"B"},"geometry":{"type":"Point","coordinates":[-0.312664722,47.561620833]}},{"type":"Feature","id":"LFJR-0d84c093845fc8497ee8","properties":{"airport":"LFJR","name":"C","layer":"Labels","category":"Taxiways","object_type":"Label","style_id":"label.taxiways","source_group":"LFJR Taxiways","vsmr_group_ids":[],"geometry_role":"text_label","text-field":"C"},"geometry":{"type":"Point","coordinates":[-0.308803056,47.561941389]}},{"type":"Feature","id":"LFJR-8226a0b240034a38ede4","properties":{"airport":"LFJR","name":"S","layer":"Labels","category":"Taxiways","object_type":"Label","style_id":"label.taxiways","source_group":"LFJR Taxiways","vsmr_group_ids":[],"geometry_role":"text_label","text-field":"S"},"geometry":{"type":"Point","coordinates":[-0.312354444,47.559302778]}}]}
