{"type":"FeatureCollection","name":"LFKB AVISO","bbox":[9.4736761111111,42.539811666667,9.4909430555556,42.569446944444],"metadata":{"schema":"vSMR AVISO","schema_version":2,"geometry_mode":"shared","airport":"LFKB","coordinate_reference_system":"WGS84","coordinate_order":"longitude, latitude","default_color_palette":"dark","color_palettes":["dark","light"],"background_colors":{"dark":"#434A4F","light":"#434A4F"},"runways":[{"ends":["16","34"],"headings":[160,340],"thresholds":[[9.479155833,42.563568889],[9.488271944,42.541832778]]}],"saved_active_runways":[],"saved_active_airport_modes":[],"airport_reference":[9.484721944,42.549999722],"feature_count":126,"style_count":11,"layer_counts":{"Airfield surfaces":17,"Buildings and structures":17,"Guidance lines":41,"Labels":46,"Surface markings":3,"Terrain":2},"category_counts":{"Buildings":17,"Gates":32,"Grass":2,"Hard Surface 2":1,"Hard Surface 3":4,"Hard Surface 4":8,"Runways":2,"Stopbars":3,"Taxiway Orange":2,"Taxiways":55},"geometry_source":"local GNG/KMZ","geometry_source_url":"","geometry_license":"GPL-3.0"},"styles":{"polygon.grassurface.00512f":{"name":"Grass","layer":"Terrain","object_type":"Area","paint":{"fill":"#010D19","fill-opacity":1,"palette-overrides":{"light":{"fill":"#00512F"}}},"feature_count":2},"polygon.hardsurface4.969393":{"name":"Hard Surface 4","layer":"Airfield surfaces","object_type":"Area","paint":{"fill":"#152841","fill-opacity":1,"palette-overrides":{"light":{"fill":"#969393"}}},"feature_count":8},"polygon.hardsurface3.8a807f":{"name":"Hard Surface 3","layer":"Airfield surfaces","object_type":"Area","paint":{"fill":"#222D3C","fill-opacity":1,"palette-overrides":{"light":{"fill":"#8A807F"}}},"feature_count":4},"polygon.hardsurface2.595e5b":{"name":"Hard Surface 2","layer":"Airfield surfaces","object_type":"Area","paint":{"fill":"#2F3949","fill-opacity":1,"palette-overrides":{"light":{"fill":"#595E5B"}}},"feature_count":1},"polygon.runwayconcrete.555555":{"name":"Runways","layer":"Airfield surfaces","object_type":"Area","paint":{"fill":"#111318","fill-opacity":1,"palette-overrides":{"light":{"fill":"#555555"}}},"feature_count":2},"polygon.building.394446":{"name":"Buildings","layer":"Buildings and structures","object_type":"Area","paint":{"fill":"#475570","fill-opacity":1,"palette-overrides":{"light":{"fill":"#394446"}}},"feature_count":17},"polygon.stopbar.7e0000":{"name":"Stopbars","layer":"Surface markings","object_type":"Area","paint":{"fill":"#7E0000","fill-opacity":1,"palette-overrides":{"light":{"fill":"#7E0000"}}},"feature_count":3},"polygon.taxiwayorange.cc6d00":{"name":"Taxiway Orange","layer":"Airfield surfaces","object_type":"Area","paint":{"fill":"#CC8B00","fill-opacity":1,"palette-overrides":{"light":{"fill":"#CC6D00"}}},"feature_count":2},"line.taxiway.c0b631":{"name":"Taxiways","layer":"Guidance lines","object_type":"Line","paint":{"stroke":"#4E5A69","stroke-opacity":1,"stroke-width":1,"palette-overrides":{"light":{"stroke":"#C0B631"}}},"feature_count":41},"label.gates":{"name":"Gates","layer":"Labels","object_type":"Label","paint":{"text-color":"#CCCCCC","text-font":"Arial","text-size":12,"text-halo-color":"#000000","text-halo-width":1,"text-anchor":"center","zoomLevel":9},"feature_count":32},"label.taxiways":{"name":"Taxiways","layer":"Labels","object_type":"Label","paint":{"text-color":"#CCCCCC","text-font":"Arial","text-size":12,"text-halo-color":"#000000","text-halo-width":1,"text-anchor":"center","zoomLevel":7},"feature_count":14}},"vsmr_groups":[],"features":[{"type":"Feature","id":"LFKB-f32c285f8d2fc1683f8c","properties":{"airport":"LFKB","name":"COLOR_GrasSurface","layer":"Terrain","category":"Grass","object_type":"Area","style_id":"polygon.grassurface.00512f","source_group":"COLOR_GrasSurface","vsmr_group_ids":[],"geometry_role":"filled_region"},"geometry":{"type":"Polygon","coordinates":[[[9.4736761111111,42.568872222222],[9.4764766666667,42.562120555556],[9.4765272222222,42.561939444444],[9.476575,42.561716666667],[9.4766122222222,42.561546111111],[9.4766363888889,42.561456944444],[9.4766894444444,42.561328888889],[9.4774297222222,42.559544722222],[9.4790477777778,42.555757222222],[9.4790811111111,42.555648333333],[9.4790977777778,42.555506111111],[9.4792477777778,42.554108055556],[9.4792322222222,42.55405],[9.4792175,42.554028055556],[9.4789355555556,42.553961666667],[9.4788080555556,42.553966111111],[9.4788344444444,42.553893888889],[9.4780413888889,42.553711111111],[9.4793436111111,42.552758611111],[9.4794063888889,42.552745277778],[9.47949,42.552026388889],[9.4795694444444,42.551011666667],[9.4774594444444,42.5508975],[9.4774094444444,42.550713888889],[9.477375,42.550671666667],[9.4773475,42.550632777778],[9.4773288888889,42.550601666667],[9.4773166666667,42.5505675],[9.4773108333333,42.550520555556],[9.4773261111111,42.550120277778],[9.4773255555556,42.550048611111],[9.4773163888889,42.550011944444],[9.4773244444444,42.549866111111],[9.4773755555556,42.549838055556],[9.4773919444444,42.54966],[9.4774463888889,42.549661944444],[9.4774491666667,42.549643888889],[9.4775,42.549645555556],[9.4775583333333,42.548762222222],[9.4778216666667,42.548687777778],[9.4783911111111,42.548700555556],[9.4783869444444,42.548890833333],[9.4784519444444,42.548917777778],[9.4796597222222,42.548957222222],[9.4796680555556,42.547900277778],[9.4796744444444,42.547850555556],[9.4796891666667,42.547801666667],[9.4799830555556,42.547090277778],[9.4800091666667,42.547031111111],[9.4800222222222,42.546985555556],[9.4800308333333,42.5469375],[9.4800313888889,42.546898888889],[9.4800255555556,42.546848888889],[9.4800138888889,42.546804722222],[9.4799383333333,42.546568611111],[9.4799258333333,42.5465275],[9.4799211111111,42.546490833333],[9.479925,42.546453055556],[9.4799322222222,42.546408055556],[9.4799552777778,42.546366111111],[9.4803827777778,42.545896666667],[9.4804755555556,42.545836388889],[9.4805513888889,42.545795277778],[9.4806419444444,42.545741944444],[9.4807261111111,42.545690277778],[9.4807841666667,42.545636666667],[9.4808480555556,42.545560555556],[9.4810213888889,42.545323055556],[9.4815438888889,42.544042777778],[9.4817616666667,42.543555],[9.4829194444444,42.543828333333],[9.4833472222222,42.542748333333],[9.4834086111111,42.54266],[9.4843011111111,42.540524444444],[9.4843566666667,42.540376111111],[9.4844458333333,42.540196111111],[9.4847983333333,42.540035555556],[9.4855119444444,42.540087777778],[9.4856469444444,42.540691388889],[9.4859669444444,42.540771944444],[9.4860661111111,42.540875833333],[9.4865144444444,42.540801388889],[9.4869180555556,42.539811666667],[9.4909430555556,42.540731944444],[9.4897141666667,42.543664444444],[9.4890813888889,42.5451475],[9.4883275,42.546966944444],[9.48747,42.549009166667],[9.4869763888889,42.550200277778],[9.4864788888889,42.551390555556],[9.4857163888889,42.553195],[9.4846341666667,42.5557775],[9.4841105555556,42.55706],[9.4839036111111,42.557532222222],[9.4838816666667,42.557779444444],[9.4838811111111,42.557864444444],[9.4839069444444,42.557925833333],[9.4839661111111,42.557990833333],[9.4840202777778,42.558045],[9.4840405555556,42.558090277778],[9.4840375,42.558142222222],[9.4839775,42.558470555556],[9.4830525,42.559497777778],[9.4827952777778,42.560108333333],[9.4825952777778,42.56059],[9.482425,42.560965],[9.4822855555556,42.561304722222],[9.4822136111111,42.561408055556],[9.4822216666667,42.561643055556],[9.4822313888889,42.561960833333],[9.4822463888889,42.562198055556],[9.4822513888889,42.562396388889],[9.4822313888889,42.562504166667],[9.4821902777778,42.562605833333],[9.4821266666667,42.562721666667],[9.4816897222222,42.563453055556],[9.4813925,42.563408333333],[9.4809333333333,42.56453],[9.48067,42.564456666667],[9.4785994444444,42.569446944444],[9.4772013888889,42.569405],[9.4764766666667,42.569436666667],[9.4763769444444,42.569432222222],[9.47624,42.569406666667],[9.4736761111111,42.568872222222]]]}},{"type":"Feature","id":"LFKB-f1f5dcefd682010d90ac","properties":{"airport":"LFKB","name":"COLOR_HardSurface4","layer":"Airfield surfaces","category":"Hard Surface 4","object_type":"Area","style_id":"polygon.hardsurface4.969393","source_group":"COLOR_HardSurface4","vsmr_group_ids":[],"geometry_role":"filled_region"},"geometry":{"type":"Polygon","coordinates":[[[9.4797094444444,42.561584722222],[9.4796477777778,42.561555555556],[9.4795866666667,42.561524444444],[9.4795472222222,42.561499444444],[9.4795102777778,42.561470555556],[9.4794783333333,42.561429444444],[9.4794322222222,42.561362777778],[9.4794202777778,42.561340833333],[9.4794188888889,42.561316111111],[9.4794463888889,42.561174722222],[9.4794691666667,42.561123055556],[9.4794991666667,42.561081944444],[9.4795402777778,42.561033888889],[9.479935,42.560709166667],[9.4800305555556,42.560628888889],[9.4801613888889,42.560519166667],[9.4797094444444,42.561584722222]]]}},{"type":"Feature","id":"LFKB-f38aaed83a7aeb303783","properties":{"airport":"LFKB","name":"COLOR_HardSurface4","layer":"Airfield surfaces","category":"Hard Surface 4","object_type":"Area","style_id":"polygon.hardsurface4.969393","source_group":"COLOR_HardSurface4","vsmr_group_ids":[],"geometry_role":"filled_region"},"geometry":{"type":"Polygon","coordinates":[[[9.4793011111111,42.553599722222],[9.4791575,42.553934166667],[9.4791438888889,42.553964722222],[9.4790422222222,42.553941944444],[9.4792919444444,42.553365277778],[9.4793875,42.553388055556],[9.4793513888889,42.553473888889],[9.4793530555556,42.553479166667],[9.4793594444444,42.553483055556],[9.4795780555556,42.553534166667],[9.4795291666667,42.553648333333],[9.4793011111111,42.553599722222]]]}},{"type":"Feature","id":"LFKB-9c5eadd54d136be07571","properties":{"airport":"LFKB","name":"COLOR_HardSurface4","layer":"Airfield surfaces","category":"Hard Surface 4","object_type":"Area","style_id":"polygon.hardsurface4.969393","source_group":"COLOR_HardSurface4","vsmr_group_ids":[],"geometry_role":"filled_region"},"geometry":{"type":"Polygon","coordinates":[[[9.4795944444444,42.551791111111],[9.4795283333333,42.551776666667],[9.4795388888889,42.551623611111],[9.4795422222222,42.551586666667],[9.4795480555556,42.551561666667],[9.4795708333333,42.551505277778],[9.4799161111111,42.550679722222],[9.4799180555556,42.550665277778],[9.4799158333333,42.550649722222],[9.4799066666667,42.550628888889],[9.4798888888889,42.550608333333],[9.4798702777778,42.5505925],[9.4798469444444,42.550579444444],[9.4798238888889,42.55057],[9.4797963888889,42.550563333333],[9.4797222222222,42.550557222222],[9.4794872222222,42.550548055556],[9.4794855555556,42.550571944444],[9.4794552777778,42.550571944444],[9.4780947222222,42.550569444444],[9.4779994444444,42.550566111111],[9.4777788888889,42.550516944444],[9.4776986111111,42.550513888889],[9.4777033333333,42.550443055556],[9.4777908333333,42.550076944444],[9.4777991666667,42.5499125],[9.4778094444444,42.549903055556],[9.4778213888889,42.549889166667],[9.4778330555556,42.5498725],[9.4778377777778,42.549841388889],[9.4778636111111,42.549300277778],[9.4778583333333,42.549283611111],[9.4778494444444,42.549269166667],[9.4777897222222,42.549210277778],[9.4777272222222,42.549156388889],[9.4776755555556,42.549106944444],[9.4776444444444,42.549074722222],[9.4776194444444,42.549045277778],[9.4776072222222,42.5490275],[9.4775986111111,42.549010555556],[9.4775966666667,42.548801111111],[9.4778427777778,42.548721111111],[9.4783433333333,42.548730277778],[9.4783402777778,42.548904722222],[9.4784513888889,42.548950277778],[9.4796597222222,42.548990833333],[9.4796533333333,42.549103055556],[9.4795986111111,42.549094722222],[9.4795875,42.549095],[9.4795783333333,42.549098611111],[9.4795741666667,42.549103888889],[9.4795733333333,42.549110833333],[9.4795008333333,42.549060277778],[9.4782294444444,42.549090833333],[9.4781780555556,42.549110555556],[9.4781122222222,42.54914],[9.4780727777778,42.54916],[9.4780394444444,42.549183611111],[9.4780136111111,42.5492075],[9.4779905555556,42.549236111111],[9.4779683333333,42.549265277778],[9.4779513888889,42.549291944444],[9.4779402777778,42.549315277778],[9.4779333333333,42.549342777778],[9.4779277777778,42.549380555556],[9.4779213888889,42.549439444444],[9.4779133333333,42.549621666667],[9.4778788888889,42.550381944444],[9.4779466666667,42.550449722222],[9.4799008333333,42.550513611111],[9.4800080555556,42.550592222222],[9.4800158333333,42.550696388889],[9.4796175,42.551627222222],[9.4795944444444,42.551791111111]]]}},{"type":"Feature","id":"LFKB-b0c9411ff7b9ff429e58","properties":{"airport":"LFKB","name":"COLOR_HardSurface4","layer":"Airfield surfaces","category":"Hard Surface 4","object_type":"Area","style_id":"polygon.hardsurface4.969393","source_group":"COLOR_HardSurface4","vsmr_group_ids":[],"geometry_role":"filled_region"},"geometry":{"type":"Polygon","coordinates":[[[9.4796580555556,42.548991111111],[9.4798683333333,42.549033333333],[9.4799247222222,42.549048333333],[9.4800030555556,42.549070555556],[9.4800844444444,42.549095555556],[9.4801891666667,42.549123055556],[9.4802991666667,42.549151111111],[9.480385,42.549171111111],[9.4804569444444,42.549185555556],[9.4805058333333,42.549193333333],[9.4805488888889,42.549194722222],[9.4805855555556,42.549095833333],[9.4806463888889,42.549076111111],[9.4807252777778,42.5488775],[9.4807769444444,42.5487775],[9.4806830555556,42.5487525],[9.4810361111111,42.548048888889],[9.4813494444444,42.547335555556],[9.4814272222222,42.546936666667],[9.4816833333333,42.546471666667],[9.4815966666667,42.546423888889],[9.4817066666667,42.546162222222],[9.4818558333333,42.546071944444],[9.4819530555556,42.545842222222],[9.4819677777778,42.545709166667],[9.4819488888889,42.545680277778],[9.48203,42.545645833333],[9.482225,42.545603055556],[9.4822611111111,42.545589444444],[9.4822775,42.545578333333],[9.4822911111111,42.545561388889],[9.4823388888889,42.545447777778],[9.4823441666667,42.545430555556],[9.4823444444444,42.545417777778],[9.4823425,42.545408055556],[9.4823386111111,42.545399166667],[9.4823308333333,42.545394166667],[9.4823155555556,42.545388333333],[9.4821761111111,42.545361388889],[9.4819772222222,42.545379444444],[9.4818541666667,42.545479166667],[9.4817394444444,42.545448888889],[9.4819147222222,42.545021666667],[9.481985,42.545046944444],[9.4820816666667,42.545080555556],[9.4823466666667,42.545136666667],[9.4823647222222,42.545139722222],[9.4823777777778,42.545137222222],[9.4823866666667,42.545132777778],[9.4824380555556,42.545030277778],[9.4824427777778,42.545015],[9.4824430555556,42.545001666667],[9.4824380555556,42.5449925],[9.4824258333333,42.544985],[9.4823958333333,42.544971111111],[9.482335,42.544941388889],[9.4822191666667,42.544901666667],[9.4820858333333,42.544855],[9.4821811111111,42.544612777778],[9.4822961111111,42.5446675],[9.4823152777778,42.544682222222],[9.4823236111111,42.544701666667],[9.4823280555556,42.544720555556],[9.4823236111111,42.544739722222],[9.4823111111111,42.544756111111],[9.4823019444444,42.544770277778],[9.4823,42.544781944444],[9.4823027777778,42.544795277778],[9.4823333333333,42.544863888889],[9.4823730555556,42.5448925],[9.4824166666667,42.544916111111],[9.4824566666667,42.544934444444],[9.4824733333333,42.544936388889],[9.4824841666667,42.544933611111],[9.4824983333333,42.5449175],[9.4825208333333,42.544876944444],[9.4827091666667,42.544426944444],[9.4827563888889,42.544322222222],[9.4828152777778,42.544179722222],[9.4829658333333,42.543814444444],[9.4832716666667,42.543884166667],[9.4830011111111,42.543988888889],[9.4826736111111,42.544786666667],[9.4827566666667,42.544933888889],[9.4822680555556,42.546159166667],[9.4821772222222,42.546150277778],[9.4819977777778,42.546555277778],[9.4820422222222,42.546794166667],[9.4812461111111,42.548653055556],[9.4812072222222,42.548650555556],[9.4809883333333,42.549143888889],[9.4809505555556,42.549138888889],[9.4809308333333,42.549140277778],[9.4809113888889,42.549146388889],[9.4808888888889,42.5491575],[9.4808658333333,42.549172222222],[9.4808391666667,42.549190555556],[9.4807980555556,42.549215833333],[9.48075,42.549233888889],[9.4806866666667,42.549245555556],[9.4806136111111,42.549254722222],[9.4805461111111,42.549254722222],[9.4804694444444,42.549248611111],[9.4803838888889,42.549240555556],[9.4802669444444,42.549228888889],[9.4801638888889,42.549213888889],[9.4800580555556,42.549193333333],[9.4799391666667,42.5491675],[9.4797869444444,42.549133611111],[9.4796519444444,42.549102777778],[9.4796580555556,42.548991111111]]]}},{"type":"Feature","id":"LFKB-945dc0324b0fad45674b","properties":{"airport":"LFKB","name":"COLOR_HardSurface4","layer":"Airfield surfaces","category":"Hard Surface 4","object_type":"Area","style_id":"polygon.hardsurface4.969393","source_group":"COLOR_HardSurface4","vsmr_group_ids":[],"geometry_role":"filled_region"},"geometry":{"type":"Polygon","coordinates":[[[9.4827102777778,42.543085833333],[9.4820163888889,42.542929444444],[9.4822005555556,42.542498611111],[9.4828908333333,42.542655277778],[9.4827102777778,42.543085833333]]]}},{"type":"Feature","id":"LFKB-7cf3582e12fa36f9778a","properties":{"airport":"LFKB","name":"COLOR_HardSurface4","layer":"Airfield surfaces","category":"Hard Surface 4","object_type":"Area","style_id":"polygon.hardsurface4.969393","source_group":"COLOR_HardSurface4","vsmr_group_ids":[],"geometry_role":"filled_region"},"geometry":{"type":"Polygon","coordinates":[[[9.4841641666667,42.5453775],[9.4842236111111,42.545392222222],[9.4842386111111,42.545456944444],[9.4842611111111,42.545535],[9.4842686111111,42.545569444444],[9.4842702777778,42.545601388889],[9.4842680555556,42.545636388889],[9.4842447222222,42.545710833333],[9.4838241666667,42.546723888889],[9.4838147222222,42.546731666667],[9.4837972222222,42.546734722222],[9.4837727777778,42.546732777778],[9.4836038888889,42.546704444444],[9.4841641666667,42.5453775]]]}},{"type":"Feature","id":"LFKB-5564c34c3d09923656c3","properties":{"airport":"LFKB","name":"COLOR_HardSurface4","layer":"Airfield surfaces","category":"Hard Surface 4","object_type":"Area","style_id":"polygon.hardsurface4.969393","source_group":"COLOR_HardSurface4","vsmr_group_ids":[],"geometry_role":"filled_region"},"geometry":{"type":"Polygon","coordinates":[[[9.4799283333333,42.551911388889],[9.4798963888889,42.551903888889],[9.4799166666667,42.551851944444],[9.4800472222222,42.551881944444],[9.4800269444444,42.55193],[9.4799986111111,42.551924166667],[9.4799355555556,42.5520675],[9.4798675,42.552049166667],[9.4799283333333,42.551911388889]]]}},{"type":"Feature","id":"LFKB-805bc79d58ce9b264712","properties":{"airport":"LFKB","name":"COLOR_HardSurface4","layer":"Airfield surfaces","category":"Hard Surface 4","object_type":"Area","style_id":"polygon.hardsurface4.969393","source_group":"COLOR_HardSurface4","vsmr_group_ids":[],"geometry_role":"filled_region"},"geometry":{"type":"Polygon","coordinates":[[[9.4801861111111,42.552712777778],[9.4800641666667,42.552687222222],[9.4800925,42.552601111111],[9.4799183333333,42.552459722222],[9.4797722222222,42.552425833333],[9.4798283333333,42.552271388889],[9.4800625,42.552325833333],[9.4799969444444,42.552475277778],[9.4799555555556,42.552468611111],[9.4801072222222,42.552592777778],[9.4802244444444,42.552618055556],[9.4801861111111,42.552712777778]]]}},{"type":"Feature","id":"LFKB-c1cb21b154ea670d9800","properties":{"airport":"LFKB","name":"COLOR_HardSurface3","layer":"Airfield surfaces","category":"Hard Surface 3","object_type":"Area","style_id":"polygon.hardsurface3.8a807f","source_group":"COLOR_HardSurface3","vsmr_group_ids":[],"geometry_role":"filled_region"},"geometry":{"type":"Polygon","coordinates":[[[9.4792991666667,42.553592777778],[9.4795308333333,42.553646666667],[9.4793866666667,42.553988333333],[9.4791538888889,42.553934166667],[9.4792991666667,42.553592777778]]]}},{"type":"Feature","id":"LFKB-64f547921956881982ec","properties":{"airport":"LFKB","name":"COLOR_HardSurface3","layer":"Airfield surfaces","category":"Hard Surface 3","object_type":"Area","style_id":"polygon.hardsurface3.8a807f","source_group":"COLOR_HardSurface3","vsmr_group_ids":[],"geometry_role":"filled_region"},"geometry":{"type":"Polygon","coordinates":[[[9.4809094444444,42.550457777778],[9.4802888888889,42.551943055556],[9.4795930555556,42.551791111111],[9.4795952777778,42.551626666667],[9.4799752777778,42.550728888889],[9.4799863888889,42.550696111111],[9.4799908333333,42.550673333333],[9.4799925,42.550651944444],[9.4799919444444,42.5506325],[9.4799830555556,42.5506125],[9.4799697222222,42.550590555556],[9.4799522222222,42.550569722222],[9.4799291666667,42.550550833333],[9.4799044444444,42.550536944444],[9.4798811111111,42.550528888889],[9.4798541666667,42.550526388889],[9.4779877777778,42.550465555556],[9.4779605555556,42.5504625],[9.4779366666667,42.550456388889],[9.4779122222222,42.550445555556],[9.4778930555556,42.550432222222],[9.4778808333333,42.550417777778],[9.4778711111111,42.5504025],[9.4778658333333,42.550388333333],[9.4778658333333,42.550372222222],[9.4779116666667,42.549621111111],[9.4782172222222,42.549621944444],[9.4782258333333,42.549085],[9.4785319444444,42.549019444444],[9.47945,42.549048611111],[9.4795066666667,42.549050833333],[9.4797538888889,42.5492575],[9.4795597222222,42.549299444444],[9.4793988888889,42.549393333333],[9.4792902777778,42.549535277778],[9.4791686111111,42.549927222222],[9.4791916666667,42.550143055556],[9.4793438888889,42.550307777778],[9.4795825,42.550373888889],[9.4809094444444,42.550457777778]]]}},{"type":"Feature","id":"LFKB-30777c7e94a19e347a84","properties":{"airport":"LFKB","name":"COLOR_HardSurface3","layer":"Airfield surfaces","category":"Hard Surface 3","object_type":"Area","style_id":"polygon.hardsurface3.8a807f","source_group":"COLOR_HardSurface3","vsmr_group_ids":[],"geometry_role":"filled_region"},"geometry":{"type":"Polygon","coordinates":[[[9.4816411111111,42.5493875],[9.4816486111111,42.549375555556],[9.4816711111111,42.549320555556],[9.4816713888889,42.549314722222],[9.4816686111111,42.549309722222],[9.4816641666667,42.549305277778],[9.4816591666667,42.5493025],[9.4809866666667,42.549143888889],[9.4811977777778,42.548636388889],[9.4812402777778,42.548646388889],[9.4813108333333,42.548481944444],[9.4812705555556,42.548472222222],[9.48138,42.548208333333],[9.4814158333333,42.548216944444],[9.4815272222222,42.547968611111],[9.4814863888889,42.547958611111],[9.4816080555556,42.547663333333],[9.4816483333333,42.547673333333],[9.4817372222222,42.547467777778],[9.4816952777778,42.547458611111],[9.4818705555556,42.547042777778],[9.4819116666667,42.5470525],[9.4819852777778,42.54688],[9.4819419444444,42.546869722222],[9.4819969444444,42.546742777778],[9.4819691666667,42.546547222222],[9.4821508333333,42.546110833333],[9.4822486111111,42.546133333333],[9.4823033333333,42.5460075],[9.4822066666667,42.545984166667],[9.4823761111111,42.545581388889],[9.4824152777778,42.545588611111],[9.4824841666667,42.545418611111],[9.482415,42.545403333333],[9.4824783333333,42.545251944444],[9.4825919444444,42.54528],[9.4826638888889,42.545110555556],[9.48255,42.545081666667],[9.4825675,42.545035277778],[9.48258,42.544996111111],[9.482695,42.545023611111],[9.4827225,42.544957222222],[9.4826475,42.544787777778],[9.4827408333333,42.544573333333],[9.4827441666667,42.544556666667],[9.4827494444444,42.544517222222],[9.4827547222222,42.544493611111],[9.4827622222222,42.544466666667],[9.4827716666667,42.544432222222],[9.4827841666667,42.544401944444],[9.4828388888889,42.544298055556],[9.482995,42.543983333333],[9.4832702777778,42.543883611111],[9.4836911111111,42.543980833333],[9.4836497222222,42.544086388889],[9.4837580555556,42.544640833333],[9.4817808333333,42.549326666667],[9.4816411111111,42.5493875]]]}},{"type":"Feature","id":"LFKB-f49ddb429d8181987324","properties":{"airport":"LFKB","name":"COLOR_HardSurface3","layer":"Airfield surfaces","category":"Hard Surface 3","object_type":"Area","style_id":"polygon.hardsurface3.8a807f","source_group":"COLOR_HardSurface3","vsmr_group_ids":[],"geometry_role":"filled_region"},"geometry":{"type":"Polygon","coordinates":[[[9.4839069444444,42.543225833333],[9.4838869444444,42.543221666667],[9.4837961111111,42.543254444444],[9.4837680555556,42.543263611111],[9.4837397222222,42.543268888889],[9.4837133333333,42.543271944444],[9.48368,42.5432725],[9.4836472222222,42.543270555556],[9.4836133333333,42.543264722222],[9.4835761111111,42.543254722222],[9.4835469444444,42.543242222222],[9.4835230555556,42.543229444444],[9.4834969444444,42.543213888889],[9.4834775,42.543196388889],[9.4834608333333,42.543177222222],[9.4834455555556,42.543156388889],[9.4834352777778,42.543137222222],[9.4834280555556,42.543115],[9.4833525,42.543099722222],[9.4831991666667,42.543163333333],[9.4831852777778,42.543196111111],[9.4827083333333,42.543085833333],[9.4828891666667,42.542654444444],[9.4833502777778,42.542759166667],[9.4834369444444,42.542914722222],[9.4835052777778,42.542929166667],[9.4835336111111,42.542912777778],[9.4835663888889,42.542898055556],[9.4836011111111,42.542887222222],[9.4836383333333,42.542879722222],[9.4836788888889,42.542877222222],[9.4837236111111,42.5428775],[9.4837583333333,42.542883333333],[9.4837936111111,42.542892222222],[9.4838333333333,42.542906944444],[9.4838611111111,42.542922222222],[9.4838888888889,42.542943055556],[9.4839133333333,42.542966944444],[9.4839361111111,42.542998888889],[9.4839586111111,42.543033333333],[9.4839838888889,42.543039444444],[9.4839069444444,42.543225833333]]]}},{"type":"Feature","id":"LFKB-a83698c082dbba3cf194","properties":{"airport":"LFKB","name":"COLOR_HardSurface2","layer":"Airfield surfaces","category":"Hard Surface 2","object_type":"Area","style_id":"polygon.hardsurface2.595e5b","source_group":"COLOR_HardSurface2","vsmr_group_ids":[],"geometry_role":"filled_region"},"geometry":{"type":"Polygon","coordinates":[[[9.4795313888889,42.559621111111],[9.4791508333333,42.559533055556],[9.4790483333333,42.559509722222],[9.4789863888889,42.5594925],[9.4789255555556,42.559470277778],[9.4788755555556,42.559447222222],[9.4788180555556,42.559414444444],[9.4787663888889,42.559381111111],[9.4787044444444,42.559334166667],[9.4786608333333,42.559295277778],[9.4786269444444,42.559262222222],[9.478595,42.559221111111],[9.4785611111111,42.559169722222],[9.4785336111111,42.559123055556],[9.4785113888889,42.559077222222],[9.4784958333333,42.559034444444],[9.4784819444444,42.558973055556],[9.4784763888889,42.558928888889],[9.4784722222222,42.558881388889],[9.4784733333333,42.55884],[9.4784772222222,42.558807222222],[9.4784852777778,42.558772222222],[9.4785008333333,42.558725555556],[9.4785394444444,42.558633611111],[9.4805763888889,42.553775277778],[9.4805855555556,42.553751666667],[9.4805877777778,42.553725277778],[9.4805830555556,42.553699722222],[9.4805738888889,42.553675833333],[9.4805575,42.553646111111],[9.4805372222222,42.5536275],[9.4805119444444,42.553611666667],[9.4804741666667,42.5535975],[9.4801302777778,42.553515277778],[9.4801066666667,42.5535175],[9.4800805555556,42.553523055556],[9.4800563888889,42.553531666667],[9.4800358333333,42.553543055556],[9.4800266666667,42.553556666667],[9.4800058333333,42.553600555556],[9.4799055555556,42.553849166667],[9.479665,42.5537975],[9.4797655555556,42.553555277778],[9.4799463888889,42.553591666667],[9.4799863888889,42.553491388889],[9.4799888888889,42.553473888889],[9.4799888888889,42.553447222222],[9.4799847222222,42.553421388889],[9.4799655555556,42.553388611111],[9.4799533333333,42.553357222222],[9.4799486111111,42.553323611111],[9.4799505555556,42.553288888889],[9.4799591666667,42.553245277778],[9.4799808333333,42.553187777778],[9.4801905555556,42.552691666667],[9.4803669444444,42.552732777778],[9.4801894444444,42.553134166667],[9.4801427777778,42.553255833333],[9.4801330555556,42.553286666667],[9.48013,42.5533125],[9.4801327777778,42.553338611111],[9.4801466666667,42.553361666667],[9.48017,42.553378055556],[9.4802030555556,42.553392777778],[9.4802583333333,42.55341],[9.4804986111111,42.553465555556],[9.4805422222222,42.553473333333],[9.4805736111111,42.553474166667],[9.4806052777778,42.553471944444],[9.4806391666667,42.553464722222],[9.4806791666667,42.553447777778],[9.4807052777778,42.553432777778],[9.4807238888889,42.553413888889],[9.4807366666667,42.55339],[9.4810116666667,42.552739722222],[9.481025,42.552705],[9.4810366666667,42.552668888889],[9.4810402777778,42.552638333333],[9.4810383333333,42.552618611111],[9.4810297222222,42.552601388889],[9.4810133333333,42.552580555556],[9.4809922222222,42.552561666667],[9.480965,42.552545],[9.4809311111111,42.552530277778],[9.48089,42.552514722222],[9.4807083333333,42.552471111111],[9.4806572222222,42.552461388889],[9.4806144444444,42.552459444444],[9.4805694444444,42.552460555556],[9.4805330555556,42.552466111111],[9.4804966666667,42.552480833333],[9.4804747222222,42.5524975],[9.4804558333333,42.552514722222],[9.4804372222222,42.552546944444],[9.4803669444444,42.552732777778],[9.4801905555556,42.552691666667],[9.4802655555556,42.552510833333],[9.4802783333333,42.552481944444],[9.4802969444444,42.552451944444],[9.4803172222222,42.552426111111],[9.4803425,42.552402222222],[9.4803780555556,42.552378888889],[9.4804211111111,42.552356111111],[9.4804694444444,42.552341111111],[9.4805225,42.552329722222],[9.4805769444444,42.552325833333],[9.4806444444444,42.552328611111],[9.4807027777778,42.552335277778],[9.4809355555556,42.552388888889],[9.4809886111111,42.552398333333],[9.4810252777778,42.552399444444],[9.4810613888889,42.552394722222],[9.4810919444444,42.552386388889],[9.4811238888889,42.552374166667],[9.4811494444444,42.552358888889],[9.4811711111111,42.552340277778],[9.4811858333333,42.552321388889],[9.4820761111111,42.550193611111],[9.4820825,42.550168888889],[9.4820841666667,42.550136944444],[9.4820811111111,42.550101944444],[9.4820722222222,42.550051666667],[9.4820513888889,42.549996666667],[9.4820280555556,42.5499475],[9.4819905555556,42.549894444444],[9.4819780555556,42.549883055556],[9.4819608333333,42.549875555556],[9.4819352777778,42.549869722222],[9.4819002777778,42.549866944444],[9.4817983333333,42.549869166667],[9.4817747222222,42.549872777778],[9.4817477777778,42.5498825],[9.4811577777778,42.550147777778],[9.4811372222222,42.550161944444],[9.4809766666667,42.550299166667],[9.4809069444444,42.550464444444],[9.47959,42.550401111111],[9.4795505555556,42.550396388889],[9.4795088888889,42.55039],[9.4794661111111,42.550380277778],[9.4794269444444,42.550369722222],[9.4793933333333,42.550358611111],[9.4793630555556,42.550345555556],[9.47934,42.550333611111],[9.4793105555556,42.550317222222],[9.4792822222222,42.550298333333],[9.4792597222222,42.550279444444],[9.4792388888889,42.550258333333],[9.4792136111111,42.550232222222],[9.4791922222222,42.550208055556],[9.4791730555556,42.550180833333],[9.4791597222222,42.550151666667],[9.4791491666667,42.550113333333],[9.4791430555556,42.550082777778],[9.4791366666667,42.550051388889],[9.4791325,42.550022777778],[9.4791313888889,42.5499925],[9.4791305555556,42.549964444444],[9.4791313888889,42.549935277778],[9.4791352777778,42.54991],[9.4791419444444,42.549883611111],[9.4791538888889,42.549843611111],[9.4791816666667,42.549767777778],[9.4792197222222,42.549665],[9.4792538888889,42.549571944444],[9.4792775,42.549516388889],[9.4792986111111,42.549475833333],[9.4793225,42.549444444444],[9.47935,42.549412777778],[9.4793827777778,42.549384166667],[9.4794227777778,42.549355833333],[9.4794719444444,42.549325833333],[9.4795202777778,42.549303055556],[9.4795655555556,42.549286388889],[9.4796016666667,42.549278055556],[9.4797519444444,42.549255277778],[9.4798033333333,42.549300833333],[9.4798380555556,42.549329166667],[9.4798655555556,42.5493475],[9.4798908333333,42.5493575],[9.48117,42.549386666667],[9.4811644444444,42.549498611111],[9.4801813888889,42.549474722222],[9.4799083333333,42.549473055556],[9.4798147222222,42.549469166667],[9.4797641666667,42.549467777778],[9.4797380555556,42.549471666667],[9.4797013888889,42.549484444444],[9.4796652777778,42.549500555556],[9.4796341666667,42.549522777778],[9.4796097222222,42.549544444444],[9.4795911111111,42.549571111111],[9.4795738888889,42.549601666667],[9.4795608333333,42.549635833333],[9.4795530555556,42.549684722222],[9.4795491666667,42.549751111111],[9.4795519444444,42.549816944444],[9.4795625,42.549857222222],[9.4795772222222,42.549886944444],[9.4795986111111,42.5499075],[9.4796225,42.549920833333],[9.4796511111111,42.549928888889],[9.4798483333333,42.549934444444],[9.4798544444444,42.549936388889],[9.4798575,42.549941944444],[9.47986,42.549968055556],[9.4798638888889,42.549972222222],[9.4798713888889,42.549975277778],[9.4798888888889,42.549979722222],[9.4801925,42.549992777778],[9.4802175,42.549997777778],[9.4802486111111,42.550004722222],[9.4803063888889,42.550030833333],[9.4803763888889,42.550059166667],[9.4804402777778,42.550079722222],[9.4805133333333,42.550097222222],[9.4805836111111,42.550115555556],[9.4806516666667,42.550128333333],[9.4807130555556,42.550139166667],[9.4807572222222,42.550145833333],[9.4807875,42.550146388889],[9.4808127777778,42.550143333333],[9.4812891666667,42.549929722222],[9.4815961111111,42.549783888889],[9.4816616666667,42.54975],[9.4816902777778,42.549734166667],[9.4817094444444,42.549718888889],[9.48172,42.549698888889],[9.4817277777778,42.549669722222],[9.4817258333333,42.549663333333],[9.4816858333333,42.549648333333],[9.4817266666667,42.5495275],[9.4816658333333,42.549515],[9.4816163888889,42.54951],[9.4811641666667,42.549498611111],[9.48117,42.549386666667],[9.4816263888889,42.549393888889],[9.4817680555556,42.549306388889],[9.4823397222222,42.547944444444],[9.4829725,42.546434444444],[9.483385,42.545450277778],[9.4835455555556,42.545064166667],[9.4837108333333,42.544629166667],[9.4836452777778,42.544086111111],[9.4836908333333,42.543980277778],[9.4837233333333,42.543987777778],[9.4840202777778,42.543896388889],[9.4840447222222,42.543885833333],[9.4840672222222,42.543871666667],[9.4840844444444,42.543852222222],[9.4842616666667,42.543438333333],[9.4842633333333,42.543428611111],[9.4842619444444,42.543418888889],[9.4842533333333,42.543401944444],[9.4842169444444,42.543350277778],[9.4841863888889,42.543320555556],[9.4841552777778,42.543303333333],[9.4841180555556,42.543281388889],[9.4840797222222,42.543269722222],[9.4839061111111,42.543225833333],[9.4839819444444,42.543038611111],[9.4841630555556,42.543082777778],[9.4842019444444,42.543086388889],[9.4842494444444,42.543085833333],[9.4842997222222,42.543083333333],[9.4843430555556,42.543076388889],[9.4843797222222,42.543063888889],[9.4844080555556,42.543048055556],[9.4844255555556,42.543027777778],[9.4844408333333,42.5430025],[9.4848188888889,42.542098611111],[9.4848575,42.542015],[9.4848733333333,42.541981666667],[9.4848905555556,42.541951111111],[9.4849147222222,42.541911944444],[9.484945,42.541868888889],[9.4849794444444,42.541824722222],[9.4850072222222,42.541790833333],[9.4850358333333,42.541756944444],[9.4850705555556,42.541720833333],[9.4850947222222,42.541695555556],[9.4851338888889,42.541658888889],[9.4851763888889,42.541621944444],[9.4852236111111,42.541583333333],[9.4852722222222,42.541547222222],[9.4853255555556,42.541513055556],[9.4853677777778,42.541486666667],[9.4854166666667,42.541459166667],[9.4854641666667,42.541433611111],[9.4855261111111,42.541403611111],[9.4856144444444,42.541363611111],[9.4856927777778,42.541331111111],[9.4857775,42.541303333333],[9.4858477777778,42.541280277778],[9.4859194444444,42.541261944444],[9.4860144444444,42.541241388889],[9.4861130555556,42.541224166667],[9.4862088888889,42.541211111111],[9.4863108333333,42.5412025],[9.4863916666667,42.541198055556],[9.4864813888889,42.541199444444],[9.4865816666667,42.5412025],[9.4866858333333,42.541211111111],[9.4867744444444,42.541221944444],[9.4868452777778,42.541236944444],[9.48694,42.541256944444],[9.4870477777778,42.541285277778],[9.4871305555556,42.54131],[9.4872038888889,42.541335555556],[9.4872580555556,42.5413575],[9.4873188888889,42.541386388889],[9.4871775,42.5415625],[9.4871122222222,42.541535277778],[9.4870280555556,42.541505555556],[9.4869341666667,42.541475833333],[9.4868672222222,42.541458611111],[9.4868011111111,42.541443333333],[9.4867075,42.541426944444],[9.4866122222222,42.541414166667],[9.4865169444444,42.541408888889],[9.486415,42.5414075],[9.4863363888889,42.541410277778],[9.4862594444444,42.541416666667],[9.4861766666667,42.541425833333],[9.4860941666667,42.541439722222],[9.4860152777778,42.541456388889],[9.4859322222222,42.5414775],[9.4858538888889,42.541500555556],[9.4857936111111,42.541523333333],[9.4857219444444,42.541551111111],[9.4856577777778,42.5415825],[9.4855905555556,42.541616666667],[9.4855322222222,42.541650833333],[9.4854744444444,42.54169],[9.4854244444444,42.541726111111],[9.4853752777778,42.541767222222],[9.4853152777778,42.541819722222],[9.4852630555556,42.541875277778],[9.4852130555556,42.541936111111],[9.4851675,42.541995833333],[9.4851286111111,42.542061111111],[9.4850936111111,42.542131111111],[9.4847866666667,42.542866666667],[9.4844011111111,42.543778333333],[9.4844630555556,42.543834166667],[9.4843858333333,42.544046666667],[9.4843708333333,42.544097777778],[9.4843608333333,42.544146666667],[9.4843566666667,42.544196944444],[9.4843544444444,42.544261944444],[9.4843547222222,42.544321388889],[9.48436,42.544385277778],[9.4843705555556,42.544451388889],[9.4843827777778,42.544516111111],[9.4844027777778,42.544606944444],[9.4843441666667,42.544616111111],[9.4843616666667,42.544713611111],[9.4843730555556,42.544775555556],[9.48438,42.5448275],[9.4843797222222,42.544859166667],[9.4843727777778,42.544883611111],[9.4840702777778,42.545612222222],[9.4837766666667,42.546314722222],[9.4835377777778,42.546881111111],[9.4831113888889,42.547902777778],[9.4826663888889,42.548955],[9.4825938888889,42.549135],[9.4825819444444,42.5491875],[9.4825816666667,42.549231666667],[9.4825955555556,42.549276111111],[9.4826208333333,42.549329166667],[9.4826488888889,42.549362777778],[9.4826827777778,42.549393333333],[9.4827261111111,42.549420833333],[9.4827741666667,42.549441666667],[9.4828288888889,42.549460277778],[9.4829119444444,42.549480555556],[9.4837472222222,42.549668055556],[9.4836791666667,42.549830555556],[9.4829913888889,42.549672777778],[9.4829480555556,42.549663888889],[9.4829158333333,42.549658055556],[9.4828822222222,42.549653611111],[9.4828502777778,42.5496525],[9.4828091666667,42.549653333333],[9.4827716666667,42.5496575],[9.4827358333333,42.549665555556],[9.4826994444444,42.549677777778],[9.482645,42.549701111111],[9.48261,42.549718333333],[9.4825827777778,42.549741388889],[9.4825611111111,42.549766388889],[9.4825308333333,42.549810555556],[9.4825116666667,42.549841944444],[9.4824894444444,42.549888055556],[9.4824155555556,42.5500675],[9.4821980555556,42.550598611111],[9.4813633333333,42.552595],[9.4788738888889,42.558536111111],[9.4788436111111,42.558628611111],[9.4788188888889,42.558714444444],[9.4788069444444,42.558776944444],[9.4788013888889,42.558841111111],[9.4788025,42.558897222222],[9.4788086111111,42.558948333333],[9.4788213888889,42.559001666667],[9.4788469444444,42.559055277778],[9.4788866666667,42.559108611111],[9.4789302777778,42.559154166667],[9.4789727777778,42.5591925],[9.4790197222222,42.559225277778],[9.4790747222222,42.559252777778],[9.4791336111111,42.559277222222],[9.4791330555556,42.559277222222],[9.4793327777778,42.559346388889],[9.4794138888889,42.559370833333],[9.4794780555556,42.559388888889],[9.4796130555556,42.559422222222],[9.4795313888889,42.559621111111]]]}},{"type":"Feature","id":"LFKB-d36e4e399b183726a2a2","properties":{"airport":"LFKB","name":"COLOR_RunwayConcrete","layer":"Airfield surfaces","category":"Runways","object_type":"Area","style_id":"polygon.runwayconcrete.555555","source_group":"COLOR_RunwayConcrete","vsmr_group_ids":[],"geometry_role":"filled_region"},"geometry":{"type":"Polygon","coordinates":[[[9.4787252777778,42.5632],[9.4786988888889,42.5631575],[9.4786769444444,42.563108611111],[9.4786613888889,42.5630525],[9.4786522222222,42.563007777778],[9.4786552777778,42.562951388889],[9.4786655555556,42.562909722222],[9.4786861111111,42.562861944444],[9.4787152777778,42.562814444444],[9.4787541666667,42.562771111111],[9.4788055555556,42.562725833333],[9.4788694444444,42.562679444444],[9.4792163888889,42.562438055556],[9.4792602777778,42.562400833333],[9.4793036111111,42.562356944444],[9.4794188888889,42.562225],[9.4794525,42.562177222222],[9.4794755555556,42.562133055556],[9.4803322222222,42.560105],[9.4803358333333,42.560090277778],[9.4803383333333,42.560061944444],[9.4803347222222,42.560026111111],[9.4803183333333,42.559983333333],[9.4802925,42.559943888889],[9.4802627777778,42.559908888889],[9.4802169444444,42.559869444444],[9.4801627777778,42.559833055556],[9.4801116666667,42.559805555556],[9.4800608333333,42.559781388889],[9.4799958333333,42.559754722222],[9.4799188888889,42.559728333333],[9.4798569444444,42.559708055556],[9.4797888888889,42.559688055556],[9.4797169444444,42.559667222222],[9.479655,42.559650555556],[9.4795975,42.559636111111],[9.47953,42.559621111111],[9.4796122222222,42.559421666667],[9.4797641666667,42.559455833333],[9.4798202777778,42.559466111111],[9.4798855555556,42.559475277778],[9.4799433333333,42.559481388889],[9.4800041666667,42.559483888889],[9.4800583333333,42.559485],[9.4802088888889,42.559480277778],[9.4802791666667,42.559474722222],[9.4803352777778,42.559468611111],[9.4803922222222,42.559457222222],[9.4804391666667,42.559443055556],[9.4804852777778,42.559424166667],[9.4805255555556,42.559401388889],[9.4805686111111,42.559372777778],[9.4806141666667,42.559332777778],[9.4806588888889,42.559282777778],[9.4806922222222,42.559232222222],[9.4807211111111,42.559176944444],[9.4807586111111,42.55909],[9.4844652777778,42.550255555556],[9.4844705555556,42.550228055556],[9.48447,42.550198333333],[9.4844622222222,42.5501675],[9.4844483333333,42.550131666667],[9.4844283333333,42.550094444444],[9.4844027777778,42.550061388889],[9.4843733333333,42.550032777778],[9.4843369444444,42.550006388889],[9.4842972222222,42.549985833333],[9.4842608333333,42.549969166667],[9.4842258333333,42.5499575],[9.4841566666667,42.549940833333],[9.484045,42.549913611111],[9.4836766666667,42.549829722222],[9.4837444444444,42.549667222222],[9.48424,42.549779166667],[9.4842938888889,42.549790277778],[9.48434,42.549794444444],[9.4843855555556,42.549794166667],[9.4844352777778,42.5497875],[9.4844783333333,42.549776944444],[9.4845172222222,42.549764444444],[9.4845552777778,42.54975],[9.4846066666667,42.5497225],[9.4846569444444,42.549683333333],[9.4847047222222,42.549636111111],[9.484735,42.549600277778],[9.4847591666667,42.549552777778],[9.4877691666667,42.542358055556],[9.4877683333333,42.5423225],[9.4877641666667,42.542270277778],[9.48776,42.542219166667],[9.4877536111111,42.542170277778],[9.4877444444444,42.542119444444],[9.4877297222222,42.542074722222],[9.4877061111111,42.542015555556],[9.4876733333333,42.541955],[9.4876208333333,42.541883611111],[9.4875677777778,42.541828333333],[9.4875152777778,42.541778333333],[9.4874533333333,42.541725],[9.4873836111111,42.541676111111],[9.4873102777778,42.541631111111],[9.4872433333333,42.541594722222],[9.4871730555556,42.541560833333],[9.4873169444444,42.541385833333],[9.4873783333333,42.541413333333],[9.4874388888889,42.541440277778],[9.4874969444444,42.541468888889],[9.4875516666667,42.541498888889],[9.4876122222222,42.541533611111],[9.4876633333333,42.5415675],[9.4877133333333,42.5416025],[9.4877627777778,42.541638611111],[9.4878197222222,42.541669722222],[9.487875,42.541693055556],[9.4879280555556,42.541707222222],[9.488595,42.541851944444],[9.4794138888889,42.563637777778],[9.4788625,42.56351],[9.4789336111111,42.563349444444],[9.4788855555556,42.563322777778],[9.4788447222222,42.563303055556],[9.4787972222222,42.563271388889],[9.4787644444444,42.563242222222],[9.4787252777778,42.5632]]]}},{"type":"Feature","id":"LFKB-a346540eac34f1c9ad76","properties":{"airport":"LFKB","name":"COLOR_RunwayConcrete","layer":"Airfield surfaces","category":"Runways","object_type":"Area","style_id":"polygon.runwayconcrete.555555","source_group":"COLOR_RunwayConcrete","vsmr_group_ids":[],"geometry_role":"filled_region"},"geometry":{"type":"Polygon","coordinates":[[[9.4797933333333,42.553636111111],[9.4799255555556,42.553666111111],[9.4798838888889,42.553761944444],[9.4797502777778,42.553732777778],[9.4797933333333,42.553636111111]]]}},{"type":"Feature","id":"LFKB-7ebef1e52b7a6fca80db","properties":{"airport":"LFKB","name":"COLOR_Building","layer":"Buildings and structures","category":"Buildings","object_type":"Area","style_id":"polygon.building.394446","source_group":"COLOR_Building","vsmr_group_ids":[],"geometry_role":"filled_region"},"geometry":{"type":"Polygon","coordinates":[[[9.4785511111111,42.553765],[9.4787022222222,42.553404444444],[9.4786661111111,42.553395833333],[9.4787008333333,42.553316944444],[9.4787363888889,42.553324722222],[9.4787544444444,42.553279722222],[9.4789625,42.553328333333],[9.4789769444444,42.553295277778],[9.4791211111111,42.55333],[9.4791066666667,42.553361666667],[9.4793183333333,42.553410277778],[9.4792422222222,42.553588611111],[9.4792541666667,42.5535925],[9.4791258333333,42.553894722222],[9.4785511111111,42.553765]]]}},{"type":"Feature","id":"LFKB-7cf90f52862038c9df26","properties":{"airport":"LFKB","name":"COLOR_Building","layer":"Buildings and structures","category":"Buildings","object_type":"Area","style_id":"polygon.building.394446","source_group":"COLOR_Building","vsmr_group_ids":[],"geometry_role":"filled_region"},"geometry":{"type":"Polygon","coordinates":[[[9.4799569444444,42.551910555556],[9.4799883333333,42.551918055556],[9.4799311111111,42.552049166667],[9.4798988888889,42.552041944444],[9.4799569444444,42.551910555556]]]}},{"type":"Feature","id":"LFKB-3f6f33e5f7ea13093e38","properties":{"airport":"LFKB","name":"COLOR_Building","layer":"Buildings and structures","category":"Buildings","object_type":"Area","style_id":"polygon.building.394446","source_group":"COLOR_Building","vsmr_group_ids":[],"geometry_role":"filled_region"},"geometry":{"type":"Polygon","coordinates":[[[9.4798597222222,42.552311111111],[9.4800163888889,42.552346944444],[9.4799733333333,42.552443888889],[9.4798222222222,42.552411111111],[9.4798597222222,42.552311111111]]]}},{"type":"Feature","id":"LFKB-87a93a36fe1a439f77ee","properties":{"airport":"LFKB","name":"COLOR_Building","layer":"Buildings and structures","category":"Buildings","object_type":"Area","style_id":"polygon.building.394446","source_group":"COLOR_Building","vsmr_group_ids":[],"geometry_role":"filled_region"},"geometry":{"type":"Polygon","coordinates":[[[9.4794630555556,42.550569166667],[9.4794522222222,42.550734444444],[9.4793758333333,42.550732222222],[9.4793775,42.550685],[9.4792663888889,42.550681944444],[9.4792608333333,42.550730277778],[9.4791336111111,42.550724722222],[9.4791355555556,42.5506775],[9.4788922222222,42.550669444444],[9.4788902777778,42.550690833333],[9.4788197222222,42.550688333333],[9.4788125,42.550770555556],[9.4786961111111,42.550768888889],[9.4787038888889,42.550684722222],[9.4786161111111,42.550682222222],[9.4786144444444,42.550716944444],[9.4786094444444,42.550721111111],[9.4786036111111,42.550814444444],[9.47855,42.550813055556],[9.4785311111111,42.5507975],[9.4785327777778,42.550763611111],[9.4784902777778,42.550763333333],[9.4784930555556,42.5507325],[9.4784472222222,42.550731111111],[9.4784227777778,42.550713333333],[9.4784252777778,42.550676388889],[9.4784025,42.550676388889],[9.4783983333333,42.550764166667],[9.4781411111111,42.550757222222],[9.4781444444444,42.550665277778],[9.4780808333333,42.550664444444],[9.4780883333333,42.550523333333],[9.4788986111111,42.550547777778],[9.4788988888889,42.550552777778],[9.4794630555556,42.550569166667]]]}},{"type":"Feature","id":"LFKB-5042aabd61924d4ad1ee","properties":{"airport":"LFKB","name":"COLOR_Building","layer":"Buildings and structures","category":"Buildings","object_type":"Area","style_id":"polygon.building.394446","source_group":"COLOR_Building","vsmr_group_ids":[],"geometry_role":"filled_region"},"geometry":{"type":"Polygon","coordinates":[[[9.4780238888889,42.550521388889],[9.4780130555556,42.550710277778],[9.4776438888889,42.550699166667],[9.4776475,42.5506475],[9.4777008333333,42.550649444444],[9.4777052777778,42.550548333333],[9.4777741666667,42.55055],[9.4777755555556,42.550513333333],[9.4780238888889,42.550521388889]]]}},{"type":"Feature","id":"LFKB-aea69961453a2705d311","properties":{"airport":"LFKB","name":"COLOR_Building","layer":"Buildings and structures","category":"Buildings","object_type":"Area","style_id":"polygon.building.394446","source_group":"COLOR_Building","vsmr_group_ids":[],"geometry_role":"filled_region"},"geometry":{"type":"Polygon","coordinates":[[[9.4774516666667,42.550461944444],[9.4774744444444,42.550064166667],[9.4778041666667,42.550073611111],[9.4777844444444,42.5504725],[9.4774516666667,42.550461944444]]]}},{"type":"Feature","id":"LFKB-4c8b1a302f47efcdd7f4","properties":{"airport":"LFKB","name":"COLOR_Building","layer":"Buildings and structures","category":"Buildings","object_type":"Area","style_id":"polygon.building.394446","source_group":"COLOR_Building","vsmr_group_ids":[],"geometry_role":"filled_region"},"geometry":{"type":"Polygon","coordinates":[[[9.4777855555556,42.549039444444],[9.4777836111111,42.548891944444],[9.4778091666667,42.548863611111],[9.4780483333333,42.548860277778],[9.4780469444444,42.5489825],[9.4779994444444,42.548981944444],[9.4779988888889,42.549038888889],[9.4777855555556,42.549039444444]]]}},{"type":"Feature","id":"LFKB-9038e2fad73eff3a6672","properties":{"airport":"LFKB","name":"COLOR_Building","layer":"Buildings and structures","category":"Buildings","object_type":"Area","style_id":"polygon.building.394446","source_group":"COLOR_Building","vsmr_group_ids":[],"geometry_role":"filled_region"},"geometry":{"type":"Polygon","coordinates":[[[9.4782433333333,42.548805],[9.4782452777778,42.548772222222],[9.4783266666667,42.548773333333],[9.4783258333333,42.548799722222],[9.4783505555556,42.5488],[9.4783475,42.548889444444],[9.4783058333333,42.548889166667],[9.4783083333333,42.548832222222],[9.4782652777778,42.548831944444],[9.478265,42.548805555556],[9.4782433333333,42.548805]]]}},{"type":"Feature","id":"LFKB-9c5ab178f81945fde8d5","properties":{"airport":"LFKB","name":"COLOR_Building","layer":"Buildings and structures","category":"Buildings","object_type":"Area","style_id":"polygon.building.394446","source_group":"COLOR_Building","vsmr_group_ids":[],"geometry_role":"filled_region"},"geometry":{"type":"Polygon","coordinates":[[[9.4799566666667,42.548928055556],[9.4800138888889,42.548940277778],[9.48003,42.548900833333],[9.4800772222222,42.548911111111],[9.4801088888889,42.548835277778],[9.4800655555556,42.548824166667],[9.4801152777778,42.548706111111],[9.4802875,42.548746666667],[9.4801430555556,42.549070833333],[9.4799183333333,42.549015833333],[9.4799566666667,42.548928055556]]]}},{"type":"Feature","id":"LFKB-6dbff5e38d787c91914d","properties":{"airport":"LFKB","name":"COLOR_Building","layer":"Buildings and structures","category":"Buildings","object_type":"Area","style_id":"polygon.building.394446","source_group":"COLOR_Building","vsmr_group_ids":[],"geometry_role":"filled_region"},"geometry":{"type":"Polygon","coordinates":[[[9.4804155555556,42.548778611111],[9.4807325,42.548850833333],[9.4807480555556,42.548814166667],[9.4807422222222,42.548802222222],[9.4807411111111,42.548791666667],[9.4807427777778,42.548784166667],[9.4807480555556,42.5487775],[9.4807277777778,42.548773333333],[9.4807188888889,42.548794166667],[9.4807130555556,42.548797777778],[9.4807011111111,42.5488],[9.4806916666667,42.548800555556],[9.4806827777778,42.548799722222],[9.4805902777778,42.548777777778],[9.4807061111111,42.548499444444],[9.4808308333333,42.548528611111],[9.4807352777778,42.548757222222],[9.4807647222222,42.548764444444],[9.4808144444444,42.548648055556],[9.4808261111111,42.548650555556],[9.4808694444444,42.548605277778],[9.4809880555556,42.548630833333],[9.4809672222222,42.548679166667],[9.4809763888889,42.548681111111],[9.4809475,42.548746111111],[9.4809602777778,42.548747222222],[9.4809908333333,42.54876],[9.4810088888889,42.548779444444],[9.4810186111111,42.548803888889],[9.4810127777778,42.548828611111],[9.4809955555556,42.548848055556],[9.4809702777778,42.548863611111],[9.4809408333333,42.548868611111],[9.4809069444444,42.548865277778],[9.4808902777778,42.548858333333],[9.4808794444444,42.548881944444],[9.4807602777778,42.548856111111],[9.4806513888889,42.549120277778],[9.4805930555556,42.5491075],[9.4805777777778,42.549143055556],[9.4802941666667,42.549079166667],[9.4804155555556,42.548778611111]]]}},{"type":"Feature","id":"LFKB-ae8198a7c2b3b403c314","properties":{"airport":"LFKB","name":"COLOR_Building","layer":"Buildings and structures","category":"Buildings","object_type":"Area","style_id":"polygon.building.394446","source_group":"COLOR_Building","vsmr_group_ids":[],"geometry_role":"filled_region"},"geometry":{"type":"Polygon","coordinates":[[[9.480965,42.546852222222],[9.4809733333333,42.546828888889],[9.4809380555556,42.54682],[9.4810197222222,42.546626944444],[9.48133,42.546696388889],[9.4814702777778,42.546371666667],[9.4814538888889,42.546366944444],[9.4814627777778,42.546345],[9.4814791666667,42.546348055556],[9.4814844444444,42.546335277778],[9.4815969444444,42.54636],[9.4815791666667,42.546405277778],[9.4817530555556,42.546444444444],[9.4816180555556,42.546763611111],[9.4815825,42.546755833333],[9.4815011111111,42.546951111111],[9.4814530555556,42.546940277778],[9.4814463888889,42.546962777778],[9.4815261111111,42.5469825],[9.4815463888889,42.546990833333],[9.4813925,42.547368333333],[9.4813730555556,42.547372222222],[9.4813522222222,42.547375],[9.4813486111111,42.547408333333],[9.4813419444444,42.547442777778],[9.4813377777778,42.547473611111],[9.4813302777778,42.547509166667],[9.48132,42.547551666667],[9.4813055555556,42.547598888889],[9.4812888888889,42.5476475],[9.4812711111111,42.547696111111],[9.4812538888889,42.547740555556],[9.4812333333333,42.54778],[9.4812152777778,42.547818055556],[9.4811891666667,42.547866111111],[9.4811622222222,42.547910555556],[9.4811361111111,42.5479525],[9.4811072222222,42.547996388889],[9.4810761111111,42.548037777778],[9.4810880555556,42.548051388889],[9.4810986111111,42.548063611111],[9.4809363888889,42.548445555556],[9.48092,42.548442222222],[9.4808908333333,42.548505555556],[9.4806980555556,42.548463055556],[9.4807277777778,42.548391944444],[9.4802105555556,42.548277222222],[9.4804141666667,42.547801111111],[9.4804963888889,42.547819444444],[9.4804861111111,42.547786388889],[9.48048,42.547741111111],[9.4804780555556,42.547693055556],[9.4804838888889,42.547639722222],[9.48049,42.547606666667],[9.4805058333333,42.547561388889],[9.4805241666667,42.547518611111],[9.4805469444444,42.547476944444],[9.4805808333333,42.547435833333],[9.4806208333333,42.547391666667],[9.4806644444444,42.547351111111],[9.4806986111111,42.547325555556],[9.4806191666667,42.547307222222],[9.4808347222222,42.546791666667],[9.4809213888889,42.546842222222],[9.480965,42.546852222222]]]}},{"type":"Feature","id":"LFKB-d2d419b0db2a18d387f2","properties":{"airport":"LFKB","name":"COLOR_Building","layer":"Buildings and structures","category":"Buildings","object_type":"Area","style_id":"polygon.building.394446","source_group":"COLOR_Building","vsmr_group_ids":[],"geometry_role":"filled_region"},"geometry":{"type":"Polygon","coordinates":[[[9.4817519444444,42.546031666667],[9.4818772222222,42.5460625],[9.4818188888889,42.546196111111],[9.4816933333333,42.546166666667],[9.4817519444444,42.546031666667]]]}},{"type":"Feature","id":"LFKB-282c3a4e3a4b52599c7f","properties":{"airport":"LFKB","name":"COLOR_Building","layer":"Buildings and structures","category":"Buildings","object_type":"Area","style_id":"polygon.building.394446","source_group":"COLOR_Building","vsmr_group_ids":[],"geometry_role":"filled_region"},"geometry":{"type":"Polygon","coordinates":[[[9.4818019444444,42.545785833333],[9.4818538888889,42.5457975],[9.4818625,42.545773055556],[9.4818405555556,42.5457675],[9.4818613888889,42.545715],[9.4818505555556,42.545697222222],[9.4818858333333,42.545684444444],[9.4818958333333,42.545701388889],[9.4819508333333,42.545712777778],[9.4819702777778,42.545703333333],[9.4819866666667,42.5457275],[9.4819755555556,42.545752222222],[9.4820069444444,42.545759444444],[9.4819675,42.545855],[9.4819013888889,42.54584],[9.4818886111111,42.545867222222],[9.4817780555556,42.545841388889],[9.4818019444444,42.545785833333]]]}},{"type":"Feature","id":"LFKB-f91d6b891f47af011984","properties":{"airport":"LFKB","name":"COLOR_Building","layer":"Buildings and structures","category":"Buildings","object_type":"Area","style_id":"polygon.building.394446","source_group":"COLOR_Building","vsmr_group_ids":[],"geometry_role":"filled_region"},"geometry":{"type":"Polygon","coordinates":[[[9.4815330555556,42.545042777778],[9.4818911111111,42.5451225],[9.4818236111111,42.545293333333],[9.4818344444444,42.545296111111],[9.4818055555556,42.545365555556],[9.4816875,42.54534],[9.4817061111111,42.545297222222],[9.4814505555556,42.54524],[9.4815330555556,42.545042777778]]]}},{"type":"Feature","id":"LFKB-0fd267b0805dced39088","properties":{"airport":"LFKB","name":"COLOR_Building","layer":"Buildings and structures","category":"Buildings","object_type":"Area","style_id":"polygon.building.394446","source_group":"COLOR_Building","vsmr_group_ids":[],"geometry_role":"filled_region"},"geometry":{"type":"Polygon","coordinates":[[[9.4820166666667,42.544563333333],[9.4821941666667,42.544606111111],[9.4820430555556,42.544971944444],[9.4818622222222,42.544932222222],[9.4820166666667,42.544563333333]]]}},{"type":"Feature","id":"LFKB-bfb1efcd28786355127f","properties":{"airport":"LFKB","name":"COLOR_Building","layer":"Buildings and structures","category":"Buildings","object_type":"Area","style_id":"polygon.building.394446","source_group":"COLOR_Building","vsmr_group_ids":[],"geometry_role":"filled_region"},"geometry":{"type":"Polygon","coordinates":[[[9.4826533333333,42.542986111111],[9.4826008333333,42.542936666667],[9.4825186111111,42.542919722222],[9.4825155555556,42.542927222222],[9.4823166666667,42.542883055556],[9.4823416666667,42.542822222222],[9.4824169444444,42.5428375],[9.4824613888889,42.542734444444],[9.4823855555556,42.542718333333],[9.4824119444444,42.542657777778],[9.4824316666667,42.542661666667],[9.4824691666667,42.542571944444],[9.4827158333333,42.542626388889],[9.4826780555556,42.542718888889],[9.4826944444444,42.5427225],[9.4827763888889,42.542701388889],[9.4828858333333,42.5427275],[9.4827647222222,42.543012777778],[9.4826533333333,42.542986111111]]]}},{"type":"Feature","id":"LFKB-c9476afb11bd467db989","properties":{"airport":"LFKB","name":"COLOR_Building","layer":"Buildings and structures","category":"Buildings","object_type":"Area","style_id":"polygon.building.394446","source_group":"COLOR_Building","vsmr_group_ids":[],"geometry_role":"filled_region"},"geometry":{"type":"Polygon","coordinates":[[[9.4804055555556,42.549874722222],[9.4804588888889,42.549888611111],[9.4804372222222,42.549938055556],[9.4803841666667,42.549924722222],[9.4804055555556,42.549874722222]]]}},{"type":"Feature","id":"LFKB-f2dec3529c64ad1a7466","properties":{"airport":"LFKB","name":"COLOR_GrasSurface","layer":"Terrain","category":"Grass","object_type":"Area","style_id":"polygon.grassurface.00512f","source_group":"COLOR_GrasSurface","vsmr_group_ids":[],"geometry_role":"filled_region"},"geometry":{"type":"Polygon","coordinates":[[[9.4789372222222,42.553392222222],[9.4790738888889,42.553425],[9.4790511111111,42.553479722222],[9.4789152777778,42.553448888889],[9.4789372222222,42.553392222222]]]}},{"type":"Feature","id":"LFKB-7657b7344cc0a633aa5b","properties":{"airport":"LFKB","name":"COLOR_Stopbar","layer":"Surface markings","category":"Stopbars","object_type":"Area","style_id":"polygon.stopbar.7e0000","source_group":"COLOR_Stopbar","vsmr_group_ids":[],"geometry_role":"filled_region"},"geometry":{"type":"Polygon","coordinates":[[[9.4796036111111,42.559419166667],[9.4796319444444,42.559425555556],[9.4795480555556,42.559625555556],[9.4795205555556,42.559619444444],[9.4796036111111,42.559419166667]]]}},{"type":"Feature","id":"LFKB-b40c7847d77f039a8be3","properties":{"airport":"LFKB","name":"COLOR_Stopbar","layer":"Surface markings","category":"Stopbars","object_type":"Area","style_id":"polygon.stopbar.7e0000","source_group":"COLOR_Stopbar","vsmr_group_ids":[],"geometry_role":"filled_region"},"geometry":{"type":"Polygon","coordinates":[[[9.4837383333333,42.549665],[9.4837644444444,42.549671388889],[9.4836961111111,42.549834444444],[9.4836694444444,42.549828611111],[9.4837383333333,42.549665]]]}},{"type":"Feature","id":"LFKB-c3eef3e534d7a79c0214","properties":{"airport":"LFKB","name":"COLOR_Stopbar","layer":"Surface markings","category":"Stopbars","object_type":"Area","style_id":"polygon.stopbar.7e0000","source_group":"COLOR_Stopbar","vsmr_group_ids":[],"geometry_role":"filled_region"},"geometry":{"type":"Polygon","coordinates":[[[9.4873113888889,42.541382222222],[9.4873369444444,42.541394444444],[9.4871902777778,42.541569444444],[9.4871677777778,42.541558611111],[9.4873113888889,42.541382222222]]]}},{"type":"Feature","id":"LFKB-9287db7d8d2b88dd46d0","properties":{"airport":"LFKB","name":"COLOR_TaxiwayOrange","layer":"Airfield surfaces","category":"Taxiway Orange","object_type":"Area","style_id":"polygon.taxiwayorange.cc6d00","source_group":"COLOR_TaxiwayOrange","vsmr_group_ids":[],"geometry_role":"filled_region"},"geometry":{"type":"Polygon","coordinates":[[[9.4812866666667,42.549930277778],[9.4812986111111,42.549924722222],[9.4813927777778,42.550042222222],[9.4813833333333,42.550046388889],[9.4812866666667,42.549930277778]]]}},{"type":"Feature","id":"LFKB-90ee72de5fcac299df72","properties":{"airport":"LFKB","name":"COLOR_TaxiwayOrange","layer":"Airfield surfaces","category":"Taxiway Orange","object_type":"Area","style_id":"polygon.taxiwayorange.cc6d00","source_group":"COLOR_TaxiwayOrange","vsmr_group_ids":[],"geometry_role":"filled_region"},"geometry":{"type":"Polygon","coordinates":[[[9.4811669444444,42.549386388889],[9.4811811111111,42.549386944444],[9.4811761111111,42.549499166667],[9.4811602777778,42.549498611111],[9.4811669444444,42.549386388889]]]}},{"type":"Feature","id":"LFKB-06608d564092b7914651","properties":{"airport":"LFKB","name":"COLOR_Taxiway","layer":"Guidance lines","category":"Taxiways","object_type":"Line","style_id":"line.taxiway.c0b631","source_group":"COLOR_Taxiway","vsmr_group_ids":[],"geometry_role":"linework"},"geometry":{"type":"LineString","coordinates":[[9.4794227777778,42.553903055556],[9.4797844444444,42.553822777778],[9.4798122222222,42.553761111111]]}},{"type":"Feature","id":"LFKB-46c27d4f83765457b332","properties":{"airport":"LFKB","name":"COLOR_Taxiway","layer":"Guidance lines","category":"Taxiways","object_type":"Line","style_id":"line.taxiway.c0b631","source_group":"COLOR_Taxiway","vsmr_group_ids":[],"geometry_role":"linework"},"geometry":{"type":"LineString","coordinates":[[9.4797480555556,42.553700555556],[9.4794961111111,42.553729166667]]}},{"type":"Feature","id":"LFKB-3a2608fde84cd3613f19","properties":{"airport":"LFKB","name":"COLOR_Taxiway","layer":"Guidance lines","category":"Taxiways","object_type":"Line","style_id":"line.taxiway.c0b631","source_group":"COLOR_Taxiway","vsmr_group_ids":[],"geometry_role":"linework"},"geometry":{"type":"LineString","coordinates":[[9.4792875,42.553935],[9.4792730555556,42.553930833333],[9.4792580555556,42.553923333333],[9.4792475,42.553916388889],[9.4792388888889,42.553907222222],[9.4792313888889,42.553896666667],[9.4792283333333,42.553886666667],[9.4792269444444,42.553874166667],[9.4792280555556,42.553863611111],[9.4792327777778,42.553851111111],[9.4792433333333,42.553839722222],[9.4792541666667,42.553831388889],[9.4792669444444,42.553823888889],[9.4792830555556,42.553819166667],[9.4792997222222,42.553816666667],[9.4793175,42.553816944444],[9.4793363888889,42.553819722222],[9.4793513888889,42.553825555556],[9.4793669444444,42.553835],[9.4793794444444,42.553846666667],[9.4793858333333,42.553856666667],[9.4793897222222,42.553869444444],[9.4793894444444,42.553883055556],[9.4793858333333,42.553895555556],[9.4793780555556,42.5539075],[9.4793683333333,42.5539175],[9.4793541666667,42.553926666667],[9.4793372222222,42.553932777778],[9.4793208333333,42.553936111111],[9.4793044444444,42.553936666667],[9.4792875,42.553935]]}},{"type":"Feature","id":"LFKB-79c3059f1b34537ad604","properties":{"airport":"LFKB","name":"COLOR_Taxiway","layer":"Guidance lines","category":"Taxiways","object_type":"Line","style_id":"line.taxiway.c0b631","source_group":"COLOR_Taxiway","vsmr_group_ids":[],"geometry_role":"linework"},"geometry":{"type":"LineString","coordinates":[[9.4793552777778,42.553762777778],[9.4793411111111,42.553758055556],[9.4793280555556,42.553751666667],[9.4793163888889,42.553743055556],[9.4793069444444,42.553734166667],[9.4793,42.553723333333],[9.4792972222222,42.553714166667],[9.4792963888889,42.553703888889],[9.4792972222222,42.553693055556],[9.4793013888889,42.553681111111],[9.4793097222222,42.553670833333],[9.4793213888889,42.553660277778],[9.4793347222222,42.553652222222],[9.4793502777778,42.553646944444],[9.4793644444444,42.553643888889],[9.4793808333333,42.553642777778],[9.4793991666667,42.553643888889],[9.4794158333333,42.553648055556],[9.4794302777778,42.553654166667],[9.4794433333333,42.553662222222],[9.479455,42.553673611111],[9.4794608333333,42.553685],[9.4794644444444,42.553698611111],[9.4794633333333,42.553713611111],[9.4794583333333,42.553727222222],[9.4794502777778,42.553739166667],[9.4794397222222,42.553748611111],[9.4794247222222,42.5537575],[9.4794105555556,42.553761944444],[9.4793941666667,42.553765],[9.4793786111111,42.553765555556],[9.4793655555556,42.553765],[9.4793552777778,42.553762777778]]}},{"type":"Feature","id":"LFKB-620070342aabb0527f35","properties":{"airport":"LFKB","name":"COLOR_Taxiway","layer":"Guidance lines","category":"Taxiways","object_type":"Line","style_id":"line.taxiway.c0b631","source_group":"COLOR_Taxiway","vsmr_group_ids":[],"geometry_role":"linework"},"geometry":{"type":"LineString","coordinates":[[9.4802486111111,42.552780833333],[9.4803608333333,42.552510277778]]}},{"type":"Feature","id":"LFKB-46ea13863df4c85bea8b","properties":{"airport":"LFKB","name":"COLOR_Taxiway","layer":"Guidance lines","category":"Taxiways","object_type":"Line","style_id":"line.taxiway.c0b631","source_group":"COLOR_Taxiway","vsmr_group_ids":[],"geometry_role":"linework"},"geometry":{"type":"LineString","coordinates":[[9.4798088888889,42.551773611111],[9.4801730555556,42.5518525]]}},{"type":"Feature","id":"LFKB-d271a8c9d2413a9587eb","properties":{"airport":"LFKB","name":"COLOR_Taxiway","layer":"Guidance lines","category":"Taxiways","object_type":"Line","style_id":"line.taxiway.c0b631","source_group":"COLOR_Taxiway","vsmr_group_ids":[],"geometry_role":"linework"},"geometry":{"type":"LineString","coordinates":[[9.4800758333333,42.551108055556],[9.4799844444444,42.551330277778]]}},{"type":"Feature","id":"LFKB-d2b69547fd00a4146cdd","properties":{"airport":"LFKB","name":"COLOR_Taxiway","layer":"Guidance lines","category":"Taxiways","object_type":"Line","style_id":"line.taxiway.c0b631","source_group":"COLOR_Taxiway","vsmr_group_ids":[],"geometry_role":"linework"},"geometry":{"type":"LineString","coordinates":[[9.4801286111111,42.551020555556],[9.4804511111111,42.550891666667]]}},{"type":"Feature","id":"LFKB-fd9b27775c4d1662cd58","properties":{"airport":"LFKB","name":"COLOR_Taxiway","layer":"Guidance lines","category":"Taxiways","object_type":"Line","style_id":"line.taxiway.c0b631","source_group":"COLOR_Taxiway","vsmr_group_ids":[],"geometry_role":"linework"},"geometry":{"type":"LineString","coordinates":[[9.4802794444444,42.550623055556],[9.4801683333333,42.550885277778]]}},{"type":"Feature","id":"LFKB-8b98afdf11fa51f40411","properties":{"airport":"LFKB","name":"COLOR_Taxiway","layer":"Guidance lines","category":"Taxiways","object_type":"Line","style_id":"line.taxiway.c0b631","source_group":"COLOR_Taxiway","vsmr_group_ids":[],"geometry_role":"linework"},"geometry":{"type":"LineString","coordinates":[[9.4802908333333,42.550624166667],[9.4806141666667,42.550495833333]]}},{"type":"Feature","id":"LFKB-da727cee4db872c0d9d3","properties":{"airport":"LFKB","name":"COLOR_Taxiway","layer":"Guidance lines","category":"Taxiways","object_type":"Line","style_id":"line.taxiway.c0b631","source_group":"COLOR_Taxiway","vsmr_group_ids":[],"geometry_role":"linework"},"geometry":{"type":"LineString","coordinates":[[9.4789316666667,42.550315555556],[9.4789402777778,42.550189444444]]}},{"type":"Feature","id":"LFKB-9c82c7b565cfd35f9e66","properties":{"airport":"LFKB","name":"COLOR_Taxiway","layer":"Guidance lines","category":"Taxiways","object_type":"Line","style_id":"line.taxiway.c0b631","source_group":"COLOR_Taxiway","vsmr_group_ids":[],"geometry_role":"linework"},"geometry":{"type":"LineString","coordinates":[[9.4787433333333,42.550309166667],[9.47875,42.550185555556]]}},{"type":"Feature","id":"LFKB-55fdce65fbd7aba5b5ac","properties":{"airport":"LFKB","name":"COLOR_Taxiway","layer":"Guidance lines","category":"Taxiways","object_type":"Line","style_id":"line.taxiway.c0b631","source_group":"COLOR_Taxiway","vsmr_group_ids":[],"geometry_role":"linework"},"geometry":{"type":"LineString","coordinates":[[9.4785544444444,42.550301388889],[9.4785619444444,42.550181388889]]}},{"type":"Feature","id":"LFKB-daee9da7a33eb1b16dba","properties":{"airport":"LFKB","name":"COLOR_Taxiway","layer":"Guidance lines","category":"Taxiways","object_type":"Line","style_id":"line.taxiway.c0b631","source_group":"COLOR_Taxiway","vsmr_group_ids":[],"geometry_role":"linework"},"geometry":{"type":"LineString","coordinates":[[9.4783666666667,42.550292222222],[9.4783727777778,42.550176111111]]}},{"type":"Feature","id":"LFKB-f2e20b0483f4860cda42","properties":{"airport":"LFKB","name":"COLOR_Taxiway","layer":"Guidance lines","category":"Taxiways","object_type":"Line","style_id":"line.taxiway.c0b631","source_group":"COLOR_Taxiway","vsmr_group_ids":[],"geometry_role":"linework"},"geometry":{"type":"LineString","coordinates":[[9.4789502777778,42.5500225],[9.4789583333333,42.549885]]}},{"type":"Feature","id":"LFKB-35ae44b166ff36b1ca6b","properties":{"airport":"LFKB","name":"COLOR_Taxiway","layer":"Guidance lines","category":"Taxiways","object_type":"Line","style_id":"line.taxiway.c0b631","source_group":"COLOR_Taxiway","vsmr_group_ids":[],"geometry_role":"linework"},"geometry":{"type":"LineString","coordinates":[[9.4787613888889,42.550023055556],[9.47877,42.549882222222]]}},{"type":"Feature","id":"LFKB-20e3591588894a9b6f73","properties":{"airport":"LFKB","name":"COLOR_Taxiway","layer":"Guidance lines","category":"Taxiways","object_type":"Line","style_id":"line.taxiway.c0b631","source_group":"COLOR_Taxiway","vsmr_group_ids":[],"geometry_role":"linework"},"geometry":{"type":"LineString","coordinates":[[9.4785727777778,42.550016111111],[9.47858,42.549880277778]]}},{"type":"Feature","id":"LFKB-2794d82e0f12b4150550","properties":{"airport":"LFKB","name":"COLOR_Taxiway","layer":"Guidance lines","category":"Taxiways","object_type":"Line","style_id":"line.taxiway.c0b631","source_group":"COLOR_Taxiway","vsmr_group_ids":[],"geometry_role":"linework"},"geometry":{"type":"LineString","coordinates":[[9.4783838888889,42.550011388889],[9.4783911111111,42.549877222222]]}},{"type":"Feature","id":"LFKB-82bf91d3b51324be0423","properties":{"airport":"LFKB","name":"COLOR_Taxiway","layer":"Guidance lines","category":"Taxiways","object_type":"Line","style_id":"line.taxiway.c0b631","source_group":"COLOR_Taxiway","vsmr_group_ids":[],"geometry_role":"linework"},"geometry":{"type":"LineString","coordinates":[[9.4792319444444,42.549065833333],[9.4794197222222,42.549328333333]]}},{"type":"Feature","id":"LFKB-e11cf3173b35fd45fe79","properties":{"airport":"LFKB","name":"COLOR_Taxiway","layer":"Guidance lines","category":"Taxiways","object_type":"Line","style_id":"line.taxiway.c0b631","source_group":"COLOR_Taxiway","vsmr_group_ids":[],"geometry_role":"linework"},"geometry":{"type":"LineString","coordinates":[[9.4789847222222,42.549058888889],[9.4792744444444,42.549466666667]]}},{"type":"Feature","id":"LFKB-d43d7af297a3eaf9a648","properties":{"airport":"LFKB","name":"COLOR_Taxiway","layer":"Guidance lines","category":"Taxiways","object_type":"Line","style_id":"line.taxiway.c0b631","source_group":"COLOR_Taxiway","vsmr_group_ids":[],"geometry_role":"linework"},"geometry":{"type":"LineString","coordinates":[[9.4787388888889,42.549059166667],[9.4790675,42.549519722222]]}},{"type":"Feature","id":"LFKB-a1f161f89a416e390d44","properties":{"airport":"LFKB","name":"COLOR_Taxiway","layer":"Guidance lines","category":"Taxiways","object_type":"Line","style_id":"line.taxiway.c0b631","source_group":"COLOR_Taxiway","vsmr_group_ids":[],"geometry_role":"linework"},"geometry":{"type":"LineString","coordinates":[[9.4811319444444,42.548989444444],[9.4816880555556,42.549116944444]]}},{"type":"Feature","id":"LFKB-84321732b1ba034e6bd6","properties":{"airport":"LFKB","name":"COLOR_Taxiway","layer":"Guidance lines","category":"Taxiways","object_type":"Line","style_id":"line.taxiway.c0b631","source_group":"COLOR_Taxiway","vsmr_group_ids":[],"geometry_role":"linework"},"geometry":{"type":"LineString","coordinates":[[9.4812122222222,42.548869722222],[9.4819494444444,42.548747222222]]}},{"type":"Feature","id":"LFKB-015d890a3b3507cb77d0","properties":{"airport":"LFKB","name":"COLOR_Taxiway","layer":"Guidance lines","category":"Taxiways","object_type":"Line","style_id":"line.taxiway.c0b631","source_group":"COLOR_Taxiway","vsmr_group_ids":[],"geometry_role":"linework"},"geometry":{"type":"LineString","coordinates":[[9.4813972222222,42.548356944444],[9.4821708333333,42.548226666667]]}},{"type":"Feature","id":"LFKB-660c164143490d2cee74","properties":{"airport":"LFKB","name":"COLOR_Taxiway","layer":"Guidance lines","category":"Taxiways","object_type":"Line","style_id":"line.taxiway.c0b631","source_group":"COLOR_Taxiway","vsmr_group_ids":[],"geometry_role":"linework"},"geometry":{"type":"LineString","coordinates":[[9.4816147222222,42.54784],[9.4823947222222,42.547709444444]]}},{"type":"Feature","id":"LFKB-ace68e62e03d2967e2ec","properties":{"airport":"LFKB","name":"COLOR_Taxiway","layer":"Guidance lines","category":"Taxiways","object_type":"Line","style_id":"line.taxiway.c0b631","source_group":"COLOR_Taxiway","vsmr_group_ids":[],"geometry_role":"linework"},"geometry":{"type":"LineString","coordinates":[[9.4818275,42.547327222222],[9.4826108333333,42.547195277778]]}},{"type":"Feature","id":"LFKB-f95947e8c6c9f9f1408b","properties":{"airport":"LFKB","name":"COLOR_Taxiway","layer":"Guidance lines","category":"Taxiways","object_type":"Line","style_id":"line.taxiway.c0b631","source_group":"COLOR_Taxiway","vsmr_group_ids":[],"geometry_role":"linework"},"geometry":{"type":"LineString","coordinates":[[9.4820194444444,42.546815555556],[9.4828261111111,42.546681666667]]}},{"type":"Feature","id":"LFKB-aa4dac9cc0df54ea78f4","properties":{"airport":"LFKB","name":"COLOR_Taxiway","layer":"Guidance lines","category":"Taxiways","object_type":"Line","style_id":"line.taxiway.c0b631","source_group":"COLOR_Taxiway","vsmr_group_ids":[],"geometry_role":"linework"},"geometry":{"type":"LineString","coordinates":[[9.4821655555556,42.546826388889],[9.4828341666667,42.546981388889]]}},{"type":"Feature","id":"LFKB-4831b49e1b8573f213ee","properties":{"airport":"LFKB","name":"COLOR_Taxiway","layer":"Guidance lines","category":"Taxiways","object_type":"Line","style_id":"line.taxiway.c0b631","source_group":"COLOR_Taxiway","vsmr_group_ids":[],"geometry_role":"linework"},"geometry":{"type":"LineString","coordinates":[[9.4830472222222,42.546169444444],[9.4821816666667,42.546313611111]]}},{"type":"Feature","id":"LFKB-1467289517f64c8e33fe","properties":{"airport":"LFKB","name":"COLOR_Taxiway","layer":"Guidance lines","category":"Taxiways","object_type":"Line","style_id":"line.taxiway.c0b631","source_group":"COLOR_Taxiway","vsmr_group_ids":[],"geometry_role":"linework"},"geometry":{"type":"LineString","coordinates":[[9.48325,42.545663333333],[9.4823375,42.545816666667]]}},{"type":"Feature","id":"LFKB-dfe8617ff6308cb6d21e","properties":{"airport":"LFKB","name":"COLOR_Taxiway","layer":"Guidance lines","category":"Taxiways","object_type":"Line","style_id":"line.taxiway.c0b631","source_group":"COLOR_Taxiway","vsmr_group_ids":[],"geometry_role":"linework"},"geometry":{"type":"LineString","coordinates":[[9.4824847222222,42.545825],[9.4831202777778,42.545971944444]]}},{"type":"Feature","id":"LFKB-3ae7287dc7bbf8c9c1bf","properties":{"airport":"LFKB","name":"COLOR_Taxiway","layer":"Guidance lines","category":"Taxiways","object_type":"Line","style_id":"line.taxiway.c0b631","source_group":"COLOR_Taxiway","vsmr_group_ids":[],"geometry_role":"linework"},"geometry":{"type":"LineString","coordinates":[[9.4834486111111,42.545192222222],[9.4826180555556,42.545332222222]]}},{"type":"Feature","id":"LFKB-12a6b1dd19a300083391","properties":{"airport":"LFKB","name":"COLOR_Taxiway","layer":"Guidance lines","category":"Taxiways","object_type":"Line","style_id":"line.taxiway.c0b631","source_group":"COLOR_Taxiway","vsmr_group_ids":[],"geometry_role":"linework"},"geometry":{"type":"LineString","coordinates":[[9.4827508333333,42.544726111111],[9.4836463888889,42.544585555556]]}},{"type":"Feature","id":"LFKB-05dae82adf17f2d2e581","properties":{"airport":"LFKB","name":"COLOR_Taxiway","layer":"Guidance lines","category":"Taxiways","object_type":"Line","style_id":"line.taxiway.c0b631","source_group":"COLOR_Taxiway","vsmr_group_ids":[],"geometry_role":"linework"},"geometry":{"type":"LineString","coordinates":[[9.483125,42.544846388889],[9.4831586111111,42.544767777778]]}},{"type":"Feature","id":"LFKB-77c3e5982b73ad26b23c","properties":{"airport":"LFKB","name":"COLOR_Taxiway","layer":"Guidance lines","category":"Taxiways","object_type":"Line","style_id":"line.taxiway.c0b631","source_group":"COLOR_Taxiway","vsmr_group_ids":[],"geometry_role":"linework"},"geometry":{"type":"LineString","coordinates":[[9.4831922222222,42.544685277778],[9.4832369444444,42.544584166667]]}},{"type":"Feature","id":"LFKB-29a4027a35a28f479c29","properties":{"airport":"LFKB","name":"COLOR_Taxiway","layer":"Guidance lines","category":"Taxiways","object_type":"Line","style_id":"line.taxiway.c0b631","source_group":"COLOR_Taxiway","vsmr_group_ids":[],"geometry_role":"linework"},"geometry":{"type":"LineString","coordinates":[[9.48327,42.544503888889],[9.4833119444444,42.544407222222]]}},{"type":"Feature","id":"LFKB-93aa60e8753448daf39c","properties":{"airport":"LFKB","name":"COLOR_Taxiway","layer":"Guidance lines","category":"Taxiways","object_type":"Line","style_id":"line.taxiway.c0b631","source_group":"COLOR_Taxiway","vsmr_group_ids":[],"geometry_role":"linework"},"geometry":{"type":"LineString","coordinates":[[9.48319,42.544315277778],[9.4832988888889,42.544299444444]]}},{"type":"Feature","id":"LFKB-9968d22b9768aae9da91","properties":{"airport":"LFKB","name":"COLOR_Taxiway","layer":"Guidance lines","category":"Taxiways","object_type":"Line","style_id":"line.taxiway.c0b631","source_group":"COLOR_Taxiway","vsmr_group_ids":[],"geometry_role":"linework"},"geometry":{"type":"LineString","coordinates":[[9.4834061111111,42.544280277778],[9.4835452777778,42.5442575]]}},{"type":"Feature","id":"LFKB-3d36299e02b2e7388fe9","properties":{"airport":"LFKB","name":"COLOR_Taxiway","layer":"Guidance lines","category":"Taxiways","object_type":"Line","style_id":"line.taxiway.c0b631","source_group":"COLOR_Taxiway","vsmr_group_ids":[],"geometry_role":"linework"},"geometry":{"type":"LineString","coordinates":[[9.4836511111111,42.544241388889],[9.4837213888889,42.544229444444]]}},{"type":"Feature","id":"LFKB-277e83c9297b2964ab41","properties":{"airport":"LFKB","name":"COLOR_Taxiway","layer":"Guidance lines","category":"Taxiways","object_type":"Line","style_id":"line.taxiway.c0b631","source_group":"COLOR_Taxiway","vsmr_group_ids":[],"geometry_role":"linework"},"geometry":{"type":"LineString","coordinates":[[9.4829780555556,42.544196111111],[9.4837363888889,42.544069166667]]}},{"type":"Feature","id":"LFKB-7af1720d934cdc3c5275","properties":{"airport":"LFKB","name":"COLOR_Taxiway","layer":"Guidance lines","category":"Taxiways","object_type":"Line","style_id":"line.taxiway.c0b631","source_group":"COLOR_Taxiway","vsmr_group_ids":[],"geometry_role":"linework"},"geometry":{"type":"LineString","coordinates":[[9.4838861111111,42.543119444444],[9.4834788888889,42.543027222222]]}},{"type":"Feature","id":"LFKB-4a47e7ec83907853df65","properties":{"airport":"LFKB","name":"ACB","layer":"Labels","category":"Gates","object_type":"Label","style_id":"label.gates","source_group":"LFKB Gates","vsmr_group_ids":[],"geometry_role":"text_label","text-field":"ACB"},"geometry":{"type":"Point","coordinates":[9.478563611,42.550616667]}},{"type":"Feature","id":"LFKB-6d91b6562e25a66ca5f6","properties":{"airport":"LFKB","name":"TERMINAL","layer":"Labels","category":"Gates","object_type":"Label","style_id":"label.gates","source_group":"LFKB Gates","vsmr_group_ids":[],"geometry_role":"text_label","text-field":"TERMINAL"},"geometry":{"type":"Point","coordinates":[9.480881111,42.547610556]}},{"type":"Feature","id":"LFKB-bf1a969eab5cfd430b93","properties":{"airport":"LFKB","name":"FRET","layer":"Labels","category":"Gates","object_type":"Label","style_id":"label.gates","source_group":"LFKB Gates","vsmr_group_ids":[],"geometry_role":"text_label","text-field":"FRET"},"geometry":{"type":"Point","coordinates":[9.481275278,42.546831944]}},{"type":"Feature","id":"LFKB-4544e43c5ec6af5399c3","properties":{"airport":"LFKB","name":"CCM","layer":"Labels","category":"Gates","object_type":"Label","style_id":"label.gates","source_group":"LFKB Gates","vsmr_group_ids":[],"geometry_role":"text_label","text-field":"CCM"},"geometry":{"type":"Point","coordinates":[9.482616667,42.542807778]}},{"type":"Feature","id":"LFKB-91d17166b4dda5d48092","properties":{"airport":"LFKB","name":"A1-C","layer":"Labels","category":"Gates","object_type":"Label","style_id":"label.gates","source_group":"LFKB Gates","vsmr_group_ids":[],"geometry_role":"text_label","text-field":"A1-C"},"geometry":{"type":"Point","coordinates":[9.483253889,42.544040556]}},{"type":"Feature","id":"LFKB-78516cb6fc54cea92380","properties":{"airport":"LFKB","name":"A2","layer":"Labels","category":"Gates","object_type":"Label","style_id":"label.gates","source_group":"LFKB Gates","vsmr_group_ids":[],"geometry_role":"text_label","text-field":"A2"},"geometry":{"type":"Point","coordinates":[9.482953889,42.544542778]}},{"type":"Feature","id":"LFKB-b914c1bf5f5addd65f81","properties":{"airport":"LFKB","name":"P3","layer":"Labels","category":"Gates","object_type":"Label","style_id":"label.gates","source_group":"LFKB Gates","vsmr_group_ids":[],"geometry_role":"text_label","text-field":"P3"},"geometry":{"type":"Point","coordinates":[9.482963056,42.545151944]}},{"type":"Feature","id":"LFKB-9b8af559344fb9c41f93","properties":{"airport":"LFKB","name":"A4","layer":"Labels","category":"Gates","object_type":"Label","style_id":"label.gates","source_group":"LFKB Gates","vsmr_group_ids":[],"geometry_role":"text_label","text-field":"A4"},"geometry":{"type":"Point","coordinates":[9.482772222,42.545633889]}},{"type":"Feature","id":"LFKB-b17d1a279bb284add444","properties":{"airport":"LFKB","name":"A5","layer":"Labels","category":"Gates","object_type":"Label","style_id":"label.gates","source_group":"LFKB Gates","vsmr_group_ids":[],"geometry_role":"text_label","text-field":"A5"},"geometry":{"type":"Point","coordinates":[9.482545,42.546129444]}},{"type":"Feature","id":"LFKB-24141e11b79592c23ce1","properties":{"airport":"LFKB","name":"P7","layer":"Labels","category":"Gates","object_type":"Label","style_id":"label.gates","source_group":"LFKB Gates","vsmr_group_ids":[],"geometry_role":"text_label","text-field":"P7"},"geometry":{"type":"Point","coordinates":[9.482308611,42.546638333]}},{"type":"Feature","id":"LFKB-d638fe4a69965c185ffa","properties":{"airport":"LFKB","name":"P8","layer":"Labels","category":"Gates","object_type":"Label","style_id":"label.gates","source_group":"LFKB Gates","vsmr_group_ids":[],"geometry_role":"text_label","text-field":"P8"},"geometry":{"type":"Point","coordinates":[9.482099722,42.547147222]}},{"type":"Feature","id":"LFKB-da71927d78fb30444612","properties":{"airport":"LFKB","name":"P9","layer":"Labels","category":"Gates","object_type":"Label","style_id":"label.gates","source_group":"LFKB Gates","vsmr_group_ids":[],"geometry_role":"text_label","text-field":"P9"},"geometry":{"type":"Point","coordinates":[9.4818725,42.547669167]}},{"type":"Feature","id":"LFKB-29e5ec3a6514cf6c7744","properties":{"airport":"LFKB","name":"P10","layer":"Labels","category":"Gates","object_type":"Label","style_id":"label.gates","source_group":"LFKB Gates","vsmr_group_ids":[],"geometry_role":"text_label","text-field":"P10"},"geometry":{"type":"Point","coordinates":[9.481654444,42.548178056]}},{"type":"Feature","id":"LFKB-291deedc5f76ab9bace3","properties":{"airport":"LFKB","name":"P11","layer":"Labels","category":"Gates","object_type":"Label","style_id":"label.gates","source_group":"LFKB Gates","vsmr_group_ids":[],"geometry_role":"text_label","text-field":"P11"},"geometry":{"type":"Point","coordinates":[9.481454444,42.548706944]}},{"type":"Feature","id":"LFKB-28e14afd84557a3bd547","properties":{"airport":"LFKB","name":"P12","layer":"Labels","category":"Gates","object_type":"Label","style_id":"label.gates","source_group":"LFKB Gates","vsmr_group_ids":[],"geometry_role":"text_label","text-field":"P12"},"geometry":{"type":"Point","coordinates":[9.481255278,42.549058333]}},{"type":"Feature","id":"LFKB-cbd0aa8ea731e1b744f2","properties":{"airport":"LFKB","name":"B14","layer":"Labels","category":"Gates","object_type":"Label","style_id":"label.gates","source_group":"LFKB Gates","vsmr_group_ids":[],"geometry_role":"text_label","text-field":"B14"},"geometry":{"type":"Point","coordinates":[9.479421667,42.549165556]}},{"type":"Feature","id":"LFKB-e41756f49a414e159bff","properties":{"airport":"LFKB","name":"B15","layer":"Labels","category":"Gates","object_type":"Label","style_id":"label.gates","source_group":"LFKB Gates","vsmr_group_ids":[],"geometry_role":"text_label","text-field":"B15"},"geometry":{"type":"Point","coordinates":[9.478751389,42.5493]}},{"type":"Feature","id":"LFKB-d16d9c931780731786e6","properties":{"airport":"LFKB","name":"B16","layer":"Labels","category":"Gates","object_type":"Label","style_id":"label.gates","source_group":"LFKB Gates","vsmr_group_ids":[],"geometry_role":"text_label","text-field":"B16"},"geometry":{"type":"Point","coordinates":[9.478986111,42.549236944]}},{"type":"Feature","id":"LFKB-2d0b1f911b53f34920de","properties":{"airport":"LFKB","name":"C23","layer":"Labels","category":"Gates","object_type":"Label","style_id":"label.gates","source_group":"LFKB Gates","vsmr_group_ids":[],"geometry_role":"text_label","text-field":"C23"},"geometry":{"type":"Point","coordinates":[9.479038056,42.549960833]}},{"type":"Feature","id":"LFKB-cf5500b62ec3acce80bb","properties":{"airport":"LFKB","name":"C24","layer":"Labels","category":"Gates","object_type":"Label","style_id":"label.gates","source_group":"LFKB Gates","vsmr_group_ids":[],"geometry_role":"text_label","text-field":"C24"},"geometry":{"type":"Point","coordinates":[9.478851944,42.549958056]}},{"type":"Feature","id":"LFKB-9fc44e894b0fc9a5c5a6","properties":{"airport":"LFKB","name":"C25","layer":"Labels","category":"Gates","object_type":"Label","style_id":"label.gates","source_group":"LFKB Gates","vsmr_group_ids":[],"geometry_role":"text_label","text-field":"C25"},"geometry":{"type":"Point","coordinates":[9.478658333,42.549952778]}},{"type":"Feature","id":"LFKB-1357e71a87ffa1f0432a","properties":{"airport":"LFKB","name":"C26","layer":"Labels","category":"Gates","object_type":"Label","style_id":"label.gates","source_group":"LFKB Gates","vsmr_group_ids":[],"geometry_role":"text_label","text-field":"C26"},"geometry":{"type":"Point","coordinates":[9.478468611,42.54995]}},{"type":"Feature","id":"LFKB-86f17fa37d780647a819","properties":{"airport":"LFKB","name":"C33","layer":"Labels","category":"Gates","object_type":"Label","style_id":"label.gates","source_group":"LFKB Gates","vsmr_group_ids":[],"geometry_role":"text_label","text-field":"C33"},"geometry":{"type":"Point","coordinates":[9.479030556,42.550256944]}},{"type":"Feature","id":"LFKB-cb590542e42996d4039b","properties":{"airport":"LFKB","name":"C34","layer":"Labels","category":"Gates","object_type":"Label","style_id":"label.gates","source_group":"LFKB Gates","vsmr_group_ids":[],"geometry_role":"text_label","text-field":"C34"},"geometry":{"type":"Point","coordinates":[9.478840833,42.550256944]}},{"type":"Feature","id":"LFKB-61bb2ad454c288de6c98","properties":{"airport":"LFKB","name":"C35","layer":"Labels","category":"Gates","object_type":"Label","style_id":"label.gates","source_group":"LFKB Gates","vsmr_group_ids":[],"geometry_role":"text_label","text-field":"C35"},"geometry":{"type":"Point","coordinates":[9.478643611,42.550251667]}},{"type":"Feature","id":"LFKB-d6f25537fce2f3f3b118","properties":{"airport":"LFKB","name":"C36","layer":"Labels","category":"Gates","object_type":"Label","style_id":"label.gates","source_group":"LFKB Gates","vsmr_group_ids":[],"geometry_role":"text_label","text-field":"C36"},"geometry":{"type":"Point","coordinates":[9.47845,42.550243333]}},{"type":"Feature","id":"LFKB-8f957b1cf08cef53becf","properties":{"airport":"LFKB","name":"D9","layer":"Labels","category":"Gates","object_type":"Label","style_id":"label.gates","source_group":"LFKB Gates","vsmr_group_ids":[],"geometry_role":"text_label","text-field":"D9"},"geometry":{"type":"Point","coordinates":[9.480078056,42.550739167]}},{"type":"Feature","id":"LFKB-df452807066e4ebd8afe","properties":{"airport":"LFKB","name":"D10","layer":"Labels","category":"Gates","object_type":"Label","style_id":"label.gates","source_group":"LFKB Gates","vsmr_group_ids":[],"geometry_role":"text_label","text-field":"D10"},"geometry":{"type":"Point","coordinates":[9.480505,42.550658611]}},{"type":"Feature","id":"LFKB-983f8daad20564f6960b","properties":{"airport":"LFKB","name":"D11","layer":"Labels","category":"Gates","object_type":"Label","style_id":"label.gates","source_group":"LFKB Gates","vsmr_group_ids":[],"geometry_role":"text_label","text-field":"D11"},"geometry":{"type":"Point","coordinates":[9.480359722,42.551067222]}},{"type":"Feature","id":"LFKB-e3b2e6ddd3ccfde9ad64","properties":{"airport":"LFKB","name":"D16","layer":"Labels","category":"Gates","object_type":"Label","style_id":"label.gates","source_group":"LFKB Gates","vsmr_group_ids":[],"geometry_role":"text_label","text-field":"D16"},"geometry":{"type":"Point","coordinates":[9.479896111,42.5511875]}},{"type":"Feature","id":"LFKB-d3a4e76f25748493a7d6","properties":{"airport":"LFKB","name":"FUEL","layer":"Labels","category":"Gates","object_type":"Label","style_id":"label.gates","source_group":"LFKB Gates","vsmr_group_ids":[],"geometry_role":"text_label","text-field":"FUEL"},"geometry":{"type":"Point","coordinates":[9.480058889,42.551674167]}},{"type":"Feature","id":"LFKB-62a33471452163284c3f","properties":{"airport":"LFKB","name":"S1","layer":"Labels","category":"Gates","object_type":"Label","style_id":"label.gates","source_group":"LFKB Gates","vsmr_group_ids":[],"geometry_role":"text_label","text-field":"S1"},"geometry":{"type":"Point","coordinates":[9.483626389,42.543170278]}},{"type":"Feature","id":"LFKB-2259ca8b31ca43aea6ce","properties":{"airport":"LFKB","name":"A","layer":"Labels","category":"Taxiways","object_type":"Label","style_id":"label.taxiways","source_group":"LFKB Taxiways","vsmr_group_ids":[],"geometry_role":"text_label","text-field":"A"},"geometry":{"type":"Point","coordinates":[9.482465556,42.548499444]}},{"type":"Feature","id":"LFKB-82e19f96725867ed6215","properties":{"airport":"LFKB","name":"A","layer":"Labels","category":"Taxiways","object_type":"Label","style_id":"label.taxiways","source_group":"LFKB Taxiways","vsmr_group_ids":[],"geometry_role":"text_label","text-field":"A"},"geometry":{"type":"Point","coordinates":[9.483935556,42.544944444]}},{"type":"Feature","id":"LFKB-8051ef65fef6e9356907","properties":{"airport":"LFKB","name":"C","layer":"Labels","category":"Taxiways","object_type":"Label","style_id":"label.taxiways","source_group":"LFKB Taxiways","vsmr_group_ids":[],"geometry_role":"text_label","text-field":"C"},"geometry":{"type":"Point","coordinates":[9.480518889,42.549420556]}},{"type":"Feature","id":"LFKB-67be1f008dd03741c8a8","properties":{"airport":"LFKB","name":"C","layer":"Labels","category":"Taxiways","object_type":"Label","style_id":"label.taxiways","source_group":"LFKB Taxiways","vsmr_group_ids":[],"geometry_role":"text_label","text-field":"C"},"geometry":{"type":"Point","coordinates":[9.481158611,42.549575]}},{"type":"Feature","id":"LFKB-0add46ef8496bf94b13e","properties":{"airport":"LFKB","name":"D","layer":"Labels","category":"Taxiways","object_type":"Label","style_id":"label.taxiways","source_group":"LFKB Taxiways","vsmr_group_ids":[],"geometry_role":"text_label","text-field":"D"},"geometry":{"type":"Point","coordinates":[9.481053889,42.550114722]}},{"type":"Feature","id":"LFKB-95e482bb2a841da6356c","properties":{"airport":"LFKB","name":"D","layer":"Labels","category":"Taxiways","object_type":"Label","style_id":"label.taxiways","source_group":"LFKB Taxiways","vsmr_group_ids":[],"geometry_role":"text_label","text-field":"D"},"geometry":{"type":"Point","coordinates":[9.481437778,42.550123333]}},{"type":"Feature","id":"LFKB-f2cb9eb14de769cc535a","properties":{"airport":"LFKB","name":"E","layer":"Labels","category":"Taxiways","object_type":"Label","style_id":"label.taxiways","source_group":"LFKB Taxiways","vsmr_group_ids":[],"geometry_role":"text_label","text-field":"E"},"geometry":{"type":"Point","coordinates":[9.481781111,42.551258889]}},{"type":"Feature","id":"LFKB-282f1a411a2a4684dbc9","properties":{"airport":"LFKB","name":"E","layer":"Labels","category":"Taxiways","object_type":"Label","style_id":"label.taxiways","source_group":"LFKB Taxiways","vsmr_group_ids":[],"geometry_role":"text_label","text-field":"E"},"geometry":{"type":"Point","coordinates":[9.479331667,42.557060278]}},{"type":"Feature","id":"LFKB-e6a727e3c65a875c9e70","properties":{"airport":"LFKB","name":"G","layer":"Labels","category":"Taxiways","object_type":"Label","style_id":"label.taxiways","source_group":"LFKB Taxiways","vsmr_group_ids":[],"geometry_role":"text_label","text-field":"G"},"geometry":{"type":"Point","coordinates":[9.484299444,42.543580556]}},{"type":"Feature","id":"LFKB-34f73da2044bfbfbb931","properties":{"airport":"LFKB","name":"G","layer":"Labels","category":"Taxiways","object_type":"Label","style_id":"label.taxiways","source_group":"LFKB Taxiways","vsmr_group_ids":[],"geometry_role":"text_label","text-field":"G"},"geometry":{"type":"Point","coordinates":[9.485433056,42.541552778]}},{"type":"Feature","id":"LFKB-add940f22cdc15605266","properties":{"airport":"LFKB","name":"H","layer":"Labels","category":"Taxiways","object_type":"Label","style_id":"label.taxiways","source_group":"LFKB Taxiways","vsmr_group_ids":[],"geometry_role":"text_label","text-field":"H"},"geometry":{"type":"Point","coordinates":[9.479837222,42.553692778]}},{"type":"Feature","id":"LFKB-e0bad0838801fc0f3f6e","properties":{"airport":"LFKB","name":"M","layer":"Labels","category":"Taxiways","object_type":"Label","style_id":"label.taxiways","source_group":"LFKB Taxiways","vsmr_group_ids":[],"geometry_role":"text_label","text-field":"M"},"geometry":{"type":"Point","coordinates":[9.483268333,42.549643611]}},{"type":"Feature","id":"LFKB-fbf79da86a03e3d332af","properties":{"airport":"LFKB","name":"N1","layer":"Labels","category":"Taxiways","object_type":"Label","style_id":"label.taxiways","source_group":"LFKB Taxiways","vsmr_group_ids":[],"geometry_role":"text_label","text-field":"N1"},"geometry":{"type":"Point","coordinates":[9.480126389,42.553042778]}},{"type":"Feature","id":"LFKB-2383da39173f1b671486","properties":{"airport":"LFKB","name":"X","layer":"Labels","category":"Taxiways","object_type":"Label","style_id":"label.taxiways","source_group":"LFKB Taxiways","vsmr_group_ids":[],"geometry_role":"text_label","text-field":"X"},"geometry":{"type":"Point","coordinates":[9.4796475,42.5612225]}}]}
