{"type":"FeatureCollection","name":"LFKF AVISO","bbox":[9.082638889,41.493555556,9.113083611,41.513312778],"metadata":{"schema":"vSMR AVISO","schema_version":2,"geometry_mode":"shared","airport":"LFKF","coordinate_reference_system":"WGS84","coordinate_order":"longitude, latitude","default_color_palette":"dark","color_palettes":["dark","light"],"background_colors":{"dark":"#434A4F","light":"#434A4F"},"runways":[{"ends":["05","23"],"headings":[45,225],"thresholds":[[9.086541944,41.495088889],[9.107930833,41.509802778]]}],"saved_active_runways":[],"saved_active_airport_modes":[],"airport_reference":[9.096666944,41.502221944],"feature_count":68,"style_count":12,"layer_counts":{"Airfield surfaces":10,"Buildings and structures":7,"Guidance lines":2,"Labels":44,"Surface markings":4,"Terrain":1},"category_counts":{"Buildings":7,"Gates":34,"Grass":1,"Hard Surface 2":4,"Hard Surface 3":1,"Hard Surface 4":1,"Runway Border":1,"Runways":2,"Stopbars":4,"Taxiway Orange":2,"Taxiways":11},"geometry_source":"local GNG","geometry_source_url":"","geometry_license":"GPL-3.0"},"styles":{"polygon.grassurface.00512f":{"name":"Grass","layer":"Terrain","object_type":"Area","paint":{"fill":"#010D19","fill-opacity":1,"palette-overrides":{"light":{"fill":"#00512F"}}},"feature_count":1},"polygon.hardsurface4.969393":{"name":"Hard Surface 4","layer":"Airfield surfaces","object_type":"Area","paint":{"fill":"#152841","fill-opacity":1,"palette-overrides":{"light":{"fill":"#969393"}}},"feature_count":1},"polygon.hardsurface3.8a807f":{"name":"Hard Surface 3","layer":"Airfield surfaces","object_type":"Area","paint":{"fill":"#222D3C","fill-opacity":1,"palette-overrides":{"light":{"fill":"#8A807F"}}},"feature_count":1},"polygon.hardsurface2.595e5b":{"name":"Hard Surface 2","layer":"Airfield surfaces","object_type":"Area","paint":{"fill":"#2F3949","fill-opacity":1,"palette-overrides":{"light":{"fill":"#595E5B"}}},"feature_count":4},"polygon.runwayconcrete.555555":{"name":"Runways","layer":"Airfield surfaces","object_type":"Area","paint":{"fill":"#111318","fill-opacity":1,"palette-overrides":{"light":{"fill":"#555555"}}},"feature_count":2},"polygon.building.394446":{"name":"Buildings","layer":"Buildings and structures","object_type":"Area","paint":{"fill":"#475570","fill-opacity":1,"palette-overrides":{"light":{"fill":"#394446"}}},"feature_count":7},"polygon.stopbar.7e0000":{"name":"Stopbars","layer":"Surface markings","object_type":"Area","paint":{"fill":"#7E0000","fill-opacity":1,"palette-overrides":{"light":{"fill":"#7E0000"}}},"feature_count":4},"polygon.taxiwayorange.cc6d00":{"name":"Taxiway Orange","layer":"Airfield surfaces","object_type":"Area","paint":{"fill":"#CC8B00","fill-opacity":1,"palette-overrides":{"light":{"fill":"#CC6D00"}}},"feature_count":2},"line.runwayborder.808080":{"name":"Runway Border","layer":"Guidance lines","object_type":"Line","paint":{"stroke":"#808080","stroke-opacity":1,"stroke-width":1,"palette-overrides":{"light":{"stroke":"#808080"}}},"feature_count":1},"line.taxiway.c0b631":{"name":"Taxiways","layer":"Guidance lines","object_type":"Line","paint":{"stroke":"#4E5A69","stroke-opacity":1,"stroke-width":1,"palette-overrides":{"light":{"stroke":"#C0B631"}}},"feature_count":1},"label.gates":{"name":"Gates","layer":"Labels","object_type":"Label","paint":{"text-color":"#CCCCCC","text-font":"Arial","text-size":12,"text-halo-color":"#000000","text-halo-width":1,"text-anchor":"center","zoomLevel":9},"feature_count":34},"label.taxiways":{"name":"Taxiways","layer":"Labels","object_type":"Label","paint":{"text-color":"#CCCCCC","text-font":"Arial","text-size":12,"text-halo-color":"#000000","text-halo-width":1,"text-anchor":"center","zoomLevel":7},"feature_count":10}},"vsmr_groups":[],"features":[{"type":"Feature","id":"LFKF-ca2eabb6ac620721009f","properties":{"airport":"LFKF","name":"LFKF AVISO","layer":"Terrain","category":"Grass","object_type":"Area","style_id":"polygon.grassurface.00512f","source_group":"LFKF AVISO","vsmr_group_ids":[],"geometry_role":"filled_region"},"geometry":{"type":"Polygon","coordinates":[[[9.103046944,41.5088925],[9.103533611,41.508170833],[9.103604167,41.507868056],[9.103538889,41.507826944],[9.103290278,41.507922778],[9.103225278,41.50796],[9.102470556,41.508508056],[9.099679722,41.506799722],[9.097991944,41.505762222],[9.097848333,41.505637778],[9.097770833,41.505578889],[9.096981389,41.505085278],[9.096220833,41.504624722],[9.095755556,41.504351944],[9.095426389,41.504164444],[9.0949925,41.503904444],[9.094329722,41.503494167],[9.092915278,41.502625],[9.090954722,41.501416389],[9.090030278,41.500845833],[9.089031389,41.500230833],[9.089024444,41.500075278],[9.089019722,41.500040833],[9.089012778,41.500011111],[9.088999167,41.499980278],[9.0889725,41.49995],[9.088932222,41.499918056],[9.088885,41.499891389],[9.088835833,41.499873889],[9.088792778,41.499868889],[9.088645833,41.499878333],[9.088587222,41.499879444],[9.088546389,41.499876944],[9.088508889,41.499867778],[9.088463889,41.499848056],[9.088412778,41.499818056],[9.087554722,41.499314444],[9.087082778,41.499029444],[9.086980556,41.498980833],[9.0865225,41.498766389],[9.085909167,41.498464722],[9.085123056,41.498078056],[9.084876667,41.497956667],[9.084706111,41.4978675],[9.084513056,41.497758056],[9.084247778,41.497609167],[9.084134722,41.497199444],[9.083779722,41.496976944],[9.083518611,41.496820833],[9.083269167,41.496668056],[9.082996667,41.496498056],[9.082736389,41.496329444],[9.082638889,41.4962675],[9.082941667,41.496026667],[9.083111111,41.495898056],[9.083208611,41.495832222],[9.083319167,41.4957675],[9.083414722,41.4957125],[9.083455278,41.495681111],[9.083505,41.495631389],[9.083552222,41.495563333],[9.0836075,41.495483611],[9.083650556,41.495440556],[9.084615278,41.494648889],[9.084656389,41.494462222],[9.084675833,41.494436389],[9.085552778,41.493721389],[9.085810278,41.493683611],[9.085965556,41.493555556],[9.086746667,41.494025],[9.087140556,41.494265556],[9.087393333,41.494408333],[9.087616667,41.494552778],[9.087772222,41.494655],[9.087948056,41.494783889],[9.088143333,41.494924444],[9.088301389,41.4950425],[9.088645833,41.49529],[9.088916389,41.495496111],[9.0892275,41.495716111],[9.089311944,41.495762222],[9.089999722,41.496101667],[9.090145,41.496086944],[9.090361389,41.495944722],[9.091080556,41.496293056],[9.091592778,41.4965425],[9.091956389,41.496719167],[9.0921225,41.496800278],[9.092394444,41.497016944],[9.092501111,41.497073056],[9.093023056,41.497326111],[9.09312,41.497361111],[9.094273056,41.497753056],[9.095061944,41.498021111],[9.095565,41.497485556],[9.096325833,41.497387778],[9.097508889,41.498195833],[9.097550556,41.498210556],[9.097594167,41.498214167],[9.097638056,41.498213056],[9.09769,41.498210556],[9.097753333,41.4982175],[9.097815278,41.498231667],[9.097868056,41.498251667],[9.097945833,41.498283611],[9.098067222,41.498351111],[9.098495,41.498622222],[9.098845278,41.498862222],[9.098878611,41.498894444],[9.098907778,41.498938333],[9.098921389,41.498984167],[9.098923333,41.499039167],[9.098911111,41.499115],[9.098864722,41.499288889],[9.098860278,41.4993125],[9.098861944,41.499333333],[9.098872778,41.499357778],[9.098881667,41.499367778],[9.099286111,41.499653333],[9.100208889,41.500295],[9.100271944,41.500244167],[9.1004825,41.5003925],[9.100676944,41.500231667],[9.100808889,41.500243056],[9.100972222,41.500115833],[9.101202778,41.500274722],[9.10108,41.500379444],[9.101068333,41.500505833],[9.100736389,41.500773889],[9.100865278,41.500878611],[9.101009167,41.5010375],[9.101319167,41.501257222],[9.102067778,41.501739167],[9.102193056,41.501822778],[9.102243611,41.501873611],[9.102283889,41.501926111],[9.102415278,41.502208889],[9.102441944,41.502284167],[9.102437222,41.502340556],[9.1022625,41.502896667],[9.102372778,41.503059444],[9.10312,41.503533611],[9.103565556,41.503819722],[9.10411,41.504164167],[9.104389722,41.504376667],[9.104900833,41.504720556],[9.105202778,41.504931389],[9.105140556,41.505291667],[9.105109167,41.505453611],[9.105095,41.505650278],[9.105073889,41.506000278],[9.105061944,41.506167778],[9.105053333,41.506255],[9.105028611,41.506345556],[9.10497,41.506538611],[9.104928333,41.506691111],[9.104986667,41.506735],[9.105165,41.506693333],[9.105300278,41.506652222],[9.106023333,41.506389444],[9.106850833,41.506212778],[9.107004722,41.506184444],[9.107905556,41.506815],[9.108676944,41.507395833],[9.108777778,41.5074825],[9.108865556,41.507550278],[9.108982222,41.507625556],[9.109156389,41.507721111],[9.109358333,41.507840833],[9.109545278,41.507949444],[9.109770833,41.508094722],[9.110080556,41.50831],[9.110534444,41.508621111],[9.110983889,41.508925833],[9.111050833,41.509164722],[9.111330278,41.509282778],[9.111399167,41.509302222],[9.111603333,41.509318333],[9.111773333,41.509439722],[9.112017222,41.509608889],[9.112343611,41.509830556],[9.113083611,41.510330833],[9.109451111,41.513312778],[9.103046944,41.5088925]]]}},{"type":"Feature","id":"LFKF-02b37da8566c7e0ecdb3","properties":{"airport":"LFKF","name":"LFKF AVISO","layer":"Airfield surfaces","category":"Hard Surface 4","object_type":"Area","style_id":"polygon.hardsurface4.969393","source_group":"LFKF AVISO","vsmr_group_ids":[],"geometry_role":"filled_region"},"geometry":{"type":"Polygon","coordinates":[[[9.100169722,41.500848056],[9.098959444,41.500013889],[9.098859444,41.499980556],[9.097175556,41.498816111],[9.097109444,41.498795833],[9.097013333,41.498809444],[9.097031667,41.498791667],[9.097038056,41.498782222],[9.097076389,41.498714722],[9.097080556,41.498704444],[9.097081944,41.498691667],[9.097079444,41.498680556],[9.0970325,41.498648056],[9.097029167,41.498641389],[9.0970275,41.498634444],[9.097032778,41.498625278],[9.097050556,41.498606944],[9.097068056,41.498595556],[9.097085833,41.4985925],[9.097104722,41.498591111],[9.097124444,41.498589722],[9.097144722,41.498584722],[9.097161667,41.498579444],[9.097175278,41.498571944],[9.097369167,41.498408056],[9.09742,41.498436944],[9.097435833,41.498430278],[9.097471111,41.49842],[9.097555,41.4984],[9.097590556,41.498391111],[9.097611944,41.4983825],[9.097630278,41.498370556],[9.097728333,41.498439167],[9.097954444,41.498957222],[9.098471111,41.499305833],[9.098602778,41.499235],[9.098602778,41.499235556],[9.098603611,41.499236389],[9.098792222,41.499363333],[9.098779167,41.499373889],[9.098825833,41.499406111],[9.098823889,41.499516389],[9.098837222,41.499540556],[9.098845,41.499643889],[9.098834722,41.499690833],[9.098804444,41.499711944],[9.098889722,41.499773611],[9.098833889,41.499811389],[9.098871389,41.499836111],[9.098890833,41.499843333],[9.098914444,41.499846111],[9.0989375,41.499842778],[9.098958889,41.499836944],[9.098981667,41.499828333],[9.099012778,41.499806667],[9.099079167,41.499834722],[9.099106944,41.499844167],[9.099140833,41.499850556],[9.099182778,41.499854444],[9.099215833,41.499860556],[9.099229167,41.499922222],[9.099385833,41.500010556],[9.099523611,41.500108889],[9.099458889,41.500164444],[9.099451389,41.500181111],[9.099453056,41.500199722],[9.099458056,41.500218611],[9.0994675,41.500240556],[9.099483056,41.500258056],[9.099511667,41.500281389],[9.099579167,41.500324444],[9.099663333,41.500248333],[9.099924722,41.500426389],[9.100039167,41.50034],[9.100076944,41.500320556],[9.100131111,41.500306111],[9.100164167,41.500298056],[9.100194722,41.500299444],[9.100217778,41.500306389],[9.100435833,41.500465],[9.100458611,41.500476944],[9.100477222,41.500482222],[9.1005,41.500481667],[9.100518056,41.500476944],[9.100526111,41.500471111],[9.100527778,41.500465833],[9.100524722,41.500454722],[9.100523056,41.50044],[9.100526111,41.500425],[9.100531667,41.500413056],[9.100544444,41.500402222],[9.100648333,41.500317222],[9.100658056,41.5003125],[9.100666944,41.500310278],[9.100741111,41.500317778],[9.100956111,41.500468056],[9.100970556,41.500526944],[9.100945556,41.500552222],[9.100874167,41.500616389],[9.100843056,41.500628611],[9.100811389,41.500635833],[9.100781667,41.500636111],[9.100743056,41.500631944],[9.100706944,41.500624167],[9.100666111,41.500616111],[9.100623611,41.500610833],[9.1005875,41.500614444],[9.100563056,41.500619722],[9.100545556,41.500623611],[9.100528056,41.500626944],[9.100508333,41.500636667],[9.100482222,41.5006525],[9.10045,41.500678056],[9.100258611,41.500856111],[9.100324167,41.500798889],[9.100578056,41.5009],[9.10075,41.501014444],[9.100905,41.500915],[9.101166389,41.501160278],[9.101110278,41.501218611],[9.101331389,41.501345278],[9.101440278,41.501426389],[9.101518611,41.501506111],[9.101544167,41.501573056],[9.10155,41.501671111],[9.100169722,41.500848056]]]}},{"type":"Feature","id":"LFKF-47ef0e2d33c6e594c503","properties":{"airport":"LFKF","name":"LFKF AVISO","layer":"Airfield surfaces","category":"Hard Surface 3","object_type":"Area","style_id":"polygon.hardsurface3.8a807f","source_group":"LFKF AVISO","vsmr_group_ids":[],"geometry_role":"filled_region"},"geometry":{"type":"Polygon","coordinates":[[[9.098120833,41.500705278],[9.0979175,41.500659167],[9.097913333,41.500649444],[9.0979,41.500626667],[9.0978825,41.500600556],[9.097859444,41.500574444],[9.097839444,41.500554167],[9.097805556,41.500523611],[9.097764722,41.500491667],[9.097704167,41.500449167],[9.096244167,41.499441389],[9.097013056,41.498808611],[9.097026389,41.498801944],[9.097054167,41.498795],[9.097083333,41.498791944],[9.097114722,41.498791389],[9.097144722,41.498794722],[9.097169722,41.4988],[9.098415833,41.499659444],[9.098843611,41.499956389],[9.098861389,41.499967222],[9.098885833,41.499977222],[9.098916667,41.499986944],[9.098940278,41.499992222],[9.098963056,41.499996389],[9.098971667,41.500001111],[9.100167778,41.500826389],[9.100182778,41.500834444],[9.100456111,41.500974722],[9.100889444,41.501201944],[9.101547778,41.501670833],[9.100266111,41.502718889],[9.100138056,41.502644722],[9.100069167,41.502684722],[9.099271944,41.502138056],[9.099637778,41.501853611],[9.099656944,41.501814167],[9.098804722,41.501222778],[9.098765833,41.5012025],[9.098727778,41.501184444],[9.098686667,41.501166389],[9.098649167,41.501152222],[9.098609167,41.501141944],[9.09857,41.501133611],[9.098534444,41.5011275],[9.098498333,41.501122222],[9.098458889,41.501119167],[9.098469444,41.500646111],[9.098120833,41.500705278]]]}},{"type":"Feature","id":"LFKF-412d7064904e5e33af4b","properties":{"airport":"LFKF","name":"LFKF AVISO","layer":"Airfield surfaces","category":"Hard Surface 2","object_type":"Area","style_id":"polygon.hardsurface2.595e5b","source_group":"LFKF AVISO","vsmr_group_ids":[],"geometry_role":"filled_region"},"geometry":{"type":"Polygon","coordinates":[[[9.094304722,41.5020975],[9.094261667,41.502134167],[9.0942275,41.502168333],[9.094203056,41.502197222],[9.094188333,41.502226111],[9.094176389,41.502256111],[9.094168056,41.502294444],[9.094167222,41.502329444],[9.094168889,41.502359722],[9.094178333,41.502387222],[9.094190278,41.502415278],[9.0942075,41.502444722],[9.094223611,41.502466389],[9.094236667,41.502482222],[9.094255556,41.502499167],[9.094278611,41.502515278],[9.094313333,41.502540833],[9.094362778,41.5025775],[9.094403333,41.502605278],[9.09444,41.502626944],[9.094475278,41.502645833],[9.094506389,41.502659444],[9.094536944,41.502670278],[9.094571944,41.502680556],[9.094611944,41.502687778],[9.094645,41.502692222],[9.094672222,41.502693333],[9.094708333,41.502691667],[9.094739722,41.502688611],[9.094771111,41.502683333],[9.094807222,41.502674444],[9.094841667,41.502662778],[9.094869444,41.502651111],[9.094896111,41.502637222],[9.094921944,41.50262],[9.094964167,41.502587778],[9.095061667,41.502508056],[9.095357778,41.502262222],[9.095481944,41.502347222],[9.095040278,41.502715],[9.094995,41.502751389],[9.0949625,41.502774444],[9.094938333,41.502790278],[9.0949175,41.5028025],[9.094893611,41.502814167],[9.094868611,41.502824444],[9.094837778,41.502835278],[9.094802222,41.502843611],[9.094770556,41.502848333],[9.094736667,41.5028525],[9.094698333,41.502855278],[9.094659722,41.502856389],[9.094624167,41.502854722],[9.094585278,41.502848889],[9.094549444,41.502841389],[9.094518611,41.502831389],[9.094483333,41.502818333],[9.094450833,41.5028025],[9.094421944,41.502786111],[9.094390278,41.502765833],[9.094049444,41.502530556],[9.094029167,41.502516944],[9.094009167,41.502498611],[9.093987222,41.502475],[9.093962778,41.502439444],[9.093945278,41.502404167],[9.093935833,41.502365278],[9.093931667,41.502328611],[9.093933333,41.502295],[9.093938611,41.502265556],[9.0939475,41.502238333],[9.093960556,41.502210278],[9.093976667,41.502186944],[9.093999167,41.50216],[9.094048056,41.502117222],[9.094148611,41.502036667],[9.094548056,41.501709722],[9.094673333,41.501794444],[9.094304722,41.5020975]]]}},{"type":"Feature","id":"LFKF-b45c8ee1b001cb569407","properties":{"airport":"LFKF","name":"LFKF AVISO","layer":"Airfield surfaces","category":"Hard Surface 2","object_type":"Area","style_id":"polygon.hardsurface2.595e5b","source_group":"LFKF AVISO","vsmr_group_ids":[],"geometry_role":"filled_region"},"geometry":{"type":"Polygon","coordinates":[[[9.097754722,41.501136389],[9.097783889,41.501109167],[9.097811944,41.501080556],[9.097838333,41.501052778],[9.097860278,41.501025],[9.0978825,41.500995278],[9.097900556,41.500961944],[9.097917222,41.500926667],[9.097932222,41.500887222],[9.0979425,41.500845278],[9.097947778,41.500806667],[9.097946389,41.500771667],[9.097944444,41.500744722],[9.097940278,41.500720556],[9.097933333,41.500696944],[9.097924444,41.500675278],[9.097916389,41.500658056],[9.098130278,41.500687222],[9.098494444,41.5006225],[9.098459444,41.501119167],[9.098414722,41.501118056],[9.098355278,41.50112],[9.098294722,41.501127778],[9.098231667,41.501141389],[9.098180278,41.501155],[9.098143056,41.501168611],[9.098101944,41.501186944],[9.098068333,41.501203333],[9.098035,41.501222778],[9.098004722,41.501242222],[9.097588333,41.501585556],[9.097381667,41.501441389],[9.097754722,41.501136389]]]}},{"type":"Feature","id":"LFKF-2d65fd4595bebb14cb89","properties":{"airport":"LFKF","name":"LFKF AVISO","layer":"Airfield surfaces","category":"Hard Surface 2","object_type":"Area","style_id":"polygon.hardsurface2.595e5b","source_group":"LFKF AVISO","vsmr_group_ids":[],"geometry_role":"filled_region"},"geometry":{"type":"Polygon","coordinates":[[[9.099576389,41.502353611],[9.099818056,41.502518611],[9.099602222,41.502685833],[9.099358611,41.502516944],[9.099576389,41.502353611]]]}},{"type":"Feature","id":"LFKF-6413741d88b27fafd457","properties":{"airport":"LFKF","name":"LFKF AVISO","layer":"Airfield surfaces","category":"Hard Surface 2","object_type":"Area","style_id":"polygon.hardsurface2.595e5b","source_group":"LFKF AVISO","vsmr_group_ids":[],"geometry_role":"filled_region"},"geometry":{"type":"Polygon","coordinates":[[[9.100663611,41.502698056],[9.100710556,41.502645],[9.100737222,41.502588333],[9.100741111,41.502508889],[9.100726389,41.502468056],[9.100688889,41.502424444],[9.100656111,41.502391111],[9.100746111,41.502315833],[9.100795,41.502352222],[9.100829444,41.502391389],[9.100857778,41.502436111],[9.100874444,41.502486389],[9.100883611,41.502551389],[9.100876944,41.502606667],[9.100847222,41.502673333],[9.100812778,41.502719444],[9.100736389,41.502783611],[9.099544167,41.503755556],[9.099460556,41.503699167],[9.100599444,41.502758056],[9.100663611,41.502698056]]]}},{"type":"Feature","id":"LFKF-8b0756a72b782852ffe6","properties":{"airport":"LFKF","name":"LFKF AVISO","layer":"Airfield surfaces","category":"Runways","object_type":"Area","style_id":"polygon.runwayconcrete.555555","source_group":"LFKF AVISO","vsmr_group_ids":[],"geometry_role":"filled_region"},"geometry":{"type":"Polygon","coordinates":[[[9.086199444,41.494579444],[9.086226389,41.494559722],[9.086255833,41.494541944],[9.086288056,41.494525],[9.086328333,41.494509444],[9.086376667,41.494494167],[9.086423056,41.494482222],[9.086478889,41.494473611],[9.086528889,41.494469167],[9.086579444,41.494468889],[9.0866225,41.494470833],[9.086668889,41.494478056],[9.086714722,41.494489444],[9.086768611,41.494506111],[9.087072222,41.4951825],[9.092396389,41.498842778],[9.092426111,41.498824167],[9.092459167,41.498804444],[9.092493611,41.498786944],[9.092533333,41.498769722],[9.092574722,41.498756111],[9.092618889,41.498743333],[9.092663056,41.498734444],[9.092707778,41.498726944],[9.092746111,41.498723889],[9.092784444,41.498721944],[9.092829722,41.498722222],[9.092871944,41.498724722],[9.092909444,41.498730278],[9.092956111,41.4987375],[9.093271111,41.499444444],[9.096391944,41.501595278],[9.0964225,41.501616111],[9.096456667,41.501634444],[9.096496111,41.5016525],[9.096540278,41.50167],[9.096578611,41.501681944],[9.0966175,41.501691667],[9.096663333,41.5017],[9.096705,41.501705],[9.096746111,41.501708889],[9.0967875,41.50171],[9.096832778,41.501708056],[9.096879167,41.501704722],[9.096919722,41.501699722],[9.096959444,41.5016925],[9.097003611,41.501680278],[9.097049444,41.501665833],[9.097093611,41.501647778],[9.097136389,41.501626667],[9.097173333,41.501605556],[9.097216389,41.501577222],[9.097263333,41.50154],[9.0973825,41.501440278],[9.09759,41.501584444],[9.097535,41.501626944],[9.097491667,41.501663889],[9.097448611,41.501699722],[9.09742,41.501726111],[9.097388611,41.501756667],[9.097363611,41.501789444],[9.097340833,41.501821667],[9.097322778,41.501854167],[9.097309167,41.501883056],[9.097299167,41.5019125],[9.097291944,41.501945278],[9.097285278,41.501981111],[9.097283611,41.502016667],[9.097286111,41.502053611],[9.097293611,41.502094444],[9.097306667,41.502135833],[9.097326389,41.502178056],[9.097344444,41.50221],[9.097368056,41.502241667],[9.097395833,41.502274167],[9.097431389,41.502308333],[9.097477778,41.502342778],[9.100864444,41.504670278],[9.101833611,41.504846389],[9.10185,41.504883611],[9.101862222,41.5049175],[9.101868611,41.504948889],[9.101871667,41.504990833],[9.101871944,41.505025833],[9.101868056,41.505062222],[9.101857778,41.505096944],[9.101846389,41.505131111],[9.101831667,41.505164167],[9.101813056,41.505193611],[9.101793056,41.505223611],[9.101767778,41.505250833],[9.101745833,41.505275833],[9.107216111,41.509035833],[9.1081375,41.5091975],[9.108166111,41.509229167],[9.108187778,41.509263889],[9.108203889,41.509297222],[9.108215833,41.509331667],[9.108224444,41.509366944],[9.1082275,41.5094],[9.108228333,41.509430556],[9.108222778,41.509466944],[9.108213889,41.509500556],[9.108197778,41.509536944],[9.1081825,41.509566389],[9.108168611,41.509588611],[9.108151944,41.509612222],[9.108136667,41.50963],[9.108120556,41.509646389],[9.108112222,41.509653333],[9.108146667,41.509677222],[9.1077825,41.5099775],[9.096301944,41.502075833],[9.096259444,41.502048056],[9.096228056,41.502035],[9.096193056,41.502022222],[9.096163611,41.502014444],[9.096123611,41.502008056],[9.096088056,41.502004722],[9.0960525,41.502003333],[9.096020278,41.502006111],[9.095984722,41.502011111],[9.095946111,41.502018889],[9.095907778,41.502028611],[9.095875,41.502041667],[9.095846389,41.502056389],[9.095816944,41.502073333],[9.095790556,41.502091389],[9.095481111,41.502347778],[9.095356111,41.502263056],[9.095644722,41.502024167],[9.0956775,41.501996667],[9.095703333,41.501972222],[9.095721389,41.501948611],[9.095738889,41.501921389],[9.095750833,41.501893056],[9.095757778,41.501865],[9.095762222,41.501838056],[9.095761944,41.501810556],[9.095756389,41.501777778],[9.095748056,41.5017475],[9.095737778,41.501721667],[9.095726389,41.501697778],[9.0957,41.501669722],[9.095493889,41.501524444],[9.095460833,41.501501389],[9.095418333,41.501480278],[9.095375,41.501466111],[9.095331389,41.501457778],[9.095288333,41.501450278],[9.095251389,41.501449444],[9.095216389,41.501451111],[9.095181667,41.501456389],[9.095140833,41.501464722],[9.095099167,41.501476944],[9.095064167,41.501489444],[9.0950325,41.501505],[9.095002778,41.501525833],[9.094671667,41.501796111],[9.094546944,41.501710278],[9.094850833,41.501464722],[9.094885,41.501433056],[9.094908889,41.501408056],[9.094928056,41.501379722],[9.094941667,41.501351667],[9.094951667,41.501318889],[9.0949575,41.501284167],[9.094957778,41.501259722],[9.094954444,41.501237222],[9.094946944,41.501214722],[9.094938889,41.501192778],[9.094926389,41.501168889],[9.094911944,41.501145278],[9.094888889,41.501114167],[9.0948575,41.501084167],[9.086361389,41.495243889],[9.085832778,41.494879722],[9.086199444,41.494579444]]]}},{"type":"Feature","id":"LFKF-ec52d093b48ca9ec71e3","properties":{"airport":"LFKF","name":"LFKF AVISO","layer":"Airfield surfaces","category":"Runways","object_type":"Area","style_id":"polygon.runwayconcrete.555555","source_group":"LFKF AVISO","vsmr_group_ids":[],"geometry_role":"filled_region"},"geometry":{"type":"Polygon","coordinates":[[[9.099721944,41.502515],[9.099601667,41.502615833],[9.099465278,41.502520556],[9.099585278,41.502421111],[9.099721944,41.502515]]]}},{"type":"Feature","id":"LFKF-f41f28457a95aa86031b","properties":{"airport":"LFKF","name":"LFKF AVISO","layer":"Buildings and structures","category":"Buildings","object_type":"Area","style_id":"polygon.building.394446","source_group":"LFKF AVISO","vsmr_group_ids":[],"geometry_role":"filled_region"},"geometry":{"type":"Polygon","coordinates":[[[9.101413333,41.501469167],[9.101511389,41.50154],[9.101533611,41.501577222],[9.101511944,41.501596944],[9.101380556,41.501496667],[9.101413333,41.501469167]]]}},{"type":"Feature","id":"LFKF-4d8b14bb55826a4e2e12","properties":{"airport":"LFKF","name":"LFKF AVISO","layer":"Buildings and structures","category":"Buildings","object_type":"Area","style_id":"polygon.building.394446","source_group":"LFKF AVISO","vsmr_group_ids":[],"geometry_role":"filled_region"},"geometry":{"type":"Polygon","coordinates":[[[9.100578056,41.5009],[9.10075,41.501014444],[9.100905,41.500915],[9.10075,41.500797222],[9.100578056,41.5009]]]}},{"type":"Feature","id":"LFKF-c884910a0e5d1dbb3329","properties":{"airport":"LFKF","name":"LFKF AVISO","layer":"Buildings and structures","category":"Buildings","object_type":"Area","style_id":"polygon.building.394446","source_group":"LFKF AVISO","vsmr_group_ids":[],"geometry_role":"filled_region"},"geometry":{"type":"Polygon","coordinates":[[[9.100335,41.500466111],[9.100166111,41.500606111],[9.099969444,41.500476389],[9.100138889,41.500334722],[9.100335,41.500466111]]]}},{"type":"Feature","id":"LFKF-3d1ded6bff9129532eb9","properties":{"airport":"LFKF","name":"LFKF AVISO","layer":"Buildings and structures","category":"Buildings","object_type":"Area","style_id":"polygon.building.394446","source_group":"LFKF AVISO","vsmr_group_ids":[],"geometry_role":"filled_region"},"geometry":{"type":"Polygon","coordinates":[[[9.099647222,41.500164167],[9.099716389,41.50021],[9.099776944,41.500160556],[9.100048056,41.500339167],[9.099924167,41.5004425],[9.099588333,41.500211944],[9.099647222,41.500164167]]]}},{"type":"Feature","id":"LFKF-c61450fee9e1eba134d7","properties":{"airport":"LFKF","name":"LFKF AVISO","layer":"Buildings and structures","category":"Buildings","object_type":"Area","style_id":"polygon.building.394446","source_group":"LFKF AVISO","vsmr_group_ids":[],"geometry_role":"filled_region"},"geometry":{"type":"Polygon","coordinates":[[[9.099187778,41.4999475],[9.099186944,41.499898056],[9.099181111,41.4998975],[9.099173611,41.499896111],[9.099167222,41.499891944],[9.099164444,41.499886389],[9.099165,41.499881111],[9.099168333,41.499877778],[9.099174444,41.499875],[9.099182222,41.499873056],[9.099195278,41.499872778],[9.099191667,41.499805],[9.099311111,41.499803056],[9.099311111,41.499871389],[9.099251389,41.499874167],[9.099253333,41.499922778],[9.099352778,41.499840833],[9.099379722,41.499858611],[9.099492222,41.499763889],[9.099528056,41.499788889],[9.099418056,41.499884444],[9.099496111,41.49994],[9.099373333,41.500039722],[9.099234722,41.499946389],[9.099187778,41.4999475]]]}},{"type":"Feature","id":"LFKF-d9b793fb829cf201165b","properties":{"airport":"LFKF","name":"LFKF AVISO","layer":"Buildings and structures","category":"Buildings","object_type":"Area","style_id":"polygon.building.394446","source_group":"LFKF AVISO","vsmr_group_ids":[],"geometry_role":"filled_region"},"geometry":{"type":"Polygon","coordinates":[[[9.099049722,41.499728889],[9.099010278,41.499701944],[9.099004167,41.499705833],[9.098979167,41.499688333],[9.098898611,41.499689722],[9.098879722,41.499675833],[9.098871667,41.499681389],[9.098876111,41.499685278],[9.098850556,41.499705278],[9.098796667,41.499667222],[9.098830278,41.499643611],[9.098828889,41.499612222],[9.098793056,41.499610833],[9.098758056,41.499639167],[9.0987575,41.499648333],[9.098753889,41.499663056],[9.098743611,41.499676111],[9.098727222,41.499685],[9.098709444,41.499689722],[9.098691389,41.499690556],[9.098673333,41.499687778],[9.098656944,41.499680556],[9.098643611,41.499671667],[9.098633333,41.499658056],[9.098628056,41.499643889],[9.098630556,41.499628889],[9.0986375,41.499617222],[9.098649444,41.499606111],[9.098667778,41.499596389],[9.098685,41.4995925],[9.098705556,41.499591944],[9.098745,41.499560556],[9.098799444,41.499598056],[9.098831944,41.4995975],[9.098831111,41.499580556],[9.098798056,41.499556944],[9.098792222,41.499560556],[9.098773056,41.499547778],[9.098823056,41.499506667],[9.0988425,41.499519722],[9.098837222,41.499523889],[9.098873056,41.499548056],[9.098872778,41.4995575],[9.098956667,41.499554722],[9.09896,41.499606944],[9.099030556,41.499605],[9.099071111,41.499632222],[9.099078056,41.499626667],[9.099133889,41.499666111],[9.099128889,41.499670556],[9.099159167,41.4996925],[9.099123889,41.499721111],[9.0991075,41.49971],[9.099061111,41.4997475],[9.099042222,41.499734444],[9.099049722,41.499728889]]]}},{"type":"Feature","id":"LFKF-d63d34abe22afd87229e","properties":{"airport":"LFKF","name":"LFKF AVISO","layer":"Buildings and structures","category":"Buildings","object_type":"Area","style_id":"polygon.building.394446","source_group":"LFKF AVISO","vsmr_group_ids":[],"geometry_role":"filled_region"},"geometry":{"type":"Polygon","coordinates":[[[9.097636944,41.4986075],[9.097623333,41.498600278],[9.097740833,41.498408611],[9.097728056,41.498399722],[9.097754722,41.498353333],[9.098006944,41.498524167],[9.098066389,41.498473889],[9.098652222,41.498879167],[9.098591944,41.498926667],[9.098870556,41.4991175],[9.098782222,41.499165833],[9.098594722,41.499035],[9.098468333,41.499138611],[9.098612778,41.499240278],[9.098410556,41.499402778],[9.098290278,41.499321389],[9.098252778,41.499349167],[9.098205556,41.499316389],[9.098241667,41.499287778],[9.098178611,41.499243611],[9.098148611,41.499265833],[9.098103889,41.499233889],[9.098122222,41.49922],[9.097453333,41.4987625],[9.097625833,41.498618889],[9.097636944,41.4986075]]]}},{"type":"Feature","id":"LFKF-b637b4ad09f21cc7e1d4","properties":{"airport":"LFKF","name":"LFKF AVISO","layer":"Surface markings","category":"Stopbars","object_type":"Area","style_id":"polygon.stopbar.7e0000","source_group":"LFKF AVISO","vsmr_group_ids":[],"geometry_role":"filled_region"},"geometry":{"type":"Polygon","coordinates":[[[9.097382778,41.501439444],[9.097591944,41.501583056],[9.097581111,41.501591667],[9.097373056,41.5014475],[9.097382778,41.501439444]]]}},{"type":"Feature","id":"LFKF-6b34fc30618d6cd15d2e","properties":{"airport":"LFKF","name":"LFKF AVISO","layer":"Surface markings","category":"Stopbars","object_type":"Area","style_id":"polygon.stopbar.7e0000","source_group":"LFKF AVISO","vsmr_group_ids":[],"geometry_role":"filled_region"},"geometry":{"type":"Polygon","coordinates":[[[9.095363889,41.502256111],[9.095488333,41.502341944],[9.095478333,41.50235],[9.095353611,41.502264722],[9.095363889,41.502256111]]]}},{"type":"Feature","id":"LFKF-24e7f4f7c0088c88c20d","properties":{"airport":"LFKF","name":"LFKF AVISO","layer":"Surface markings","category":"Stopbars","object_type":"Area","style_id":"polygon.stopbar.7e0000","source_group":"LFKF AVISO","vsmr_group_ids":[],"geometry_role":"filled_region"},"geometry":{"type":"Polygon","coordinates":[[[9.094553056,41.501705],[9.094679722,41.50179],[9.094669722,41.501797778],[9.094543889,41.5017125],[9.094553056,41.501705]]]}},{"type":"Feature","id":"LFKF-eb925ba409a9c5a5bd0c","properties":{"airport":"LFKF","name":"LFKF AVISO","layer":"Surface markings","category":"Stopbars","object_type":"Area","style_id":"polygon.stopbar.7e0000","source_group":"LFKF AVISO","vsmr_group_ids":[],"geometry_role":"filled_region"},"geometry":{"type":"Polygon","coordinates":[[[9.100028056,41.50323],[9.100114722,41.503289444],[9.100105,41.503298333],[9.1000175,41.503239167],[9.100028056,41.50323]]]}},{"type":"Feature","id":"LFKF-b8f67afb79dee2a6a80d","properties":{"airport":"LFKF","name":"LFKF AVISO","layer":"Airfield surfaces","category":"Taxiway Orange","object_type":"Area","style_id":"polygon.taxiwayorange.cc6d00","source_group":"LFKF AVISO","vsmr_group_ids":[],"geometry_role":"filled_region"},"geometry":{"type":"Polygon","coordinates":[[[9.098129722,41.500694444],[9.097919444,41.500665833],[9.097915556,41.500656111],[9.098131667,41.500685556],[9.0984975,41.500620556],[9.098461667,41.501119722],[9.098459167,41.501119444],[9.098449444,41.501119167],[9.098485556,41.500632778],[9.098129722,41.500694444]]]}},{"type":"Feature","id":"LFKF-89d233dc7627aa151971","properties":{"airport":"LFKF","name":"LFKF AVISO","layer":"Airfield surfaces","category":"Taxiway Orange","object_type":"Area","style_id":"polygon.taxiwayorange.cc6d00","source_group":"LFKF AVISO","vsmr_group_ids":[],"geometry_role":"filled_region"},"geometry":{"type":"Polygon","coordinates":[[[9.100526944,41.5028175],[9.100617778,41.502880278],[9.100609167,41.502886667],[9.100520278,41.502823611],[9.100526944,41.5028175]]]}},{"type":"Feature","id":"LFKF-f9c851e92c38c69d1c40","properties":{"airport":"LFKF","name":"7","layer":"Labels","category":"Gates","object_type":"Label","style_id":"label.gates","source_group":"LFKF Gates","vsmr_group_ids":[],"geometry_role":"text_label","text-field":"7"},"geometry":{"type":"Point","coordinates":[9.098273889,41.500314722]}},{"type":"Feature","id":"LFKF-242dca59eb77f521074d","properties":{"airport":"LFKF","name":"8","layer":"Labels","category":"Gates","object_type":"Label","style_id":"label.gates","source_group":"LFKF Gates","vsmr_group_ids":[],"geometry_role":"text_label","text-field":"8"},"geometry":{"type":"Point","coordinates":[9.098776944,41.500223611]}},{"type":"Feature","id":"LFKF-75e24dcca79fa3ea8845","properties":{"airport":"LFKF","name":"9","layer":"Labels","category":"Gates","object_type":"Label","style_id":"label.gates","source_group":"LFKF Gates","vsmr_group_ids":[],"geometry_role":"text_label","text-field":"9"},"geometry":{"type":"Point","coordinates":[9.098426944,41.499943889]}},{"type":"Feature","id":"LFKF-10f6b67dd62066901128","properties":{"airport":"LFKF","name":"10","layer":"Labels","category":"Gates","object_type":"Label","style_id":"label.gates","source_group":"LFKF Gates","vsmr_group_ids":[],"geometry_role":"text_label","text-field":"10"},"geometry":{"type":"Point","coordinates":[9.098051389,41.499673611]}},{"type":"Feature","id":"LFKF-2405635bf777e7260fc4","properties":{"airport":"LFKF","name":"11","layer":"Labels","category":"Gates","object_type":"Label","style_id":"label.gates","source_group":"LFKF Gates","vsmr_group_ids":[],"geometry_role":"text_label","text-field":"11"},"geometry":{"type":"Point","coordinates":[9.097708611,41.499413056]}},{"type":"Feature","id":"LFKF-d9d9d97ebdcd9438591d","properties":{"airport":"LFKF","name":"12","layer":"Labels","category":"Gates","object_type":"Label","style_id":"label.gates","source_group":"LFKF Gates","vsmr_group_ids":[],"geometry_role":"text_label","text-field":"12"},"geometry":{"type":"Point","coordinates":[9.096815556,41.499168889]}},{"type":"Feature","id":"LFKF-d2490bca8b50b1ad3e1c","properties":{"airport":"LFKF","name":"12B","layer":"Labels","category":"Gates","object_type":"Label","style_id":"label.gates","source_group":"LFKF Gates","vsmr_group_ids":[],"geometry_role":"text_label","text-field":"12B"},"geometry":{"type":"Point","coordinates":[9.097197222,41.499344444]}},{"type":"Feature","id":"LFKF-400984bde6d66aaf0e0d","properties":{"airport":"LFKF","name":"13","layer":"Labels","category":"Gates","object_type":"Label","style_id":"label.gates","source_group":"LFKF Gates","vsmr_group_ids":[],"geometry_role":"text_label","text-field":"13"},"geometry":{"type":"Point","coordinates":[9.097356944,41.499150278]}},{"type":"Feature","id":"LFKF-001e0b8f88cbf279e64f","properties":{"airport":"LFKF","name":"14","layer":"Labels","category":"Gates","object_type":"Label","style_id":"label.gates","source_group":"LFKF Gates","vsmr_group_ids":[],"geometry_role":"text_label","text-field":"14"},"geometry":{"type":"Point","coordinates":[9.096553611,41.499434444]}},{"type":"Feature","id":"LFKF-755632a7a1da149abf8b","properties":{"airport":"LFKF","name":"H1","layer":"Labels","category":"Gates","object_type":"Label","style_id":"label.gates","source_group":"LFKF Gates","vsmr_group_ids":[],"geometry_role":"text_label","text-field":"H1"},"geometry":{"type":"Point","coordinates":[9.099647222,41.501958333]}},{"type":"Feature","id":"LFKF-a0eac21e2d9799f567a1","properties":{"airport":"LFKF","name":"H2","layer":"Labels","category":"Gates","object_type":"Label","style_id":"label.gates","source_group":"LFKF Gates","vsmr_group_ids":[],"geometry_role":"text_label","text-field":"H2"},"geometry":{"type":"Point","coordinates":[9.099875,41.502113889]}},{"type":"Feature","id":"LFKF-78241b94406bd51456b0","properties":{"airport":"LFKF","name":"H3","layer":"Labels","category":"Gates","object_type":"Label","style_id":"label.gates","source_group":"LFKF Gates","vsmr_group_ids":[],"geometry_role":"text_label","text-field":"H3"},"geometry":{"type":"Point","coordinates":[9.1001,41.502275]}},{"type":"Feature","id":"LFKF-d9273907d3f3e88bef44","properties":{"airport":"LFKF","name":"H4","layer":"Labels","category":"Gates","object_type":"Label","style_id":"label.gates","source_group":"LFKF Gates","vsmr_group_ids":[],"geometry_role":"text_label","text-field":"H4"},"geometry":{"type":"Point","coordinates":[9.100333333,41.502427778]}},{"type":"Feature","id":"LFKF-aa491a87d279c7130397","properties":{"airport":"LFKF","name":"21","layer":"Labels","category":"Gates","object_type":"Label","style_id":"label.gates","source_group":"LFKF Gates","vsmr_group_ids":[],"geometry_role":"text_label","text-field":"21"},"geometry":{"type":"Point","coordinates":[9.099001944,41.500706944]}},{"type":"Feature","id":"LFKF-de71bc99cbf7f1f9b130","properties":{"airport":"LFKF","name":"21A","layer":"Labels","category":"Gates","object_type":"Label","style_id":"label.gates","source_group":"LFKF Gates","vsmr_group_ids":[],"geometry_role":"text_label","text-field":"21A"},"geometry":{"type":"Point","coordinates":[9.099205833,41.5007275]}},{"type":"Feature","id":"LFKF-69fbba2cd05b6c7fa3d0","properties":{"airport":"LFKF","name":"21B","layer":"Labels","category":"Gates","object_type":"Label","style_id":"label.gates","source_group":"LFKF Gates","vsmr_group_ids":[],"geometry_role":"text_label","text-field":"21B"},"geometry":{"type":"Point","coordinates":[9.099348611,41.500585]}},{"type":"Feature","id":"LFKF-02c72979f58bb4017b13","properties":{"airport":"LFKF","name":"22","layer":"Labels","category":"Gates","object_type":"Label","style_id":"label.gates","source_group":"LFKF Gates","vsmr_group_ids":[],"geometry_role":"text_label","text-field":"22"},"geometry":{"type":"Point","coordinates":[9.099391111,41.501186667]}},{"type":"Feature","id":"LFKF-a7bdd4e70bb19fb07142","properties":{"airport":"LFKF","name":"23","layer":"Labels","category":"Gates","object_type":"Label","style_id":"label.gates","source_group":"LFKF Gates","vsmr_group_ids":[],"geometry_role":"text_label","text-field":"23"},"geometry":{"type":"Point","coordinates":[9.099594444,41.501027778]}},{"type":"Feature","id":"LFKF-e1bdfefdc3349f21c9f4","properties":{"airport":"LFKF","name":"24","layer":"Labels","category":"Gates","object_type":"Label","style_id":"label.gates","source_group":"LFKF Gates","vsmr_group_ids":[],"geometry_role":"text_label","text-field":"24"},"geometry":{"type":"Point","coordinates":[9.099811111,41.500836111]}},{"type":"Feature","id":"LFKF-053a2c8fad45551571cd","properties":{"airport":"LFKF","name":"31","layer":"Labels","category":"Gates","object_type":"Label","style_id":"label.gates","source_group":"LFKF Gates","vsmr_group_ids":[],"geometry_role":"text_label","text-field":"31"},"geometry":{"type":"Point","coordinates":[9.099930556,41.501533333]}},{"type":"Feature","id":"LFKF-d4ede98cc0be87f8043f","properties":{"airport":"LFKF","name":"32","layer":"Labels","category":"Gates","object_type":"Label","style_id":"label.gates","source_group":"LFKF Gates","vsmr_group_ids":[],"geometry_role":"text_label","text-field":"32"},"geometry":{"type":"Point","coordinates":[9.100058333,41.501402778]}},{"type":"Feature","id":"LFKF-0f7e20a2984dea591c03","properties":{"airport":"LFKF","name":"33","layer":"Labels","category":"Gates","object_type":"Label","style_id":"label.gates","source_group":"LFKF Gates","vsmr_group_ids":[],"geometry_role":"text_label","text-field":"33"},"geometry":{"type":"Point","coordinates":[9.100230556,41.501258333]}},{"type":"Feature","id":"LFKF-491f0f78d597c6320d94","properties":{"airport":"LFKF","name":"34","layer":"Labels","category":"Gates","object_type":"Label","style_id":"label.gates","source_group":"LFKF Gates","vsmr_group_ids":[],"geometry_role":"text_label","text-field":"34"},"geometry":{"type":"Point","coordinates":[9.100375,41.501122222]}},{"type":"Feature","id":"LFKF-ff2da51e89711e7e89f0","properties":{"airport":"LFKF","name":"35","layer":"Labels","category":"Gates","object_type":"Label","style_id":"label.gates","source_group":"LFKF Gates","vsmr_group_ids":[],"geometry_role":"text_label","text-field":"35"},"geometry":{"type":"Point","coordinates":[9.100388889,41.501816667]}},{"type":"Feature","id":"LFKF-c704875db5e283491900","properties":{"airport":"LFKF","name":"36","layer":"Labels","category":"Gates","object_type":"Label","style_id":"label.gates","source_group":"LFKF Gates","vsmr_group_ids":[],"geometry_role":"text_label","text-field":"36"},"geometry":{"type":"Point","coordinates":[9.100575,41.501672222]}},{"type":"Feature","id":"LFKF-608b8fc14c33361ae810","properties":{"airport":"LFKF","name":"37","layer":"Labels","category":"Gates","object_type":"Label","style_id":"label.gates","source_group":"LFKF Gates","vsmr_group_ids":[],"geometry_role":"text_label","text-field":"37"},"geometry":{"type":"Point","coordinates":[9.100713889,41.501555556]}},{"type":"Feature","id":"LFKF-4da1ef59ac1293c51092","properties":{"airport":"LFKF","name":"38","layer":"Labels","category":"Gates","object_type":"Label","style_id":"label.gates","source_group":"LFKF Gates","vsmr_group_ids":[],"geometry_role":"text_label","text-field":"38"},"geometry":{"type":"Point","coordinates":[9.100855556,41.501419444]}},{"type":"Feature","id":"LFKF-ac5531e48395c54a0f8c","properties":{"airport":"LFKF","name":"51","layer":"Labels","category":"Gates","object_type":"Label","style_id":"label.gates","source_group":"LFKF Gates","vsmr_group_ids":[],"geometry_role":"text_label","text-field":"51"},"geometry":{"type":"Point","coordinates":[9.100786111,41.502133333]}},{"type":"Feature","id":"LFKF-ee5559ce9e075a9cb0dc","properties":{"airport":"LFKF","name":"52","layer":"Labels","category":"Gates","object_type":"Label","style_id":"label.gates","source_group":"LFKF Gates","vsmr_group_ids":[],"geometry_role":"text_label","text-field":"52"},"geometry":{"type":"Point","coordinates":[9.100922222,41.502016667]}},{"type":"Feature","id":"LFKF-c749a76936038d8bc68a","properties":{"airport":"LFKF","name":"53","layer":"Labels","category":"Gates","object_type":"Label","style_id":"label.gates","source_group":"LFKF Gates","vsmr_group_ids":[],"geometry_role":"text_label","text-field":"53"},"geometry":{"type":"Point","coordinates":[9.101061111,41.501905556]}},{"type":"Feature","id":"LFKF-5ae7ff91b93f4cde257a","properties":{"airport":"LFKF","name":"54","layer":"Labels","category":"Gates","object_type":"Label","style_id":"label.gates","source_group":"LFKF Gates","vsmr_group_ids":[],"geometry_role":"text_label","text-field":"54"},"geometry":{"type":"Point","coordinates":[9.101211111,41.501788889]}},{"type":"Feature","id":"LFKF-d1e1ed65c5096db33073","properties":{"airport":"LFKF","name":"55","layer":"Labels","category":"Gates","object_type":"Label","style_id":"label.gates","source_group":"LFKF Gates","vsmr_group_ids":[],"geometry_role":"text_label","text-field":"55"},"geometry":{"type":"Point","coordinates":[9.101336111,41.501686111]}},{"type":"Feature","id":"LFKF-26faaf1387cc295b5cce","properties":{"airport":"LFKF","name":"Terminal","layer":"Labels","category":"Gates","object_type":"Label","style_id":"label.gates","source_group":"LFKF Gates","vsmr_group_ids":[],"geometry_role":"text_label","text-field":"Terminal"},"geometry":{"type":"Point","coordinates":[9.098033611,41.498853889]}},{"type":"Feature","id":"LFKF-70b62192a4bfc0ff01dd","properties":{"airport":"LFKF","name":"TWR","layer":"Labels","category":"Gates","object_type":"Label","style_id":"label.gates","source_group":"LFKF Gates","vsmr_group_ids":[],"geometry_role":"text_label","text-field":"TWR"},"geometry":{"type":"Point","coordinates":[9.098929167,41.49964]}},{"type":"Feature","id":"LFKF-35f248b70a5e5a3e954b","properties":{"airport":"LFKF","name":"LFKF Groundlayout AVISO","layer":"Guidance lines","category":"Runway Border","object_type":"Line","style_id":"line.runwayborder.808080","source_group":"LFKF Groundlayout AVISO","vsmr_group_ids":[],"geometry_role":"linework"},"geometry":{"type":"MultiLineString","coordinates":[[[9.086103889,41.494789722],[9.086279444,41.494911667]],[[9.086265,41.494923889],[9.086368611,41.494973056],[9.086294444,41.494900278]],[[9.086360833,41.495243611],[9.086726667,41.494943333],[9.0870725,41.4951825]],[[9.086659444,41.494900556],[9.086525833,41.494807778]],[[9.086460278,41.494763611],[9.086328056,41.494672222]],[[9.086263333,41.494626944],[9.086198333,41.494580556]]]}},{"type":"Feature","id":"LFKF-9099894e28b9372f9f2f","properties":{"airport":"LFKF","name":"LFKF Groundlayout AVISO","layer":"Guidance lines","category":"Taxiways","object_type":"Line","style_id":"line.taxiway.c0b631","source_group":"LFKF Groundlayout AVISO","vsmr_group_ids":[],"geometry_role":"linework"},"geometry":{"type":"MultiLineString","coordinates":[[[9.096844167,41.499730556],[9.096779722,41.4996875]],[[9.096721111,41.499647222],[9.096665556,41.499609444]],[[9.096616111,41.499574444],[9.096555,41.4995325]],[[9.096505278,41.499500278],[9.096441389,41.499456389]],[[9.097365556,41.499023889],[9.096827222,41.499465833]],[[9.097002222,41.499679722],[9.096996111,41.499615833]],[[9.096992222,41.499566944],[9.096986389,41.499504444]],[[9.096980278,41.499454722],[9.096974444,41.499392222]],[[9.096969444,41.499342222],[9.096963611,41.499280833]],[[9.096957222,41.499223889],[9.096950556,41.499166111]],[[9.096946944,41.499119444],[9.096940833,41.499061944]],[[9.09719,41.499731389],[9.097720278,41.499296111]],[[9.09757,41.499978611],[9.098090556,41.499551389]],[[9.097945833,41.500231111],[9.098458889,41.49981]],[[9.098226111,41.500563889],[9.098731111,41.500148889]],[[9.098450833,41.500719722],[9.098503333,41.500676389]],[[9.098561389,41.500628889],[9.098618889,41.500581389]],[[9.098662222,41.500545833],[9.098719722,41.500497778]],[[9.0987625,41.500454722],[9.098765556,41.500445],[9.098766944,41.500435],[9.098766111,41.500422778],[9.098761667,41.500411944],[9.098753333,41.500399722],[9.098741389,41.500389167]],[[9.098684444,41.500358889],[9.098670556,41.500355833],[9.098653611,41.500352778],[9.098638056,41.500350833],[9.098623889,41.500350556],[9.098606667,41.500351389],[9.098593056,41.500353333]],[[9.098528611,41.500367222],[9.098505,41.500374722],[9.098489167,41.500378611],[9.0984725,41.500380556],[9.098458889,41.500381111],[9.098440556,41.500381111]],[[9.098368611,41.500374444],[9.098264722,41.500366944]],[[9.098893611,41.500744167],[9.099048333,41.500618056]],[[9.099251111,41.500705833],[9.099146389,41.500633611]],[[9.099406944,41.500576389],[9.099305556,41.500506389]],[[9.09955,41.501244167],[9.099353333,41.501108056]],[[9.099766111,41.501062222],[9.099574722,41.500932222]],[[9.099985278,41.500883889],[9.099788056,41.500750833]],[[9.100030278,41.501545556],[9.099920278,41.50147]],[[9.100081111,41.501342222],[9.100189722,41.501413333]],[[9.100351389,41.5012825],[9.100241667,41.501211389]],[[9.100512222,41.501155278],[9.100401111,41.5010775]],[[9.100515556,41.501823056],[9.100401944,41.501747778]],[[9.100675833,41.501691111],[9.100568611,41.501618889]],[[9.100729444,41.501488056],[9.100835278,41.5015625]],[[9.100889444,41.501359722],[9.100994722,41.501437778]],[[9.100898889,41.50215],[9.100795833,41.5020775]],[[9.101032778,41.502046111],[9.100928611,41.501968056]],[[9.101063056,41.501858056],[9.101164444,41.501929167]],[[9.101197778,41.501745],[9.101303611,41.501813611]],[[9.1014375,41.501712222],[9.101329444,41.501641667]],[[9.099581389,41.502009167],[9.099611667,41.502023889],[9.099647778,41.502029167],[9.099695,41.50202],[9.099721389,41.501998889],[9.099735556,41.5019675],[9.099733056,41.501941389],[9.099718889,41.501917778],[9.099691111,41.501898333],[9.099655,41.501890556],[9.099615278,41.501894167],[9.099585,41.501902778],[9.099568611,41.501915],[9.099553611,41.501936111],[9.099548889,41.501956111],[9.099552222,41.501974167],[9.099561667,41.5019925],[9.099581389,41.502009167]],[[9.099812222,41.502171667],[9.099831944,41.502181944],[9.099856389,41.50219],[9.099883333,41.50219],[9.0999125,41.502185556],[9.099938056,41.5021725],[9.099954444,41.502155],[9.099967222,41.5021325],[9.099965,41.502110556],[9.099961389,41.502093889],[9.099953333,41.50208],[9.099940556,41.502066111],[9.099916111,41.502056389],[9.099889167,41.502050278],[9.099861389,41.502051111],[9.099832222,41.502058333],[9.099813333,41.502066944],[9.099794722,41.502085278],[9.099784167,41.502099167],[9.099780833,41.502114722],[9.099780556,41.502132222],[9.099785278,41.502146944],[9.099798056,41.502161111],[9.099812222,41.502171667]],[[9.100040556,41.502326111],[9.100056667,41.502335556],[9.100076389,41.502341667],[9.100101944,41.502345278],[9.100126111,41.502343333],[9.100148333,41.502335556],[9.100167778,41.502324167],[9.100183056,41.502309444],[9.100193611,41.502290278],[9.100195,41.502269444],[9.100188333,41.502246667],[9.100175556,41.502231111],[9.100160556,41.502218889],[9.100140833,41.502210833],[9.100118611,41.502206667],[9.100093056,41.502205833],[9.100072222,41.502209167],[9.100052222,41.502218056],[9.100037222,41.502228333],[9.100024444,41.502240556],[9.100016111,41.502251111],[9.100011389,41.502267778],[9.100010278,41.502284167],[9.100016111,41.502299167],[9.100025278,41.502313056],[9.100040556,41.502326111]],[[9.100268611,41.502483333],[9.100292222,41.502493889],[9.100315556,41.502501111],[9.100339167,41.502501944],[9.100360556,41.502500556],[9.100384167,41.502491944],[9.1004025,41.502478611],[9.100415,41.502465556],[9.100423889,41.502441111],[9.100425,41.502421944],[9.100421389,41.502403611],[9.10041,41.502386944],[9.100393611,41.502376389],[9.100370556,41.502367778],[9.100347222,41.502363333],[9.100318056,41.5023625],[9.100297222,41.502367778],[9.100274722,41.502376389],[9.100259444,41.502388611],[9.100246389,41.502405],[9.100240556,41.502418889],[9.100239444,41.502438889],[9.1002475,41.5024625],[9.100268611,41.502483333]],[[9.0970375,41.499025833],[9.097101389,41.499025833]],[[9.097146111,41.499035278],[9.097186389,41.499060833]],[[9.097205556,41.4990975],[9.097224722,41.499145278]],[[9.097207778,41.499193056],[9.097167222,41.499232778]],[[9.097126944,41.499258333],[9.097095,41.499296389]],[[9.097078056,41.49933],[9.0970525,41.499406389]]]}},{"type":"Feature","id":"LFKF-aadeb490b12148d98ce1","properties":{"airport":"LFKF","name":"23","layer":"Labels","category":"Taxiways","object_type":"Label","style_id":"label.taxiways","source_group":"LFKF Taxiways","vsmr_group_ids":[],"geometry_role":"text_label","text-field":"23"},"geometry":{"type":"Point","coordinates":[9.107580833,41.509543611]}},{"type":"Feature","id":"LFKF-c23268703cb9a1f80d99","properties":{"airport":"LFKF","name":"05","layer":"Labels","category":"Taxiways","object_type":"Label","style_id":"label.taxiways","source_group":"LFKF Taxiways","vsmr_group_ids":[],"geometry_role":"text_label","text-field":"05"},"geometry":{"type":"Point","coordinates":[9.086798056,41.495287778]}},{"type":"Feature","id":"LFKF-040ad26f9fe2ad9e97a1","properties":{"airport":"LFKF","name":"A","layer":"Labels","category":"Taxiways","object_type":"Label","style_id":"label.taxiways","source_group":"LFKF Taxiways","vsmr_group_ids":[],"geometry_role":"text_label","text-field":"A"},"geometry":{"type":"Point","coordinates":[9.098366111,41.500920833]}},{"type":"Feature","id":"LFKF-bda03f6c489f0b0c1c67","properties":{"airport":"LFKF","name":"B","layer":"Labels","category":"Taxiways","object_type":"Label","style_id":"label.taxiways","source_group":"LFKF Taxiways","vsmr_group_ids":[],"geometry_role":"text_label","text-field":"B"},"geometry":{"type":"Point","coordinates":[9.098123889,41.5007525]}},{"type":"Feature","id":"LFKF-d4853de7bc30db6296e3","properties":{"airport":"LFKF","name":"C","layer":"Labels","category":"Taxiways","object_type":"Label","style_id":"label.taxiways","source_group":"LFKF Taxiways","vsmr_group_ids":[],"geometry_role":"text_label","text-field":"C"},"geometry":{"type":"Point","coordinates":[9.097753611,41.501691389]}},{"type":"Feature","id":"LFKF-1fec6a2ffefc1cf02ca6","properties":{"airport":"LFKF","name":"K","layer":"Labels","category":"Taxiways","object_type":"Label","style_id":"label.taxiways","source_group":"LFKF Taxiways","vsmr_group_ids":[],"geometry_role":"text_label","text-field":"K"},"geometry":{"type":"Point","coordinates":[9.100186111,41.503341667]}},{"type":"Feature","id":"LFKF-6ceb0257114bdcb041f0","properties":{"airport":"LFKF","name":"K1","layer":"Labels","category":"Taxiways","object_type":"Label","style_id":"label.taxiways","source_group":"LFKF Taxiways","vsmr_group_ids":[],"geometry_role":"text_label","text-field":"K1"},"geometry":{"type":"Point","coordinates":[9.100669444,41.502916667]}},{"type":"Feature","id":"LFKF-952c1cedb8223f629094","properties":{"airport":"LFKF","name":"O","layer":"Labels","category":"Taxiways","object_type":"Label","style_id":"label.taxiways","source_group":"LFKF Taxiways","vsmr_group_ids":[],"geometry_role":"text_label","text-field":"O"},"geometry":{"type":"Point","coordinates":[9.095616944,41.502425]}},{"type":"Feature","id":"LFKF-4e2a1a25317da21a2de1","properties":{"airport":"LFKF","name":"P","layer":"Labels","category":"Taxiways","object_type":"Label","style_id":"label.taxiways","source_group":"LFKF Taxiways","vsmr_group_ids":[],"geometry_role":"text_label","text-field":"P"},"geometry":{"type":"Point","coordinates":[9.094370833,41.501593333]}},{"type":"Feature","id":"LFKF-93c0a4daecfb8905c4ce","properties":{"airport":"LFKF","name":"H","layer":"Labels","category":"Taxiways","object_type":"Label","style_id":"label.taxiways","source_group":"LFKF Taxiways","vsmr_group_ids":[],"geometry_role":"text_label","text-field":"H"},"geometry":{"type":"Point","coordinates":[9.099586111,41.502488889]}}]}
