{"type":"FeatureCollection","name":"LFKJ AVISO","bbox":[8.787072222,41.909698333,8.809576389,41.933330278],"metadata":{"schema":"vSMR AVISO","schema_version":2,"geometry_mode":"shared","airport":"LFKJ","coordinate_reference_system":"WGS84","coordinate_order":"longitude, latitude","default_color_palette":"dark","color_palettes":["dark","light"],"background_colors":{"dark":"#434A4F","light":"#434A4F"},"runways":[{"ends":["02","20"],"headings":[22,202],"thresholds":[[8.795507778,41.912780833],[8.80605,41.929693889]]}],"saved_active_runways":[],"saved_active_airport_modes":[],"airport_reference":[8.8025,41.923888889],"feature_count":89,"style_count":11,"layer_counts":{"Airfield surfaces":12,"Buildings and structures":20,"Guidance lines":1,"Labels":45,"Surface markings":7,"Terrain":4},"category_counts":{"Buildings":20,"Gates":28,"Grass":3,"Hard Surface 2":3,"Hard Surface 3":6,"Hard Surface 4":2,"Runways":1,"Stopbars":7,"Taxiways":18,"Terrain 1":1},"geometry_source":"local GNG","geometry_source_url":"","geometry_license":"GPL-3.0"},"styles":{"polygon.grassurface.00512f":{"name":"Grass","layer":"Terrain","object_type":"Area","paint":{"fill":"#010D19","fill-opacity":1,"palette-overrides":{"light":{"fill":"#00512F"}}},"feature_count":3},"polygon.terrain1.574242":{"name":"Terrain 1","layer":"Terrain","object_type":"Area","paint":{"fill":"#574242","fill-opacity":1,"palette-overrides":{"light":{"fill":"#574242"}}},"feature_count":1},"polygon.hardsurface4.969393":{"name":"Hard Surface 4","layer":"Airfield surfaces","object_type":"Area","paint":{"fill":"#152841","fill-opacity":1,"palette-overrides":{"light":{"fill":"#969393"}}},"feature_count":2},"polygon.hardsurface3.8a807f":{"name":"Hard Surface 3","layer":"Airfield surfaces","object_type":"Area","paint":{"fill":"#222D3C","fill-opacity":1,"palette-overrides":{"light":{"fill":"#8A807F"}}},"feature_count":6},"polygon.hardsurface2.595e5b":{"name":"Hard Surface 2","layer":"Airfield surfaces","object_type":"Area","paint":{"fill":"#2F3949","fill-opacity":1,"palette-overrides":{"light":{"fill":"#595E5B"}}},"feature_count":3},"polygon.runwayconcrete.555555":{"name":"Runways","layer":"Airfield surfaces","object_type":"Area","paint":{"fill":"#111318","fill-opacity":1,"palette-overrides":{"light":{"fill":"#555555"}}},"feature_count":1},"polygon.building.394446":{"name":"Buildings","layer":"Buildings and structures","object_type":"Area","paint":{"fill":"#475570","fill-opacity":1,"palette-overrides":{"light":{"fill":"#394446"}}},"feature_count":20},"polygon.stopbar.7e0000":{"name":"Stopbars","layer":"Surface markings","object_type":"Area","paint":{"fill":"#7E0000","fill-opacity":1,"palette-overrides":{"light":{"fill":"#7E0000"}}},"feature_count":7},"line.taxiway.c0b631":{"name":"Taxiways","layer":"Guidance lines","object_type":"Line","paint":{"stroke":"#4E5A69","stroke-opacity":1,"stroke-width":1,"palette-overrides":{"light":{"stroke":"#C0B631"}}},"feature_count":1},"label.gates":{"name":"Gates","layer":"Labels","object_type":"Label","paint":{"text-color":"#CCCCCC","text-font":"Arial","text-size":12,"text-halo-color":"#000000","text-halo-width":1,"text-anchor":"center","zoomLevel":9},"feature_count":28},"label.taxiways":{"name":"Taxiways","layer":"Labels","object_type":"Label","paint":{"text-color":"#CCCCCC","text-font":"Arial","text-size":12,"text-halo-color":"#000000","text-halo-width":1,"text-anchor":"center","zoomLevel":7},"feature_count":17}},"vsmr_groups":[],"features":[{"type":"Feature","id":"LFKJ-0c9fd9f1163a2458d1fa","properties":{"airport":"LFKJ","name":"LFKJ AVISO","layer":"Terrain","category":"Grass","object_type":"Area","style_id":"polygon.grassurface.00512f","source_group":"LFKJ AVISO","vsmr_group_ids":[],"geometry_role":"filled_region"},"geometry":{"type":"Polygon","coordinates":[[[8.797475833,41.909698333],[8.798228611,41.910986389],[8.798873056,41.912030833],[8.79912,41.9123975],[8.799955,41.913389167],[8.800649167,41.914222222],[8.80088,41.914491667],[8.800944722,41.914566667],[8.800962778,41.9146075],[8.800961111,41.914663889],[8.800927778,41.914793333],[8.800856667,41.914976944],[8.800831667,41.915048611],[8.800818333,41.915112222],[8.800826944,41.915205556],[8.800848611,41.915306111],[8.800892778,41.915398333],[8.801018333,41.915601944],[8.801298889,41.916047222],[8.801545833,41.916443889],[8.802299444,41.917635833],[8.803161944,41.91735],[8.803381667,41.917695833],[8.803542222,41.917648056],[8.803854167,41.918129722],[8.805111944,41.918479722],[8.805055,41.919625278],[8.805056667,41.9198625],[8.804911389,41.921235833],[8.804871944,41.9224775],[8.804798611,41.923486389],[8.804786667,41.923873611],[8.809492778,41.93146],[8.809542778,41.931546944],[8.809564167,41.931585833],[8.809576389,41.931635],[8.809572778,41.931695],[8.809559167,41.931812778],[8.809543333,41.931929722],[8.809517222,41.932035278],[8.809492222,41.932091944],[8.809333056,41.932295],[8.809177222,41.932453333],[8.8089225,41.932660278],[8.808599444,41.932849722],[8.808178611,41.93306],[8.807965,41.9331325],[8.807388333,41.933275556],[8.8070725,41.933313889],[8.806625278,41.933330278],[8.806189722,41.933306111],[8.805737778,41.933211944],[8.805296944,41.933080278],[8.805016111,41.932935556],[8.804547778,41.932643611],[8.804378333,41.932502222],[8.804294444,41.932378056],[8.804228889,41.932335556],[8.804353889,41.932042222],[8.803259444,41.930135833],[8.802741389,41.929211944],[8.801905556,41.928565],[8.801951667,41.928467222],[8.801315,41.927873611],[8.800969722,41.927470278],[8.799236389,41.925392222],[8.793766389,41.925736944],[8.793537222,41.925748056],[8.793333333,41.925729444],[8.793280833,41.925768889],[8.792078889,41.925836667],[8.79208,41.925911111],[8.791239722,41.925957778],[8.791195,41.925542778],[8.787820833,41.925695278],[8.787072222,41.924134167],[8.788129444,41.9237275],[8.788186389,41.923791667],[8.789605556,41.923242778],[8.789741667,41.923229722],[8.7902175,41.923044722],[8.790176389,41.922199444],[8.790552222,41.922183611],[8.790458889,41.921646111],[8.791041944,41.921611667],[8.791214167,41.921482778],[8.791850556,41.921223611],[8.792170556,41.921099722],[8.792457222,41.921025556],[8.792995278,41.920945],[8.793010833,41.920883333],[8.793267778,41.920825556],[8.793396389,41.920817222],[8.793539167,41.920836389],[8.7935925,41.920850278],[8.79375,41.920890833],[8.793953611,41.920915833],[8.79419,41.920896111],[8.794385833,41.920848889],[8.794538056,41.920770278],[8.794675556,41.920630556],[8.794747778,41.920470833],[8.793703611,41.918690833],[8.793061111,41.918923333],[8.792799444,41.918624444],[8.792943611,41.9183425],[8.7931925,41.918250833],[8.7924375,41.917019444],[8.791892778,41.914741667],[8.795215,41.910500556],[8.797475833,41.909698333]]]}},{"type":"Feature","id":"LFKJ-e055891f51a258365140","properties":{"airport":"LFKJ","name":"LFKJ AVISO","layer":"Terrain","category":"Terrain 1","object_type":"Area","style_id":"polygon.terrain1.574242","source_group":"LFKJ AVISO","vsmr_group_ids":[],"geometry_role":"filled_region"},"geometry":{"type":"Polygon","coordinates":[[[8.801953333,41.924005833],[8.802499722,41.923540833],[8.802679444,41.923676389],[8.802735278,41.923701944],[8.802786389,41.923719167],[8.802836111,41.923728056],[8.802889444,41.923733056],[8.802961944,41.9237325],[8.803086389,41.923724722],[8.804327222,41.923645],[8.804352778,41.924189444],[8.803367222,41.924249444],[8.803305278,41.924259167],[8.803260556,41.924274167],[8.803219167,41.924296944],[8.803185278,41.9243225],[8.803158056,41.924355833],[8.803141667,41.924391389],[8.803136944,41.924428889],[8.803135278,41.924463056],[8.803151667,41.924600833],[8.802553611,41.924544444],[8.802398333,41.924413056],[8.802355556,41.924383889],[8.802309167,41.924360833],[8.802262222,41.924345833],[8.802213056,41.924335556],[8.802173611,41.924330556],[8.802131667,41.924330556],[8.800012222,41.9244675],[8.799964722,41.9244725],[8.799919167,41.924484444],[8.799873889,41.924505833],[8.799830278,41.924539722],[8.7997975,41.924578056],[8.799783333,41.924617222],[8.799781389,41.9246575],[8.799795556,41.924735556],[8.799443611,41.924676667],[8.799367778,41.924610833],[8.799328889,41.924582778],[8.799290556,41.924561944],[8.799243611,41.924543889],[8.799193056,41.924531944],[8.799145278,41.924525278],[8.799088889,41.924526667],[8.797294444,41.924630833],[8.797277778,41.924628333],[8.797266667,41.924621111],[8.797179444,41.924535],[8.797166944,41.924530278],[8.797147778,41.924529167],[8.797101389,41.924538333],[8.796933056,41.924551111],[8.796789444,41.924558333],[8.79674,41.924550556],[8.796694167,41.924527778],[8.796688611,41.924458611],[8.796673333,41.924435833],[8.796628611,41.924416667],[8.796542222,41.924403889],[8.796543611,41.924377222],[8.801953333,41.924005833]]]}},{"type":"Feature","id":"LFKJ-ce55dcc404dab9110385","properties":{"airport":"LFKJ","name":"LFKJ AVISO","layer":"Airfield surfaces","category":"Hard Surface 4","object_type":"Area","style_id":"polygon.hardsurface4.969393","source_group":"LFKJ AVISO","vsmr_group_ids":[],"geometry_role":"filled_region"},"geometry":{"type":"Polygon","coordinates":[[[8.798643889,41.92401],[8.798703889,41.924003056],[8.798755,41.923988611],[8.798794722,41.923966944],[8.798825556,41.923942222],[8.798848056,41.923915556],[8.798867222,41.923885556],[8.798877222,41.923853056],[8.798878056,41.923815556],[8.798867222,41.923757778],[8.799250833,41.92438],[8.799211389,41.924338611],[8.799172778,41.924313333],[8.799128333,41.924290556],[8.799075278,41.924272778],[8.799018056,41.924261111],[8.798964167,41.924256389],[8.798880278,41.924259722],[8.798697222,41.924271667],[8.792323056,41.924676389],[8.792298889,41.924418333],[8.798643889,41.92401]]]}},{"type":"Feature","id":"LFKJ-dd2461c722a52fabbf02","properties":{"airport":"LFKJ","name":"LFKJ AVISO","layer":"Airfield surfaces","category":"Hard Surface 4","object_type":"Area","style_id":"polygon.hardsurface4.969393","source_group":"LFKJ AVISO","vsmr_group_ids":[],"geometry_role":"filled_region"},"geometry":{"type":"Polygon","coordinates":[[[8.795889167,41.921270556],[8.795839722,41.921255556],[8.795794167,41.921247778],[8.795432778,41.921231111],[8.795234722,41.920903333],[8.795202778,41.920845833],[8.794848056,41.920394167],[8.794764722,41.920250556],[8.794181667,41.919303056],[8.794508056,41.919053889],[8.794630556,41.918980278],[8.796195833,41.921392778],[8.796082222,41.921346389],[8.795889167,41.921270556]]]}},{"type":"Feature","id":"LFKJ-cf9aed3dbfded5f3f5ac","properties":{"airport":"LFKJ","name":"LFKJ AVISO","layer":"Airfield surfaces","category":"Hard Surface 3","object_type":"Area","style_id":"polygon.hardsurface3.8a807f","source_group":"LFKJ AVISO","vsmr_group_ids":[],"geometry_role":"filled_region"},"geometry":{"type":"Polygon","coordinates":[[[8.794761667,41.919261111],[8.793630278,41.917468611],[8.794614444,41.917127222],[8.798119167,41.9227725],[8.79702,41.922888611],[8.796116389,41.921420278],[8.794761667,41.919261111]]]}},{"type":"Feature","id":"LFKJ-3d8d40c32cb2c7d5dfe3","properties":{"airport":"LFKJ","name":"LFKJ AVISO","layer":"Airfield surfaces","category":"Hard Surface 3","object_type":"Area","style_id":"polygon.hardsurface3.8a807f","source_group":"LFKJ AVISO","vsmr_group_ids":[],"geometry_role":"filled_region"},"geometry":{"type":"Polygon","coordinates":[[[8.791468889,41.925330278],[8.791539722,41.92532],[8.791595556,41.925296944],[8.791637778,41.925261944],[8.791657222,41.925233056],[8.791663056,41.925175],[8.791653056,41.925042778],[8.791631667,41.924845278],[8.7915875,41.924618889],[8.7915275,41.924394444],[8.791449444,41.924326944],[8.791356667,41.924216667],[8.791294167,41.924088056],[8.791275556,41.923970556],[8.791279444,41.923886944],[8.791293333,41.923779444],[8.791298333,41.923683333],[8.791268889,41.923609444],[8.791225,41.923549444],[8.791151944,41.923507222],[8.791080278,41.923492222],[8.790723611,41.923515],[8.790543611,41.923526389],[8.790419444,41.923528333],[8.790312222,41.922683056],[8.791694444,41.922601111],[8.791763889,41.923271111],[8.791886389,41.923263333],[8.791893889,41.92344],[8.791775278,41.923448056],[8.791695,41.9234625],[8.791638056,41.923492222],[8.791601389,41.923524167],[8.791558611,41.923585],[8.791515,41.923676389],[8.791485,41.923746667],[8.791458056,41.923853056],[8.791453333,41.923940556],[8.791462778,41.924025833],[8.791493611,41.924112222],[8.791559444,41.924207222],[8.791674444,41.924316944],[8.791741667,41.924354722],[8.791803056,41.924388889],[8.791900833,41.924421111],[8.791966111,41.924434444],[8.792045833,41.924432778],[8.792300833,41.924417778],[8.792333889,41.924676389],[8.792041944,41.924693056],[8.791975278,41.924715],[8.791923889,41.924753056],[8.791885556,41.924801111],[8.791871389,41.924840278],[8.791871389,41.924893333],[8.791980833,41.925830556],[8.791376111,41.925866667],[8.791323333,41.925336667],[8.791468889,41.925330278]]]}},{"type":"Feature","id":"LFKJ-bb0143ebfdd957a6ff1b","properties":{"airport":"LFKJ","name":"LFKJ AVISO","layer":"Airfield surfaces","category":"Hard Surface 3","object_type":"Area","style_id":"polygon.hardsurface3.8a807f","source_group":"LFKJ AVISO","vsmr_group_ids":[],"geometry_role":"filled_region"},"geometry":{"type":"Polygon","coordinates":[[[8.801950556,41.919475278],[8.8019825,41.919443611],[8.802006667,41.919405833],[8.802021389,41.919369167],[8.802024722,41.9193325],[8.802024167,41.919298889],[8.802015,41.919269444],[8.801857222,41.919009444],[8.801832222,41.918960833],[8.801813611,41.918908333],[8.801806389,41.918859444],[8.801804722,41.918802778],[8.801816111,41.9187575],[8.801829167,41.918716111],[8.801839722,41.918671111],[8.801836667,41.918630556],[8.801815278,41.918590278],[8.8016275,41.918280833],[8.801681944,41.918265556],[8.801543889,41.918019167],[8.801591667,41.918000556],[8.801492222,41.917839444],[8.801757222,41.917745556],[8.801859722,41.917911111],[8.80192,41.91789],[8.802018333,41.918053333],[8.8022675,41.917969167],[8.802321111,41.918050833],[8.802519167,41.917988056],[8.8027975,41.918463611],[8.802848333,41.918548056],[8.802760278,41.918578056],[8.802893889,41.918777222],[8.802835556,41.9187975],[8.802866944,41.918846111],[8.802486667,41.918982222],[8.802340833,41.919034167],[8.802268611,41.919074722],[8.802222778,41.919124722],[8.802193889,41.919173056],[8.802186389,41.919209167],[8.802194167,41.919239722],[8.802228611,41.919292222],[8.802244722,41.919313611],[8.802271111,41.919331667],[8.802298889,41.919345556],[8.802325,41.919348611],[8.8023525,41.919347778],[8.802373889,41.919341667],[8.802614444,41.919255833],[8.802718333,41.919225556],[8.802808333,41.919211111],[8.802901667,41.919217778],[8.802973056,41.919242222],[8.803042778,41.919281389],[8.803101667,41.919324167],[8.803141111,41.919376111],[8.803186111,41.9194475],[8.803865833,41.920553611],[8.803891667,41.920618889],[8.803902222,41.920679444],[8.803898056,41.920729167],[8.803874722,41.92077],[8.803834167,41.9208125],[8.803742778,41.920875],[8.803691944,41.920897778],[8.803496944,41.920962778],[8.803434444,41.920986389],[8.803400833,41.921006944],[8.803378889,41.921029722],[8.803367222,41.921053611],[8.803371667,41.921073889],[8.803770556,41.921721389],[8.803797778,41.921788889],[8.803799444,41.921845556],[8.803783889,41.921908611],[8.803752222,41.921967778],[8.803696389,41.922019167],[8.803629722,41.922054444],[8.803324722,41.922162222],[8.803240278,41.922018611],[8.803490278,41.921928889],[8.803533333,41.921910556],[8.803565,41.921885],[8.803580833,41.921852222],[8.8035825,41.92182],[8.803576389,41.921786111],[8.802254444,41.919653333],[8.802235278,41.919631111],[8.802204444,41.919616389],[8.802167222,41.9196075],[8.802127222,41.919607778],[8.802087222,41.919618611],[8.801973889,41.919656389],[8.801886111,41.919509444],[8.801919167,41.919498333],[8.801950556,41.919475278]]]}},{"type":"Feature","id":"LFKJ-acad60a94baf61eea3c7","properties":{"airport":"LFKJ","name":"LFKJ AVISO","layer":"Airfield surfaces","category":"Hard Surface 3","object_type":"Area","style_id":"polygon.hardsurface3.8a807f","source_group":"LFKJ AVISO","vsmr_group_ids":[],"geometry_role":"filled_region"},"geometry":{"type":"Polygon","coordinates":[[[8.7951,41.922771389],[8.794996389,41.922753056],[8.794988611,41.922762222],[8.794739167,41.922778056],[8.794620556,41.922636667],[8.794876944,41.922521944],[8.794949722,41.922488333],[8.79497,41.922471389],[8.794979167,41.922453611],[8.794978611,41.922439722],[8.794962778,41.9224225],[8.794872222,41.922350833],[8.794831111,41.922354167],[8.794813333,41.922341667],[8.794768056,41.9223225],[8.794711111,41.922305278],[8.794658889,41.922293056],[8.7945925,41.922286944],[8.794523889,41.922283889],[8.794465278,41.922285833],[8.794269444,41.922296667],[8.794266667,41.9222775],[8.794120833,41.922285556],[8.794109167,41.922175833],[8.793788611,41.922122222],[8.793736944,41.922119444],[8.793663611,41.922123611],[8.791960278,41.922236944],[8.791897222,41.921651667],[8.792008889,41.921644722],[8.794503056,41.921475278],[8.794543889,41.921715556],[8.794925556,41.921693889],[8.794967222,41.922036111],[8.794985556,41.922088889],[8.795022222,41.922156944],[8.795089444,41.922245556],[8.795176111,41.922335278],[8.795233889,41.922406111],[8.795265278,41.922460556],[8.795288333,41.922510556],[8.795308611,41.922574167],[8.795322222,41.922656111],[8.795342222,41.922826389],[8.7951025,41.922839444],[8.7951,41.922771389]]]}},{"type":"Feature","id":"LFKJ-9d80eae46c7a2ee00898","properties":{"airport":"LFKJ","name":"LFKJ AVISO","layer":"Airfield surfaces","category":"Hard Surface 3","object_type":"Area","style_id":"polygon.hardsurface3.8a807f","source_group":"LFKJ AVISO","vsmr_group_ids":[],"geometry_role":"filled_region"},"geometry":{"type":"Polygon","coordinates":[[[8.803549167,41.918875556],[8.803769722,41.918799167],[8.803971944,41.919121111],[8.803781944,41.919186389],[8.803830833,41.919267222],[8.803598889,41.9193475],[8.803440556,41.919109167],[8.803549167,41.918875556]]]}},{"type":"Feature","id":"LFKJ-e7607ff6827764e8deea","properties":{"airport":"LFKJ","name":"LFKJ AVISO","layer":"Airfield surfaces","category":"Hard Surface 3","object_type":"Area","style_id":"polygon.hardsurface3.8a807f","source_group":"LFKJ AVISO","vsmr_group_ids":[],"geometry_role":"filled_region"},"geometry":{"type":"Polygon","coordinates":[[[8.793324722,41.922889722],[8.793319722,41.922862778],[8.793308333,41.922825],[8.793297222,41.922795833],[8.793272222,41.922766111],[8.793249167,41.922740833],[8.793229444,41.922725],[8.793202778,41.922714444],[8.792386944,41.9227475],[8.792375278,41.922656944],[8.792571944,41.922641667],[8.7927075,41.922625278],[8.792781111,41.922615833],[8.792813056,41.9226075],[8.792833889,41.922596944],[8.792856944,41.922573333],[8.792935,41.922460278],[8.793377778,41.922433611],[8.793374444,41.922549444],[8.793509722,41.92267],[8.793472222,41.9226925],[8.793446944,41.922716389],[8.793431944,41.922745556],[8.793419722,41.922780278],[8.793416111,41.922815833],[8.793428889,41.922885278],[8.793324722,41.922889722]]]}},{"type":"Feature","id":"LFKJ-6a083c9c93476e30c596","properties":{"airport":"LFKJ","name":"LFKJ AVISO","layer":"Terrain","category":"Grass","object_type":"Area","style_id":"polygon.grassurface.00512f","source_group":"LFKJ AVISO","vsmr_group_ids":[],"geometry_role":"filled_region"},"geometry":{"type":"Polygon","coordinates":[[[8.801991667,41.918900278],[8.801981389,41.918851111],[8.801983333,41.918803889],[8.802004167,41.918752222],[8.802034167,41.918706944],[8.802073889,41.918676111],[8.802115,41.918650833],[8.802163056,41.918632778],[8.802211389,41.918616667],[8.802356111,41.9188575],[8.802360833,41.918873611],[8.802352222,41.918886111],[8.802334444,41.918894444],[8.802041389,41.918991389],[8.802013333,41.918947778],[8.801991667,41.918900278]]]}},{"type":"Feature","id":"LFKJ-22f0a09eb88226d30f18","properties":{"airport":"LFKJ","name":"LFKJ AVISO","layer":"Terrain","category":"Grass","object_type":"Area","style_id":"polygon.grassurface.00512f","source_group":"LFKJ AVISO","vsmr_group_ids":[],"geometry_role":"filled_region"},"geometry":{"type":"Polygon","coordinates":[[[8.794926111,41.922669167],[8.794864722,41.922657778],[8.794878611,41.922603333],[8.794995833,41.9225575],[8.795017222,41.922558056],[8.795043611,41.922566667],[8.795061667,41.922575833],[8.79507,41.922586667],[8.795086667,41.922705278],[8.794925278,41.922675833],[8.794926111,41.922669167]]]}},{"type":"Feature","id":"LFKJ-3808d9755f2ba877780c","properties":{"airport":"LFKJ","name":"LFKJ AVISO","layer":"Airfield surfaces","category":"Hard Surface 2","object_type":"Area","style_id":"polygon.hardsurface2.595e5b","source_group":"LFKJ AVISO","vsmr_group_ids":[],"geometry_role":"filled_region"},"geometry":{"type":"Polygon","coordinates":[[[8.794235556,41.912820278],[8.794199444,41.912854722],[8.793660278,41.913661389],[8.793602778,41.913748889],[8.793558056,41.913834167],[8.793521389,41.913922222],[8.793492222,41.9140225],[8.793468333,41.914155],[8.7934575,41.914297222],[8.793471389,41.914445],[8.793520556,41.914636111],[8.793604722,41.914810278],[8.793756944,41.91506],[8.798028889,41.921903333],[8.798116667,41.922035278],[8.798459167,41.922472222],[8.798519444,41.922539444],[8.798601667,41.922603889],[8.798698056,41.922661111],[8.798799722,41.922703333],[8.798975833,41.922744444],[8.799116389,41.922768889],[8.799221389,41.922776389],[8.800532778,41.922691111],[8.800565833,41.922912222],[8.799115278,41.923000556],[8.799050278,41.92301],[8.798983333,41.9230325],[8.798921944,41.923071389],[8.798885,41.923116667],[8.798865278,41.923168056],[8.798872222,41.923224167],[8.798898333,41.923287778],[8.799234444,41.9238225],[8.799308333,41.923889444],[8.799406111,41.923930833],[8.799512778,41.923950833],[8.799681389,41.923944444],[8.801258889,41.923845278],[8.801306944,41.924099722],[8.799836667,41.924195],[8.799778611,41.924205],[8.799704167,41.924229722],[8.7996525,41.924268889],[8.799620278,41.924315],[8.799604167,41.924368889],[8.799615556,41.924425],[8.799661389,41.924503611],[8.801251667,41.927045278],[8.801346389,41.927187222],[8.801495,41.927387778],[8.801661111,41.927579167],[8.801879444,41.927804444],[8.802152778,41.928044444],[8.802252778,41.928128056],[8.802336389,41.928167778],[8.802443056,41.928192222],[8.802556667,41.928189722],[8.802668333,41.9281625],[8.803710278,41.927799167],[8.803815,41.92796],[8.803043611,41.928230556],[8.802993333,41.928251111],[8.8029425,41.928284444],[8.802906389,41.928319167],[8.802870278,41.928371944],[8.802848056,41.928431667],[8.802849444,41.928493333],[8.802865833,41.928555278],[8.802899167,41.928614722],[8.802950556,41.928661389],[8.803930556,41.929367222],[8.804009444,41.929415833],[8.804101111,41.9294625],[8.804224444,41.929504722],[8.804356944,41.929531667],[8.804490556,41.9295425],[8.804615833,41.9295375],[8.804761667,41.929515],[8.804884167,41.929715278],[8.804801111,41.929735556],[8.804672222,41.929755],[8.804558889,41.9297625],[8.804432778,41.929764722],[8.804306389,41.929752222],[8.804184167,41.929731389],[8.804075833,41.929701944],[8.803976944,41.9296675],[8.8038825,41.929623056],[8.803801111,41.929580278],[8.803700278,41.929510833],[8.802485,41.928632778],[8.802215278,41.928425833],[8.8019225,41.928196667],[8.801721111,41.928021111],[8.801554167,41.927861944],[8.801367222,41.927661667],[8.801169722,41.927416111],[8.800968333,41.927126111],[8.799414722,41.924635278],[8.7992,41.924303889],[8.798877222,41.923780556],[8.798509722,41.923205278],[8.798451667,41.923143056],[8.798395278,41.923100833],[8.798341389,41.923075833],[8.798284722,41.923063056],[8.798232778,41.923056389],[8.798167778,41.923056667],[8.796834167,41.923144722],[8.796811667,41.923129167],[8.791881944,41.923441111],[8.791863056,41.923265],[8.793246389,41.923176667],[8.793274167,41.923174167],[8.793299167,41.923168333],[8.793323611,41.923159167],[8.793339444,41.923145556],[8.793348333,41.9231275],[8.793350278,41.923108056],[8.793324444,41.922888889],[8.793429167,41.922884722],[8.793455556,41.923080278],[8.793461944,41.9231025],[8.793471111,41.923119444],[8.793489167,41.923133611],[8.793521389,41.923146389],[8.793559444,41.923154722],[8.794966111,41.923068611],[8.795009444,41.9230575],[8.795056389,41.9230325],[8.795093889,41.923000833],[8.795113333,41.922961667],[8.795113056,41.922926389],[8.795101667,41.922833889],[8.795343889,41.922819167],[8.795352222,41.922906389],[8.795363333,41.9229425],[8.7953875,41.922976389],[8.795432778,41.923008333],[8.795490833,41.923025833],[8.795546667,41.923031111],[8.796790833,41.922950556],[8.7968725,41.922923611],[8.796913056,41.922903611],[8.796936944,41.922877222],[8.796954722,41.9228475],[8.796958889,41.922815833],[8.796958611,41.922795278],[8.798033056,41.922728056],[8.794558889,41.917146389],[8.794628056,41.917121944],[8.794659167,41.917100833],[8.79468,41.917071944],[8.794685556,41.917035],[8.794676667,41.917008611],[8.793578333,41.915243889],[8.793423333,41.914995278],[8.793335833,41.914841667],[8.793285556,41.914727778],[8.793243889,41.914607778],[8.793208889,41.914481389],[8.793193611,41.914359167],[8.793195556,41.914193333],[8.793223056,41.914015556],[8.793268889,41.913860833],[8.793333611,41.913718056],[8.793399167,41.913607222],[8.794037778,41.912646667],[8.794301944,41.912769722],[8.794235556,41.912820278]]]}},{"type":"Feature","id":"LFKJ-87273b6abefdbdd9354f","properties":{"airport":"LFKJ","name":"LFKJ AVISO","layer":"Airfield surfaces","category":"Hard Surface 2","object_type":"Area","style_id":"polygon.hardsurface2.595e5b","source_group":"LFKJ AVISO","vsmr_group_ids":[],"geometry_role":"filled_region"},"geometry":{"type":"Polygon","coordinates":[[[8.803256667,41.922011389],[8.803346389,41.922155],[8.802686944,41.922388056],[8.802593611,41.922240833],[8.803256667,41.922011389]]]}},{"type":"Feature","id":"LFKJ-438b050ed1b78231cb07","properties":{"airport":"LFKJ","name":"LFKJ AVISO","layer":"Airfield surfaces","category":"Hard Surface 2","object_type":"Area","style_id":"polygon.hardsurface2.595e5b","source_group":"LFKJ AVISO","vsmr_group_ids":[],"geometry_role":"filled_region"},"geometry":{"type":"Polygon","coordinates":[[[8.801901389,41.919504722],[8.801993056,41.91965],[8.801159167,41.919941389],[8.801067778,41.919796111],[8.801901389,41.919504722]]]}},{"type":"Feature","id":"LFKJ-d9886492d117d76ae168","properties":{"airport":"LFKJ","name":"LFKJ AVISO","layer":"Airfield surfaces","category":"Runways","object_type":"Area","style_id":"polygon.runwayconcrete.555555","source_group":"LFKJ AVISO","vsmr_group_ids":[],"geometry_role":"filled_region"},"geometry":{"type":"Polygon","coordinates":[[[8.800285,41.919983333],[8.800332778,41.9200075],[8.80039,41.920014722],[8.800462778,41.920005278],[8.801082778,41.919790278],[8.801172222,41.919936667],[8.800550833,41.920151944],[8.800502778,41.920188611],[8.800479444,41.920233889],[8.800478056,41.920285556],[8.801798611,41.92241],[8.801856389,41.922441389],[8.801931111,41.922453611],[8.802010833,41.922443889],[8.802605556,41.922236667],[8.802696389,41.922385556],[8.802101667,41.922589444],[8.802041111,41.922621389],[8.802005278,41.922670556],[8.802002222,41.922733889],[8.807459167,41.931471111],[8.806863056,41.931678056],[8.806775556,41.931673611],[8.806695278,41.931666389],[8.806638889,41.931659444],[8.806592222,41.93165],[8.806551111,41.931639167],[8.806487778,41.931617222],[8.806434722,41.931589722],[8.8063925,41.931566389],[8.806357778,41.931507778],[8.806434444,41.9307825],[8.805914444,41.92995],[8.805872222,41.929890556],[8.805823056,41.929836111],[8.805760278,41.929774722],[8.805709444,41.929732222],[8.805663056,41.929703056],[8.805584167,41.929674444],[8.805520278,41.9296575],[8.805430278,41.929638889],[8.805320556,41.929628889],[8.805199444,41.929632778],[8.805107778,41.929644722],[8.805020556,41.929672222],[8.804946944,41.929697778],[8.804903056,41.929710278],[8.8048625,41.929720833],[8.804738333,41.929518333],[8.804840556,41.929491667],[8.804946111,41.92945],[8.805038889,41.929399444],[8.805126389,41.929335833],[8.805199444,41.929264167],[8.805251389,41.929199722],[8.805295556,41.929113333],[8.805313333,41.929060556],[8.805313056,41.929017778],[8.805288333,41.928955556],[8.80525,41.928887222],[8.804691667,41.92798],[8.8046625,41.927945278],[8.804608333,41.9278875],[8.804573889,41.927859722],[8.804498056,41.927831944],[8.804383056,41.927814722],[8.804283611,41.927813611],[8.804211944,41.927821667],[8.804151944,41.927839444],[8.803768056,41.927975833],[8.803669722,41.927813056],[8.804013333,41.9276925],[8.804105,41.9276575],[8.804175,41.927613333],[8.804236667,41.9275575],[8.804271389,41.927496111],[8.804286389,41.927439722],[8.80429,41.927387778],[8.804280833,41.927324444],[8.802366667,41.924249167],[8.802335556,41.92422],[8.802277778,41.924168889],[8.802228056,41.924126111],[8.802160556,41.924089722],[8.802096944,41.924068611],[8.802004167,41.924056944],[8.801913889,41.924063889],[8.8012275,41.924106667],[8.801198889,41.923849167],[8.801725,41.923811944],[8.801800278,41.923786944],[8.801866667,41.923738056],[8.801903611,41.923676944],[8.801911111,41.923618333],[8.801898333,41.923541667],[8.801873056,41.923460556],[8.801643889,41.923083611],[8.801585278,41.923023056],[8.801529722,41.922975],[8.801449444,41.922923889],[8.801378056,41.922893889],[8.801272222,41.922874167],[8.801179722,41.922874444],[8.800504444,41.922915556],[8.80048,41.922694444],[8.800896389,41.922668889],[8.800984444,41.922661944],[8.801066667,41.922646667],[8.801128056,41.922618056],[8.801183056,41.922568889],[8.801210833,41.922511667],[8.8012175,41.922449722],[8.801199444,41.922391944],[8.801177778,41.922346111],[8.795299722,41.912905],[8.795183056,41.912783611],[8.7951125,41.912736667],[8.795024444,41.912701389],[8.794908333,41.912671667],[8.794776944,41.912658056],[8.794651944,41.912655556],[8.794539722,41.912668611],[8.794439444,41.912698056],[8.794351389,41.912739167],[8.794285556,41.912780833],[8.7940125,41.912681667],[8.794397222,41.912123611],[8.795233611,41.911850556],[8.800285,41.919983333]]]}},{"type":"Feature","id":"LFKJ-c51d46b0bfd45361a8cf","properties":{"airport":"LFKJ","name":"LFKJ AVISO","layer":"Buildings and structures","category":"Buildings","object_type":"Area","style_id":"polygon.building.394446","source_group":"LFKJ AVISO","vsmr_group_ids":[],"geometry_role":"filled_region"},"geometry":{"type":"Polygon","coordinates":[[[8.791619722,41.922198333],[8.791656667,41.922511667],[8.790416111,41.922585833],[8.790387778,41.922273889],[8.791619722,41.922198333]]]}},{"type":"Feature","id":"LFKJ-3de13f474dfa336b165e","properties":{"airport":"LFKJ","name":"LFKJ AVISO","layer":"Buildings and structures","category":"Buildings","object_type":"Area","style_id":"polygon.building.394446","source_group":"LFKJ AVISO","vsmr_group_ids":[],"geometry_role":"filled_region"},"geometry":{"type":"Polygon","coordinates":[[[8.793731667,41.922233056],[8.793736944,41.922277778],[8.793785,41.922275278],[8.793819444,41.922245833],[8.7938575,41.922271389],[8.793995,41.922263611],[8.794006389,41.922423611],[8.793745556,41.922438889],[8.793743889,41.922419722],[8.793633611,41.922426111],[8.7936525,41.922467222],[8.793373889,41.922484722],[8.793374167,41.92244],[8.792931389,41.922463889],[8.792914167,41.922278889],[8.793731667,41.922233056]]]}},{"type":"Feature","id":"LFKJ-3f32d74450673be9cfc3","properties":{"airport":"LFKJ","name":"LFKJ AVISO","layer":"Buildings and structures","category":"Buildings","object_type":"Area","style_id":"polygon.building.394446","source_group":"LFKJ AVISO","vsmr_group_ids":[],"geometry_role":"filled_region"},"geometry":{"type":"Polygon","coordinates":[[[8.791771667,41.922040556],[8.791655,41.9219425],[8.7916425,41.921827778],[8.7918825,41.921813889],[8.791903333,41.922035],[8.791887778,41.922035],[8.79189,41.922073611],[8.79178,41.922077778],[8.791779167,41.922041944],[8.791771667,41.922040556]]]}},{"type":"Feature","id":"LFKJ-0651770002b16caa7503","properties":{"airport":"LFKJ","name":"LFKJ AVISO","layer":"Buildings and structures","category":"Buildings","object_type":"Area","style_id":"polygon.building.394446","source_group":"LFKJ AVISO","vsmr_group_ids":[],"geometry_role":"filled_region"},"geometry":{"type":"Polygon","coordinates":[[[8.792096944,41.921408056],[8.792091667,41.921351111],[8.792170833,41.921346389],[8.792175833,41.9213975],[8.792318889,41.921389167],[8.792339167,41.921611111],[8.791968333,41.921633611],[8.791966944,41.921622222],[8.791902222,41.921626944],[8.791897222,41.921589167],[8.791750833,41.921598611],[8.791733056,41.921430278],[8.792096944,41.921408056]]]}},{"type":"Feature","id":"LFKJ-d10d52e695ced2a1491d","properties":{"airport":"LFKJ","name":"LFKJ AVISO","layer":"Buildings and structures","category":"Buildings","object_type":"Area","style_id":"polygon.building.394446","source_group":"LFKJ AVISO","vsmr_group_ids":[],"geometry_role":"filled_region"},"geometry":{"type":"Polygon","coordinates":[[[8.792703611,41.921371111],[8.792722778,41.921541667],[8.792426944,41.921558889],[8.792406667,41.921389167],[8.792703611,41.921371111]]]}},{"type":"Feature","id":"LFKJ-a14f39c6ad70bbd1f5ec","properties":{"airport":"LFKJ","name":"LFKJ AVISO","layer":"Buildings and structures","category":"Buildings","object_type":"Area","style_id":"polygon.building.394446","source_group":"LFKJ AVISO","vsmr_group_ids":[],"geometry_role":"filled_region"},"geometry":{"type":"Polygon","coordinates":[[[8.793398333,41.921330278],[8.793417222,41.9215],[8.792837222,41.921534167],[8.792816944,41.921364444],[8.793398333,41.921330278]]]}},{"type":"Feature","id":"LFKJ-a1773bf1cdd2889b20e5","properties":{"airport":"LFKJ","name":"LFKJ AVISO","layer":"Buildings and structures","category":"Buildings","object_type":"Area","style_id":"polygon.building.394446","source_group":"LFKJ AVISO","vsmr_group_ids":[],"geometry_role":"filled_region"},"geometry":{"type":"Polygon","coordinates":[[[8.7950325,41.921759722],[8.795031944,41.921754444],[8.794948889,41.921760278],[8.794941111,41.921701944],[8.795015278,41.921696944],[8.795014167,41.921688056],[8.794978333,41.921688889],[8.794977778,41.921684722],[8.794953056,41.921686667],[8.794948889,41.921635278],[8.794940278,41.921635556],[8.794934167,41.921534444],[8.795211667,41.921518056],[8.795221667,41.92162],[8.795080278,41.921627778],[8.795084167,41.921689722],[8.795108056,41.921821111],[8.795044722,41.9218275],[8.795044167,41.921819722],[8.794988056,41.921825278],[8.794977778,41.921764167],[8.7950325,41.921759722]]]}},{"type":"Feature","id":"LFKJ-35f15b5f54efc34bc4c4","properties":{"airport":"LFKJ","name":"LFKJ AVISO","layer":"Buildings and structures","category":"Buildings","object_type":"Area","style_id":"polygon.building.394446","source_group":"LFKJ AVISO","vsmr_group_ids":[],"geometry_role":"filled_region"},"geometry":{"type":"Polygon","coordinates":[[[8.795793056,41.922090556],[8.795805833,41.922203889],[8.795853333,41.922202222],[8.795861944,41.922283889],[8.795813333,41.922287222],[8.795814444,41.922293611],[8.795628889,41.922303333],[8.7956,41.922102778],[8.795793056,41.922090556]]]}},{"type":"Feature","id":"LFKJ-05af874c5eae13fab68a","properties":{"airport":"LFKJ","name":"LFKJ AVISO","layer":"Buildings and structures","category":"Buildings","object_type":"Area","style_id":"polygon.building.394446","source_group":"LFKJ AVISO","vsmr_group_ids":[],"geometry_role":"filled_region"},"geometry":{"type":"Polygon","coordinates":[[[8.795270278,41.920906111],[8.795455833,41.921205],[8.795158333,41.921309722],[8.794968611,41.921003611],[8.795270278,41.920906111]]]}},{"type":"Feature","id":"LFKJ-f165b216398af1a5c8da","properties":{"airport":"LFKJ","name":"LFKJ AVISO","layer":"Buildings and structures","category":"Buildings","object_type":"Area","style_id":"polygon.building.394446","source_group":"LFKJ AVISO","vsmr_group_ids":[],"geometry_role":"filled_region"},"geometry":{"type":"Polygon","coordinates":[[[8.794911389,41.920585833],[8.794801389,41.920408889],[8.794938611,41.920358333],[8.795097778,41.920618056],[8.795119444,41.920610833],[8.795240278,41.920813333],[8.794999722,41.920891389],[8.794828056,41.920616389],[8.794911389,41.920585833]]]}},{"type":"Feature","id":"LFKJ-4eda7947b37ee8890a05","properties":{"airport":"LFKJ","name":"LFKJ AVISO","layer":"Buildings and structures","category":"Buildings","object_type":"Area","style_id":"polygon.building.394446","source_group":"LFKJ AVISO","vsmr_group_ids":[],"geometry_role":"filled_region"},"geometry":{"type":"Polygon","coordinates":[[[8.793926389,41.9192325],[8.793951389,41.919273333],[8.794009722,41.919247222],[8.794081111,41.919213333],[8.794157222,41.919174722],[8.794239444,41.919130833],[8.794271111,41.919181111],[8.794318889,41.919162778],[8.794310833,41.919151389],[8.794554444,41.919018889],[8.794740833,41.919314444],[8.794734722,41.919318056],[8.794775556,41.919381944],[8.794771667,41.91943],[8.794774444,41.919468611],[8.794781389,41.919506667],[8.794793889,41.919544722],[8.794808889,41.919578611],[8.794827778,41.919611667],[8.794856111,41.919650556],[8.794883611,41.919678056],[8.794911944,41.919704722],[8.794942778,41.919728333],[8.794980556,41.919751389],[8.795026111,41.919777778],[8.7950675,41.919844444],[8.7950725,41.919843611],[8.795257778,41.920138889],[8.795175833,41.9201575],[8.7950775,41.920178333],[8.794970556,41.920199722],[8.794961111,41.920184444],[8.794910556,41.920200278],[8.794948889,41.920259167],[8.794809167,41.920290833],[8.794700278,41.920313611],[8.794610833,41.920330556],[8.794631667,41.920363611],[8.794395278,41.920404722],[8.793729722,41.919334444],[8.793926389,41.9192325]]]}},{"type":"Feature","id":"LFKJ-49d329c5d9165572df31","properties":{"airport":"LFKJ","name":"LFKJ AVISO","layer":"Buildings and structures","category":"Buildings","object_type":"Area","style_id":"polygon.building.394446","source_group":"LFKJ AVISO","vsmr_group_ids":[],"geometry_role":"filled_region"},"geometry":{"type":"Polygon","coordinates":[[[8.793846944,41.918615],[8.793927222,41.918744444],[8.793815556,41.918783889],[8.7937375,41.918655833],[8.793846944,41.918615]]]}},{"type":"Feature","id":"LFKJ-d819d7b641923b5bf53a","properties":{"airport":"LFKJ","name":"LFKJ AVISO","layer":"Buildings and structures","category":"Buildings","object_type":"Area","style_id":"polygon.building.394446","source_group":"LFKJ AVISO","vsmr_group_ids":[],"geometry_role":"filled_region"},"geometry":{"type":"Polygon","coordinates":[[[8.793676389,41.918180556],[8.793668333,41.918180833],[8.793716667,41.918222222],[8.793704167,41.918224167],[8.793717222,41.918231111],[8.7937275,41.918239722],[8.793735556,41.918250833],[8.79374,41.918264167],[8.79374,41.9182775],[8.793734722,41.918293889],[8.793723889,41.918308056],[8.7937075,41.918318889],[8.793686667,41.918325833],[8.793666111,41.918328333],[8.793640278,41.918325833],[8.793621111,41.91832],[8.793605833,41.918310278],[8.793594722,41.918298056],[8.793588889,41.918286111],[8.793586389,41.918264167],[8.793576111,41.91827],[8.793566667,41.918221389],[8.793558611,41.918219722],[8.793508056,41.918130278],[8.793620556,41.91809],[8.793676389,41.918180556]]]}},{"type":"Feature","id":"LFKJ-2e549dcc68885732f0f7","properties":{"airport":"LFKJ","name":"LFKJ AVISO","layer":"Buildings and structures","category":"Buildings","object_type":"Area","style_id":"polygon.building.394446","source_group":"LFKJ AVISO","vsmr_group_ids":[],"geometry_role":"filled_region"},"geometry":{"type":"Polygon","coordinates":[[[8.793113056,41.917871944],[8.793053056,41.9177825],[8.793116944,41.917761389],[8.793125556,41.917742778],[8.793135278,41.91773],[8.793148889,41.917719167],[8.793168889,41.917710556],[8.7931925,41.917704444],[8.793218889,41.917701667],[8.793240556,41.917705833],[8.793259167,41.9177125],[8.793280278,41.917728056],[8.7933425,41.917707778],[8.793351667,41.917724167],[8.793393333,41.91771],[8.793539167,41.917953056],[8.793415,41.9179975],[8.793301389,41.917808611],[8.793113056,41.917871944]]]}},{"type":"Feature","id":"LFKJ-444836eff8c024dc4f52","properties":{"airport":"LFKJ","name":"LFKJ AVISO","layer":"Buildings and structures","category":"Buildings","object_type":"Area","style_id":"polygon.building.394446","source_group":"LFKJ AVISO","vsmr_group_ids":[],"geometry_role":"filled_region"},"geometry":{"type":"Polygon","coordinates":[[[8.793054444,41.917118611],[8.793149167,41.917274722],[8.792974722,41.917334722],[8.7928775,41.917179167],[8.793054444,41.917118611]]]}},{"type":"Feature","id":"LFKJ-3f62ce2e2061fd11de9d","properties":{"airport":"LFKJ","name":"LFKJ AVISO","layer":"Buildings and structures","category":"Buildings","object_type":"Area","style_id":"polygon.building.394446","source_group":"LFKJ AVISO","vsmr_group_ids":[],"geometry_role":"filled_region"},"geometry":{"type":"Polygon","coordinates":[[[8.803784722,41.919951667],[8.803856667,41.919925556],[8.803959167,41.920080833],[8.803885556,41.920105556],[8.803784722,41.919951667]]]}},{"type":"Feature","id":"LFKJ-20ef83732e3ea66297ed","properties":{"airport":"LFKJ","name":"LFKJ AVISO","layer":"Buildings and structures","category":"Buildings","object_type":"Area","style_id":"polygon.building.394446","source_group":"LFKJ AVISO","vsmr_group_ids":[],"geometry_role":"filled_region"},"geometry":{"type":"Polygon","coordinates":[[[8.803855278,41.919809722],[8.803897778,41.919877778],[8.803733056,41.919934722],[8.803688333,41.919868889],[8.803855278,41.919809722]]]}},{"type":"Feature","id":"LFKJ-7ce9d2f75983d4e8239e","properties":{"airport":"LFKJ","name":"LFKJ AVISO","layer":"Buildings and structures","category":"Buildings","object_type":"Area","style_id":"polygon.building.394446","source_group":"LFKJ AVISO","vsmr_group_ids":[],"geometry_role":"filled_region"},"geometry":{"type":"Polygon","coordinates":[[[8.803566389,41.919480278],[8.803496389,41.919383889],[8.803390556,41.919421389],[8.803223611,41.919173611],[8.803448333,41.919094444],[8.803688889,41.919456389],[8.8036625,41.919466389],[8.803695278,41.919513056],[8.80372,41.919504167],[8.803791111,41.919613056],[8.803652222,41.919662222],[8.803536667,41.919491944],[8.803566389,41.919480278]]]}},{"type":"Feature","id":"LFKJ-19e62579bc244c2a829e","properties":{"airport":"LFKJ","name":"LFKJ AVISO","layer":"Buildings and structures","category":"Buildings","object_type":"Area","style_id":"polygon.building.394446","source_group":"LFKJ AVISO","vsmr_group_ids":[],"geometry_role":"filled_region"},"geometry":{"type":"Polygon","coordinates":[[[8.80273,41.918425556],[8.802480556,41.918014722],[8.802509722,41.918007222],[8.802441389,41.917895278],[8.802521944,41.917867778],[8.802512222,41.917853056],[8.802606389,41.917821667],[8.802678611,41.917949444],[8.802819722,41.917901389],[8.802751944,41.917790833],[8.802815,41.917766944],[8.802823611,41.917778333],[8.802894722,41.9177525],[8.802966389,41.917860833],[8.803011944,41.917846389],[8.802964444,41.917771944],[8.803084722,41.917728611],[8.803115833,41.917779722],[8.803104167,41.917783611],[8.803198611,41.917945278],[8.8030925,41.917980556],[8.803113333,41.918013889],[8.803180833,41.917990556],[8.803326111,41.918227222],[8.8032,41.918270278],[8.803234444,41.918329444],[8.802815833,41.918474722],[8.802773889,41.918410833],[8.80273,41.918425556]]]}},{"type":"Feature","id":"LFKJ-d663f94b4d6b300794ae","properties":{"airport":"LFKJ","name":"LFKJ AVISO","layer":"Buildings and structures","category":"Buildings","object_type":"Area","style_id":"polygon.building.394446","source_group":"LFKJ AVISO","vsmr_group_ids":[],"geometry_role":"filled_region"},"geometry":{"type":"Polygon","coordinates":[[[8.802710833,41.917865278],[8.802640833,41.917758611],[8.802643889,41.917754167],[8.802665556,41.917748611],[8.802671667,41.917751111],[8.802700833,41.917741667],[8.802655556,41.917668056],[8.802627222,41.917677778],[8.802605833,41.917690278],[8.802582778,41.917700833],[8.802563056,41.917708056],[8.802538889,41.917713056],[8.802607778,41.917824444],[8.8025875,41.917830556],[8.802543333,41.917757778],[8.802426389,41.917796944],[8.802417778,41.917781944],[8.802398333,41.917788889],[8.802396667,41.917794722],[8.802388611,41.917793611],[8.802371944,41.917782222],[8.802359722,41.917772222],[8.802349167,41.917759167],[8.802344444,41.917745278],[8.802341389,41.917729167],[8.802342222,41.917713889],[8.802358333,41.917714167],[8.802384167,41.917696111],[8.802373333,41.917676944],[8.802423889,41.917659444],[8.802418889,41.917650556],[8.802666389,41.917565278],[8.802705,41.917623056],[8.802729167,41.917615],[8.802735833,41.917626111],[8.802792222,41.917606667],[8.802830278,41.917671389],[8.8027175,41.917710278],[8.802745278,41.917758056],[8.802697222,41.917774722],[8.802745278,41.917852222],[8.802778333,41.917841389],[8.802789444,41.917842778],[8.802798889,41.917857778],[8.802789444,41.91787],[8.8027225,41.917893056],[8.802706944,41.917893056],[8.802631944,41.917916667],[8.802619167,41.917894444],[8.802710833,41.917865278]]]}},{"type":"Feature","id":"LFKJ-b283197328627f7a1a74","properties":{"airport":"LFKJ","name":"LFKJ AVISO","layer":"Surface markings","category":"Stopbars","object_type":"Area","style_id":"polygon.stopbar.7e0000","source_group":"LFKJ AVISO","vsmr_group_ids":[],"geometry_role":"filled_region"},"geometry":{"type":"Polygon","coordinates":[[[8.804760556,41.929512222],[8.804884444,41.929715833],[8.804859444,41.929721944],[8.804733889,41.929519167],[8.804760556,41.929512222]]]}},{"type":"Feature","id":"LFKJ-0fb4d6f90a8b9c0bf584","properties":{"airport":"LFKJ","name":"LFKJ AVISO","layer":"Surface markings","category":"Stopbars","object_type":"Area","style_id":"polygon.stopbar.7e0000","source_group":"LFKJ AVISO","vsmr_group_ids":[],"geometry_role":"filled_region"},"geometry":{"type":"Polygon","coordinates":[[[8.803691389,41.927805],[8.803790556,41.927968611],[8.803765833,41.9279775],[8.803663611,41.927814444],[8.803691389,41.927805]]]}},{"type":"Feature","id":"LFKJ-2254987c21c2410af113","properties":{"airport":"LFKJ","name":"LFKJ AVISO","layer":"Surface markings","category":"Stopbars","object_type":"Area","style_id":"polygon.stopbar.7e0000","source_group":"LFKJ AVISO","vsmr_group_ids":[],"geometry_role":"filled_region"},"geometry":{"type":"Polygon","coordinates":[[[8.801228611,41.923846389],[8.801258056,41.924105],[8.801227222,41.924106944],[8.801198333,41.923848333],[8.801228611,41.923846389]]]}},{"type":"Feature","id":"LFKJ-16c5d93b6af2e094d85e","properties":{"airport":"LFKJ","name":"LFKJ AVISO","layer":"Surface markings","category":"Stopbars","object_type":"Area","style_id":"polygon.stopbar.7e0000","source_group":"LFKJ AVISO","vsmr_group_ids":[],"geometry_role":"filled_region"},"geometry":{"type":"Polygon","coordinates":[[[8.800504722,41.922692222],[8.800529167,41.922914722],[8.800501667,41.922916389],[8.800476111,41.922693889],[8.800504722,41.922692222]]]}},{"type":"Feature","id":"LFKJ-e289902f771eb31f132b","properties":{"airport":"LFKJ","name":"LFKJ AVISO","layer":"Surface markings","category":"Stopbars","object_type":"Area","style_id":"polygon.stopbar.7e0000","source_group":"LFKJ AVISO","vsmr_group_ids":[],"geometry_role":"filled_region"},"geometry":{"type":"Polygon","coordinates":[[[8.794021667,41.912666667],[8.794303611,41.91277],[8.794283611,41.912784167],[8.794009722,41.912685556],[8.794021667,41.912666667]]]}},{"type":"Feature","id":"LFKJ-3c07697963a22d0f4124","properties":{"airport":"LFKJ","name":"LFKJ AVISO","layer":"Surface markings","category":"Stopbars","object_type":"Area","style_id":"polygon.stopbar.7e0000","source_group":"LFKJ AVISO","vsmr_group_ids":[],"geometry_role":"filled_region"},"geometry":{"type":"Polygon","coordinates":[[[8.801088889,41.919788056],[8.801180556,41.919934167],[8.801154167,41.919943333],[8.801064444,41.919796389],[8.801088889,41.919788056]]]}},{"type":"Feature","id":"LFKJ-a607e5105bcfffb585ef","properties":{"airport":"LFKJ","name":"LFKJ AVISO","layer":"Surface markings","category":"Stopbars","object_type":"Area","style_id":"polygon.stopbar.7e0000","source_group":"LFKJ AVISO","vsmr_group_ids":[],"geometry_role":"filled_region"},"geometry":{"type":"Polygon","coordinates":[[[8.802613889,41.922233611],[8.802705,41.9223825],[8.802678333,41.9223925],[8.802587778,41.9222425],[8.802613889,41.922233611]]]}},{"type":"Feature","id":"LFKJ-817ab9cfafd701b5ce8d","properties":{"airport":"LFKJ","name":"1","layer":"Labels","category":"Gates","object_type":"Label","style_id":"label.gates","source_group":"LFKJ Gates","vsmr_group_ids":[],"geometry_role":"text_label","text-field":"1"},"geometry":{"type":"Point","coordinates":[8.794226389,41.917946667]}},{"type":"Feature","id":"LFKJ-a885f4775529a556833a","properties":{"airport":"LFKJ","name":"2","layer":"Labels","category":"Gates","object_type":"Label","style_id":"label.gates","source_group":"LFKJ Gates","vsmr_group_ids":[],"geometry_role":"text_label","text-field":"2"},"geometry":{"type":"Point","coordinates":[8.794523333,41.918440556]}},{"type":"Feature","id":"LFKJ-1118b7808635baee78d6","properties":{"airport":"LFKJ","name":"3","layer":"Labels","category":"Gates","object_type":"Label","style_id":"label.gates","source_group":"LFKJ Gates","vsmr_group_ids":[],"geometry_role":"text_label","text-field":"3"},"geometry":{"type":"Point","coordinates":[8.794851944,41.918955]}},{"type":"Feature","id":"LFKJ-a6fdca639e78d9d59e9a","properties":{"airport":"LFKJ","name":"4","layer":"Labels","category":"Gates","object_type":"Label","style_id":"label.gates","source_group":"LFKJ Gates","vsmr_group_ids":[],"geometry_role":"text_label","text-field":"4"},"geometry":{"type":"Point","coordinates":[8.7952125,41.919518333]}},{"type":"Feature","id":"LFKJ-5243f938a41aeb51cd25","properties":{"airport":"LFKJ","name":"5","layer":"Labels","category":"Gates","object_type":"Label","style_id":"label.gates","source_group":"LFKJ Gates","vsmr_group_ids":[],"geometry_role":"text_label","text-field":"5"},"geometry":{"type":"Point","coordinates":[8.795530556,41.920046944]}},{"type":"Feature","id":"LFKJ-6b4b02e1f6adea2fe360","properties":{"airport":"LFKJ","name":"6","layer":"Labels","category":"Gates","object_type":"Label","style_id":"label.gates","source_group":"LFKJ Gates","vsmr_group_ids":[],"geometry_role":"text_label","text-field":"6"},"geometry":{"type":"Point","coordinates":[8.795901667,41.920624167]}},{"type":"Feature","id":"LFKJ-6bb0acaf99a4492d6649","properties":{"airport":"LFKJ","name":"7","layer":"Labels","category":"Gates","object_type":"Label","style_id":"label.gates","source_group":"LFKJ Gates","vsmr_group_ids":[],"geometry_role":"text_label","text-field":"7"},"geometry":{"type":"Point","coordinates":[8.796240833,41.921180556]}},{"type":"Feature","id":"LFKJ-23f4c815ebfef9b4038f","properties":{"airport":"LFKJ","name":"8","layer":"Labels","category":"Gates","object_type":"Label","style_id":"label.gates","source_group":"LFKJ Gates","vsmr_group_ids":[],"geometry_role":"text_label","text-field":"8"},"geometry":{"type":"Point","coordinates":[8.796633333,41.921785556]}},{"type":"Feature","id":"LFKJ-25f0c70e735fa01c8483","properties":{"airport":"LFKJ","name":"9","layer":"Labels","category":"Gates","object_type":"Label","style_id":"label.gates","source_group":"LFKJ Gates","vsmr_group_ids":[],"geometry_role":"text_label","text-field":"9"},"geometry":{"type":"Point","coordinates":[8.796951389,41.922321111]}},{"type":"Feature","id":"LFKJ-883e1fef89dda4f71377","properties":{"airport":"LFKJ","name":"11","layer":"Labels","category":"Gates","object_type":"Label","style_id":"label.gates","source_group":"LFKJ Gates","vsmr_group_ids":[],"geometry_role":"text_label","text-field":"11"},"geometry":{"type":"Point","coordinates":[8.797173889,41.922606111]}},{"type":"Feature","id":"LFKJ-a6f3fe0bed988ebfe607","properties":{"airport":"LFKJ","name":"10","layer":"Labels","category":"Gates","object_type":"Label","style_id":"label.gates","source_group":"LFKJ Gates","vsmr_group_ids":[],"geometry_role":"text_label","text-field":"10"},"geometry":{"type":"Point","coordinates":[8.797598056,41.92262]}},{"type":"Feature","id":"LFKJ-be86cf3ac7de752f92cd","properties":{"airport":"LFKJ","name":"H","layer":"Labels","category":"Gates","object_type":"Label","style_id":"label.gates","source_group":"LFKJ Gates","vsmr_group_ids":[],"geometry_role":"text_label","text-field":"H"},"geometry":{"type":"Point","coordinates":[8.792125556,41.921935556]}},{"type":"Feature","id":"LFKJ-b897d4eb9293623271b9","properties":{"airport":"LFKJ","name":"L","layer":"Labels","category":"Gates","object_type":"Label","style_id":"label.gates","source_group":"LFKJ Gates","vsmr_group_ids":[],"geometry_role":"text_label","text-field":"L"},"geometry":{"type":"Point","coordinates":[8.792646667,41.922134722]}},{"type":"Feature","id":"LFKJ-7c346c364eabe0350ae9","properties":{"airport":"LFKJ","name":"L","layer":"Labels","category":"Gates","object_type":"Label","style_id":"label.gates","source_group":"LFKJ Gates","vsmr_group_ids":[],"geometry_role":"text_label","text-field":"L"},"geometry":{"type":"Point","coordinates":[8.793081111,41.921664722]}},{"type":"Feature","id":"LFKJ-0573f687eb81e1772bcb","properties":{"airport":"LFKJ","name":"J1","layer":"Labels","category":"Gates","object_type":"Label","style_id":"label.gates","source_group":"LFKJ Gates","vsmr_group_ids":[],"geometry_role":"text_label","text-field":"J1"},"geometry":{"type":"Point","coordinates":[8.794479444,41.922206111]}},{"type":"Feature","id":"LFKJ-85405b8f5a2b7b5008b4","properties":{"airport":"LFKJ","name":"J2","layer":"Labels","category":"Gates","object_type":"Label","style_id":"label.gates","source_group":"LFKJ Gates","vsmr_group_ids":[],"geometry_role":"text_label","text-field":"J2"},"geometry":{"type":"Point","coordinates":[8.794114722,41.921963889]}},{"type":"Feature","id":"LFKJ-2e3ea94e07e2e86d881b","properties":{"airport":"LFKJ","name":"J3","layer":"Labels","category":"Gates","object_type":"Label","style_id":"label.gates","source_group":"LFKJ Gates","vsmr_group_ids":[],"geometry_role":"text_label","text-field":"J3"},"geometry":{"type":"Point","coordinates":[8.793558889,41.922000833]}},{"type":"Feature","id":"LFKJ-b0a536d5bbe1535ff4a2","properties":{"airport":"LFKJ","name":"J4","layer":"Labels","category":"Gates","object_type":"Label","style_id":"label.gates","source_group":"LFKJ Gates","vsmr_group_ids":[],"geometry_role":"text_label","text-field":"J4"},"geometry":{"type":"Point","coordinates":[8.794766111,41.921949722]}},{"type":"Feature","id":"LFKJ-f1cd00efe3596f4873fd","properties":{"airport":"LFKJ","name":"J5","layer":"Labels","category":"Gates","object_type":"Label","style_id":"label.gates","source_group":"LFKJ Gates","vsmr_group_ids":[],"geometry_role":"text_label","text-field":"J5"},"geometry":{"type":"Point","coordinates":[8.794353611,41.921696111]}},{"type":"Feature","id":"LFKJ-f945cd2899c8689aee52","properties":{"airport":"LFKJ","name":"J6","layer":"Labels","category":"Gates","object_type":"Label","style_id":"label.gates","source_group":"LFKJ Gates","vsmr_group_ids":[],"geometry_role":"text_label","text-field":"J6"},"geometry":{"type":"Point","coordinates":[8.793910556,41.921656389]}},{"type":"Feature","id":"LFKJ-d199ebb838c70078299a","properties":{"airport":"LFKJ","name":"PTT1","layer":"Labels","category":"Gates","object_type":"Label","style_id":"label.gates","source_group":"LFKJ Gates","vsmr_group_ids":[],"geometry_role":"text_label","text-field":"PTT1"},"geometry":{"type":"Point","coordinates":[8.790666111,41.922718889]}},{"type":"Feature","id":"LFKJ-d01dd0310d315cea7186","properties":{"airport":"LFKJ","name":"PTT2","layer":"Labels","category":"Gates","object_type":"Label","style_id":"label.gates","source_group":"LFKJ Gates","vsmr_group_ids":[],"geometry_role":"text_label","text-field":"PTT2"},"geometry":{"type":"Point","coordinates":[8.7913175,41.922676111]}},{"type":"Feature","id":"LFKJ-1c1abf0e7c165c5b94e0","properties":{"airport":"LFKJ","name":"K1","layer":"Labels","category":"Gates","object_type":"Label","style_id":"label.gates","source_group":"LFKJ Gates","vsmr_group_ids":[],"geometry_role":"text_label","text-field":"K1"},"geometry":{"type":"Point","coordinates":[8.791448333,41.925524722]}},{"type":"Feature","id":"LFKJ-117cd4e2f95fe6e61eca","properties":{"airport":"LFKJ","name":"CCM","layer":"Labels","category":"Gates","object_type":"Label","style_id":"label.gates","source_group":"LFKJ Gates","vsmr_group_ids":[],"geometry_role":"text_label","text-field":"CCM"},"geometry":{"type":"Point","coordinates":[8.802095556,41.918347222]}},{"type":"Feature","id":"LFKJ-3e63aa9fcc63920af271","properties":{"airport":"LFKJ","name":"SECURITE","layer":"Labels","category":"Gates","object_type":"Label","style_id":"label.gates","source_group":"LFKJ Gates","vsmr_group_ids":[],"geometry_role":"text_label","text-field":"SECURITE"},"geometry":{"type":"Point","coordinates":[8.803131111,41.920309722]}},{"type":"Feature","id":"LFKJ-95336f73db9ddbaa90b3","properties":{"airport":"LFKJ","name":"CIVILE","layer":"Labels","category":"Gates","object_type":"Label","style_id":"label.gates","source_group":"LFKJ Gates","vsmr_group_ids":[],"geometry_role":"text_label","text-field":"CIVILE"},"geometry":{"type":"Point","coordinates":[8.802948889,41.919983611]}},{"type":"Feature","id":"LFKJ-f6d9a1ced42606c634b7","properties":{"airport":"LFKJ","name":"ACB","layer":"Labels","category":"Gates","object_type":"Label","style_id":"label.gates","source_group":"LFKJ Gates","vsmr_group_ids":[],"geometry_role":"text_label","text-field":"ACB"},"geometry":{"type":"Point","coordinates":[8.793070278,41.922606944]}},{"type":"Feature","id":"LFKJ-ad74b2889943bdd5be79","properties":{"airport":"LFKJ","name":"AEROPOSTALE","layer":"Labels","category":"Gates","object_type":"Label","style_id":"label.gates","source_group":"LFKJ Gates","vsmr_group_ids":[],"geometry_role":"text_label","text-field":"AEROPOSTALE"},"geometry":{"type":"Point","coordinates":[8.790923056,41.922424444]}},{"type":"Feature","id":"LFKJ-da98f41f5039aecead81","properties":{"airport":"LFKJ","name":"LFKJ Groundlayout AVISO","layer":"Guidance lines","category":"Taxiways","object_type":"Line","style_id":"line.taxiway.c0b631","source_group":"LFKJ Groundlayout AVISO","vsmr_group_ids":[],"geometry_role":"linework"},"geometry":{"type":"MultiLineString","coordinates":[[[8.791528889,41.925350278],[8.791562222,41.925657778]],[[8.790709444,41.9231425],[8.790670556,41.922763611]],[[8.791364167,41.923094722],[8.791318889,41.922721111]],[[8.794313056,41.922255556],[8.794693889,41.922228611]],[[8.793959722,41.922004444],[8.794309444,41.921980278]],[[8.793424167,41.922039167],[8.793735278,41.922018611]],[[8.794833611,41.921981667],[8.794825,41.921902778]],[[8.794424444,41.921732778],[8.794417222,41.921648611]],[[8.793988889,41.921684167],[8.793979722,41.921611944]],[[8.797413056,41.922746667],[8.797545833,41.922375833]],[[8.796999167,41.922763889],[8.797337222,41.921855278]],[[8.797064722,41.922205278],[8.797201667,41.921818333]],[[8.796718333,41.921653056],[8.796858333,41.921265278]],[[8.796328611,41.921028611],[8.796465278,41.920642222]],[[8.795980556,41.920473333],[8.796117778,41.920090556]],[[8.795635556,41.919921389],[8.795778333,41.919543056]],[[8.79529,41.919365278],[8.795429167,41.918978611]],[[8.7949475,41.91881],[8.795085556,41.9184275]],[[8.794639167,41.9183175],[8.794777222,41.917930833]],[[8.794331944,41.917821389],[8.794470833,41.917436111]]]}},{"type":"Feature","id":"LFKJ-bb860256a2a90f033081","properties":{"airport":"LFKJ","name":"A","layer":"Labels","category":"Taxiways","object_type":"Label","style_id":"label.taxiways","source_group":"LFKJ Taxiways","vsmr_group_ids":[],"geometry_role":"text_label","text-field":"A"},"geometry":{"type":"Point","coordinates":[8.794382778,41.913053056]}},{"type":"Feature","id":"LFKJ-4416504699a3dbb40cf0","properties":{"airport":"LFKJ","name":"B","layer":"Labels","category":"Taxiways","object_type":"Label","style_id":"label.taxiways","source_group":"LFKJ Taxiways","vsmr_group_ids":[],"geometry_role":"text_label","text-field":"B"},"geometry":{"type":"Point","coordinates":[8.800271389,41.922433889]}},{"type":"Feature","id":"LFKJ-89b494a275b63af46204","properties":{"airport":"LFKJ","name":"H","layer":"Labels","category":"Taxiways","object_type":"Label","style_id":"label.taxiways","source_group":"LFKJ Taxiways","vsmr_group_ids":[],"geometry_role":"text_label","text-field":"H"},"geometry":{"type":"Point","coordinates":[8.800983333,41.923622222]}},{"type":"Feature","id":"LFKJ-5cdc7d09ddc29064dec9","properties":{"airport":"LFKJ","name":"C","layer":"Labels","category":"Taxiways","object_type":"Label","style_id":"label.taxiways","source_group":"LFKJ Taxiways","vsmr_group_ids":[],"geometry_role":"text_label","text-field":"C"},"geometry":{"type":"Point","coordinates":[8.803474722,41.927612222]}},{"type":"Feature","id":"LFKJ-a9a9b75a2fed4c23953e","properties":{"airport":"LFKJ","name":"D","layer":"Labels","category":"Taxiways","object_type":"Label","style_id":"label.taxiways","source_group":"LFKJ Taxiways","vsmr_group_ids":[],"geometry_role":"text_label","text-field":"D"},"geometry":{"type":"Point","coordinates":[8.804574722,41.9292675]}},{"type":"Feature","id":"LFKJ-0bfe103473628b9bd576","properties":{"airport":"LFKJ","name":"F","layer":"Labels","category":"Taxiways","object_type":"Label","style_id":"label.taxiways","source_group":"LFKJ Taxiways","vsmr_group_ids":[],"geometry_role":"text_label","text-field":"F"},"geometry":{"type":"Point","coordinates":[8.802439444,41.921988056]}},{"type":"Feature","id":"LFKJ-bb60fdae4c687ac14d5f","properties":{"airport":"LFKJ","name":"E","layer":"Labels","category":"Taxiways","object_type":"Label","style_id":"label.taxiways","source_group":"LFKJ Taxiways","vsmr_group_ids":[],"geometry_role":"text_label","text-field":"E"},"geometry":{"type":"Point","coordinates":[8.801339167,41.920141667]}},{"type":"Feature","id":"LFKJ-6ca934aaf1eeb03697d4","properties":{"airport":"LFKJ","name":"T","layer":"Labels","category":"Taxiways","object_type":"Label","style_id":"label.taxiways","source_group":"LFKJ Taxiways","vsmr_group_ids":[],"geometry_role":"text_label","text-field":"T"},"geometry":{"type":"Point","coordinates":[8.793862222,41.915473056]}},{"type":"Feature","id":"LFKJ-75398623f62884d3e69b","properties":{"airport":"LFKJ","name":"T","layer":"Labels","category":"Taxiways","object_type":"Label","style_id":"label.taxiways","source_group":"LFKJ Taxiways","vsmr_group_ids":[],"geometry_role":"text_label","text-field":"T"},"geometry":{"type":"Point","coordinates":[8.795560833,41.918285278]}},{"type":"Feature","id":"LFKJ-e6d6b8f3a69e8c2a9231","properties":{"airport":"LFKJ","name":"T","layer":"Labels","category":"Taxiways","object_type":"Label","style_id":"label.taxiways","source_group":"LFKJ Taxiways","vsmr_group_ids":[],"geometry_role":"text_label","text-field":"T"},"geometry":{"type":"Point","coordinates":[8.797663889,41.921733889]}},{"type":"Feature","id":"LFKJ-c1d7d7ce83cca5ddbc77","properties":{"airport":"LFKJ","name":"G1","layer":"Labels","category":"Taxiways","object_type":"Label","style_id":"label.taxiways","source_group":"LFKJ Taxiways","vsmr_group_ids":[],"geometry_role":"text_label","text-field":"G1"},"geometry":{"type":"Point","coordinates":[8.796329444,41.923060278]}},{"type":"Feature","id":"LFKJ-c4bd85b24c868731d45b","properties":{"airport":"LFKJ","name":"G2","layer":"Labels","category":"Taxiways","object_type":"Label","style_id":"label.taxiways","source_group":"LFKJ Taxiways","vsmr_group_ids":[],"geometry_role":"text_label","text-field":"G2"},"geometry":{"type":"Point","coordinates":[8.793336389,41.923246111]}},{"type":"Feature","id":"LFKJ-d9332b347b9dfd63b3e1","properties":{"airport":"LFKJ","name":"D1","layer":"Labels","category":"Taxiways","object_type":"Label","style_id":"label.taxiways","source_group":"LFKJ Taxiways","vsmr_group_ids":[],"geometry_role":"text_label","text-field":"D1"},"geometry":{"type":"Point","coordinates":[8.800454722,41.926058056]}},{"type":"Feature","id":"LFKJ-0a2594bf4c0b547c415f","properties":{"airport":"LFKJ","name":"D2","layer":"Labels","category":"Taxiways","object_type":"Label","style_id":"label.taxiways","source_group":"LFKJ Taxiways","vsmr_group_ids":[],"geometry_role":"text_label","text-field":"D2"},"geometry":{"type":"Point","coordinates":[8.798756111,41.923378611]}},{"type":"Feature","id":"LFKJ-afc4ac4b57558f784636","properties":{"airport":"LFKJ","name":"X","layer":"Labels","category":"Taxiways","object_type":"Label","style_id":"label.taxiways","source_group":"LFKJ Taxiways","vsmr_group_ids":[],"geometry_role":"text_label","text-field":"X"},"geometry":{"type":"Point","coordinates":[8.793174722,41.924492778]}},{"type":"Feature","id":"LFKJ-3bec52711a8992108a4e","properties":{"airport":"LFKJ","name":"X","layer":"Labels","category":"Taxiways","object_type":"Label","style_id":"label.taxiways","source_group":"LFKJ Taxiways","vsmr_group_ids":[],"geometry_role":"text_label","text-field":"X"},"geometry":{"type":"Point","coordinates":[8.795520556,41.924333611]}},{"type":"Feature","id":"LFKJ-476ddcdee1c686b6515c","properties":{"airport":"LFKJ","name":"X","layer":"Labels","category":"Taxiways","object_type":"Label","style_id":"label.taxiways","source_group":"LFKJ Taxiways","vsmr_group_ids":[],"geometry_role":"text_label","text-field":"X"},"geometry":{"type":"Point","coordinates":[8.797866111,41.924174444]}}]}
