{"type":"FeatureCollection","name":"LFKS AVISO","bbox":[9.343075905560115,41.8197168150368,9.48197786570695,41.96388270771206],"metadata":{"schema":"vSMR AVISO","schema_version":2,"geometry_mode":"shared","airport":"LFKS","coordinate_reference_system":"WGS84","coordinate_order":"longitude, latitude","default_color_palette":"dark","color_palettes":["dark","light"],"background_colors":{"dark":"#434A4F","light":"#434A4F"},"runways":[{"ends":["18","36"],"headings":[176,356],"thresholds":[[9.405060833,41.936243889],[9.405641944,41.912596944]]}],"saved_active_runways":[],"saved_active_airport_modes":[],"airport_reference":[9.405277778,41.926388889],"feature_count":88,"style_count":6,"layer_counts":{"Airfield surfaces":30,"Guidance lines":45,"Labels":13},"category_counts":{"":75,"Gates":13},"geometry_source":"local GNG/KMZ","geometry_source_url":"","geometry_license":"GPL-3.0"},"styles":{"line.runwayconcrete.555555":{"name":"Runways","layer":"Guidance lines","object_type":"Line","paint":{"stroke":"#111318","stroke-opacity":1,"stroke-width":1,"palette-overrides":{"light":{"stroke":"#555555"}}},"feature_count":0},"line.taxiway.c0b631":{"name":"Taxiways","layer":"Guidance lines","object_type":"Line","paint":{"stroke":"#4E5A69","stroke-opacity":1,"stroke-width":1,"palette-overrides":{"light":{"stroke":"#C0B631"}}},"feature_count":0},"line.apronsurface.808080":{"name":"Apron Surface","layer":"Guidance lines","object_type":"Line","paint":{"stroke":"#808080","stroke-opacity":1,"stroke-width":1,"palette-overrides":{"light":{"stroke":"#808080"}}},"feature_count":0},"label.gates":{"name":"Gates","layer":"Labels","object_type":"Label","paint":{"text-color":"#CCCCCC","text-font":"Arial","text-size":12,"text-halo-color":"#000000","text-halo-width":1,"text-anchor":"center","zoomLevel":9},"feature_count":13},"polygon":{"name":"","layer":"Airfield surfaces","object_type":"Area","paint":{"fill":"#00007f","fill-opacity":1},"feature_count":30},"line":{"name":"","layer":"Guidance lines","object_type":"Line","paint":{"stroke":"#CCCCCC","stroke-width":1,"stroke-opacity":1},"feature_count":45}},"vsmr_groups":[],"features":[{"type":"Feature","id":"LFKS-b4745ef867a8d886ad48","properties":{"airport":"LFKS","name":"LFKS_Background","layer":"Airfield surfaces","category":"","object_type":"Area","style_id":"polygon","source_group":"LFKS_Background","vsmr_group_ids":[],"geometry_role":"filled_region"},"geometry":{"type":"Polygon","coordinates":[[[9.344386402613349,41.82162432505519],[9.48197786570695,41.8197168150368],[9.47229763048632,41.96366975983708],[9.343075905560115,41.96388270771206],[9.344386402613349,41.82162432505519]]]}},{"type":"Feature","id":"LFKS-6447026cd42d93421a21","properties":{"airport":"LFKS","name":"LFKS_Grass","layer":"Airfield surfaces","category":"","object_type":"Area","style_id":"polygon","source_group":"LFKS_Grass","vsmr_group_ids":[],"geometry_role":"filled_region"},"geometry":{"type":"Polygon","coordinates":[[[9.402470188962608,41.90947634543038],[9.405629483075728,41.90899317517012],[9.405928286112562,41.90901937977276],[9.406154584694855,41.90907289677707],[9.406472478563364,41.90934066398093],[9.406789450577799,41.9097788775635],[9.406899544607132,41.91009359028782],[9.406911333369559,41.91062886435736],[9.407013507034987,41.91253829245007],[9.407060549080406,41.91276760437394],[9.407332933117472,41.91296830384602],[9.411776367960403,41.91549073601367],[9.41206597392791,41.91558670300724],[9.41229720731201,41.91567223109095],[9.412237477996378,41.91591602023898],[9.411963257189056,41.91620627743752],[9.411774107885195,41.91667432690581],[9.411673650815054,41.91725013251841],[9.41166007868809,41.91796871882238],[9.41155464137465,41.91841287224629],[9.411362314883398,41.91871425112566],[9.411278143061265,41.91897488750751],[9.411372724467892,41.91919680224505],[9.411671856491942,41.91933689111925],[9.41188048070175,41.91940424242964],[9.412351167082582,41.92090926395413],[9.412683794389899,41.9215412923316],[9.413092913001368,41.92228949121294],[9.413279377422592,41.92278582418026],[9.413153574278251,41.92316801182346],[9.41276346893736,41.92341988864986],[9.411207002149844,41.92415820145083],[9.410496468335438,41.92422553883896],[9.408993937190434,41.92434033328093],[9.408365313508106,41.92441877317969],[9.407925862364152,41.92448509451995],[9.407918611747526,41.92462517225953],[9.408034452902514,41.92489152621108],[9.408391511323664,41.92527877294082],[9.408618230046478,41.92567982293428],[9.408741242196786,41.92748319585843],[9.408657381967725,41.92794483088217],[9.408487849941206,41.92820768801651],[9.40846388371858,41.92843901960406],[9.408555075419391,41.92876288748302],[9.408637967634125,41.92924714561572],[9.408641619696695,41.92987191590683],[9.408813110982727,41.93420724813768],[9.408807092528813,41.93478712791745],[9.408942496100048,41.93564770681587],[9.408996843266056,41.93598837758674],[9.408923116485115,41.93625399010126],[9.408431965759185,41.93686621295504],[9.408210356457056,41.93697587494974],[9.40777682265364,41.93700807456548],[9.40743911728589,41.93704301831449],[9.407040117529554,41.93733499676235],[9.406334704146529,41.93798407427625],[9.40587208063237,41.93857764644763],[9.40565735969776,41.93878566926435],[9.405399799355544,41.93889430035283],[9.405038582381193,41.93891964273934],[9.403302798882297,41.93884309080553],[9.40289782427353,41.93878685484079],[9.402480908155301,41.93849824918123],[9.402246451972653,41.93816133394186],[9.402080635353178,41.93788885707622],[9.402058765640778,41.93434544964831],[9.402017359060672,41.9339873085234],[9.401925232656428,41.93391327416665],[9.401532273343198,41.9338573770108],[9.401114434259746,41.93381861209046],[9.40090530376738,41.93368767529215],[9.400810446077658,41.93343508539792],[9.40081577141257,41.93194496080989],[9.400731043888776,41.93172835561322],[9.400591473558041,41.93164403332283],[9.40042378819301,41.93163921818149],[9.399832489381994,41.9316406402546],[9.39956796728145,41.93165089810915],[9.39904354887509,41.93158227506189],[9.3987320241691,41.93157332740299],[9.39843155487769,41.9315825507452],[9.398192382280703,41.93156675330845],[9.398129286014052,41.93139532713594],[9.398527499524018,41.91950928744023],[9.398725999949196,41.91503900773003],[9.398887385026418,41.91192907975125],[9.398880410547402,41.91141782390888],[9.39890107312771,41.91101954434402],[9.399249128194139,41.91076778623919],[9.400293861752882,41.91032414194118],[9.400841307726315,41.91010303621922],[9.401188056634382,41.90987616315302],[9.401345028444233,41.90975602253788],[9.40153609347233,41.90962439577413],[9.402470188962608,41.90947634543038]]]}},{"type":"Feature","id":"LFKS-bc82c3835dcc5a934846","properties":{"airport":"LFKS","name":"LFKS_Taxiway","layer":"Airfield surfaces","category":"","object_type":"Area","style_id":"polygon","source_group":"LFKS_Taxiway","vsmr_group_ids":[],"geometry_role":"filled_region"},"geometry":{"type":"Polygon","coordinates":[[[9.406012652799818,41.91248782320464],[9.40636499772907,41.91250791203137],[9.40636980097649,41.91258794154937],[9.40541893079298,41.91255068974951],[9.405430466606164,41.91113425652784],[9.405402480456086,41.91098365674527],[9.40533686915979,41.9108685949087],[9.404839913168452,41.91061799393015],[9.40361337891483,41.91061942217277],[9.403405509994712,41.91066006073256],[9.403334379406614,41.9107379115257],[9.403315468637762,41.91084389160154],[9.403290118226193,41.91228267284988],[9.403320855912229,41.91238009098169],[9.40339712080637,41.91246217140083],[9.40309115243583,41.9124966659772],[9.403157497057645,41.91080575949052],[9.403177964049188,41.91070234590977],[9.403282420928974,41.91058166684514],[9.403958612802487,41.91008866272358],[9.405367058427476,41.91009533574859],[9.405517340959616,41.91003780731586],[9.406075510210993,41.91005381310652],[9.406012652799818,41.91248782320464]]]}},{"type":"Feature","id":"LFKS-f2381905f06cad41fd03","properties":{"airport":"LFKS","name":"LFKS_Taxiway","layer":"Airfield surfaces","category":"","object_type":"Area","style_id":"polygon","source_group":"LFKS_Taxiway","vsmr_group_ids":[],"geometry_role":"filled_region"},"geometry":{"type":"Polygon","coordinates":[[[9.401791204552213,41.91256270003973],[9.401894431858395,41.91266670154676],[9.40281400489765,41.91268155051328],[9.402928427408776,41.91264441946565],[9.403027355790183,41.91260684362295],[9.40306743498179,41.91258201271157],[9.403096800269811,41.91246449684903],[9.403303597957724,41.91236650688123],[9.403459860901988,41.91249512338176],[9.40354790520044,41.9125178574012],[9.404427339158216,41.91255752293009],[9.404535489112769,41.91264145549627],[9.405114385411007,41.91267538110122],[9.40524516259397,41.91266864071031],[9.405332021249437,41.91263937713679],[9.405380443585138,41.91260323757955],[9.405430806431772,41.91252962543769],[9.406020022607542,41.91253786102676],[9.406026262985176,41.91271702084641],[9.406175538308458,41.91275594230936],[9.406320635309694,41.91287557380891],[9.406392733146493,41.91298156519704],[9.406407176106962,41.91307724326973],[9.406379600910974,41.91323522608418],[9.40595360703634,41.91382057850962],[9.40537923814569,41.91345480571521],[9.405348555909818,41.91337309551177],[9.405086672523522,41.91311154704762],[9.404930695265293,41.9130522243811],[9.404772180191426,41.91304190409707],[9.403720128103398,41.9130405904528],[9.403601831945728,41.91307761115199],[9.403468479848286,41.91318059585703],[9.402964923721449,41.91316614515216],[9.402965243622534,41.91301026771633],[9.40292428901257,41.91290228115649],[9.40287200222631,41.91286325227202],[9.402776509548985,41.91283453045892],[9.402653304886112,41.91281656032227],[9.402007769475087,41.91280957734496],[9.401924334080453,41.91284759714249],[9.401339754022453,41.91285102074432],[9.401051658892321,41.91264644606908],[9.401725578692545,41.9121432867624],[9.402015753468254,41.91238256145039],[9.401791204552213,41.91256270003973]]]}},{"type":"Feature","id":"LFKS-111272e5984114680cba","properties":{"airport":"LFKS","name":"LFKS_Taxiway","layer":"Airfield surfaces","category":"","object_type":"Area","style_id":"polygon","source_group":"LFKS_Taxiway","vsmr_group_ids":[],"geometry_role":"filled_region"},"geometry":{"type":"Polygon","coordinates":[[[9.40546954375366,41.93494476442641],[9.405751333681733,41.93543383259645],[9.405825505999822,41.93556221859667],[9.405879191936716,41.93569602975241],[9.405872506200193,41.93582510427429],[9.405801413208358,41.93594932655948],[9.40571356480169,41.93600693224133],[9.405576827575148,41.93607215509148],[9.405409019675353,41.93609647353907],[9.405344354277876,41.93854388214619],[9.403283511799806,41.938427481159],[9.403029752562105,41.93841118313771],[9.402866171495871,41.93837041569149],[9.402728981706403,41.93828831819204],[9.402575195789481,41.93813660154405],[9.402516701389098,41.93801768106241],[9.402503529519104,41.9378820238327],[9.402536296011304,41.93647073358325],[9.402693513323772,41.9364782506787],[9.402656024569252,41.9379155462517],[9.402673710799512,41.93796415284189],[9.402750837310709,41.93803550811119],[9.402861491545984,41.93808377561047],[9.403005362132827,41.93811495869063],[9.404067664794624,41.93813340397811],[9.404189346245,41.93812486876823],[9.404450935824098,41.93799466565599],[9.404666993365975,41.93788061307303],[9.404763382502788,41.93781423440634],[9.404816005481562,41.93773457609077],[9.405387983261361,41.91334806552133],[9.405987272937086,41.91302222118753],[9.40546954375366,41.93494476442641]]]}},{"type":"Feature","id":"LFKS-75cd22bfeca98d2df9e6","properties":{"airport":"LFKS","name":"LFKS_Taxiway","layer":"Airfield surfaces","category":"","object_type":"Area","style_id":"polygon","source_group":"LFKS_Taxiway","vsmr_group_ids":[],"geometry_role":"filled_region"},"geometry":{"type":"Polygon","coordinates":[[[9.405123193888713,41.92950340230144],[9.404901450850522,41.92949359933436],[9.404887422505457,41.92931751558466],[9.404767047518039,41.92922794534058],[9.40460274614733,41.92918189683267],[9.40436429361685,41.9291371661912],[9.403302845550547,41.92912394257316],[9.403139068071788,41.92915713596882],[9.403043392232638,41.92921639622445],[9.402987721474993,41.92930780685085],[9.402961879888522,41.92971698890717],[9.402462652163743,41.9296992192447],[9.40246712376787,41.92952366604734],[9.40241363205555,41.9293051126237],[9.402286689122226,41.92916368011403],[9.4020958982565,41.92909275444229],[9.400426097195718,41.92909251403583],[9.400385529208908,41.92995880212624],[9.40045468385014,41.92997067481461],[9.400550878949907,41.93003770229376],[9.400627798316004,41.93015608297255],[9.400588477946403,41.93027359792009],[9.400530032104237,41.93031146774116],[9.400389673322959,41.93032721148534],[9.400257870196807,41.93030612450975],[9.40016154694665,41.93024156479623],[9.39989614846314,41.93023394333617],[9.39989790480847,41.93039218586483],[9.399979433415195,41.93042171643393],[9.400041185196564,41.93044820729968],[9.400064011495155,41.93052054367956],[9.400067445053333,41.93058243622198],[9.400047912190466,41.93063872577532],[9.39999635672443,41.93067184995366],[9.399925408375513,41.93069453016037],[9.399921673871168,41.93091132395189],[9.399675793422507,41.93091167775034],[9.399668427079451,41.93073350012775],[9.398850654113227,41.93074214398178],[9.398881743942578,41.93033519800328],[9.399021778630843,41.93020993225462],[9.399073380208854,41.92828070486342],[9.400980196831432,41.92833218319201],[9.401008295975384,41.92847082985352],[9.401090951589737,41.92857822369415],[9.401320153299588,41.928666851102],[9.401459915028198,41.928693836418],[9.40196997862268,41.92869863101392],[9.402103990203711,41.92866637639088],[9.40227985292168,41.92859265806241],[9.402404217513086,41.92849120642216],[9.402489788633176,41.92837223183194],[9.40306802360454,41.9283931754733],[9.403140004882019,41.92853636277882],[9.403229786586149,41.92859144918579],[9.403369039573011,41.92862826341699],[9.404186149640159,41.92870093108618],[9.404441624335558,41.92870825835301],[9.40467745236952,41.92866907505292],[9.404785712759232,41.92862295116693],[9.404863309711535,41.92857266592333],[9.404901603574775,41.92851468982206],[9.404908224956399,41.92838688549921],[9.405089497733009,41.92837895569097],[9.405123193888713,41.92950340230144]]]}},{"type":"Feature","id":"LFKS-e2cefad12e66058a5bf8","properties":{"airport":"LFKS","name":"LFKS_Taxiway","layer":"Airfield surfaces","category":"","object_type":"Area","style_id":"polygon","source_group":"LFKS_Taxiway","vsmr_group_ids":[],"geometry_role":"filled_region"},"geometry":{"type":"Polygon","coordinates":[[[9.402852458392339,41.92927741447328],[9.402737312432413,41.93490275033139],[9.402782994294924,41.93519551147499],[9.402856298621533,41.93539568715085],[9.402930482101553,41.93557890994252],[9.40302045449309,41.93567769754914],[9.403125190316043,41.93571182782341],[9.404245002884677,41.93576092500139],[9.40447099495993,41.93573062105673],[9.404565224269806,41.93567390164106],[9.404688236295492,41.93557556347103],[9.404917912562855,41.93525391504295],[9.404951966403443,41.93643200467954],[9.404419354034195,41.93636014015034],[9.404318414568069,41.93632611987889],[9.40428117401353,41.93623733437836],[9.404281768527587,41.93615246349679],[9.403996312385683,41.93614427696873],[9.40388470202367,41.93616937187305],[9.403806103305957,41.93621805030458],[9.40369478563975,41.93623749424738],[9.402916449555507,41.93622365567309],[9.402827334500472,41.93625505413434],[9.402718192557389,41.93637925490939],[9.40268413433043,41.93652258768266],[9.402540097204303,41.9365127957757],[9.402490369085521,41.9359313005705],[9.40246116705255,41.93583425635035],[9.402393115932291,41.93567950540604],[9.402326969628296,41.93548802414888],[9.402309612720066,41.93530926106022],[9.402423322641544,41.93095066172492],[9.402461609106624,41.92969781215868],[9.402852458392339,41.92927741447328]]]}},{"type":"Feature","id":"LFKS-35f7cf6ede944aac3916","properties":{"airport":"LFKS","name":"LFKS_Taxiway","layer":"Airfield surfaces","category":"","object_type":"Area","style_id":"polygon","source_group":"LFKS_Taxiway","vsmr_group_ids":[],"geometry_role":"filled_region"},"geometry":{"type":"Polygon","coordinates":[[[9.403566634710604,41.91303399592359],[9.403389165949056,41.91330739521215],[9.403353605695255,41.91346840586626],[9.403007441612196,41.92817306655859],[9.403073311418026,41.92845122131552],[9.402483982746364,41.92849404388796],[9.4029710254374,41.91315195780489],[9.403566634710604,41.91303399592359]]]}},{"type":"Feature","id":"LFKS-16b5758fb758ac6e8a01","properties":{"airport":"LFKS","name":"LFKS_Taxiway","layer":"Airfield surfaces","category":"","object_type":"Area","style_id":"polygon","source_group":"LFKS_Taxiway","vsmr_group_ids":[],"geometry_role":"filled_region"},"geometry":{"type":"Polygon","coordinates":[[[9.405242675628315,41.92017039839416],[9.405180663334637,41.92004077625886],[9.405104569143727,41.9199618877831],[9.405003543277834,41.91992205791888],[9.40490544836582,41.91989935787254],[9.40342672416995,41.91986830317514],[9.403314546329234,41.91989633524527],[9.403193273349874,41.91995251594534],[9.402793687102664,41.91999502783973],[9.40272140838925,41.9199162472252],[9.402567451216719,41.91986637318261],[9.402434310122029,41.91985687006092],[9.400600867761897,41.91988310699065],[9.400523294868448,41.91990644811209],[9.400485745872196,41.91996787130402],[9.400447594926554,41.92011450654331],[9.400423463335128,41.92057973480592],[9.399565508583205,41.9205579342446],[9.399580826332855,41.91945323136227],[9.400464705806966,41.91948998251162],[9.400469093539204,41.91955261015088],[9.400511899734491,41.9196106590794],[9.400608962667103,41.91965322021456],[9.400752363246934,41.91968574795999],[9.402366892153122,41.9197388289832],[9.402470269038155,41.91973327309292],[9.402601803374678,41.91970011546212],[9.40270283809133,41.91966608239562],[9.402798894454333,41.91958076882069],[9.403225434101657,41.91967539715797],[9.403273231391044,41.91971086034092],[9.403344344333657,41.91973846958663],[9.40480387210288,41.91974340613483],[9.40499097528181,41.91974309022345],[9.405091274123203,41.91972323882484],[9.405181898974686,41.91966901820792],[9.405246277402115,41.91960552190967],[9.405242675628315,41.92017039839416]]]}},{"type":"Feature","id":"LFKS-a38855f0712569483dbd","properties":{"airport":"LFKS","name":"LFKS_Taxiway","layer":"Airfield surfaces","category":"","object_type":"Area","style_id":"polygon","source_group":"LFKS_Taxiway","vsmr_group_ids":[],"geometry_role":"filled_region"},"geometry":{"type":"Polygon","coordinates":[[[9.402571261683402,41.92705427760775],[9.402479691504581,41.92672061491799],[9.402406635742661,41.92657765244563],[9.402306849099354,41.92649379084017],[9.402128706072883,41.92646050519368],[9.401375758580528,41.92646706664441],[9.4011585140303,41.92654887117929],[9.401063424503327,41.92664826898444],[9.401019595054816,41.92676322492478],[9.400982959615334,41.92838213305368],[9.399068880007421,41.92834477452551],[9.399134308680422,41.92662808393804],[9.399404076086835,41.9266287901552],[9.399503694396955,41.92662460835652],[9.399538238519977,41.92659742740839],[9.39955985327994,41.92590721797582],[9.400256959566315,41.9259201958461],[9.400267490043387,41.92599093120276],[9.400331651585665,41.92603151182594],[9.402015375338927,41.92606928526875],[9.402190978039886,41.9260602386203],[9.402295868508796,41.92604564068611],[9.402432216121637,41.92597207742195],[9.402523852922265,41.9258479277574],[9.402588407821051,41.92569834914025],[9.402571261683402,41.92705427760775]]]}},{"type":"Feature","id":"LFKS-e69c0c8c1b315feaaeab","properties":{"airport":"LFKS","name":"LFKS_Taxiway","layer":"Airfield surfaces","category":"","object_type":"Area","style_id":"polygon","source_group":"LFKS_Taxiway","vsmr_group_ids":[],"geometry_role":"filled_region"},"geometry":{"type":"Polygon","coordinates":[[[9.400434081855831,41.91980937784515],[9.40025651435153,41.9258807884764],[9.400273433335924,41.92600218925902],[9.399561019736131,41.92601051778954],[9.399575238106292,41.92461793734601],[9.399416829791607,41.9246133872831],[9.399485118704812,41.92202963862818],[9.39921868835501,41.92201910653448],[9.399265692165033,41.92103874714237],[9.399498391358147,41.92102815855968],[9.399554567052103,41.92098946755017],[9.399566840131538,41.92052919388689],[9.400434081855831,41.91980937784515]]]}},{"type":"Feature","id":"LFKS-41ec26e3f6ffe45cc8af","properties":{"airport":"LFKS","name":"LFKS_Taxiway","layer":"Airfield surfaces","category":"","object_type":"Area","style_id":"polygon","source_group":"LFKS_Taxiway","vsmr_group_ids":[],"geometry_role":"filled_region"},"geometry":{"type":"Polygon","coordinates":[[[9.399577844163103,41.91946304675835],[9.399586793159447,41.91922288163489],[9.399570477508277,41.91919889345488],[9.399525430219217,41.91918714632732],[9.399354001320582,41.9191743819477],[9.399355786265872,41.91832773012663],[9.399720898727297,41.91833037926095],[9.399745860444671,41.91717229836901],[9.399733999518588,41.91713014522625],[9.399548981819827,41.91697326009917],[9.399742959840992,41.91682203573291],[9.399898312154367,41.91694148263919],[9.399963721326266,41.916966880979],[9.400132043236555,41.91697171573981],[9.40022807783269,41.91694834127904],[9.4005477658862,41.91674323389901],[9.400600083542228,41.9168179082056],[9.40068289099808,41.91684641901968],[9.400784585428736,41.9168493393323],[9.400767115660964,41.91725389550113],[9.400733648595365,41.91735746544983],[9.400693315195326,41.91739027976269],[9.400600516137526,41.91741897408062],[9.400494502133931,41.9174316091566],[9.400471213020413,41.91957336909447],[9.399577844163103,41.91946304675835]]]}},{"type":"Feature","id":"LFKS-2e26c3484e68d074f0a3","properties":{"airport":"LFKS","name":"LFKS_CenterlinesTaxiway","layer":"Guidance lines","category":"","object_type":"Line","style_id":"line","source_group":"LFKS_CenterlinesTaxiway","vsmr_group_ids":[],"geometry_role":"linework"},"geometry":{"type":"LineString","coordinates":[[9.405547897680668,41.91130370654962],[9.405547922113584,41.91105925348752],[9.405533617507405,41.91096952362553],[9.405480251605427,41.91090217871363],[9.405398622919016,41.91083167266947],[9.405001989735439,41.91062285295432],[9.404884210985347,41.91057951562394],[9.404799787120927,41.91056299074338],[9.403587337089053,41.91055652787104],[9.403504364975234,41.91057295105386],[9.403411079971274,41.91060553189756],[9.403295466542003,41.9107032865403],[9.403259671557947,41.91078452760532],[9.403242191396128,41.91087804688209],[9.403194252442322,41.91252102518232],[9.403117750185872,41.91322559710989],[9.403111040626724,41.91361226833654],[9.402583810873908,41.93521957577794],[9.4025809465869,41.93536406578279],[9.402614154215467,41.93552680170424],[9.402628358685028,41.93560982190033],[9.402566148376883,41.93788052241181],[9.402609488725673,41.93802633876219],[9.402701708613339,41.93812192428064],[9.402760172061681,41.93815458140324],[9.402883501910875,41.93818565717287],[9.404133010808405,41.93821053977754],[9.40424495588955,41.93819946629174],[9.404374309210603,41.93814889762958],[9.404788183686454,41.93794365365108],[9.404836564509162,41.93789933323413],[9.404891588152964,41.93780092547909],[9.404913421833248,41.93775013044522]]}},{"type":"Feature","id":"LFKS-5c7b60168e798b2c3e89","properties":{"airport":"LFKS","name":"LFKS_CenterlinesTaxiway","layer":"Guidance lines","category":"","object_type":"Line","style_id":"line","source_group":"LFKS_CenterlinesTaxiway","vsmr_group_ids":[],"geometry_role":"linework"},"geometry":{"type":"LineString","coordinates":[[9.402779813588287,41.93816315436857],[9.402976692271023,41.9382916419527],[9.403127121911588,41.93835309192323],[9.40325661391247,41.93837394690251],[9.403351741666404,41.93839095928359],[9.403451887098571,41.93838526170917],[9.40361457038761,41.93835850399681],[9.403771654148589,41.9382915912877],[9.403879921822176,41.93820328122055]]}},{"type":"Feature","id":"LFKS-b8420e921b971344823e","properties":{"airport":"LFKS","name":"LFKS_CenterlinesTaxiway","layer":"Guidance lines","category":"","object_type":"Line","style_id":"line","source_group":"LFKS_CenterlinesTaxiway","vsmr_group_ids":[],"geometry_role":"linework"},"geometry":{"type":"LineString","coordinates":[[9.402964107056253,41.91951873820444],[9.40291157642397,41.91966313454952],[9.402842368575158,41.91972029853676],[9.402747314215095,41.91976489070974],[9.402669461538888,41.91978434473952],[9.402586827281771,41.91979380312662],[9.402738961077812,41.91982380102815],[9.402841428372481,41.91989180672645],[9.402898908705595,41.92000978457223],[9.402953539256478,41.92013162387048],[9.402996908075615,41.92001062515044],[9.403084746321111,41.91990076078787],[9.403158735698616,41.9198535922361],[9.403234860694102,41.91981634323041],[9.40336542648848,41.91980234458073],[9.403242703279165,41.91976727655077],[9.403147765312456,41.91970737397647],[9.403053643796095,41.91963172131993],[9.402964107056253,41.91951873820444]]}},{"type":"Feature","id":"LFKS-11cf53c43b001925f288","properties":{"airport":"LFKS","name":"LFKS_CenterlinesTaxiway","layer":"Guidance lines","category":"","object_type":"Line","style_id":"line","source_group":"LFKS_CenterlinesTaxiway","vsmr_group_ids":[],"geometry_role":"linework"},"geometry":{"type":"LineString","coordinates":[[9.405526883449294,41.91908567473066],[9.405492028666254,41.92052854135683]]}},{"type":"Feature","id":"LFKS-aa4c743239b04dc9dd73","properties":{"airport":"LFKS","name":"LFKS_CenterlinesTaxiway","layer":"Guidance lines","category":"","object_type":"Line","style_id":"line","source_group":"LFKS_CenterlinesTaxiway","vsmr_group_ids":[],"geometry_role":"linework"},"geometry":{"type":"LineString","coordinates":[[9.40501760876593,41.91982321733325],[9.402242376999874,41.9197887795274],[9.399913237368951,41.91974978982009]]}},{"type":"Feature","id":"LFKS-3daa564ace63f8731e8c","properties":{"airport":"LFKS","name":"LFKS_CenterlinesTaxiway","layer":"Guidance lines","category":"","object_type":"Line","style_id":"line","source_group":"LFKS_CenterlinesTaxiway","vsmr_group_ids":[],"geometry_role":"linework"},"geometry":{"type":"LineString","coordinates":[[9.405519902437625,41.91947709867716],[9.405468745919183,41.91959232757678],[9.405386454513433,41.91969281835225],[9.405304577332698,41.91973398413102],[9.405138884361655,41.91980241470102],[9.405012907710923,41.91982253671353],[9.405162869302949,41.91985254990644],[9.40531792937427,41.91993809017309],[9.40544552679426,41.92004064383949],[9.405503904478147,41.92019659384226]]}},{"type":"Feature","id":"LFKS-ee82a0cdc395bf2db687","properties":{"airport":"LFKS","name":"LFKS_CenterlinesTaxiway","layer":"Guidance lines","category":"","object_type":"Line","style_id":"line","source_group":"LFKS_CenterlinesTaxiway","vsmr_group_ids":[],"geometry_role":"linework"},"geometry":{"type":"LineString","coordinates":[[9.405311407491057,41.92843021515026],[9.405225260744722,41.92865229038183],[9.405126039918684,41.92875085280507],[9.404955402140498,41.92884978166709],[9.404761462534344,41.92889733837068],[9.404623985810318,41.92891995495155],[9.404829132165462,41.92896929824404],[9.4050262988518,41.92904738584121],[9.405199401715043,41.92921411813155],[9.405279147169942,41.92942887729431]]}},{"type":"Feature","id":"LFKS-12399dc939f4b8fa0164","properties":{"airport":"LFKS","name":"LFKS_CenterlinesTaxiway","layer":"Guidance lines","category":"","object_type":"Line","style_id":"line","source_group":"LFKS_CenterlinesTaxiway","vsmr_group_ids":[],"geometry_role":"linework"},"geometry":{"type":"LineString","coordinates":[[9.405314846432908,41.92809030945237],[9.40527732936,41.92968964159517]]}},{"type":"Feature","id":"LFKS-f594d3f2a7e9b7c366a2","properties":{"airport":"LFKS","name":"LFKS_CenterlinesTaxiway","layer":"Guidance lines","category":"","object_type":"Line","style_id":"line","source_group":"LFKS_CenterlinesTaxiway","vsmr_group_ids":[],"geometry_role":"linework"},"geometry":{"type":"LineString","coordinates":[[9.40387904414986,41.93814612149784],[9.403859685229694,41.93844552257134]]}},{"type":"Feature","id":"LFKS-1443f30651c992299e50","properties":{"airport":"LFKS","name":"LFKS_CenterlinesTaxiway","layer":"Guidance lines","category":"","object_type":"Line","style_id":"line","source_group":"LFKS_CenterlinesTaxiway","vsmr_group_ids":[],"geometry_role":"linework"},"geometry":{"type":"LineString","coordinates":[[9.404563310574503,41.9100962873276],[9.404548034314587,41.91061952454086]]}},{"type":"Feature","id":"LFKS-009713420a59c3573ab8","properties":{"airport":"LFKS","name":"LFKS_CenterlinesTaxiway","layer":"Guidance lines","category":"","object_type":"Line","style_id":"line","source_group":"LFKS_CenterlinesTaxiway","vsmr_group_ids":[],"geometry_role":"linework"},"geometry":{"type":"LineString","coordinates":[[9.403461708308756,41.91058615577578],[9.403790465751424,41.91034695358132],[9.403851218638646,41.91031569204056],[9.404347427210997,41.91032552829454],[9.404407603858163,41.91036245974806],[9.404442341499406,41.91043386640502],[9.404428256266526,41.91047746861838],[9.40439611594768,41.9105271538201],[9.404287381039842,41.91056142266075],[9.403896432460431,41.91055838172882],[9.403819397752379,41.91053041012288],[9.403753999490993,41.91048012660973],[9.40375128215246,41.91041843973178],[9.403790351925835,41.91034915061993]]}},{"type":"Feature","id":"LFKS-d07c3bdbf266b6fc11d3","properties":{"airport":"LFKS","name":"LFKS_CenterlinesTaxiway","layer":"Guidance lines","category":"","object_type":"Line","style_id":"line","source_group":"LFKS_CenterlinesTaxiway","vsmr_group_ids":[],"geometry_role":"linework"},"geometry":{"type":"LineString","coordinates":[[9.405659841449364,41.91363188713839],[9.405653991217683,41.91316351418097],[9.40563630880529,41.91309804078341],[9.405534002685535,41.91298085572621],[9.405397473144122,41.91288509112889],[9.405264291307063,41.91284094739978],[9.405150529178306,41.91282872363372],[9.40361160711992,41.91281093315115],[9.403452988710653,41.91279294024461],[9.40332940590902,41.91273786873138],[9.40322109248475,41.91262050891559],[9.403193359395505,41.91251666248902]]}},{"type":"Feature","id":"LFKS-d1cea87a1f73b584b548","properties":{"airport":"LFKS","name":"LFKS_CenterlinesTaxiway","layer":"Guidance lines","category":"","object_type":"Line","style_id":"line","source_group":"LFKS_CenterlinesTaxiway","vsmr_group_ids":[],"geometry_role":"linework"},"geometry":{"type":"LineString","coordinates":[[9.403665829607458,41.91281024876221],[9.403523392226848,41.91282856382766],[9.403347881753954,41.91290417536155],[9.4032220805762,41.91300809578828],[9.403153275857196,41.91311589203031],[9.403119267005382,41.91324932926178]]}},{"type":"Feature","id":"LFKS-810f2222f5a428308293","properties":{"airport":"LFKS","name":"LFKS_CenterlinesTaxiway","layer":"Guidance lines","category":"","object_type":"Line","style_id":"line","source_group":"LFKS_CenterlinesTaxiway","vsmr_group_ids":[],"geometry_role":"linework"},"geometry":{"type":"LineString","coordinates":[[9.403189890720238,41.91252552394769],[9.403148487286078,41.91262738641036],[9.403078647535754,41.91269706941124],[9.402964530386804,41.91274980001903],[9.402873541308573,41.91276287021504],[9.401799605282084,41.91274244812264]]}},{"type":"Feature","id":"LFKS-6dd20cb68cc455fcd852","properties":{"airport":"LFKS","name":"LFKS_CenterlinesTaxiway","layer":"Guidance lines","category":"","object_type":"Line","style_id":"line","source_group":"LFKS_CenterlinesTaxiway","vsmr_group_ids":[],"geometry_role":"linework"},"geometry":{"type":"LineString","coordinates":[[9.405662972441089,41.91363306363709],[9.40608200226221,41.91315671177402],[9.406207920328285,41.91299230559602],[9.406172549352176,41.91291960442831],[9.406085035197574,41.91286557016958],[9.406002027393843,41.91284078791973],[9.405855895156153,41.91281419556534],[9.40575022439633,41.91282012634962],[9.405687789224316,41.91286314045085],[9.405664541212701,41.91296328377562],[9.405653073761853,41.91318473654511]]}},{"type":"Feature","id":"LFKS-e0765868de00b07ea9ab","properties":{"airport":"LFKS","name":"LFKS_CenterlinesTaxiway","layer":"Guidance lines","category":"","object_type":"Line","style_id":"line","source_group":"LFKS_CenterlinesTaxiway","vsmr_group_ids":[],"geometry_role":"linework"},"geometry":{"type":"LineString","coordinates":[[9.404628558209499,41.91263799168246],[9.404615774292553,41.91302550969377]]}},{"type":"Feature","id":"LFKS-442416b6ed37777f79eb","properties":{"airport":"LFKS","name":"LFKS_CenterlinesTaxiway","layer":"Guidance lines","category":"","object_type":"Line","style_id":"line","source_group":"LFKS_CenterlinesTaxiway","vsmr_group_ids":[],"geometry_role":"linework"},"geometry":{"type":"LineString","coordinates":[[9.404633253309626,41.92891780640717],[9.40061843003875,41.9288677901165]]}},{"type":"Feature","id":"LFKS-bd033ba94d75d8707af1","properties":{"airport":"LFKS","name":"LFKS_CenterlinesTaxiway","layer":"Guidance lines","category":"","object_type":"Line","style_id":"line","source_group":"LFKS_CenterlinesTaxiway","vsmr_group_ids":[],"geometry_role":"linework"},"geometry":{"type":"LineString","coordinates":[[9.40429308967121,41.91974707728654],[9.404295001529942,41.91988639877061]]}},{"type":"Feature","id":"LFKS-aeba160a67024593955d","properties":{"airport":"LFKS","name":"LFKS_CenterlinesTaxiway","layer":"Guidance lines","category":"","object_type":"Line","style_id":"line","source_group":"LFKS_CenterlinesTaxiway","vsmr_group_ids":[],"geometry_role":"linework"},"geometry":{"type":"LineString","coordinates":[[9.404060475447347,41.92870287417336],[9.404052247646765,41.92911843113581]]}},{"type":"Feature","id":"LFKS-eaa1a3f9eef6c0eb17ac","properties":{"airport":"LFKS","name":"LFKS_CenterlinesTaxiway","layer":"Guidance lines","category":"","object_type":"Line","style_id":"line","source_group":"LFKS_CenterlinesTaxiway","vsmr_group_ids":[],"geometry_role":"linework"},"geometry":{"type":"LineString","coordinates":[[9.402747665540563,41.92853975721041],[9.40268360090261,41.92868635030489],[9.402568942944221,41.92879228307971],[9.402445907917194,41.92884196353369],[9.402262587282102,41.92889271429268],[9.402450660024222,41.92896812635485],[9.40261776449942,41.92908494506432],[9.402680493318378,41.9291819649493],[9.40272861158445,41.92934297898942]]}},{"type":"Feature","id":"LFKS-f677037789d56a87d691","properties":{"airport":"LFKS","name":"LFKS_CenterlinesTaxiway","layer":"Guidance lines","category":"","object_type":"Line","style_id":"line","source_group":"LFKS_CenterlinesTaxiway","vsmr_group_ids":[],"geometry_role":"linework"},"geometry":{"type":"LineString","coordinates":[[9.402628728328084,41.93561738394636],[9.402684996877644,41.93570711819138],[9.402781297720043,41.93580807174626],[9.402882933155752,41.93587141262001],[9.402982622848832,41.93590700281649],[9.403132829850708,41.9359289357087],[9.40457173725082,41.93595258215512],[9.40472849536447,41.93593190015115],[9.40490826564721,41.93585900608324],[9.404972222198344,41.93580041508051],[9.405033841275186,41.93572161533907],[9.40504868727981,41.93562800925717],[9.405060374589091,41.93481451572529]]}},{"type":"Feature","id":"LFKS-00d47d5faef46e1f94e7","properties":{"airport":"LFKS","name":"LFKS_CenterlinesTaxiway","layer":"Guidance lines","category":"","object_type":"Line","style_id":"line","source_group":"LFKS_CenterlinesTaxiway","vsmr_group_ids":[],"geometry_role":"linework"},"geometry":{"type":"LineString","coordinates":[[9.405057227555638,41.93507123077557],[9.405638026592163,41.93581549540985],[9.405597336367652,41.93588230685098],[9.405502574503616,41.93594756817242],[9.405420164813245,41.93597038266707],[9.40529460338473,41.93597685379856],[9.405194130944404,41.93595634937081],[9.405118487116821,41.93591389743633],[9.405077419563543,41.9358573305813],[9.405044283289378,41.93577833187853],[9.40503818274389,41.93570010836243]]}},{"type":"Feature","id":"LFKS-0c9ad2d72baf68c8d5b5","properties":{"airport":"LFKS","name":"LFKS_CenterlinesTaxiway","layer":"Guidance lines","category":"","object_type":"Line","style_id":"line","source_group":"LFKS_CenterlinesTaxiway","vsmr_group_ids":[],"geometry_role":"linework"},"geometry":{"type":"LineString","coordinates":[[9.403923492086552,41.93575872949295],[9.403914230996538,41.9361613291138]]}},{"type":"Feature","id":"LFKS-b6daab3ae558b4dfae4b","properties":{"airport":"LFKS","name":"LFKS_CenterlinesTaxiway","layer":"Guidance lines","category":"","object_type":"Line","style_id":"line","source_group":"LFKS_CenterlinesTaxiway","vsmr_group_ids":[],"geometry_role":"linework"},"geometry":{"type":"LineString","coordinates":[[9.40262181030395,41.93605651102282],[9.402674226793419,41.93613195991097],[9.402748280936336,41.93617352192281],[9.402820685492049,41.93618299375677],[9.403714280680774,41.93619630370083],[9.403765056499063,41.93617557661781],[9.404108408258367,41.93594387086658]]}},{"type":"Feature","id":"LFKS-bddb8327283c842a0518","properties":{"airport":"LFKS","name":"LFKS_CenterlinesTaxiway","layer":"Guidance lines","category":"","object_type":"Line","style_id":"line","source_group":"LFKS_CenterlinesTaxiway","vsmr_group_ids":[],"geometry_role":"linework"},"geometry":{"type":"LineString","coordinates":[[9.402254790458056,41.9262611947461],[9.400116162469235,41.92623065594508]]}},{"type":"Feature","id":"LFKS-e714063930c13779d835","properties":{"airport":"LFKS","name":"LFKS_CenterlinesTaxiway","layer":"Guidance lines","category":"","object_type":"Line","style_id":"line","source_group":"LFKS_CenterlinesTaxiway","vsmr_group_ids":[],"geometry_role":"linework"},"geometry":{"type":"LineString","coordinates":[[9.402815259670117,41.9258453902347],[9.402776493487831,41.92597534409798],[9.40269996574419,41.92609229910502],[9.40258383501244,41.92616998918319],[9.402426991093186,41.92622982957258],[9.402249116592918,41.92626285296282],[9.402392048439276,41.92628601911738],[9.402552195816856,41.92634780734277],[9.40266571836218,41.92644400257949],[9.402737911269432,41.92653424570982],[9.402792994350168,41.92670740335816]]}},{"type":"Feature","id":"LFKS-ee4537cb1f509e033331","properties":{"airport":"LFKS","name":"LFKS_CenterlinesTaxiway","layer":"Guidance lines","category":"","object_type":"Line","style_id":"line","source_group":"LFKS_CenterlinesTaxiway","vsmr_group_ids":[],"geometry_role":"linework"},"geometry":{"type":"LineString","coordinates":[[9.400991341218464,41.92624516925623],[9.400889825833648,41.92626937977649],[9.400818758866816,41.92632158946336],[9.400778315919705,41.92639841277087],[9.400767970188493,41.92651000642017],[9.400680368404085,41.92863808656375],[9.400694004807512,41.92872663427136],[9.400754201513992,41.92879617513106],[9.400896134676975,41.92887145337692]]}},{"type":"Feature","id":"LFKS-fc41c093f629b867e90d","properties":{"airport":"LFKS","name":"LFKS_CenterlinesTaxiway","layer":"Guidance lines","category":"","object_type":"Line","style_id":"line","source_group":"LFKS_CenterlinesTaxiway","vsmr_group_ids":[],"geometry_role":"linework"},"geometry":{"type":"LineString","coordinates":[[9.400627696391854,41.92886921123245],[9.400315085140669,41.92887144653884],[9.400226538314818,41.92883624413331],[9.400118038473826,41.92874904111602],[9.400091864170221,41.92867261097607],[9.400151767751158,41.92642876861962],[9.400167118520372,41.92635072786478],[9.400219215274623,41.92629055977259],[9.400346401164683,41.92623535082198]]}},{"type":"Feature","id":"LFKS-b3dfe1596a3eff9857ba","properties":{"airport":"LFKS","name":"LFKS_CenterlinesTaxiway","layer":"Guidance lines","category":"","object_type":"Line","style_id":"line","source_group":"LFKS_CenterlinesTaxiway","vsmr_group_ids":[],"geometry_role":"linework"},"geometry":{"type":"LineString","coordinates":[[9.400124459760628,41.92622897732739],[9.400009575371946,41.92626491881948],[9.39992738470969,41.92632422251104],[9.399899441660974,41.92642712780226],[9.399905458207416,41.92674683229027],[9.399870572284225,41.92683832625029],[9.39983583144646,41.9269270214581],[9.39981974025388,41.92709193072776],[9.399816822048464,41.92722078059904],[9.399784100006228,41.92734316874848],[9.399735473325986,41.92740904200927],[9.39962636737775,41.92747878408894],[9.399536360527396,41.92754346888665],[9.399499018642212,41.92760966639285],[9.399495532918841,41.92767683631792],[9.39944337195935,41.92897242558771],[9.399465769631068,41.92912162304124],[9.399467338759095,41.92923658729215],[9.399463622000075,41.92974380696541],[9.399505991228022,41.92987115502677],[9.399574548947982,41.93000205828718],[9.399624297211611,41.9301324215205],[9.39965509067549,41.93026504358647]]}},{"type":"Feature","id":"LFKS-bad5cf9ab3f12d1655b0","properties":{"airport":"LFKS","name":"LFKS_CenterlinesTaxiway","layer":"Guidance lines","category":"","object_type":"Line","style_id":"line","source_group":"LFKS_CenterlinesTaxiway","vsmr_group_ids":[],"geometry_role":"linework"},"geometry":{"type":"LineString","coordinates":[[9.400322661093114,41.9288715471991],[9.399863277437419,41.92886676370973],[9.399682707744482,41.92886157766828],[9.399586932311177,41.9288195860885],[9.39951836137013,41.92876155828021],[9.399460799718447,41.92863657662711]]}},{"type":"Feature","id":"LFKS-2b0b45d8b94909e980e3","properties":{"airport":"LFKS","name":"LFKS_CenterlinesTaxiway","layer":"Guidance lines","category":"","object_type":"Line","style_id":"line","source_group":"LFKS_CenterlinesTaxiway","vsmr_group_ids":[],"geometry_role":"linework"},"geometry":{"type":"LineString","coordinates":[[9.399867329739013,41.92886127430734],[9.39975692857824,41.92888332974276],[9.39962524911083,41.92895242337696],[9.399537404823107,41.92904800209922],[9.399467483994819,41.92923378855488]]}},{"type":"Feature","id":"LFKS-83620a3ecb1c47d9b994","properties":{"airport":"LFKS","name":"LFKS_CenterlinesTaxiway","layer":"Guidance lines","category":"","object_type":"Line","style_id":"line","source_group":"LFKS_CenterlinesTaxiway","vsmr_group_ids":[],"geometry_role":"linework"},"geometry":{"type":"LineString","coordinates":[[9.400586573067049,41.92886791342368],[9.400482679307054,41.92890977689573],[9.400407864145947,41.92897209556915],[9.400358365690792,41.92905476144986],[9.400334329135667,41.92915497585989],[9.400295003450918,41.92984036469171],[9.399960282632716,41.93011945203915],[9.399913251482602,41.93015453922157],[9.399803864637299,41.93015700360981],[9.399713577945777,41.93015441063402],[9.39962098164395,41.93012372215179]]}},{"type":"Feature","id":"LFKS-e09298fd57af2ba35710","properties":{"airport":"LFKS","name":"LFKS_CenterlinesTaxiway","layer":"Guidance lines","category":"","object_type":"Line","style_id":"line","source_group":"LFKS_CenterlinesTaxiway","vsmr_group_ids":[],"geometry_role":"linework"},"geometry":{"type":"LineString","coordinates":[[9.400435018409226,41.92623792315851],[9.400283860425375,41.92619114003573],[9.4001908474426,41.9261231728846],[9.400167432923915,41.92606699880737],[9.400145878834502,41.92597496529814],[9.400230101171946,41.92280074873153]]}},{"type":"Feature","id":"LFKS-5e179c72d1cac0612fd1","properties":{"airport":"LFKS","name":"LFKS_CenterlinesTaxiway","layer":"Guidance lines","category":"","object_type":"Line","style_id":"line","source_group":"LFKS_CenterlinesTaxiway","vsmr_group_ids":[],"geometry_role":"linework"},"geometry":{"type":"LineString","coordinates":[[9.400123566272725,41.92622898878418],[9.399922993940383,41.92622322850693],[9.399819490075084,41.92617677963068],[9.399743203079503,41.92609850527951],[9.399716985382389,41.92604068977331],[9.399706481023307,41.92596158752191],[9.39976126140262,41.92350052350371]]}},{"type":"Feature","id":"LFKS-7f7fc08af916de4831c0","properties":{"airport":"LFKS","name":"LFKS_CenterlinesTaxiway","layer":"Guidance lines","category":"","object_type":"Line","style_id":"line","source_group":"LFKS_CenterlinesTaxiway","vsmr_group_ids":[],"geometry_role":"linework"},"geometry":{"type":"LineString","coordinates":[[9.400373804088932,41.91696492278975],[9.400246737660034,41.9222660821059]]}},{"type":"Feature","id":"LFKS-d55d43c9bb8dd3f74f49","properties":{"airport":"LFKS","name":"LFKS_CenterlinesTaxiway","layer":"Guidance lines","category":"","object_type":"Line","style_id":"line","source_group":"LFKS_CenterlinesTaxiway","vsmr_group_ids":[],"geometry_role":"linework"},"geometry":{"type":"LineString","coordinates":[[9.39973397072668,41.92194056728472],[9.399859781639229,41.917062265294]]}},{"type":"Feature","id":"LFKS-2e1305b932227120075c","properties":{"airport":"LFKS","name":"LFKS_CenterlinesTaxiway","layer":"Guidance lines","category":"","object_type":"Line","style_id":"line","source_group":"LFKS_CenterlinesTaxiway","vsmr_group_ids":[],"geometry_role":"linework"},"geometry":{"type":"LineString","coordinates":[[9.399793904072506,41.91961880244901],[9.399806324172875,41.9196813183],[9.399836296166582,41.91970743134828],[9.39987950282993,41.91973003959663],[9.399920304055607,41.91974869378056],[9.399878194734496,41.91975525413508],[9.39981632926273,41.91979038405292],[9.399801685858982,41.91982104296052],[9.399787435338638,41.9198944474655]]}},{"type":"Feature","id":"LFKS-b63bde4f81738b2237df","properties":{"airport":"LFKS","name":"LFKS_MarkingsDown","layer":"Airfield surfaces","category":"","object_type":"Area","style_id":"polygon","source_group":"LFKS_MarkingsDown","vsmr_group_ids":[],"geometry_role":"filled_region"},"geometry":{"type":"Polygon","coordinates":[[[9.405372755145793,41.93590224744617],[9.405363803669612,41.93617591766119],[9.404874906400305,41.93616898301572],[9.404882668564337,41.93589447534658],[9.405372755145793,41.93590224744617]]]}},{"type":"Feature","id":"LFKS-ece7c0e0639d5362321a","properties":{"airport":"LFKS","name":"LFKS_MarkingsDown","layer":"Airfield surfaces","category":"","object_type":"Area","style_id":"polygon","source_group":"LFKS_MarkingsDown","vsmr_group_ids":[],"geometry_role":"filled_region"},"geometry":{"type":"Polygon","coordinates":[[[9.405939647212483,41.91290634191934],[9.405450584432709,41.91290194002483],[9.405459229060902,41.91262896565112],[9.405946732078217,41.91263457647028],[9.405939647212483,41.91290634191934]]]}},{"type":"Feature","id":"LFKS-2ea6e2abb7aa2cb67ea9","properties":{"airport":"LFKS","name":"LFKS_Markings","layer":"Airfield surfaces","category":"","object_type":"Area","style_id":"polygon","source_group":"LFKS_Markings","vsmr_group_ids":[],"geometry_role":"filled_region"},"geometry":{"type":"Polygon","coordinates":[[[9.405437962335082,41.91257194642041],[9.405968302145409,41.91258070016036],[9.405968832883682,41.9126039505455],[9.405437027867837,41.91258999141108],[9.405437962335082,41.91257194642041]]]}},{"type":"Feature","id":"LFKS-d4e41bfa0a6bfcafdda8","properties":{"airport":"LFKS","name":"LFKS_Markings","layer":"Airfield surfaces","category":"","object_type":"Area","style_id":"polygon","source_group":"LFKS_Markings","vsmr_group_ids":[],"geometry_role":"filled_region"},"geometry":{"type":"Polygon","coordinates":[[[9.40595451251465,41.91257901393377],[9.40597709587961,41.91257837061302],[9.405397120841794,41.93622594870702],[9.40537497040345,41.93622695755738],[9.40595451251465,41.91257901393377]]]}},{"type":"Feature","id":"LFKS-83b5365477c943a8c691","properties":{"airport":"LFKS","name":"LFKS_Markings","layer":"Airfield surfaces","category":"","object_type":"Area","style_id":"polygon","source_group":"LFKS_Markings","vsmr_group_ids":[],"geometry_role":"filled_region"},"geometry":{"type":"Polygon","coordinates":[[[9.405395594585793,41.93621275407847],[9.405394744232465,41.93622916829229],[9.404847351808796,41.93621676215628],[9.404845995767078,41.93620028466628],[9.405395594585793,41.93621275407847]]]}},{"type":"Feature","id":"LFKS-ebbae60a9f5713919c05","properties":{"airport":"LFKS","name":"LFKS_Markings","layer":"Airfield surfaces","category":"","object_type":"Area","style_id":"polygon","source_group":"LFKS_Markings","vsmr_group_ids":[],"geometry_role":"filled_region"},"geometry":{"type":"Polygon","coordinates":[[[9.405430813095721,41.91257199865539],[9.405450810867858,41.91257257215997],[9.404860591094604,41.93621714175897],[9.404845145268347,41.93621669888923],[9.405430813095721,41.91257199865539]]]}},{"type":"Feature","id":"LFKS-8e1284a634e8bfac8eac","properties":{"airport":"LFKS","name":"LFKS_Markings","layer":"Airfield surfaces","category":"","object_type":"Area","style_id":"polygon","source_group":"LFKS_Markings","vsmr_group_ids":[],"geometry_role":"filled_region"},"geometry":{"type":"Polygon","coordinates":[[[9.40558053538161,41.9131713338715],[9.405585340838202,41.91314357194142],[9.405634789341574,41.91314001106454],[9.405639174973013,41.91312899486007],[9.40560755841494,41.91310973168486],[9.405608035285804,41.91309981649474],[9.40564102536737,41.91308250357069],[9.405640210144401,41.9130385236887],[9.405585907368884,41.91303719218057],[9.405588226521715,41.91300660947614],[9.405672967833162,41.91300680052121],[9.405665064861585,41.91309255523081],[9.405636517479488,41.91310568248749],[9.405655877885126,41.91311842147648],[9.405654736709552,41.91316940782426],[9.40558053538161,41.9131713338715]]]}},{"type":"Feature","id":"LFKS-7a887f3d0e48898b1a4e","properties":{"airport":"LFKS","name":"LFKS_Markings","layer":"Airfield surfaces","category":"","object_type":"Area","style_id":"polygon","source_group":"LFKS_Markings","vsmr_group_ids":[],"geometry_role":"filled_region"},"geometry":{"type":"Polygon","coordinates":[[[9.405769024315171,41.91318220735774],[9.405718931736047,41.91316227997896],[9.40572365936024,41.91300464999711],[9.40579886721782,41.91300263589201],[9.405800575123278,41.91303286675193],[9.405740704713587,41.91303505978657],[9.405737542045141,41.91311204581851],[9.40573628677949,41.91314937109857],[9.405769562280364,41.913166210798],[9.405769024315171,41.91318220735774]]]}},{"type":"Feature","id":"LFKS-d173dced60e25afb94f6","properties":{"airport":"LFKS","name":"LFKS_Markings","layer":"Airfield surfaces","category":"","object_type":"Area","style_id":"polygon","source_group":"LFKS_Markings","vsmr_group_ids":[],"geometry_role":"filled_region"},"geometry":{"type":"Polygon","coordinates":[[[9.405732695752114,41.9130813296682],[9.405773438146872,41.91308080791077],[9.405773870010696,41.91302532653012],[9.405798802081165,41.9130216291365],[9.405798003543769,41.91311359866388],[9.40572480902656,41.91311543683634],[9.405732695752114,41.9130813296682]]]}},{"type":"Feature","id":"LFKS-78180fa654b18afa7e37","properties":{"airport":"LFKS","name":"LFKS_Markings","layer":"Airfield surfaces","category":"","object_type":"Area","style_id":"polygon","source_group":"LFKS_Markings","vsmr_group_ids":[],"geometry_role":"filled_region"},"geometry":{"type":"Polygon","coordinates":[[[9.405389345484995,41.91567012531031],[9.405501934292893,41.91567075224504],[9.405489158839657,41.91607993975358],[9.405385273279624,41.91607506463897],[9.405389345484995,41.91567012531031]]]}},{"type":"Feature","id":"LFKS-191243ffa78c38a884b3","properties":{"airport":"LFKS","name":"LFKS_Markings","layer":"Airfield surfaces","category":"","object_type":"Area","style_id":"polygon","source_group":"LFKS_Markings","vsmr_group_ids":[],"geometry_role":"filled_region"},"geometry":{"type":"Polygon","coordinates":[[[9.405725071561575,41.9156739278998],[9.405833308418792,41.9156766785946],[9.405825972570343,41.91609062272011],[9.40570644805188,41.91609060203],[9.405725071561575,41.9156739278998]]]}},{"type":"Feature","id":"LFKS-7c80c0931ed50d1e3fc3","properties":{"airport":"LFKS","name":"LFKS_Markings","layer":"Airfield surfaces","category":"","object_type":"Area","style_id":"polygon","source_group":"LFKS_Markings","vsmr_group_ids":[],"geometry_role":"filled_region"},"geometry":{"type":"Polygon","coordinates":[[[9.404990674634984,41.93270834327381],[9.40511050182975,41.93271008493678],[9.405087113812186,41.93311147922448],[9.404973679864572,41.93310569139147],[9.404990674634984,41.93270834327381]]]}},{"type":"Feature","id":"LFKS-bc3afbbf9f0b32dc5dde","properties":{"airport":"LFKS","name":"LFKS_Markings","layer":"Airfield surfaces","category":"","object_type":"Area","style_id":"polygon","source_group":"LFKS_Markings","vsmr_group_ids":[],"geometry_role":"filled_region"},"geometry":{"type":"Polygon","coordinates":[[[9.405307177529876,41.93270860215873],[9.405415714717533,41.93271307343126],[9.405408514705407,41.93311305405015],[9.405290999114548,41.93311111076978],[9.405307177529876,41.93270860215873]]]}},{"type":"Feature","id":"LFKS-0a7d59c8502ee496f8c2","properties":{"airport":"LFKS","name":"LFKS_Markings","layer":"Airfield surfaces","category":"","object_type":"Area","style_id":"polygon","source_group":"LFKS_Markings","vsmr_group_ids":[],"geometry_role":"filled_region"},"geometry":{"type":"Polygon","coordinates":[[[9.405184545400205,41.93562923449775],[9.405204522818604,41.93565518424252],[9.405186526885082,41.93565478904331],[9.405179036834161,41.93579096500298],[9.405159027708386,41.93579135039005],[9.405168803415808,41.93562803614545],[9.405184545400205,41.93562923449775]]]}},{"type":"Feature","id":"LFKS-f2e30bdcf294895f272d","properties":{"airport":"LFKS","name":"LFKS_Markings","layer":"Airfield surfaces","category":"","object_type":"Area","style_id":"polygon","source_group":"LFKS_Markings","vsmr_group_ids":[],"geometry_role":"filled_region"},"geometry":{"type":"Polygon","coordinates":[[[9.405087643458055,41.93562540099151],[9.40511285732425,41.93564128244684],[9.405113012831057,41.93568530016029],[9.405091023681836,41.93569996165707],[9.405107299307083,41.93571122773079],[9.405106691926797,41.93577119497262],[9.405093590771516,41.93578991330758],[9.405071336410082,41.93579107376066],[9.405074611258575,41.93576717743779],[9.405090174302748,41.93576751922895],[9.405093929235013,41.93575847934424],[9.405094846179054,41.93571430586596],[9.405080576471118,41.93570812562993],[9.405080202855661,41.93569131621904],[9.405095268633445,41.9356806953908],[9.405096508411127,41.93565366024187],[9.405085565200249,41.93564663101977],[9.405087643458055,41.93562540099151]]]}},{"type":"Feature","id":"LFKS-2c995cb27116f7d70fd4","properties":{"airport":"LFKS","name":"LFKS_Markings","layer":"Airfield surfaces","category":"","object_type":"Area","style_id":"polygon","source_group":"LFKS_Markings","vsmr_group_ids":[],"geometry_role":"filled_region"},"geometry":{"type":"Polygon","coordinates":[[[9.405092240715229,41.93564847572839],[9.405062984766266,41.93564783321737],[9.405053736611023,41.93565356885076],[9.405052649297785,41.93567975939482],[9.405061300279495,41.9356875339332],[9.40509047658277,41.93568733254416],[9.405084974759932,41.93570989918396],[9.40507043809612,41.93570957993355],[9.405060125641448,41.93571521829636],[9.405053663778425,41.93576257298521],[9.405060159860636,41.93576686005827],[9.4050923975942,41.93576756805608],[9.4050769176168,41.93579037180736],[9.405042470968626,41.93579126420592],[9.405029818110144,41.93577447194189],[9.40503133398311,41.93570788272253],[9.405050796465456,41.93569739778693],[9.405032261795318,41.9356843693044],[9.4050319447594,41.93563525253312],[9.405039077932514,41.93562603983678],[9.405089822388371,41.93562715427941],[9.405092240715229,41.93564847572839]]]}},{"type":"Feature","id":"LFKS-914677fef82cbac8f4bf","properties":{"airport":"LFKS","name":"LFKS_MarkingsUp","layer":"Airfield surfaces","category":"","object_type":"Area","style_id":"polygon","source_group":"LFKS_MarkingsUp","vsmr_group_ids":[],"geometry_role":"filled_region"},"geometry":{"type":"Polygon","coordinates":[[[9.405453888528605,41.91259210968829],[9.405952195185463,41.91260664537534],[9.405950795789364,41.9126299192612],[9.405933318484522,41.9126293373162],[9.405923734310527,41.91292669710387],[9.405904334877565,41.91292742294294],[9.405917598578524,41.912630185675],[9.405896483003156,41.91262879668322],[9.405881502950837,41.9129239191134],[9.405864904265211,41.91292405231067],[9.40587612265061,41.91263017641368],[9.405848526911797,41.91262925753043],[9.405837308391265,41.91292313342773],[9.405824389156884,41.91292338913906],[9.405831969468641,41.91262870619686],[9.405809892874629,41.91262797108072],[9.405798756486796,41.91292047793415],[9.405783036501003,41.91292132627781],[9.405794131809834,41.91262950395021],[9.405767497081891,41.91262793114939],[9.405756360490702,41.91292043801106],[9.405681357690911,41.91291588277355],[9.40569020212168,41.912630844471],[9.405666285813425,41.91263004806564],[9.405658361134673,41.91291511700414],[9.405639881559063,41.91291587344944],[9.405654286498844,41.91263033439189],[9.405623931181244,41.91262932355743],[9.405613287878605,41.91291361608651],[9.40559581048955,41.91291303409457],[9.405611973026698,41.91262892534736],[9.40558245523151,41.91262931417987],[9.405574612477743,41.9129130141138],[9.405556215235674,41.91291240148667],[9.405565856619125,41.91262944732888],[9.405539098401864,41.91262992805168],[9.405532504607951,41.91290818242889],[9.405516866947984,41.91290766169163],[9.405524380666911,41.91262943793394],[9.405493064307088,41.91262908095052],[9.405486634956794,41.91290459726854],[9.405470997275705,41.91290407652605],[9.405482067156697,41.91262802883238],[9.405454471390684,41.91262710984329],[9.405450801438622,41.91290271809658],[9.40544160280141,41.91290241177554],[9.405451148141747,41.91260573637209],[9.405453888528605,41.91259210968829]]]}},{"type":"Feature","id":"LFKS-e9910c069a2fd2e7b394","properties":{"airport":"LFKS","name":"LFKS_MarkingsUp","layer":"Airfield surfaces","category":"","object_type":"Area","style_id":"polygon","source_group":"LFKS_MarkingsUp","vsmr_group_ids":[],"geometry_role":"filled_region"},"geometry":{"type":"Polygon","coordinates":[[[9.405373930156403,41.93619864995733],[9.404861416591414,41.93618792716087],[9.40487169651069,41.93587157936634],[9.404884442662185,41.93587226087571],[9.404871065866354,41.93616541043375],[9.404889122985713,41.93616637589201],[9.40490159020393,41.93587158925844],[9.40492511082676,41.93587125838997],[9.404908394968803,41.93616581784001],[9.404937073906527,41.93616735120507],[9.404946507077092,41.93587081393148],[9.4049603153955,41.93587155222124],[9.40495088228215,41.93616808948968],[9.404977513199581,41.93616871911866],[9.40498178799556,41.93587031759263],[9.405000983547326,41.93587054968549],[9.404993522282062,41.9361687808351],[9.405015828120398,41.93616997343874],[9.405019873728605,41.93587394237579],[9.405040131461737,41.93587423123532],[9.405032823044305,41.93617088208664],[9.405059453955381,41.93617151169921],[9.405061375027364,41.93587536704258],[9.405082771277796,41.93587492255197],[9.405077663747116,41.93617089683286],[9.405102093954813,41.93617220300256],[9.405104847998306,41.93587848559415],[9.405134665340402,41.93587928553951],[9.405135174310788,41.93617238319411],[9.405161805223583,41.93617301278648],[9.405161296146701,41.93587991512363],[9.40517836734278,41.93588003360037],[9.405176752129176,41.93617301769204],[9.405200272841274,41.9361726867556],[9.405205907658887,41.93588230025383],[9.405220778165813,41.93588309529243],[9.405217267771738,41.93617359538038],[9.40524511356261,41.93617270144634],[9.405245131938312,41.93588519156825],[9.4052666045496,41.93588395688791],[9.405259150986113,41.93617106926332],[9.405287829943203,41.93617260255402],[9.405295054387805,41.93588786059649],[9.40530461399729,41.93588837168335],[9.405300805176172,41.93617091356961],[9.40531992449362,41.93617193575862],[9.405331015822236,41.93589137167513],[9.4053426998003,41.93589199633265],[9.405338210634962,41.93617053071833],[9.405368104488474,41.93617054048097],[9.405372440857418,41.93589358636426],[9.405384277521247,41.9358926307068],[9.405376824427805,41.93617974319449],[9.405373930156403,41.93619864995733]]]}},{"type":"Feature","id":"LFKS-6523915a461fb1511d43","properties":{"airport":"LFKS","name":"LFKS_Apron","layer":"Guidance lines","category":"","object_type":"Line","style_id":"line","source_group":"LFKS_Apron","vsmr_group_ids":[],"geometry_role":"linework"},"geometry":{"type":"LineString","coordinates":[[9.399898520713737,41.91730184984169],[9.400273531262112,41.91730688087998],[9.40024172885996,41.91970079636906],[9.399866647713257,41.91967951362716],[9.399845722341682,41.91965305023523],[9.399836575234291,41.91963156493926],[9.399898520713737,41.91730184984169]]}},{"type":"Feature","id":"LFKS-3ce57778c12f8a75cf16","properties":{"airport":"LFKS","name":"LFKS_Apron","layer":"Guidance lines","category":"","object_type":"Line","style_id":"line","source_group":"LFKS_Apron","vsmr_group_ids":[],"geometry_role":"linework"},"geometry":{"type":"LineString","coordinates":[[9.400238021273681,41.91982130666069],[9.399888462583608,41.91979508654111],[9.39985759605965,41.91979801755588],[9.399830310582754,41.91982182785638],[9.39982272622425,41.91986074284315],[9.399763012992553,41.92205618416349],[9.40016185044266,41.92207514196617],[9.400238021273681,41.91982130666069]]}},{"type":"Feature","id":"LFKS-39fcf7dc978f5aa0670f","properties":{"airport":"LFKS","name":"LFKS_Apron","layer":"Guidance lines","category":"","object_type":"Line","style_id":"line","source_group":"LFKS_Apron","vsmr_group_ids":[],"geometry_role":"linework"},"geometry":{"type":"LineString","coordinates":[[9.400361705130738,41.91690719126306],[9.400530661057347,41.91680200471093],[9.400607487308967,41.91687515324905],[9.400642414623167,41.91689140380876],[9.400690616154675,41.91689987121666],[9.40069501091553,41.91712991633313],[9.400692498610606,41.91723451520043],[9.400667232230377,41.917308662404],[9.400610586677768,41.9173531770593],[9.40053950552992,41.91738166922853],[9.400425238620066,41.91739686920715],[9.40045614831687,41.91698084099512],[9.400361705130738,41.91690719126306]]}},{"type":"Feature","id":"LFKS-83da1d5f989a4201d26e","properties":{"airport":"LFKS","name":"LFKS_Apron","layer":"Guidance lines","category":"","object_type":"Line","style_id":"line","source_group":"LFKS_Apron","vsmr_group_ids":[],"geometry_role":"linework"},"geometry":{"type":"LineString","coordinates":[[9.399639406017037,41.91698882843456],[9.399778939827963,41.91689948209015],[9.399892833820221,41.91698433027941],[9.399931002937986,41.9170024473985],[9.399784311844195,41.91710117025063],[9.399639406017037,41.91698882843456]]}},{"type":"Feature","id":"LFKS-08df43cbfd5e94a5b8ff","properties":{"airport":"LFKS","name":"LFKS_Apron","layer":"Guidance lines","category":"","object_type":"Line","style_id":"line","source_group":"LFKS_Apron","vsmr_group_ids":[],"geometry_role":"linework"},"geometry":{"type":"LineString","coordinates":[[9.40151967599907,41.91232952472254],[9.401711759866222,41.91247884419504],[9.401674064949495,41.91252041239715],[9.401661214206944,41.91256993513791],[9.401634134178845,41.91282576997037],[9.401370494088745,41.91281936012426],[9.401264034070424,41.91276231137027],[9.40135701231307,41.91267849620922],[9.401362976072855,41.91263518204958],[9.401324878596782,41.91258985499832],[9.401253593961428,41.9125314479524],[9.40151967599907,41.91232952472254]]}},{"type":"Feature","id":"LFKS-1f3114aa517c468d1540","properties":{"airport":"LFKS","name":"LFKS_Apron","layer":"Guidance lines","category":"","object_type":"Line","style_id":"line","source_group":"LFKS_Apron","vsmr_group_ids":[],"geometry_role":"linework"},"geometry":{"type":"LineString","coordinates":[[9.399827243033519,41.92331808537827],[9.400129875914834,41.92332565210896],[9.40008903799071,41.92592721541843],[9.40002198572667,41.92593385411617],[9.399895897894115,41.92596059533069],[9.39979592310133,41.92599483576972],[9.39976419146811,41.92603170881334],[9.399827243033519,41.92331808537827]]}},{"type":"Feature","id":"LFKS-aa02a41f2842f0f39e3a","properties":{"airport":"LFKS","name":"LFKS_Apron","layer":"Guidance lines","category":"","object_type":"Line","style_id":"line","source_group":"LFKS_Apron","vsmr_group_ids":[],"geometry_role":"linework"},"geometry":{"type":"LineString","coordinates":[[9.400213166198084,41.9265159617573],[9.40027882627388,41.92655961966803],[9.400419675445946,41.92661616762562],[9.40062356933322,41.92668646888901],[9.400656555213907,41.92673336149743],[9.40062100577997,41.92872729857545],[9.4004917413382,41.92872281219326],[9.40033411602234,41.92866927991273],[9.400192673382438,41.92858906586737],[9.400138551119408,41.9284825831998],[9.400213166198084,41.9265159617573]]}},{"type":"Feature","id":"LFKS-01638e726f8555348afb","properties":{"airport":"LFKS","name":"LFKS_Apron","layer":"Guidance lines","category":"","object_type":"Line","style_id":"line","source_group":"LFKS_Apron","vsmr_group_ids":[],"geometry_role":"linework"},"geometry":{"type":"LineString","coordinates":[[9.399514403596642,41.92921017246079],[9.399559909018414,41.929249435461],[9.399630397134057,41.92927010024808],[9.400204078796573,41.92931696609849],[9.400260234227018,41.92930943196109],[9.400232939688069,41.92981957720127],[9.400151531614288,41.92987140452611],[9.39997127092741,41.92989484493383],[9.399760947873697,41.92987880979619],[9.399585432571504,41.92983728001335],[9.399514372555373,41.92979363632181],[9.399514403596642,41.92921017246079]]}},{"type":"Feature","id":"LFKS-6853dd370d129b444621","properties":{"airport":"LFKS","name":"1","layer":"Labels","category":"Gates","object_type":"Label","style_id":"label.gates","source_group":"LFKS Gates","vsmr_group_ids":[],"geometry_role":"text_label","text-field":"1"},"geometry":{"type":"Point","coordinates":[9.401194444,41.921416667]}},{"type":"Feature","id":"LFKS-914c0c8b8b150c0eb7c7","properties":{"airport":"LFKS","name":"2","layer":"Labels","category":"Gates","object_type":"Label","style_id":"label.gates","source_group":"LFKS Gates","vsmr_group_ids":[],"geometry_role":"text_label","text-field":"2"},"geometry":{"type":"Point","coordinates":[9.401166667,41.921833333]}},{"type":"Feature","id":"LFKS-0828d33cb09a3c4fe80c","properties":{"airport":"LFKS","name":"3","layer":"Labels","category":"Gates","object_type":"Label","style_id":"label.gates","source_group":"LFKS Gates","vsmr_group_ids":[],"geometry_role":"text_label","text-field":"3"},"geometry":{"type":"Point","coordinates":[9.401166667,41.922277778]}},{"type":"Feature","id":"LFKS-c41bca49ad0269bfec7a","properties":{"airport":"LFKS","name":"4","layer":"Labels","category":"Gates","object_type":"Label","style_id":"label.gates","source_group":"LFKS Gates","vsmr_group_ids":[],"geometry_role":"text_label","text-field":"4"},"geometry":{"type":"Point","coordinates":[9.401194444,41.922833333]}},{"type":"Feature","id":"LFKS-4765ab26e1e318013c4b","properties":{"airport":"LFKS","name":"5","layer":"Labels","category":"Gates","object_type":"Label","style_id":"label.gates","source_group":"LFKS Gates","vsmr_group_ids":[],"geometry_role":"text_label","text-field":"5"},"geometry":{"type":"Point","coordinates":[9.401194444,41.923361111]}},{"type":"Feature","id":"LFKS-ed17fe26211a6ce1f1ae","properties":{"airport":"LFKS","name":"6","layer":"Labels","category":"Gates","object_type":"Label","style_id":"label.gates","source_group":"LFKS Gates","vsmr_group_ids":[],"geometry_role":"text_label","text-field":"6"},"geometry":{"type":"Point","coordinates":[9.401166667,41.923916667]}},{"type":"Feature","id":"LFKS-745404dd0dd7c54c6654","properties":{"airport":"LFKS","name":"7","layer":"Labels","category":"Gates","object_type":"Label","style_id":"label.gates","source_group":"LFKS Gates","vsmr_group_ids":[],"geometry_role":"text_label","text-field":"7"},"geometry":{"type":"Point","coordinates":[9.401166667,41.924416667]}},{"type":"Feature","id":"LFKS-7c30df661c51202663d0","properties":{"airport":"LFKS","name":"8","layer":"Labels","category":"Gates","object_type":"Label","style_id":"label.gates","source_group":"LFKS Gates","vsmr_group_ids":[],"geometry_role":"text_label","text-field":"8"},"geometry":{"type":"Point","coordinates":[9.401166667,41.924916667]}},{"type":"Feature","id":"LFKS-8c2fd4bc0746c95595e2","properties":{"airport":"LFKS","name":"9","layer":"Labels","category":"Gates","object_type":"Label","style_id":"label.gates","source_group":"LFKS Gates","vsmr_group_ids":[],"geometry_role":"text_label","text-field":"9"},"geometry":{"type":"Point","coordinates":[9.401166667,41.925416667]}},{"type":"Feature","id":"LFKS-c0ee8bcfc757898e1498","properties":{"airport":"LFKS","name":"10","layer":"Labels","category":"Gates","object_type":"Label","style_id":"label.gates","source_group":"LFKS Gates","vsmr_group_ids":[],"geometry_role":"text_label","text-field":"10"},"geometry":{"type":"Point","coordinates":[9.401194444,41.926055556]}},{"type":"Feature","id":"LFKS-4dd09ea36f6cb10b95e2","properties":{"airport":"LFKS","name":"11","layer":"Labels","category":"Gates","object_type":"Label","style_id":"label.gates","source_group":"LFKS Gates","vsmr_group_ids":[],"geometry_role":"text_label","text-field":"11"},"geometry":{"type":"Point","coordinates":[9.401166667,41.926555556]}},{"type":"Feature","id":"LFKS-3ca6af7dc416133311a0","properties":{"airport":"LFKS","name":"12","layer":"Labels","category":"Gates","object_type":"Label","style_id":"label.gates","source_group":"LFKS Gates","vsmr_group_ids":[],"geometry_role":"text_label","text-field":"12"},"geometry":{"type":"Point","coordinates":[9.401166667,41.927083333]}},{"type":"Feature","id":"LFKS-c750248883235e8781d0","properties":{"airport":"LFKS","name":"13","layer":"Labels","category":"Gates","object_type":"Label","style_id":"label.gates","source_group":"LFKS Gates","vsmr_group_ids":[],"geometry_role":"text_label","text-field":"13"},"geometry":{"type":"Point","coordinates":[9.401166667,41.927583333]}}]}
