{"type":"FeatureCollection","name":"LFLA AVISO","bbox":[3.494027778,47.843805556,3.500666667,47.857888889],"metadata":{"schema":"vSMR AVISO","schema_version":2,"geometry_mode":"shared","airport":"LFLA","coordinate_reference_system":"WGS84","coordinate_order":"longitude, latitude","default_color_palette":"dark","color_palettes":["dark","light"],"background_colors":{"dark":"#434A4F","light":"#434A4F"},"runways":[{"ends":["18","36"],"headings":[184,4],"thresholds":[[3.498205833,47.857743889],[3.496249722,47.844032778]]}],"saved_active_runways":[],"saved_active_airport_modes":[],"airport_reference":[3.496666944,47.846388889],"feature_count":1,"style_count":1,"layer_counts":{"Guidance lines":1},"category_counts":{"Runways":1},"geometry_source":"local GNG","geometry_source_url":"","geometry_license":"GPL-3.0"},"styles":{"line.runwayconcrete.555555":{"name":"Runways","layer":"Guidance lines","object_type":"Line","paint":{"stroke":"#111318","stroke-opacity":1,"stroke-width":1,"palette-overrides":{"light":{"stroke":"#555555"}}},"feature_count":1}},"vsmr_groups":[],"features":[{"type":"Feature","id":"LFLA-c054ee647e923ae4d2d0","properties":{"airport":"LFLA","name":"LFLA Groundlayout","layer":"Guidance lines","category":"Runways","object_type":"Line","style_id":"line.runwayconcrete.555555","source_group":"LFLA Groundlayout","vsmr_group_ids":[],"geometry_role":"linework"},"geometry":{"type":"MultiLineString","coordinates":[[[3.498555556,47.843805556],[3.500666667,47.8575]],[[3.494027778,47.844194444],[3.498555556,47.843805556]],[[3.496138889,47.857888889],[3.500666667,47.8575],[3.498555556,47.843805556]],[[3.496138889,47.857888889],[3.494027778,47.844194444]],[[3.500666667,47.8575],[3.496138889,47.857888889]],[[3.498555556,47.843805556],[3.494027778,47.844194444]]]}}]}
