{"type":"FeatureCollection","name":"LFLD AVISO","bbox":[2.358777778,47.055138889,2.377611111,47.064638889],"metadata":{"schema":"vSMR AVISO","schema_version":2,"geometry_mode":"shared","airport":"LFLD","coordinate_reference_system":"WGS84","coordinate_order":"longitude, latitude","default_color_palette":"dark","color_palettes":["dark","light"],"background_colors":{"dark":"#434A4F","light":"#434A4F"},"runways":[{"ends":["06R","24L"],"headings":[58,238],"thresholds":[[2.365457778,47.058080833],[2.375618889,47.062280833]]},{"ends":["06","24"],"headings":[58,238],"thresholds":[[2.359880833,47.056566944],[2.375871944,47.063177778]]}],"saved_active_runways":[],"saved_active_airport_modes":[],"airport_reference":[2.37,47.060832778],"feature_count":2,"style_count":2,"layer_counts":{"Guidance lines":2},"category_counts":{"Grass runways":1,"Runways":1},"geometry_source":"local GNG/KMZ","geometry_source_url":"","geometry_license":"GPL-3.0"},"styles":{"line.runwayconcrete.555555":{"name":"Runways","layer":"Guidance lines","object_type":"Line","paint":{"stroke":"#111318","stroke-opacity":1,"stroke-width":1,"palette-overrides":{"light":{"stroke":"#555555"}}},"feature_count":1},"line.runwaygrass.008000":{"name":"Grass runways","layer":"Guidance lines","object_type":"Line","paint":{"stroke":"#859A77","stroke-opacity":1,"stroke-width":1,"palette-overrides":{"light":{"stroke":"#008000"}}},"feature_count":1}},"vsmr_groups":[],"features":[{"type":"Feature","id":"LFLD-ea795bd97424b0095051","properties":{"airport":"LFLD","name":"LFLD Groundlayout","layer":"Guidance lines","category":"Runways","object_type":"Line","style_id":"line.runwayconcrete.555555","source_group":"LFLD Groundlayout","vsmr_group_ids":[],"geometry_role":"linework"},"geometry":{"type":"MultiLineString","coordinates":[[[2.361027778,47.055138889],[2.377027778,47.06175]],[[2.358777778,47.058055556],[2.361027778,47.055138889]],[[2.374777778,47.064638889],[2.377027778,47.06175]]]}},{"type":"Feature","id":"LFLD-0e3d99c319e1925b327b","properties":{"airport":"LFLD","name":"LFLD Groundlayout","layer":"Guidance lines","category":"Grass runways","object_type":"Line","style_id":"line.runwaygrass.008000","source_group":"LFLD Groundlayout","vsmr_group_ids":[],"geometry_role":"linework"},"geometry":{"type":"MultiLineString","coordinates":[[[2.365083333,47.059861111],[2.375388889,47.064138889]],[[2.367333333,47.056944444],[2.377611111,47.06125]],[[2.365083333,47.059861111],[2.367333333,47.056944444]],[[2.375388889,47.064138889],[2.377611111,47.06125]]]}}]}
