{"type":"FeatureCollection","name":"LFLH AVISO","bbox":[4.814361111,46.821222222,4.824444444,46.833305556],"metadata":{"schema":"vSMR AVISO","schema_version":2,"geometry_mode":"shared","airport":"LFLH","coordinate_reference_system":"WGS84","coordinate_order":"longitude, latitude","default_color_palette":"dark","color_palettes":["dark","light"],"background_colors":{"dark":"#434A4F","light":"#434A4F"},"runways":[{"ends":["17L","35R"],"headings":[168,348],"thresholds":[[4.820666944,46.832555833],[4.822555833,46.825027778]]},{"ends":["17","35"],"headings":[169,349],"thresholds":[[4.816157778,46.832013889],[4.818768889,46.821196944]]}],"saved_active_runways":[],"saved_active_airport_modes":[],"airport_reference":[4.816943889,46.828332778],"feature_count":2,"style_count":2,"layer_counts":{"Guidance lines":2},"category_counts":{"Grass runways":1,"Runways":1},"geometry_source":"local GNG/KMZ","geometry_source_url":"","geometry_license":"GPL-3.0"},"styles":{"line.runwayconcrete.555555":{"name":"Runways","layer":"Guidance lines","object_type":"Line","paint":{"stroke":"#111318","stroke-opacity":1,"stroke-width":1,"palette-overrides":{"light":{"stroke":"#555555"}}},"feature_count":1},"line.runwaygrass.008000":{"name":"Grass runways","layer":"Guidance lines","object_type":"Line","paint":{"stroke":"#859A77","stroke-opacity":1,"stroke-width":1,"palette-overrides":{"light":{"stroke":"#008000"}}},"feature_count":1}},"vsmr_groups":[],"features":[{"type":"Feature","id":"LFLH-9e2fc2e3f6a628360842","properties":{"airport":"LFLH","name":"LFLH Groundlayout","layer":"Guidance lines","category":"Runways","object_type":"Line","style_id":"line.runwayconcrete.555555","source_group":"LFLH Groundlayout","vsmr_group_ids":[],"geometry_role":"linework"},"geometry":{"type":"MultiLineString","coordinates":[[[4.818055556,46.832694444],[4.819972222,46.825194444]],[[4.822527778,46.833305556],[4.818055556,46.832694444]],[[4.824444444,46.825805556],[4.819972222,46.825194444]]]}},{"type":"Feature","id":"LFLH-323eb905d91f83129f32","properties":{"airport":"LFLH","name":"LFLH Groundlayout","layer":"Guidance lines","category":"Grass runways","object_type":"Line","style_id":"line.runwaygrass.008000","source_group":"LFLH Groundlayout","vsmr_group_ids":[],"geometry_role":"linework"},"geometry":{"type":"MultiLineString","coordinates":[[[4.818833333,46.830694444],[4.820944444,46.821777778]],[[4.814361111,46.830111111],[4.816472222,46.821222222]],[[4.818833333,46.830694444],[4.814361111,46.830111111]],[[4.820944444,46.821777778],[4.816472222,46.821222222]]]}}]}
