{"type":"FeatureCollection","name":"LFLJ AVISO","bbox":[6.623305556,45.395777778,6.629916667,45.400055556],"metadata":{"schema":"vSMR AVISO","schema_version":2,"geometry_mode":"shared","airport":"LFLJ","coordinate_reference_system":"WGS84","coordinate_order":"longitude, latitude","default_color_palette":"dark","color_palettes":["dark","light"],"background_colors":{"dark":"#434A4F","light":"#434A4F"},"runways":[{"ends":["04","22"],"headings":[42,222],"thresholds":[[6.632602778,45.395807778],[6.637324722,45.399230833]]}],"saved_active_runways":[],"saved_active_airport_modes":[],"airport_reference":[6.6325,45.395832778],"feature_count":8,"style_count":4,"layer_counts":{"Guidance lines":3,"Labels":5},"category_counts":{"Apron Surface":1,"Gates":5,"Runways":1,"Taxiways":1},"geometry_source":"local GNG","geometry_source_url":"","geometry_license":"GPL-3.0"},"styles":{"line.taxiway.c0b631":{"name":"Taxiways","layer":"Guidance lines","object_type":"Line","paint":{"stroke":"#4E5A69","stroke-opacity":1,"stroke-width":1,"palette-overrides":{"light":{"stroke":"#C0B631"}}},"feature_count":1},"line.runwayconcrete.555555":{"name":"Runways","layer":"Guidance lines","object_type":"Line","paint":{"stroke":"#111318","stroke-opacity":1,"stroke-width":1,"palette-overrides":{"light":{"stroke":"#555555"}}},"feature_count":1},"line.apronsurface.808080":{"name":"Apron Surface","layer":"Guidance lines","object_type":"Line","paint":{"stroke":"#808080","stroke-opacity":1,"stroke-width":1,"palette-overrides":{"light":{"stroke":"#808080"}}},"feature_count":1},"label.gates":{"name":"Gates","layer":"Labels","object_type":"Label","paint":{"text-color":"#CCCCCC","text-font":"Arial","text-size":12,"text-halo-color":"#000000","text-halo-width":1,"text-anchor":"center","zoomLevel":9},"feature_count":5}},"vsmr_groups":[],"features":[{"type":"Feature","id":"LFLJ-4c221da8c5a9e0b3fa47","properties":{"airport":"LFLJ","name":"2","layer":"Labels","category":"Gates","object_type":"Label","style_id":"label.gates","source_group":"LFLJ Gates","vsmr_group_ids":[],"geometry_role":"text_label","text-field":"2"},"geometry":{"type":"Point","coordinates":[6.626305556,45.396527778]}},{"type":"Feature","id":"LFLJ-c268a6699e2d87c07375","properties":{"airport":"LFLJ","name":"1","layer":"Labels","category":"Gates","object_type":"Label","style_id":"label.gates","source_group":"LFLJ Gates","vsmr_group_ids":[],"geometry_role":"text_label","text-field":"1"},"geometry":{"type":"Point","coordinates":[6.624527778,45.398027778]}},{"type":"Feature","id":"LFLJ-031256507ce79a40e199","properties":{"airport":"LFLJ","name":"2","layer":"Labels","category":"Gates","object_type":"Label","style_id":"label.gates","source_group":"LFLJ Gates","vsmr_group_ids":[],"geometry_role":"text_label","text-field":"2"},"geometry":{"type":"Point","coordinates":[6.623888889,45.397638889]}},{"type":"Feature","id":"LFLJ-8410d8191610e5d16f37","properties":{"airport":"LFLJ","name":"3","layer":"Labels","category":"Gates","object_type":"Label","style_id":"label.gates","source_group":"LFLJ Gates","vsmr_group_ids":[],"geometry_role":"text_label","text-field":"3"},"geometry":{"type":"Point","coordinates":[6.624194444,45.397861111]}},{"type":"Feature","id":"LFLJ-e6868dc85d1f389a43bd","properties":{"airport":"LFLJ","name":"1","layer":"Labels","category":"Gates","object_type":"Label","style_id":"label.gates","source_group":"LFLJ Gates","vsmr_group_ids":[],"geometry_role":"text_label","text-field":"1"},"geometry":{"type":"Point","coordinates":[6.625638889,45.396222222]}},{"type":"Feature","id":"LFLJ-2059bbf544f5e34a126e","properties":{"airport":"LFLJ","name":"LFLJ Groundlayout","layer":"Guidance lines","category":"Taxiways","object_type":"Line","style_id":"line.taxiway.c0b631","source_group":"LFLJ Groundlayout","vsmr_group_ids":[],"geometry_role":"linework"},"geometry":{"type":"MultiLineString","coordinates":[[[6.626,45.396833333],[6.625305556,45.396583333]],[[6.626083333,45.396694444],[6.626,45.396833333]],[[6.624916667,45.39775],[6.624583333,45.397555556]],[[6.624805556,45.397833333],[6.624472222,45.397638889]],[[6.624916667,45.39775],[6.624805556,45.397833333]],[[6.624583333,45.397555556],[6.624305556,45.397388889]],[[6.624472222,45.397638889],[6.624111111,45.397388889]],[[6.624305556,45.397388889],[6.624583333,45.397138889]],[[6.624111111,45.397388889],[6.624472222,45.397083333]],[[6.624583333,45.397138889],[6.624694444,45.397055556]],[[6.624472222,45.397083333],[6.624583333,45.397]],[[6.62525,45.396416667],[6.625,45.396611111]],[[6.625305556,45.396583333],[6.625166667,45.396694444]],[[6.625,45.396611111],[6.624888889,45.396694444]],[[6.625166667,45.396694444],[6.625027778,45.396805556]]]}},{"type":"Feature","id":"LFLJ-7c9db3f12e3a13df15e0","properties":{"airport":"LFLJ","name":"LFLJ Groundlayout","layer":"Guidance lines","category":"Runways","object_type":"Line","style_id":"line.runwayconcrete.555555","source_group":"LFLJ Groundlayout","vsmr_group_ids":[],"geometry_role":"linework"},"geometry":{"type":"MultiLineString","coordinates":[[[6.629916667,45.399777778],[6.625027778,45.396805556]],[[6.629583333,45.400055556],[6.624694444,45.397055556]],[[6.629916667,45.399777778],[6.629583333,45.400055556]],[[6.624888889,45.396694444],[6.62475,45.396611111]],[[6.624583333,45.397],[6.624416667,45.396888889]],[[6.62475,45.396611111],[6.624416667,45.396888889]]]}},{"type":"Feature","id":"LFLJ-285a828d23e4ebf427ce","properties":{"airport":"LFLJ","name":"LFLJ Groundlayout","layer":"Guidance lines","category":"Apron Surface","object_type":"Line","style_id":"line.apronsurface.808080","source_group":"LFLJ Groundlayout","vsmr_group_ids":[],"geometry_role":"linework"},"geometry":{"type":"MultiLineString","coordinates":[[[6.625777778,45.395777778],[6.623305556,45.397833333],[6.624361111,45.398472222],[6.626888889,45.396388889]],[[6.625777778,45.395777778],[6.626888889,45.396388889]]]}}]}
