{"type":"FeatureCollection","name":"LFLN AVISO","bbox":[4.006861111,46.40525,4.025833333,46.422583333],"metadata":{"schema":"vSMR AVISO","schema_version":2,"geometry_mode":"shared","airport":"LFLN","coordinate_reference_system":"WGS84","coordinate_order":"longitude, latitude","default_color_palette":"dark","color_palettes":["dark","light"],"background_colors":{"dark":"#434A4F","light":"#434A4F"},"runways":[{"ends":["15R","33L"],"headings":[147,327],"thresholds":[[4.008707778,46.414863889],[4.016971944,46.405705833]]},{"ends":["15L","33R"],"headings":[147,327],"thresholds":[[4.007118889,46.422030833],[4.021096944,46.406493889]]},{"ends":["15","33"],"headings":[147,327],"thresholds":[[4.017905833,46.415846944],[4.022941944,46.410266944]]}],"saved_active_runways":[],"saved_active_airport_modes":[],"airport_reference":[4.021110833,46.406666944],"feature_count":28,"style_count":5,"layer_counts":{"Guidance lines":3,"Labels":25},"category_counts":{"Apron Surface":1,"Gates":3,"Runways":1,"Taxiways":23},"geometry_source":"local GNG/KMZ","geometry_source_url":"","geometry_license":"GPL-3.0"},"styles":{"line.taxiway.c0b631":{"name":"Taxiways","layer":"Guidance lines","object_type":"Line","paint":{"stroke":"#4E5A69","stroke-opacity":1,"stroke-width":1,"palette-overrides":{"light":{"stroke":"#C0B631"}}},"feature_count":1},"line.runwayconcrete.555555":{"name":"Runways","layer":"Guidance lines","object_type":"Line","paint":{"stroke":"#111318","stroke-opacity":1,"stroke-width":1,"palette-overrides":{"light":{"stroke":"#555555"}}},"feature_count":1},"line.apronsurface.808080":{"name":"Apron Surface","layer":"Guidance lines","object_type":"Line","paint":{"stroke":"#808080","stroke-opacity":1,"stroke-width":1,"palette-overrides":{"light":{"stroke":"#808080"}}},"feature_count":1},"label.gates":{"name":"Gates","layer":"Labels","object_type":"Label","paint":{"text-color":"#CCCCCC","text-font":"Arial","text-size":12,"text-halo-color":"#000000","text-halo-width":1,"text-anchor":"center","zoomLevel":9},"feature_count":3},"label.taxiways":{"name":"Taxiways","layer":"Labels","object_type":"Label","paint":{"text-color":"#CCCCCC","text-font":"Arial","text-size":12,"text-halo-color":"#000000","text-halo-width":1,"text-anchor":"center","zoomLevel":7},"feature_count":22}},"vsmr_groups":[],"features":[{"type":"Feature","id":"LFLN-48947d81d66d047e4ee0","properties":{"airport":"LFLN","name":"1","layer":"Labels","category":"Gates","object_type":"Label","style_id":"label.gates","source_group":"LFLN Gates","vsmr_group_ids":[],"geometry_role":"text_label","text-field":"1"},"geometry":{"type":"Point","coordinates":[4.023583333,46.407611111]}},{"type":"Feature","id":"LFLN-3ca71a3d5e6863cb2408","properties":{"airport":"LFLN","name":"2","layer":"Labels","category":"Gates","object_type":"Label","style_id":"label.gates","source_group":"LFLN Gates","vsmr_group_ids":[],"geometry_role":"text_label","text-field":"2"},"geometry":{"type":"Point","coordinates":[4.023222222,46.407472222]}},{"type":"Feature","id":"LFLN-a08556d0e841770232c5","properties":{"airport":"LFLN","name":"3","layer":"Labels","category":"Gates","object_type":"Label","style_id":"label.gates","source_group":"LFLN Gates","vsmr_group_ids":[],"geometry_role":"text_label","text-field":"3"},"geometry":{"type":"Point","coordinates":[4.022944444,46.407361111]}},{"type":"Feature","id":"LFLN-7e9951c0eaea62966cb3","properties":{"airport":"LFLN","name":"LFLN Groundlayout","layer":"Guidance lines","category":"Taxiways","object_type":"Line","style_id":"line.taxiway.c0b631","source_group":"LFLN Groundlayout","vsmr_group_ids":[],"geometry_role":"linework"},"geometry":{"type":"MultiLineString","coordinates":[[[4.022166667,46.407555556],[4.017694444,46.412555556]],[[4.01725,46.4125],[4.015111111,46.414888889]],[[4.017694444,46.412555556],[4.015388889,46.415111111]],[[4.014888889,46.415138889],[4.008555556,46.422222222]],[[4.015388889,46.415111111],[4.008666667,46.422583333]],[[4.022166667,46.407555556],[4.022638889,46.407722222]],[[4.022361111,46.407305556],[4.022833333,46.4075]],[[4.022638889,46.407722222],[4.022916667,46.407833333]],[[4.022833333,46.4075],[4.023111111,46.407583333]],[[4.022916667,46.407833333],[4.023305556,46.407972222]],[[4.023111111,46.407583333],[4.023472222,46.407722222]],[[4.023305556,46.407972222],[4.023722222,46.408111111]],[[4.023472222,46.407722222],[4.02375,46.407833333]],[[4.023722222,46.408111111],[4.025083333,46.408722222]],[[4.024083333,46.407972222],[4.025138889,46.408416667]],[[4.017611111,46.405722222],[4.017972222,46.405861111]],[[4.017833333,46.4055],[4.018166667,46.405611111]],[[4.017972222,46.405861111],[4.020111111,46.406722222]],[[4.018166667,46.405611111],[4.020305556,46.406472222]],[[4.020111111,46.406722222],[4.020444444,46.406861111]],[[4.020305556,46.406472222],[4.020666667,46.406611111]],[[4.020944444,46.407055556],[4.021305556,46.407194444]],[[4.021166667,46.406833333],[4.0215,46.406972222]],[[4.021305556,46.407194444],[4.021805556,46.407416667]],[[4.0215,46.406972222],[4.022,46.407194444]],[[4.008555556,46.422222222],[4.008,46.421944444]],[[4.008666667,46.422583333],[4.007777778,46.422166667]],[[4.008,46.421944444],[4.007638889,46.421805556]],[[4.007777778,46.422166667],[4.007444444,46.422027778]],[[4.012111111,46.410166667],[4.012388889,46.410305556]],[[4.012333333,46.409944444],[4.012611111,46.410055556]],[[4.012111111,46.410166667],[4.012333333,46.409944444]],[[4.012388889,46.410305556],[4.012722222,46.410444444]],[[4.012611111,46.410055556],[4.012944444,46.410222222]],[[4.013055556,46.410583333],[4.013361111,46.41075]],[[4.01325,46.410361111],[4.013583333,46.410527778]],[[4.013361111,46.41075],[4.015555556,46.41175]],[[4.013583333,46.410527778],[4.015777778,46.411527778]],[[4.015555556,46.41175],[4.015888889,46.411888889]],[[4.015777778,46.411527778],[4.016111111,46.411666667]],[[4.016388889,46.412111111],[4.016722222,46.412277778]],[[4.016583333,46.411888889],[4.016944444,46.412055556]],[[4.016722222,46.412277778],[4.01725,46.4125]],[[4.016916667,46.412055556],[4.017444444,46.412277778]],[[4.009222222,46.414666667],[4.009722222,46.414694444]],[[4.009444444,46.414416667],[4.009777778,46.414444444]],[[4.009722222,46.414694444],[4.01275,46.414972222]],[[4.009777778,46.414444444],[4.012805556,46.414694444]],[[4.01275,46.414972222],[4.013111111,46.415]],[[4.012805556,46.414694444],[4.013333333,46.41475]],[[4.01375,46.415055556],[4.01425,46.415083333]],[[4.013972222,46.414805556],[4.014305556,46.414833333]],[[4.01425,46.415083333],[4.014888889,46.415138889]],[[4.014305556,46.414833333],[4.015111111,46.414888889]],[[4.022361111,46.407305556],[4.022472222,46.407166667]],[[4.022,46.407194444],[4.022222222,46.406944444]],[[4.022472222,46.407166667],[4.023444444,46.406916667]],[[4.022222222,46.406944444],[4.0235,46.406611111]],[[4.023444444,46.406916667],[4.024222222,46.40725]],[[4.0235,46.406611111],[4.024583333,46.407083333]],[[4.024555556,46.407388889],[4.02525,46.407694444]],[[4.024583333,46.407083333],[4.025277778,46.407388889]],[[4.025444444,46.406361111],[4.025277778,46.407388889]],[[4.025833333,46.406388889],[4.025638889,46.407638889]],[[4.025444444,46.406361111],[4.025833333,46.406388889]],[[4.02525,46.407694444],[4.025194444,46.407916667]],[[4.025638889,46.407638889],[4.025555556,46.408166667]],[[4.025166667,46.408222222],[4.025138889,46.408416667]],[[4.025555556,46.408166667],[4.0255,46.408666667]],[[4.025083333,46.408722222],[4.024805556,46.410638889]],[[4.0255,46.408666667],[4.025194444,46.410666667]],[[4.024805556,46.410638889],[4.025194444,46.410666667]],[[4.024222222,46.407805556],[4.025166667,46.408222222]],[[4.024416667,46.407555556],[4.025194444,46.407916667]],[[4.024222222,46.40725],[4.023972222,46.407555556]],[[4.024555556,46.407388889],[4.024416667,46.407555556]],[[4.023972222,46.407555556],[4.02375,46.407833333]],[[4.024222222,46.407805556],[4.024083333,46.407972222]]]}},{"type":"Feature","id":"LFLN-1ec08f1272d20b23d4d1","properties":{"airport":"LFLN","name":"LFLN Groundlayout","layer":"Guidance lines","category":"Runways","object_type":"Line","style_id":"line.runwayconcrete.555555","source_group":"LFLN Groundlayout","vsmr_group_ids":[],"geometry_role":"linework"},"geometry":{"type":"MultiLineString","coordinates":[[[4.020833333,46.406416667],[4.020666667,46.406611111]],[[4.021333333,46.406611111],[4.021166667,46.406833333]],[[4.020833333,46.406416667],[4.021333333,46.406611111]],[[4.020444444,46.406861111],[4.016111111,46.411666667]],[[4.020944444,46.407055556],[4.016583333,46.411888889]],[[4.015888889,46.411888889],[4.013333333,46.41475]],[[4.016388889,46.412111111],[4.013972222,46.414805556]],[[4.013111111,46.415],[4.007055556,46.421694444]],[[4.01375,46.415055556],[4.007638889,46.421805556]],[[4.007055556,46.421694444],[4.006861111,46.421916667]],[[4.007444444,46.422027778],[4.007361111,46.422111111]],[[4.006861111,46.421916667],[4.007361111,46.422111111]],[[4.017583333,46.40525],[4.017388889,46.405472222]],[[4.017916667,46.405388889],[4.017833333,46.4055]],[[4.017583333,46.40525],[4.017916667,46.405388889]],[[4.017388889,46.405472222],[4.012944444,46.410222222]],[[4.017611111,46.405722222],[4.01325,46.410361111]],[[4.012722222,46.410444444],[4.008972222,46.414444444]],[[4.013055556,46.410583333],[4.009444444,46.414416667]],[[4.008972222,46.414444444],[4.007,46.416555556]],[[4.009222222,46.414666667],[4.007305556,46.416694444]],[[4.007,46.416555556],[4.007305556,46.416694444]],[[4.021833333,46.410472222],[4.0175,46.415083333]],[[4.0225,46.410777778],[4.018166667,46.415361111]],[[4.021833333,46.410472222],[4.0225,46.410777778]],[[4.0175,46.415083333],[4.018166667,46.415361111]]]}},{"type":"Feature","id":"LFLN-ff9531c57c0f772d86dd","properties":{"airport":"LFLN","name":"LFLN Groundlayout","layer":"Guidance lines","category":"Apron Surface","object_type":"Line","style_id":"line.apronsurface.808080","source_group":"LFLN Groundlayout","vsmr_group_ids":[],"geometry_role":"linework"},"geometry":{"type":"MultiLineString","coordinates":[[[4.025083333,46.409083333],[4.024888889,46.408805556],[4.024722222,46.408722222],[4.024472222,46.408972222],[4.023305556,46.408472222],[4.023722222,46.407972222],[4.02525,46.408638889]],[[4.025083333,46.409083333],[4.02525,46.408638889]],[[4.021638889,46.407888889],[4.021527778,46.407138889],[4.022527778,46.406888889],[4.02225,46.40725],[4.02275,46.4075]],[[4.021638889,46.407888889],[4.02275,46.4075]],[[4.015694444,46.411666667],[4.015888889,46.412277778],[4.016777778,46.412138889],[4.016611111,46.4115]],[[4.015694444,46.411666667],[4.016611111,46.4115]],[[4.012055556,46.410472222],[4.012638889,46.409805556],[4.012,46.4095],[4.011416667,46.410194444]],[[4.012055556,46.410472222],[4.011416667,46.410194444]],[[4.008888889,46.414944444],[4.010027778,46.414583333],[4.009583333,46.414166667]],[[4.008888889,46.414944444],[4.009583333,46.414166667]],[[4.012583333,46.414777778],[4.013194444,46.415277778],[4.014194444,46.414972222],[4.013916667,46.414472222]],[[4.012583333,46.414777778],[4.013916667,46.414472222]],[[4.0145,46.415],[4.014722222,46.415388889],[4.015472222,46.414611111]],[[4.0145,46.415],[4.015472222,46.414611111]],[[4.017055556,46.412222222],[4.017055556,46.412833333],[4.017777778,46.412027778]],[[4.017055556,46.412222222],[4.017777778,46.412027778]]]}},{"type":"Feature","id":"LFLN-88794ec0b47271218bcd","properties":{"airport":"LFLN","name":"E","layer":"Labels","category":"Taxiways","object_type":"Label","style_id":"label.taxiways","source_group":"LFLN Taxiways","vsmr_group_ids":[],"geometry_role":"text_label","text-field":"E"},"geometry":{"type":"Point","coordinates":[4.019805556,46.409916667]}},{"type":"Feature","id":"LFLN-11d5d44685184b189061","properties":{"airport":"LFLN","name":"E","layer":"Labels","category":"Taxiways","object_type":"Label","style_id":"label.taxiways","source_group":"LFLN Taxiways","vsmr_group_ids":[],"geometry_role":"text_label","text-field":"E"},"geometry":{"type":"Point","coordinates":[4.016361111,46.41375]}},{"type":"Feature","id":"LFLN-dbe969038447c7cec37e","properties":{"airport":"LFLN","name":"E","layer":"Labels","category":"Taxiways","object_type":"Label","style_id":"label.taxiways","source_group":"LFLN Taxiways","vsmr_group_ids":[],"geometry_role":"text_label","text-field":"E"},"geometry":{"type":"Point","coordinates":[4.011916667,46.418722222]}},{"type":"Feature","id":"LFLN-6f99b280553f6d5f3dc5","properties":{"airport":"LFLN","name":"W1","layer":"Labels","category":"Taxiways","object_type":"Label","style_id":"label.taxiways","source_group":"LFLN Taxiways","vsmr_group_ids":[],"geometry_role":"text_label","text-field":"W1"},"geometry":{"type":"Point","coordinates":[4.017805556,46.405638889]}},{"type":"Feature","id":"LFLN-a33dbc3602d2ddeea326","properties":{"airport":"LFLN","name":"W1","layer":"Labels","category":"Taxiways","object_type":"Label","style_id":"label.taxiways","source_group":"LFLN Taxiways","vsmr_group_ids":[],"geometry_role":"text_label","text-field":"W1"},"geometry":{"type":"Point","coordinates":[4.019138889,46.406166667]}},{"type":"Feature","id":"LFLN-c209e7e06c0bc80cb00e","properties":{"airport":"LFLN","name":"W1","layer":"Labels","category":"Taxiways","object_type":"Label","style_id":"label.taxiways","source_group":"LFLN Taxiways","vsmr_group_ids":[],"geometry_role":"text_label","text-field":"W1"},"geometry":{"type":"Point","coordinates":[4.0205,46.406722222]}},{"type":"Feature","id":"LFLN-261953d28a3309255d9a","properties":{"airport":"LFLN","name":"E1","layer":"Labels","category":"Taxiways","object_type":"Label","style_id":"label.taxiways","source_group":"LFLN Taxiways","vsmr_group_ids":[],"geometry_role":"text_label","text-field":"E1"},"geometry":{"type":"Point","coordinates":[4.021111111,46.406972222]}},{"type":"Feature","id":"LFLN-15828feeffc11e8e9775","properties":{"airport":"LFLN","name":"E1","layer":"Labels","category":"Taxiways","object_type":"Label","style_id":"label.taxiways","source_group":"LFLN Taxiways","vsmr_group_ids":[],"geometry_role":"text_label","text-field":"E1"},"geometry":{"type":"Point","coordinates":[4.02175,46.407222222]}},{"type":"Feature","id":"LFLN-be1027c732696071bc6a","properties":{"airport":"LFLN","name":"E4","layer":"Labels","category":"Taxiways","object_type":"Label","style_id":"label.taxiways","source_group":"LFLN Taxiways","vsmr_group_ids":[],"geometry_role":"text_label","text-field":"E4"},"geometry":{"type":"Point","coordinates":[4.00825,46.422222222]}},{"type":"Feature","id":"LFLN-9af73fba61c54550ff27","properties":{"airport":"LFLN","name":"E4","layer":"Labels","category":"Taxiways","object_type":"Label","style_id":"label.taxiways","source_group":"LFLN Taxiways","vsmr_group_ids":[],"geometry_role":"text_label","text-field":"E4"},"geometry":{"type":"Point","coordinates":[4.007583333,46.421916667]}},{"type":"Feature","id":"LFLN-ce702d0215e0fabf1534","properties":{"airport":"LFLN","name":"W2","layer":"Labels","category":"Taxiways","object_type":"Label","style_id":"label.taxiways","source_group":"LFLN Taxiways","vsmr_group_ids":[],"geometry_role":"text_label","text-field":"W2"},"geometry":{"type":"Point","coordinates":[4.012361111,46.410111111]}},{"type":"Feature","id":"LFLN-a6de51d76334c0495a2e","properties":{"airport":"LFLN","name":"W2","layer":"Labels","category":"Taxiways","object_type":"Label","style_id":"label.taxiways","source_group":"LFLN Taxiways","vsmr_group_ids":[],"geometry_role":"text_label","text-field":"W2"},"geometry":{"type":"Point","coordinates":[4.01275,46.410305556]}},{"type":"Feature","id":"LFLN-13d2a31e996aef49c30b","properties":{"airport":"LFLN","name":"W2","layer":"Labels","category":"Taxiways","object_type":"Label","style_id":"label.taxiways","source_group":"LFLN Taxiways","vsmr_group_ids":[],"geometry_role":"text_label","text-field":"W2"},"geometry":{"type":"Point","coordinates":[4.013222222,46.410527778]}},{"type":"Feature","id":"LFLN-3e53ed54190749631ae2","properties":{"airport":"LFLN","name":"W2","layer":"Labels","category":"Taxiways","object_type":"Label","style_id":"label.taxiways","source_group":"LFLN Taxiways","vsmr_group_ids":[],"geometry_role":"text_label","text-field":"W2"},"geometry":{"type":"Point","coordinates":[4.014583333,46.411138889]}},{"type":"Feature","id":"LFLN-be8114b57c26aa75b941","properties":{"airport":"LFLN","name":"W2","layer":"Labels","category":"Taxiways","object_type":"Label","style_id":"label.taxiways","source_group":"LFLN Taxiways","vsmr_group_ids":[],"geometry_role":"text_label","text-field":"W2"},"geometry":{"type":"Point","coordinates":[4.015944444,46.411777778]}},{"type":"Feature","id":"LFLN-0d892066cd53c8862b2a","properties":{"airport":"LFLN","name":"E2","layer":"Labels","category":"Taxiways","object_type":"Label","style_id":"label.taxiways","source_group":"LFLN Taxiways","vsmr_group_ids":[],"geometry_role":"text_label","text-field":"E2"},"geometry":{"type":"Point","coordinates":[4.016527778,46.412027778]}},{"type":"Feature","id":"LFLN-0443a982a6d368bb4c75","properties":{"airport":"LFLN","name":"E2","layer":"Labels","category":"Taxiways","object_type":"Label","style_id":"label.taxiways","source_group":"LFLN Taxiways","vsmr_group_ids":[],"geometry_role":"text_label","text-field":"E2"},"geometry":{"type":"Point","coordinates":[4.017166667,46.412305556]}},{"type":"Feature","id":"LFLN-4deb8ae883ceb46af567","properties":{"airport":"LFLN","name":"W3","layer":"Labels","category":"Taxiways","object_type":"Label","style_id":"label.taxiways","source_group":"LFLN Taxiways","vsmr_group_ids":[],"geometry_role":"text_label","text-field":"W3"},"geometry":{"type":"Point","coordinates":[4.009444444,46.414555556]}},{"type":"Feature","id":"LFLN-0a5ce2e505bdd45cee8b","properties":{"airport":"LFLN","name":"W3","layer":"Labels","category":"Taxiways","object_type":"Label","style_id":"label.taxiways","source_group":"LFLN Taxiways","vsmr_group_ids":[],"geometry_role":"text_label","text-field":"W3"},"geometry":{"type":"Point","coordinates":[4.011277778,46.414694444]}},{"type":"Feature","id":"LFLN-ae0d38d26d81a2105a9e","properties":{"airport":"LFLN","name":"W3","layer":"Labels","category":"Taxiways","object_type":"Label","style_id":"label.taxiways","source_group":"LFLN Taxiways","vsmr_group_ids":[],"geometry_role":"text_label","text-field":"W3"},"geometry":{"type":"Point","coordinates":[4.013166667,46.414861111]}},{"type":"Feature","id":"LFLN-8ec481db2322e95ba09d","properties":{"airport":"LFLN","name":"E3","layer":"Labels","category":"Taxiways","object_type":"Label","style_id":"label.taxiways","source_group":"LFLN Taxiways","vsmr_group_ids":[],"geometry_role":"text_label","text-field":"E3"},"geometry":{"type":"Point","coordinates":[4.013916667,46.414916667]}},{"type":"Feature","id":"LFLN-b480ef5830b26301c81f","properties":{"airport":"LFLN","name":"E3","layer":"Labels","category":"Taxiways","object_type":"Label","style_id":"label.taxiways","source_group":"LFLN Taxiways","vsmr_group_ids":[],"geometry_role":"text_label","text-field":"E3"},"geometry":{"type":"Point","coordinates":[4.01475,46.415]}}]}
