{"type":"FeatureCollection","name":"LFLO AVISO","bbox":[3.994138889,46.0495,4.005777778,46.062583333],"metadata":{"schema":"vSMR AVISO","schema_version":2,"geometry_mode":"shared","airport":"LFLO","coordinate_reference_system":"WGS84","coordinate_order":"longitude, latitude","default_color_palette":"dark","color_palettes":["dark","light"],"background_colors":{"dark":"#434A4F","light":"#434A4F"},"runways":[{"ends":["01L","19R"],"headings":[14,194],"thresholds":[[3.996418889,46.049913889],[3.999113889,46.056321944]]},{"ends":["01","19"],"headings":[14,194],"thresholds":[[3.998310833,46.049602778],[4.003563889,46.062132778]]}],"saved_active_runways":[],"saved_active_airport_modes":[],"airport_reference":[3.999721944,46.052777778],"feature_count":2,"style_count":2,"layer_counts":{"Guidance lines":2},"category_counts":{"Grass runways":1,"Runways":1},"geometry_source":"local GNG","geometry_source_url":"","geometry_license":"GPL-3.0"},"styles":{"line.runwayconcrete.555555":{"name":"Runways","layer":"Guidance lines","object_type":"Line","paint":{"stroke":"#111318","stroke-opacity":1,"stroke-width":1,"palette-overrides":{"light":{"stroke":"#555555"}}},"feature_count":1},"line.runwaygrass.008000":{"name":"Grass runways","layer":"Guidance lines","object_type":"Line","paint":{"stroke":"#859A77","stroke-opacity":1,"stroke-width":1,"palette-overrides":{"light":{"stroke":"#008000"}}},"feature_count":1}},"vsmr_groups":[],"features":[{"type":"Feature","id":"LFLO-14d5c87fbad462ff836f","properties":{"airport":"LFLO","name":"LFLO Groundlayout","layer":"Guidance lines","category":"Runways","object_type":"Line","style_id":"line.runwayconcrete.555555","source_group":"LFLO Groundlayout","vsmr_group_ids":[],"geometry_role":"linework"},"geometry":{"type":"MultiLineString","coordinates":[[[4.001472222,46.0515],[4.005777778,46.061611111]],[[3.997138889,46.0525],[4.001472222,46.0515]],[[4.001416667,46.062583333],[4.005777778,46.061611111]]]}},{"type":"Feature","id":"LFLO-ba56444af55813a521b2","properties":{"airport":"LFLO","name":"LFLO Groundlayout","layer":"Guidance lines","category":"Grass runways","object_type":"Line","style_id":"line.runwaygrass.008000","source_group":"LFLO Groundlayout","vsmr_group_ids":[],"geometry_role":"linework"},"geometry":{"type":"MultiLineString","coordinates":[[[3.994138889,46.0505],[3.996833333,46.056888889]],[[3.998472222,46.0495],[4.001166667,46.055916667]],[[3.994138889,46.0505],[3.998472222,46.0495]],[[3.996833333,46.056888889],[4.001166667,46.055916667]]]}}]}
