{"type":"FeatureCollection","name":"LFLP AVISO","bbox":[6.092072778,45.923154167,6.107483333,45.935260278],"metadata":{"schema":"vSMR AVISO","schema_version":2,"geometry_mode":"shared","airport":"LFLP","coordinate_reference_system":"WGS84","coordinate_order":"longitude, latitude","default_color_palette":"dark","color_palettes":["dark","light"],"background_colors":{"dark":"#434A4F","light":"#434A4F"},"runways":[{"ends":["04R","22L"],"headings":[36,216],"thresholds":[[6.098788889,45.927130833],[6.103182778,45.931007778]]},{"ends":["04","22"],"headings":[36,216],"thresholds":[[6.094363889,45.9253],[6.103477778,45.933266944]]}],"saved_active_runways":[],"saved_active_airport_modes":[],"airport_reference":[6.106388889,45.930832778],"feature_count":54,"style_count":10,"layer_counts":{"Guidance lines":8,"Labels":46},"category_counts":{"Apron Surface":1,"Centerlines":1,"Gates":36,"Grass runways":1,"Labels":1,"Runways":1,"Stopbars":1,"TWR-CTR":1,"Taxiways":11},"geometry_source":"local GNG","geometry_source_url":"","geometry_license":"GPL-3.0"},"styles":{"line.runwayconcrete.555555":{"name":"Runways","layer":"Guidance lines","object_type":"Line","paint":{"stroke":"#111318","stroke-opacity":1,"stroke-width":1,"palette-overrides":{"light":{"stroke":"#555555"}}},"feature_count":1},"line.runwaygrass.008000":{"name":"Grass runways","layer":"Guidance lines","object_type":"Line","paint":{"stroke":"#859A77","stroke-opacity":1,"stroke-width":1,"palette-overrides":{"light":{"stroke":"#008000"}}},"feature_count":1},"line.taxiway.c0b631":{"name":"Taxiways","layer":"Guidance lines","object_type":"Line","paint":{"stroke":"#4E5A69","stroke-opacity":1,"stroke-width":1,"palette-overrides":{"light":{"stroke":"#C0B631"}}},"feature_count":1},"line.apronsurface.808080":{"name":"Apron Surface","layer":"Guidance lines","object_type":"Line","paint":{"stroke":"#808080","stroke-opacity":1,"stroke-width":1,"palette-overrides":{"light":{"stroke":"#808080"}}},"feature_count":1},"line.stopbar.7e0000":{"name":"Stopbars","layer":"Guidance lines","object_type":"Line","paint":{"stroke":"#7E0000","stroke-opacity":1,"stroke-width":1,"palette-overrides":{"light":{"stroke":"#7E0000"}}},"feature_count":1},"line.centerlines.ffff00":{"name":"Centerlines","layer":"Guidance lines","object_type":"Line","paint":{"stroke":"#FFFF00","stroke-opacity":1,"stroke-width":1,"palette-overrides":{"light":{"stroke":"#FFFF00"}}},"feature_count":1},"line.twr-ctr.000000":{"name":"TWR-CTR","layer":"Guidance lines","object_type":"Line","paint":{"stroke":"#000000","stroke-opacity":1,"stroke-width":1,"palette-overrides":{"light":{"stroke":"#000000"}}},"feature_count":1},"line.labels.808080":{"name":"Labels","layer":"Guidance lines","object_type":"Line","paint":{"stroke":"#808080","stroke-opacity":1,"stroke-width":1,"palette-overrides":{"light":{"stroke":"#808080"}}},"feature_count":1},"label.gates":{"name":"Gates","layer":"Labels","object_type":"Label","paint":{"text-color":"#CCCCCC","text-font":"Arial","text-size":12,"text-halo-color":"#000000","text-halo-width":1,"text-anchor":"center","zoomLevel":9},"feature_count":36},"label.taxiways":{"name":"Taxiways","layer":"Labels","object_type":"Label","paint":{"text-color":"#CCCCCC","text-font":"Arial","text-size":12,"text-halo-color":"#000000","text-halo-width":1,"text-anchor":"center","zoomLevel":7},"feature_count":10}},"vsmr_groups":[],"features":[{"type":"Feature","id":"LFLP-9b2c1a5f3ab758838efe","properties":{"airport":"LFLP","name":"X","layer":"Labels","category":"Gates","object_type":"Label","style_id":"label.gates","source_group":"LFLP Gates","vsmr_group_ids":[],"geometry_role":"text_label","text-field":"X"},"geometry":{"type":"Point","coordinates":[6.102801944,45.932301389]}},{"type":"Feature","id":"LFLP-e98bad1510d3bdd3d793","properties":{"airport":"LFLP","name":"X","layer":"Labels","category":"Gates","object_type":"Label","style_id":"label.gates","source_group":"LFLP Gates","vsmr_group_ids":[],"geometry_role":"text_label","text-field":"X"},"geometry":{"type":"Point","coordinates":[6.103711111,45.931845]}},{"type":"Feature","id":"LFLP-674b90628aa567f4a4c5","properties":{"airport":"LFLP","name":"X","layer":"Labels","category":"Gates","object_type":"Label","style_id":"label.gates","source_group":"LFLP Gates","vsmr_group_ids":[],"geometry_role":"text_label","text-field":"X"},"geometry":{"type":"Point","coordinates":[6.104866111,45.931266389]}},{"type":"Feature","id":"LFLP-6697b6fa2af3498dca57","properties":{"airport":"LFLP","name":"TWR","layer":"Labels","category":"Gates","object_type":"Label","style_id":"label.gates","source_group":"LFLP Gates","vsmr_group_ids":[],"geometry_role":"text_label","text-field":"TWR"},"geometry":{"type":"Point","coordinates":[6.106283611,45.9308]}},{"type":"Feature","id":"LFLP-779eb4824315e4f26e71","properties":{"airport":"LFLP","name":"Terminal","layer":"Labels","category":"Gates","object_type":"Label","style_id":"label.gates","source_group":"LFLP Gates","vsmr_group_ids":[],"geometry_role":"text_label","text-field":"Terminal"},"geometry":{"type":"Point","coordinates":[6.106736111,45.931048056]}},{"type":"Feature","id":"LFLP-cdb46dfe5a8e0454193a","properties":{"airport":"LFLP","name":"ACB","layer":"Labels","category":"Gates","object_type":"Label","style_id":"label.gates","source_group":"LFLP Gates","vsmr_group_ids":[],"geometry_role":"text_label","text-field":"ACB"},"geometry":{"type":"Point","coordinates":[6.09714,45.924968056]}},{"type":"Feature","id":"LFLP-b721088a5cfae3acb660","properties":{"airport":"LFLP","name":"Parking","layer":"Labels","category":"Gates","object_type":"Label","style_id":"label.gates","source_group":"LFLP Gates","vsmr_group_ids":[],"geometry_role":"text_label","text-field":"Parking"},"geometry":{"type":"Point","coordinates":[6.098937778,45.925173056]}},{"type":"Feature","id":"LFLP-9d084395b9bd11933372","properties":{"airport":"LFLP","name":"11","layer":"Labels","category":"Gates","object_type":"Label","style_id":"label.gates","source_group":"LFLP Gates","vsmr_group_ids":[],"geometry_role":"text_label","text-field":"11"},"geometry":{"type":"Point","coordinates":[6.105989444,45.931558889]}},{"type":"Feature","id":"LFLP-cf2e40c7ce4b5bd746ab","properties":{"airport":"LFLP","name":"12","layer":"Labels","category":"Gates","object_type":"Label","style_id":"label.gates","source_group":"LFLP Gates","vsmr_group_ids":[],"geometry_role":"text_label","text-field":"12"},"geometry":{"type":"Point","coordinates":[6.106346667,45.931399444]}},{"type":"Feature","id":"LFLP-4c4d3a0877756cc2f5c7","properties":{"airport":"LFLP","name":"21","layer":"Labels","category":"Gates","object_type":"Label","style_id":"label.gates","source_group":"LFLP Gates","vsmr_group_ids":[],"geometry_role":"text_label","text-field":"21"},"geometry":{"type":"Point","coordinates":[6.105557222,45.931116944]}},{"type":"Feature","id":"LFLP-e77434a8b000dc1780f8","properties":{"airport":"LFLP","name":"22","layer":"Labels","category":"Gates","object_type":"Label","style_id":"label.gates","source_group":"LFLP Gates","vsmr_group_ids":[],"geometry_role":"text_label","text-field":"22"},"geometry":{"type":"Point","coordinates":[6.105861944,45.9309925]}},{"type":"Feature","id":"LFLP-17b04acc88e169dc4358","properties":{"airport":"LFLP","name":"23","layer":"Labels","category":"Gates","object_type":"Label","style_id":"label.gates","source_group":"LFLP Gates","vsmr_group_ids":[],"geometry_role":"text_label","text-field":"23"},"geometry":{"type":"Point","coordinates":[6.106101944,45.930889167]}},{"type":"Feature","id":"LFLP-ce21edf7c22d1cff7b89","properties":{"airport":"LFLP","name":"31","layer":"Labels","category":"Gates","object_type":"Label","style_id":"label.gates","source_group":"LFLP Gates","vsmr_group_ids":[],"geometry_role":"text_label","text-field":"31"},"geometry":{"type":"Point","coordinates":[6.105185556,45.930809167]}},{"type":"Feature","id":"LFLP-0634d5002112a9cda088","properties":{"airport":"LFLP","name":"32","layer":"Labels","category":"Gates","object_type":"Label","style_id":"label.gates","source_group":"LFLP Gates","vsmr_group_ids":[],"geometry_role":"text_label","text-field":"32"},"geometry":{"type":"Point","coordinates":[6.1053425,45.930718889]}},{"type":"Feature","id":"LFLP-ae643193e8c3b2c6b6e4","properties":{"airport":"LFLP","name":"33","layer":"Labels","category":"Gates","object_type":"Label","style_id":"label.gates","source_group":"LFLP Gates","vsmr_group_ids":[],"geometry_role":"text_label","text-field":"33"},"geometry":{"type":"Point","coordinates":[6.105504722,45.930650833]}},{"type":"Feature","id":"LFLP-91358470180015c5a123","properties":{"airport":"LFLP","name":"34","layer":"Labels","category":"Gates","object_type":"Label","style_id":"label.gates","source_group":"LFLP Gates","vsmr_group_ids":[],"geometry_role":"text_label","text-field":"34"},"geometry":{"type":"Point","coordinates":[6.105655278,45.930584444]}},{"type":"Feature","id":"LFLP-1a0abf69a42bebf8020b","properties":{"airport":"LFLP","name":"35","layer":"Labels","category":"Gates","object_type":"Label","style_id":"label.gates","source_group":"LFLP Gates","vsmr_group_ids":[],"geometry_role":"text_label","text-field":"35"},"geometry":{"type":"Point","coordinates":[6.105816111,45.930518889]}},{"type":"Feature","id":"LFLP-aef18670db3330fa6623","properties":{"airport":"LFLP","name":"41","layer":"Labels","category":"Gates","object_type":"Label","style_id":"label.gates","source_group":"LFLP Gates","vsmr_group_ids":[],"geometry_role":"text_label","text-field":"41"},"geometry":{"type":"Point","coordinates":[6.104893889,45.930543611]}},{"type":"Feature","id":"LFLP-49917437940b55dbf94a","properties":{"airport":"LFLP","name":"42","layer":"Labels","category":"Gates","object_type":"Label","style_id":"label.gates","source_group":"LFLP Gates","vsmr_group_ids":[],"geometry_role":"text_label","text-field":"42"},"geometry":{"type":"Point","coordinates":[6.105071667,45.930455278]}},{"type":"Feature","id":"LFLP-cbe9451a5d4d88799253","properties":{"airport":"LFLP","name":"43","layer":"Labels","category":"Gates","object_type":"Label","style_id":"label.gates","source_group":"LFLP Gates","vsmr_group_ids":[],"geometry_role":"text_label","text-field":"43"},"geometry":{"type":"Point","coordinates":[6.105220278,45.930381944]}},{"type":"Feature","id":"LFLP-074f6c16a89dfec59fed","properties":{"airport":"LFLP","name":"44","layer":"Labels","category":"Gates","object_type":"Label","style_id":"label.gates","source_group":"LFLP Gates","vsmr_group_ids":[],"geometry_role":"text_label","text-field":"44"},"geometry":{"type":"Point","coordinates":[6.105348889,45.930325278]}},{"type":"Feature","id":"LFLP-19185fd0590351e48154","properties":{"airport":"LFLP","name":"45","layer":"Labels","category":"Gates","object_type":"Label","style_id":"label.gates","source_group":"LFLP Gates","vsmr_group_ids":[],"geometry_role":"text_label","text-field":"45"},"geometry":{"type":"Point","coordinates":[6.105534167,45.930236389]}},{"type":"Feature","id":"LFLP-72a27b20345ef6547dea","properties":{"airport":"LFLP","name":"61","layer":"Labels","category":"Gates","object_type":"Label","style_id":"label.gates","source_group":"LFLP Gates","vsmr_group_ids":[],"geometry_role":"text_label","text-field":"61"},"geometry":{"type":"Point","coordinates":[6.104594167,45.930294444]}},{"type":"Feature","id":"LFLP-2fe0c14465ff9cf6a440","properties":{"airport":"LFLP","name":"62","layer":"Labels","category":"Gates","object_type":"Label","style_id":"label.gates","source_group":"LFLP Gates","vsmr_group_ids":[],"geometry_role":"text_label","text-field":"62"},"geometry":{"type":"Point","coordinates":[6.104836389,45.9302175]}},{"type":"Feature","id":"LFLP-c0b03d14fd6e8a5db675","properties":{"airport":"LFLP","name":"71","layer":"Labels","category":"Gates","object_type":"Label","style_id":"label.gates","source_group":"LFLP Gates","vsmr_group_ids":[],"geometry_role":"text_label","text-field":"71"},"geometry":{"type":"Point","coordinates":[6.104366944,45.929913611]}},{"type":"Feature","id":"LFLP-df5bf3c5d5bcee39a5ae","properties":{"airport":"LFLP","name":"72","layer":"Labels","category":"Gates","object_type":"Label","style_id":"label.gates","source_group":"LFLP Gates","vsmr_group_ids":[],"geometry_role":"text_label","text-field":"72"},"geometry":{"type":"Point","coordinates":[6.104563611,45.929838056]}},{"type":"Feature","id":"LFLP-38c5488ffc6445dab439","properties":{"airport":"LFLP","name":"73","layer":"Labels","category":"Gates","object_type":"Label","style_id":"label.gates","source_group":"LFLP Gates","vsmr_group_ids":[],"geometry_role":"text_label","text-field":"73"},"geometry":{"type":"Point","coordinates":[6.104737222,45.92977]}},{"type":"Feature","id":"LFLP-e04bcd137974b18ce632","properties":{"airport":"LFLP","name":"74","layer":"Labels","category":"Gates","object_type":"Label","style_id":"label.gates","source_group":"LFLP Gates","vsmr_group_ids":[],"geometry_role":"text_label","text-field":"74"},"geometry":{"type":"Point","coordinates":[6.104968889,45.929687222]}},{"type":"Feature","id":"LFLP-e80f8d58caa9ce5128df","properties":{"airport":"LFLP","name":"75","layer":"Labels","category":"Gates","object_type":"Label","style_id":"label.gates","source_group":"LFLP Gates","vsmr_group_ids":[],"geometry_role":"text_label","text-field":"75"},"geometry":{"type":"Point","coordinates":[6.105211389,45.929595556]}},{"type":"Feature","id":"LFLP-0a11ecb83269591116fe","properties":{"airport":"LFLP","name":"91","layer":"Labels","category":"Gates","object_type":"Label","style_id":"label.gates","source_group":"LFLP Gates","vsmr_group_ids":[],"geometry_role":"text_label","text-field":"91"},"geometry":{"type":"Point","coordinates":[6.103951389,45.929552778]}},{"type":"Feature","id":"LFLP-a44b428793b2b02be1fb","properties":{"airport":"LFLP","name":"101","layer":"Labels","category":"Gates","object_type":"Label","style_id":"label.gates","source_group":"LFLP Gates","vsmr_group_ids":[],"geometry_role":"text_label","text-field":"101"},"geometry":{"type":"Point","coordinates":[6.103730833,45.929305833]}},{"type":"Feature","id":"LFLP-f2ad52debcd40869719e","properties":{"airport":"LFLP","name":"111","layer":"Labels","category":"Gates","object_type":"Label","style_id":"label.gates","source_group":"LFLP Gates","vsmr_group_ids":[],"geometry_role":"text_label","text-field":"111"},"geometry":{"type":"Point","coordinates":[6.103553889,45.929143056]}},{"type":"Feature","id":"LFLP-023c344222ce15fa18e3","properties":{"airport":"LFLP","name":"Hangar","layer":"Labels","category":"Gates","object_type":"Label","style_id":"label.gates","source_group":"LFLP Gates","vsmr_group_ids":[],"geometry_role":"text_label","text-field":"Hangar"},"geometry":{"type":"Point","coordinates":[6.106453611,45.929907778]}},{"type":"Feature","id":"LFLP-9aa8e65ea106cb546965","properties":{"airport":"LFLP","name":"Hangar","layer":"Labels","category":"Gates","object_type":"Label","style_id":"label.gates","source_group":"LFLP Gates","vsmr_group_ids":[],"geometry_role":"text_label","text-field":"Hangar"},"geometry":{"type":"Point","coordinates":[6.105747778,45.929375278]}},{"type":"Feature","id":"LFLP-5bc28de6fd2d3a9bdf80","properties":{"airport":"LFLP","name":"ACB","layer":"Labels","category":"Gates","object_type":"Label","style_id":"label.gates","source_group":"LFLP Gates","vsmr_group_ids":[],"geometry_role":"text_label","text-field":"ACB"},"geometry":{"type":"Point","coordinates":[6.104411667,45.92886]}},{"type":"Feature","id":"LFLP-fc997bfe507cd355ab43","properties":{"airport":"LFLP","name":"ACB","layer":"Labels","category":"Gates","object_type":"Label","style_id":"label.gates","source_group":"LFLP Gates","vsmr_group_ids":[],"geometry_role":"text_label","text-field":"ACB"},"geometry":{"type":"Point","coordinates":[6.104034444,45.927249167]}},{"type":"Feature","id":"LFLP-aa45109af656344181f8","properties":{"airport":"LFLP","name":"LFLP Groundlayout","layer":"Guidance lines","category":"Runways","object_type":"Line","style_id":"line.runwayconcrete.555555","source_group":"LFLP Groundlayout","vsmr_group_ids":[],"geometry_role":"linework"},"geometry":{"type":"MultiLineString","coordinates":[[[6.105780556,45.934635278],[6.105777222,45.934651944],[6.105780833,45.934664722],[6.105787778,45.934678889],[6.106019167,45.934951389],[6.106025556,45.934965278],[6.106022222,45.934976667],[6.105999167,45.934988333],[6.105443889,45.935260278],[6.105429167,45.935251389],[6.105420556,45.935234722],[6.105410833,45.935214722],[6.105400278,45.935196667],[6.105384722,45.935175833],[6.105369444,45.935153611],[6.105351944,45.935132222],[6.105333889,45.935110833],[6.1053125,45.935088889],[6.105284722,45.935065278],[6.103334722,45.933359722],[6.101655278,45.931874722],[6.099931667,45.930369444],[6.097136944,45.927926389],[6.095060278,45.926111111],[6.092072778,45.923512222],[6.092271389,45.923396944],[6.092304167,45.923375833],[6.092346944,45.923353333],[6.092381667,45.923337778],[6.092418333,45.923326111],[6.092453889,45.923316944],[6.092489722,45.923312778],[6.092533056,45.923312222],[6.092569722,45.923313333],[6.092604444,45.923318889],[6.092625556,45.923325556],[6.0926525,45.923341389],[6.092675833,45.923355278]],[[6.092886944,45.923784167],[6.095242778,45.925851667]],[[6.095727222,45.926272778],[6.102609722,45.932289444]],[[6.1027275,45.932393333],[6.1027475,45.932411667]],[[6.103311389,45.932904167],[6.105157222,45.934505833]]]}},{"type":"Feature","id":"LFLP-c7d98c3d9ebc38867f1e","properties":{"airport":"LFLP","name":"LFLP Groundlayout","layer":"Guidance lines","category":"Grass runways","object_type":"Line","style_id":"line.runwaygrass.008000","source_group":"LFLP Groundlayout","vsmr_group_ids":[],"geometry_role":"linework"},"geometry":{"type":"MultiLineString","coordinates":[[[6.102186944,45.92967],[6.103896389,45.931165833]],[[6.104073889,45.931334722],[6.1034575,45.93164],[6.100144167,45.9287325],[6.096684167,45.925697222],[6.097280278,45.925375278],[6.097645,45.925674722]],[[6.097832222,45.925850833],[6.099562222,45.927384167]],[[6.099848056,45.927608611],[6.101927778,45.929469444]]]}},{"type":"Feature","id":"LFLP-27566bd3131ed2754762","properties":{"airport":"LFLP","name":"LFLP Groundlayout","layer":"Guidance lines","category":"Taxiways","object_type":"Line","style_id":"line.taxiway.c0b631","source_group":"LFLP Groundlayout","vsmr_group_ids":[],"geometry_role":"linework"},"geometry":{"type":"MultiLineString","coordinates":[[[6.105785556,45.934618056],[6.105973611,45.934511667],[6.105994722,45.93451],[6.106044722,45.934509167],[6.106173056,45.934508611],[6.106284722,45.934511111],[6.106354167,45.934510556],[6.106388889,45.934506667],[6.106409444,45.934501944],[6.106434167,45.934493333],[6.106485,45.934468333],[6.106679167,45.934358889],[6.1066975,45.934345833],[6.106709722,45.934331944],[6.106717222,45.934316111],[6.106723611,45.934298333],[6.106727778,45.934274167],[6.10673,45.934236667],[6.106726944,45.9342025],[6.106721667,45.934165556],[6.106712222,45.9341425],[6.106710278,45.934115],[6.106708056,45.934060556],[6.1067025,45.93397],[6.106717222,45.933925278],[6.106741944,45.933869722],[6.106770278,45.933789722],[6.106816389,45.933657778],[6.106865833,45.933515556],[6.1069175,45.933369444],[6.106961944,45.933246667],[6.106994167,45.933151111],[6.107006667,45.933104167],[6.107020833,45.933054444],[6.107017222,45.933019722],[6.107006667,45.932962778],[6.106994167,45.932900278],[6.1069725,45.932852778],[6.106933611,45.93279],[6.106860278,45.9327],[6.1066875,45.932519444],[6.106664167,45.932491389],[6.106650278,45.9324675]],[[6.092888056,45.923785],[6.092862222,45.923749722],[6.092845833,45.923725833],[6.092832222,45.923706944],[6.092823056,45.923688056],[6.092812222,45.923662222],[6.0928,45.923633333],[6.092793333,45.923597222],[6.092799167,45.923565556],[6.092806944,45.923516389],[6.092815,45.923483611],[6.092827778,45.923461667],[6.0928475,45.923441111],[6.092873889,45.923420556],[6.092920278,45.923393889],[6.093016667,45.923340278],[6.093121111,45.923286667],[6.093173056,45.923261389],[6.093213889,45.923247222],[6.093246944,45.923236111],[6.093296667,45.923226667],[6.093345556,45.923221944],[6.093389722,45.923223611],[6.0934375,45.923225833],[6.093474722,45.923233889],[6.0935225,45.923248056],[6.093565556,45.923263611],[6.093604722,45.923284167],[6.093635278,45.923304722],[6.093676389,45.923333333],[6.093738611,45.923388333],[6.093990833,45.923607778],[6.095028611,45.924516944],[6.096039444,45.925405833],[6.096081389,45.925464167],[6.0960925,45.925514722],[6.0960925,45.925559444],[6.096089722,45.925608056],[6.096053333,45.9256625],[6.096038611,45.925688611],[6.096002778,45.925714722],[6.095973333,45.925739722],[6.095934167,45.925758889],[6.09572,45.925871389],[6.095702778,45.925878056],[6.095680833,45.925887222],[6.095655556,45.925894444],[6.095626944,45.925901111],[6.095598889,45.925906667],[6.095568333,45.925910278],[6.095534444,45.925912222],[6.095501944,45.925916389],[6.095466389,45.925914444],[6.095435,45.925912778],[6.095411389,45.925908333],[6.095387778,45.925904722],[6.095359722,45.925899444],[6.095333611,45.925889167],[6.095305,45.925879444],[6.095276667,45.925865278],[6.095242778,45.925849444]],[[6.092670278,45.923351667],[6.092699167,45.923361111],[6.092735833,45.923366389],[6.092769167,45.923366389],[6.092799444,45.9233675],[6.0928225,45.923358889],[6.092852778,45.923341944],[6.093088333,45.923213056],[6.093129444,45.923195],[6.093154167,45.923188333],[6.0931825,45.923179444],[6.093211667,45.923170833],[6.093245556,45.923163611],[6.093273889,45.923159167],[6.093305556,45.923155833],[6.093338611,45.923154167],[6.093371667,45.923154722],[6.093408056,45.923156389],[6.093443889,45.923159167],[6.093469722,45.923163611],[6.093498889,45.923168611],[6.093535278,45.923177778],[6.093569444,45.923186389],[6.093605278,45.923198889],[6.0936325,45.923211667],[6.0936575,45.923224167],[6.093686389,45.923242778],[6.093716389,45.923262222],[6.093783333,45.923316667],[6.093930278,45.923445278],[6.094188889,45.923673889],[6.094435,45.923883889],[6.094518889,45.923959722],[6.094853889,45.924254722],[6.096028333,45.925274167],[6.096097778,45.925344167],[6.096144444,45.925380278],[6.096185,45.925405833],[6.096233056,45.925426389],[6.096285833,45.925443611],[6.096330278,45.925454722],[6.096379444,45.925459722],[6.096435833,45.925458056],[6.096477778,45.925453611],[6.096523056,45.925441667],[6.096578611,45.925426389],[6.096646111,45.925409167],[6.096936111,45.925279444],[6.097013611,45.925250556],[6.097079722,45.925229167],[6.097139722,45.925211944],[6.097206667,45.925195556],[6.097265556,45.925184167],[6.097324444,45.9251775],[6.097412778,45.925163611],[6.097506944,45.925153889],[6.0976025,45.925146389],[6.097710278,45.925137222],[6.097810556,45.925136389],[6.097892222,45.925135278],[6.0979725,45.925138889],[6.098020278,45.925146667],[6.098064167,45.925157222],[6.098104444,45.925173056],[6.098148333,45.925190278],[6.098185833,45.925213889],[6.0982225,45.925244444],[6.098243611,45.925261944],[6.0982625,45.925267222]],[[6.098614722,45.925568056],[6.098611667,45.925581111],[6.098628889,45.925595],[6.099068611,45.925976667],[6.100076944,45.926861944],[6.100347222,45.927100278]],[[6.100464167,45.927199167],[6.101086944,45.927743333],[6.101225,45.927856111],[6.101281944,45.927894444],[6.101321389,45.927918333],[6.101369722,45.927943611],[6.101433611,45.927965],[6.101474722,45.927973333]],[[6.0957275,45.926273611],[6.095713333,45.926249444],[6.095697778,45.926225278],[6.09569,45.926201944],[6.095678611,45.926170833],[6.095676389,45.926143333],[6.095675278,45.926113056],[6.095682222,45.926082778],[6.095694444,45.92606],[6.095708889,45.926032778],[6.095725833,45.926008611],[6.095746944,45.925983056],[6.095772778,45.925958056],[6.09582,45.925921389],[6.095851389,45.925898889],[6.095887778,45.925876111],[6.095953611,45.925836944],[6.096461389,45.925581667],[6.096971667,45.925344167],[6.097040278,45.925316667],[6.097103611,45.925294722],[6.097160278,45.925279167],[6.097239444,45.9252625],[6.097316111,45.925250556],[6.097408333,45.925237778],[6.097491667,45.925227778],[6.097661389,45.9252125],[6.097752222,45.925209444],[6.097831667,45.925211389],[6.097894167,45.925218333],[6.097959444,45.925230278],[6.098024722,45.925246944],[6.098085833,45.925271667],[6.098138333,45.925298333],[6.0981825,45.925321111],[6.0982225,45.925352222],[6.098231111,45.925371389],[6.098224722,45.9253875],[6.097775556,45.925638611],[6.097728611,45.925665556],[6.097709167,45.925676389],[6.097692778,45.92568],[6.097674444,45.925680833],[6.097660278,45.92568],[6.097641944,45.9256725]],[[6.097834167,45.925850833],[6.097839444,45.925836389],[6.097860556,45.925823611],[6.098180556,45.925648333],[6.098401111,45.925536111],[6.098419444,45.9255325],[6.098433889,45.925536111],[6.098701667,45.925770556],[6.09987,45.926791389],[6.100185556,45.927070278],[6.1001925,45.9270975],[6.100168056,45.927113056],[6.099636944,45.927384167],[6.099618611,45.927391389],[6.0996025,45.927395278],[6.099591111,45.927394444],[6.099574167,45.927389722],[6.099561389,45.927383333]],[[6.099850556,45.927607778],[6.099850556,45.927592222],[6.099856111,45.927575556],[6.099864444,45.927558889],[6.099874167,45.927540278],[6.0998925,45.927526667],[6.100369444,45.927262222],[6.100389444,45.927258333],[6.100405833,45.927261389],[6.100614444,45.9274425],[6.101501944,45.928214444]],[[6.101928333,45.929467778],[6.101965556,45.929488889],[6.102005,45.929485833],[6.102048611,45.929478333],[6.102103333,45.929464722],[6.1025025,45.929245556],[6.102531389,45.929226944],[6.102548056,45.929215278]],[[6.1021875,45.929670278],[6.102169722,45.929654444],[6.102175,45.929642778],[6.102193611,45.929629167],[6.102657222,45.929391944],[6.102686111,45.929379167],[6.102706944,45.929374722],[6.1027275,45.929377778]],[[6.103899722,45.931164722],[6.103931667,45.931180278],[6.103968611,45.931179167],[6.104005833,45.9311725],[6.104039444,45.931161389],[6.104463889,45.930948889]],[[6.104073333,45.931335556],[6.10411,45.931315278],[6.104128889,45.931301944],[6.104146667,45.931287778],[6.104156944,45.931269444],[6.104171944,45.931257778],[6.104581389,45.931041944]],[[6.1026125,45.932288611],[6.102632778,45.932300278],[6.102652222,45.932301944],[6.102676389,45.932301944],[6.102711944,45.932301944],[6.102740278,45.9323025],[6.102763056,45.932299722],[6.102788889,45.932289722],[6.103083611,45.932139722],[6.1040175,45.931672778],[6.104907222,45.931222222],[6.104923056,45.93121],[6.104918333,45.931201111],[6.104900556,45.931186389]],[[6.102729444,45.932393611],[6.102736667,45.93238],[6.102744167,45.932370556],[6.1027575,45.932361667],[6.102778333,45.932351111],[6.103075,45.9321975],[6.104047222,45.931714444],[6.104941111,45.9312675],[6.104956944,45.931263611],[6.104970833,45.931277222],[6.104978889,45.931308889],[6.104984444,45.9313425],[6.1049825,45.931381111],[6.104973889,45.931407778],[6.104962222,45.931430556],[6.104949722,45.931455],[6.104936944,45.931475556],[6.104916667,45.931497778],[6.104896667,45.931516111],[6.1048625,45.931541944],[6.104830833,45.931561111],[6.104685556,45.931645278],[6.103641667,45.932221944],[6.103280556,45.932423333],[6.103229444,45.9324475],[6.103190833,45.932461389],[6.103139444,45.932474444],[6.103093333,45.932481389],[6.103043333,45.932485],[6.102987222,45.932483333],[6.102927222,45.9324675],[6.102889722,45.932461389],[6.102855833,45.9324475],[6.102820278,45.932433333],[6.102795,45.932425833],[6.102770556,45.932421389],[6.102754167,45.9324175],[6.102746944,45.932411667]],[[6.103314722,45.932905556],[6.103305278,45.932877778],[6.103291389,45.932851667],[6.103277222,45.932821667],[6.103264444,45.932795556],[6.103252778,45.932769722],[6.103248056,45.932742778],[6.103251667,45.932713333],[6.1032575,45.932684167],[6.103266667,45.932656389],[6.103284444,45.932630556],[6.103304167,45.932605278],[6.103333333,45.932574444],[6.103370833,45.932551667],[6.103434167,45.93251],[6.104302222,45.932031667],[6.104944167,45.931673611],[6.105000278,45.931643889],[6.105040556,45.931628889],[6.105079167,45.931619722],[6.105123333,45.931609444],[6.105172778,45.931605],[6.105219444,45.931604722],[6.105259444,45.931607778],[6.105303611,45.931615],[6.105348056,45.931623611],[6.105391389,45.931628889],[6.105417778,45.931638056],[6.105465,45.9316775]],[[6.1051575,45.934505556],[6.105170556,45.934513889],[6.105190278,45.934520833],[6.105215,45.934525278],[6.105241111,45.934531111],[6.105271389,45.934535556],[6.105318889,45.934540278],[6.1053575,45.934544167],[6.105395833,45.934548056],[6.105434444,45.934549444],[6.1054575,45.934549444],[6.105488611,45.934543611],[6.105533611,45.934533889],[6.105586111,45.934520278],[6.105633611,45.934507222],[6.105676944,45.934492222],[6.105763333,45.9344525],[6.105817778,45.934424167],[6.105896389,45.934382222],[6.105979167,45.934337222],[6.106019722,45.934314444],[6.106304444,45.934158056],[6.106352222,45.934130833],[6.106386111,45.934105],[6.106410556,45.934084167],[6.106435,45.934056944],[6.106462778,45.934023611],[6.106482778,45.933995556],[6.106505278,45.933960833],[6.106516944,45.933932778],[6.106661944,45.933527778],[6.106758611,45.933253333],[6.106777778,45.933205278],[6.106805833,45.933116111],[6.106817222,45.933038611],[6.106805833,45.932958611],[6.106786944,45.932894167],[6.1067475,45.932839167],[6.106675833,45.932756667],[6.106473611,45.932548056]]]}},{"type":"Feature","id":"LFLP-41d67869dac700df452c","properties":{"airport":"LFLP","name":"LFLP Groundlayout","layer":"Guidance lines","category":"Apron Surface","object_type":"Line","style_id":"line.apronsurface.808080","source_group":"LFLP Groundlayout","vsmr_group_ids":[],"geometry_role":"linework"},"geometry":{"type":"MultiLineString","coordinates":[[[6.101503333,45.928214722],[6.102547778,45.929218056]],[[6.098261944,45.925266667],[6.098273056,45.925266944],[6.098284722,45.925261111],[6.098439444,45.925166667],[6.098546667,45.9251075],[6.098699722,45.925236389],[6.098903889,45.925410833],[6.098614722,45.9255675]],[[6.100347222,45.927099722],[6.100392778,45.927093056],[6.100450833,45.927085833],[6.100473333,45.927076111],[6.100565278,45.927025],[6.100565278,45.927019444],[6.100560833,45.927010278],[6.100551944,45.927002778],[6.100406944,45.926874444],[6.100496944,45.926828889],[6.1007675,45.927065],[6.100676667,45.927111111],[6.100625556,45.92707],[6.100614444,45.927066389],[6.100605278,45.92707],[6.100501944,45.927128333],[6.100462778,45.927195],[6.100464167,45.927199444]],[[6.101474444,45.927973611],[6.101486667,45.927971111],[6.101495278,45.927969444],[6.101503889,45.927965],[6.101655,45.927884722],[6.1024475,45.927534444],[6.103043611,45.9281475],[6.102834444,45.928245556],[6.102828611,45.928251944],[6.102833056,45.928261667],[6.102841667,45.928275],[6.102874722,45.928325],[6.102919722,45.928375],[6.102989167,45.928452222],[6.103265,45.928731944],[6.103761389,45.928498611],[6.104243889,45.928266944],[6.10426,45.928251944],[6.104268056,45.928234444],[6.104273333,45.928214722],[6.104271944,45.928189722],[6.104257222,45.928165556],[6.104201389,45.928109167],[6.103995833,45.928208333],[6.103794167,45.927998611],[6.103534444,45.927721667],[6.103644444,45.927664444],[6.103616667,45.927651389],[6.10358,45.927639444],[6.103531111,45.927625833],[6.1035175,45.927625],[6.103501667,45.9276275],[6.103461111,45.927639444],[6.103421944,45.927603611],[6.103489444,45.927568611],[6.103698889,45.927636111],[6.103728333,45.9276275],[6.103733056,45.927618889],[6.103719722,45.927607778],[6.103545556,45.927424722],[6.103410833,45.927286111],[6.103673333,45.927168056],[6.103990278,45.927519722],[6.105407222,45.929008611],[6.1051075,45.929155],[6.104541944,45.928574167],[6.104576389,45.928552778],[6.104587778,45.928538889],[6.104592778,45.928521389],[6.104588889,45.928503889],[6.1045775,45.928491667],[6.104459167,45.928375278],[6.104440278,45.928366389],[6.104420278,45.928355833],[6.104396389,45.928348056],[6.104368611,45.928347222],[6.104343333,45.928350556],[6.104311944,45.928355],[6.104288056,45.928367222],[6.104119444,45.928449722],[6.103355278,45.928806111],[6.103344722,45.928814444],[6.103353611,45.928829722],[6.104261111,45.9296675],[6.105147222,45.929228056],[6.105788056,45.929887222],[6.106088889,45.929741389],[6.106505278,45.930178889],[6.106456667,45.930197778],[6.106508333,45.930259167],[6.106228889,45.930379444],[6.106003889,45.930157778],[6.106037222,45.930138611],[6.105936944,45.930020278],[6.10577,45.9301175],[6.106073889,45.930436667],[6.106040556,45.930455278],[6.106062778,45.930480833],[6.106249167,45.930675278],[6.106219722,45.930675278],[6.106195278,45.930685278],[6.106187778,45.9307025],[6.106263889,45.9307775],[6.106244167,45.930791111],[6.106283333,45.930833611],[6.106305556,45.930826944],[6.106406111,45.930928611],[6.106426944,45.930916389],[6.106827778,45.931325278],[6.106973333,45.931261111],[6.107483333,45.931800556],[6.1067425,45.932155833],[6.106694444,45.932184167],[6.106670278,45.932212778],[6.106648611,45.932241111],[6.106624722,45.932284722],[6.106615,45.932319722],[6.106610278,45.932366667],[6.106610278,45.932391667],[6.106612778,45.932413333],[6.106648889,45.932468611]],[[6.106476389,45.932546944],[6.105923333,45.932071389],[6.105465556,45.931677222]],[[6.10491,45.931193889],[6.104899722,45.931182778],[6.104808889,45.931230278],[6.104583889,45.9310425]],[[6.104463611,45.930949722],[6.102726389,45.929376944]]]}},{"type":"Feature","id":"LFLP-9dcce2b7867507ea9410","properties":{"airport":"LFLP","name":"LFLP Groundlayout","layer":"Guidance lines","category":"Stopbars","object_type":"Line","style_id":"line.stopbar.7e0000","source_group":"LFLP Groundlayout","vsmr_group_ids":[],"geometry_role":"linework"},"geometry":{"type":"MultiLineString","coordinates":[[[6.100508333,45.927057778],[6.100555278,45.927098333]],[[6.1064075,45.934502222],[6.106128056,45.934255]],[[6.103861389,45.932274444],[6.103738611,45.932168889]],[[6.096050833,45.925670278],[6.096134722,45.925745278]],[[6.093213889,45.923170833],[6.093247778,45.923236111]]]}},{"type":"Feature","id":"LFLP-4ee879da58c7515eb886","properties":{"airport":"LFLP","name":"LFLP Groundlayout","layer":"Guidance lines","category":"Centerlines","object_type":"Line","style_id":"line.centerlines.ffff00","source_group":"LFLP Groundlayout","vsmr_group_ids":[],"geometry_role":"linework"},"geometry":{"type":"MultiLineString","coordinates":[[[6.106300556,45.931414167],[6.106171111,45.931282222]],[[6.103350278,45.929272222],[6.103553611,45.929174722]],[[6.1035175,45.929442222],[6.10373,45.929341389]],[[6.103901944,45.929548889],[6.103716389,45.929624444]],[[6.105321111,45.929753333],[6.105178889,45.9296]],[[6.10511,45.929823611],[6.104995278,45.929702222]],[[6.104765833,45.929785278],[6.104889722,45.929909722]],[[6.104687778,45.929964167],[6.104591389,45.929855556]],[[6.104403056,45.929928889],[6.104517778,45.930047222]],[[6.104658889,45.930309722],[6.104754167,45.930410833]],[[6.104840278,45.930229722],[6.104931389,45.930328611]],[[6.104925,45.930553889],[6.104989444,45.930619167]],[[6.105098889,45.930466389],[6.105163056,45.930531944]],[[6.105249722,45.930394444],[6.105326944,45.930479167]],[[6.105465,45.930421111],[6.105385278,45.930334722]],[[6.105549722,45.930255556],[6.105631389,45.930345278]],[[6.105071111,45.930698611],[6.105171667,45.930801111]],[[6.105237778,45.930615],[6.105326389,45.930712778]],[[6.105390278,45.930545556],[6.105487222,45.930645556]],[[6.105555833,45.930491111],[6.105634722,45.930574167]],[[6.105785,45.930505556],[6.1057075,45.930421389]],[[6.105538611,45.931096667],[6.105396944,45.930946944]],[[6.105828889,45.930991111],[6.105699722,45.9308475]],[[6.106055278,45.930892222],[6.105928611,45.930750833]],[[6.106065278,45.931511667],[6.105931111,45.9313725]]]}},{"type":"Feature","id":"LFLP-6c754e6acefdcd9670cb","properties":{"airport":"LFLP","name":"LFLP Groundlayout","layer":"Guidance lines","category":"TWR-CTR","object_type":"Line","style_id":"line.twr-ctr.000000","source_group":"LFLP Groundlayout","vsmr_group_ids":[],"geometry_role":"linework"},"geometry":{"type":"LineString","coordinates":[[6.106303333,45.930762778],[6.106251389,45.930792222],[6.10629,45.930830556],[6.106345556,45.930810833],[6.106303333,45.930762778]]}},{"type":"Feature","id":"LFLP-d4cde8b1fd56918cfec5","properties":{"airport":"LFLP","name":"LFLP Groundlayout","layer":"Guidance lines","category":"Labels","object_type":"Line","style_id":"line.labels.808080","source_group":"LFLP Groundlayout","vsmr_group_ids":[],"geometry_role":"linework"},"geometry":{"type":"MultiLineString","coordinates":[[[6.102986944,45.932798889],[6.103034167,45.932838889],[6.103133333,45.932863889],[6.103149444,45.932880556],[6.1031075,45.932904167],[6.103133333,45.932925556],[6.103192222,45.932891111],[6.103151111,45.9328525],[6.103052778,45.932830556],[6.103030556,45.932810833],[6.103056389,45.932797222],[6.103071667,45.932808056],[6.103086111,45.932798333],[6.103048611,45.932763889],[6.102986944,45.932798889]],[[6.094807222,45.925774167],[6.0948325,45.92576],[6.094738056,45.925677778],[6.094712778,45.9256925],[6.094807222,45.925774167]],[[6.094813889,45.925807778],[6.094874167,45.925773056],[6.094729444,45.925645556],[6.0946675,45.925679722],[6.094813889,45.925807778]],[[6.094936389,45.925738889],[6.094953056,45.925728889],[6.094839722,45.925665278],[6.094860833,45.925653611],[6.094906944,45.9256925],[6.094923056,45.925683056],[6.094878611,45.925642778],[6.094890833,45.925635833],[6.094866389,45.925612778],[6.094852778,45.92562],[6.0948225,45.925593889],[6.094805278,45.925603611],[6.094834167,45.925630556],[6.094786944,45.9256575],[6.094936389,45.925738889]],[[6.102939167,45.932823333],[6.102880556,45.932856389],[6.102927222,45.932898889],[6.103027222,45.932923889],[6.103044444,45.932939444],[6.1030025,45.932964444],[6.103026389,45.932984444],[6.103086944,45.932951111],[6.103044444,45.9329125],[6.102944167,45.932888333],[6.102923056,45.932869167],[6.102949444,45.932855556],[6.102963889,45.932866667],[6.102981111,45.932857778],[6.102939167,45.932823333]]]}},{"type":"Feature","id":"LFLP-24c3cbbf36492c32c8d0","properties":{"airport":"LFLP","name":"A","layer":"Labels","category":"Taxiways","object_type":"Label","style_id":"label.taxiways","source_group":"LFLP Taxiways","vsmr_group_ids":[],"geometry_role":"text_label","text-field":"A"},"geometry":{"type":"Point","coordinates":[6.093191389,45.923293333]}},{"type":"Feature","id":"LFLP-64b52a366fb95fe30545","properties":{"airport":"LFLP","name":"B","layer":"Labels","category":"Taxiways","object_type":"Label","style_id":"label.taxiways","source_group":"LFLP Taxiways","vsmr_group_ids":[],"geometry_role":"text_label","text-field":"B"},"geometry":{"type":"Point","coordinates":[6.096060833,45.925819444]}},{"type":"Feature","id":"LFLP-a898ced2f2b329e0b50e","properties":{"airport":"LFLP","name":"C","layer":"Labels","category":"Taxiways","object_type":"Label","style_id":"label.taxiways","source_group":"LFLP Taxiways","vsmr_group_ids":[],"geometry_role":"text_label","text-field":"C"},"geometry":{"type":"Point","coordinates":[6.103846667,45.932343056]}},{"type":"Feature","id":"LFLP-0f19dba24adbdb33d1ad","properties":{"airport":"LFLP","name":"D","layer":"Labels","category":"Taxiways","object_type":"Label","style_id":"label.taxiways","source_group":"LFLP Taxiways","vsmr_group_ids":[],"geometry_role":"text_label","text-field":"D"},"geometry":{"type":"Point","coordinates":[6.106461111,45.934551111]}},{"type":"Feature","id":"LFLP-0ebaba58e518b6f0d8b4","properties":{"airport":"LFLP","name":"G1","layer":"Labels","category":"Taxiways","object_type":"Label","style_id":"label.taxiways","source_group":"LFLP Taxiways","vsmr_group_ids":[],"geometry_role":"text_label","text-field":"G1"},"geometry":{"type":"Point","coordinates":[6.098119722,45.925764722]}},{"type":"Feature","id":"LFLP-39e0dc68a907da0cd095","properties":{"airport":"LFLP","name":"B","layer":"Labels","category":"Taxiways","object_type":"Label","style_id":"label.taxiways","source_group":"LFLP Taxiways","vsmr_group_ids":[],"geometry_role":"text_label","text-field":"B"},"geometry":{"type":"Point","coordinates":[6.099565,45.926319444]}},{"type":"Feature","id":"LFLP-180d1d704528b64fd132","properties":{"airport":"LFLP","name":"G2","layer":"Labels","category":"Taxiways","object_type":"Label","style_id":"label.taxiways","source_group":"LFLP Taxiways","vsmr_group_ids":[],"geometry_role":"text_label","text-field":"G2"},"geometry":{"type":"Point","coordinates":[6.100085833,45.927495278]}},{"type":"Feature","id":"LFLP-1b53c242b8556499c30b","properties":{"airport":"LFLP","name":"T","layer":"Labels","category":"Taxiways","object_type":"Label","style_id":"label.taxiways","source_group":"LFLP Taxiways","vsmr_group_ids":[],"geometry_role":"text_label","text-field":"T"},"geometry":{"type":"Point","coordinates":[6.100956944,45.927910833]}},{"type":"Feature","id":"LFLP-8cfaa44247a243b55ce4","properties":{"airport":"LFLP","name":"G3","layer":"Labels","category":"Taxiways","object_type":"Label","style_id":"label.taxiways","source_group":"LFLP Taxiways","vsmr_group_ids":[],"geometry_role":"text_label","text-field":"G3"},"geometry":{"type":"Point","coordinates":[6.1024125,45.929568056]}},{"type":"Feature","id":"LFLP-967f9f3fcccf8377f201","properties":{"airport":"LFLP","name":"G4","layer":"Labels","category":"Taxiways","object_type":"Label","style_id":"label.taxiways","source_group":"LFLP Taxiways","vsmr_group_ids":[],"geometry_role":"text_label","text-field":"G4"},"geometry":{"type":"Point","coordinates":[6.10412,45.931055]}}]}
