{"type":"FeatureCollection","name":"LFLS AVISO","bbox":[5.30778,45.356158611,5.352288333,45.368701111],"metadata":{"schema":"vSMR AVISO","schema_version":2,"geometry_mode":"shared","airport":"LFLS","coordinate_reference_system":"WGS84","coordinate_order":"longitude, latitude","default_color_palette":"dark","color_palettes":["dark","light"],"background_colors":{"dark":"#434A4F","light":"#434A4F"},"runways":[{"ends":["09R","27L"],"headings":[88,268],"thresholds":[[5.318368889,45.362163889],[5.329857778,45.362138889]]},{"ends":["09","27"],"headings":[88,268],"thresholds":[[5.309910833,45.362996944],[5.348838889,45.362888889]]}],"saved_active_runways":[],"saved_active_airport_modes":[],"airport_reference":[5.332777778,45.363055833],"feature_count":115,"style_count":13,"layer_counts":{"Airfield surfaces":16,"Buildings and structures":28,"Guidance lines":2,"Labels":57,"Surface markings":9,"Terrain":3},"category_counts":{"Buildings":28,"Gates":35,"Gras Surface 2":2,"Grass":1,"Grass runways":1,"Hard Surface 2":2,"Hard Surface 3":8,"Hard Surface 4":4,"Runways":1,"Stopbars":9,"Taxiway Orange":1,"Taxiways":23},"geometry_source":"local GNG","geometry_source_url":"","geometry_license":"GPL-3.0"},"styles":{"polygon.grassurface.00512f":{"name":"Grass","layer":"Terrain","object_type":"Area","paint":{"fill":"#010D19","fill-opacity":1,"palette-overrides":{"light":{"fill":"#00512F"}}},"feature_count":1},"polygon.hardsurface4.969393":{"name":"Hard Surface 4","layer":"Airfield surfaces","object_type":"Area","paint":{"fill":"#152841","fill-opacity":1,"palette-overrides":{"light":{"fill":"#969393"}}},"feature_count":4},"polygon.grassurface2.339933":{"name":"Gras Surface 2","layer":"Terrain","object_type":"Area","paint":{"fill":"#339933","fill-opacity":1,"palette-overrides":{"light":{"fill":"#339933"}}},"feature_count":2},"polygon.hardsurface2.595e5b":{"name":"Hard Surface 2","layer":"Airfield surfaces","object_type":"Area","paint":{"fill":"#2F3949","fill-opacity":1,"palette-overrides":{"light":{"fill":"#595E5B"}}},"feature_count":2},"polygon.hardsurface3.8a807f":{"name":"Hard Surface 3","layer":"Airfield surfaces","object_type":"Area","paint":{"fill":"#222D3C","fill-opacity":1,"palette-overrides":{"light":{"fill":"#8A807F"}}},"feature_count":8},"polygon.runwayconcrete.555555":{"name":"Runways","layer":"Airfield surfaces","object_type":"Area","paint":{"fill":"#111318","fill-opacity":1,"palette-overrides":{"light":{"fill":"#555555"}}},"feature_count":1},"polygon.runwaygrass.008000":{"name":"Grass runways","layer":"Airfield surfaces","object_type":"Area","paint":{"fill":"#859A77","fill-opacity":1,"palette-overrides":{"light":{"fill":"#008000"}}},"feature_count":1},"polygon.building.394446":{"name":"Buildings","layer":"Buildings and structures","object_type":"Area","paint":{"fill":"#475570","fill-opacity":1,"palette-overrides":{"light":{"fill":"#394446"}}},"feature_count":28},"polygon.stopbar.7e0000":{"name":"Stopbars","layer":"Surface markings","object_type":"Area","paint":{"fill":"#7E0000","fill-opacity":1,"palette-overrides":{"light":{"fill":"#7E0000"}}},"feature_count":9},"line.taxiway.c0b631":{"name":"Taxiways","layer":"Guidance lines","object_type":"Line","paint":{"stroke":"#4E5A69","stroke-opacity":1,"stroke-width":1,"palette-overrides":{"light":{"stroke":"#C0B631"}}},"feature_count":1},"line.taxiwayorange.cc6d00":{"name":"Taxiway Orange","layer":"Guidance lines","object_type":"Line","paint":{"stroke":"#CC8B00","stroke-opacity":1,"stroke-width":1,"palette-overrides":{"light":{"stroke":"#CC6D00"}}},"feature_count":1},"label.gates":{"name":"Gates","layer":"Labels","object_type":"Label","paint":{"text-color":"#CCCCCC","text-font":"Arial","text-size":12,"text-halo-color":"#000000","text-halo-width":1,"text-anchor":"center","zoomLevel":9},"feature_count":35},"label.taxiways":{"name":"Taxiways","layer":"Labels","object_type":"Label","paint":{"text-color":"#CCCCCC","text-font":"Arial","text-size":12,"text-halo-color":"#000000","text-halo-width":1,"text-anchor":"center","zoomLevel":7},"feature_count":22}},"vsmr_groups":[],"features":[{"type":"Feature","id":"LFLS-5f3c07d756a5265eb41f","properties":{"airport":"LFLS","name":"LFLS AVISO","layer":"Terrain","category":"Grass","object_type":"Area","style_id":"polygon.grassurface.00512f","source_group":"LFLS AVISO","vsmr_group_ids":[],"geometry_role":"filled_region"},"geometry":{"type":"Polygon","coordinates":[[[5.335153611,45.368701111],[5.331840556,45.3679625],[5.327940556,45.366846667],[5.327016667,45.366519444],[5.323809722,45.364663056],[5.323472778,45.364375],[5.323271389,45.364274167],[5.308593056,45.364559722],[5.308438611,45.364513333],[5.308332778,45.3643625],[5.30778,45.361623611],[5.310048333,45.360623056],[5.312258611,45.360205556],[5.313061389,45.360811111],[5.314459167,45.36062],[5.314926944,45.360876389],[5.327640833,45.360886944],[5.330076111,45.35655],[5.330405556,45.356265278],[5.330834444,45.356176667],[5.334048056,45.356158611],[5.333385556,45.357235833],[5.333457222,45.357343611],[5.3348425,45.357683056],[5.334417222,45.358372222],[5.3344975,45.359404167],[5.334480556,45.360041111],[5.338456111,45.359964167],[5.33859,45.359418889],[5.343403611,45.359383056],[5.343576389,45.360771111],[5.349095556,45.3607575],[5.349174722,45.361287222],[5.351741667,45.361290278],[5.352041944,45.362363611],[5.352174444,45.362636944],[5.352267222,45.362889722],[5.352248333,45.363168889],[5.352288333,45.3644825],[5.337130556,45.364529167],[5.335153611,45.368701111]]]}},{"type":"Feature","id":"LFLS-f5629152274e2b976556","properties":{"airport":"LFLS","name":"LFLS AVISO","layer":"Airfield surfaces","category":"Hard Surface 4","object_type":"Area","style_id":"polygon.hardsurface4.969393","source_group":"LFLS AVISO","vsmr_group_ids":[],"geometry_role":"filled_region"},"geometry":{"type":"Polygon","coordinates":[[[5.312471111,45.3631775],[5.313509444,45.363182778],[5.313415278,45.3632075],[5.313354722,45.363235833],[5.313262222,45.363286667],[5.313180278,45.363338056],[5.313102222,45.36339],[5.313042778,45.363420833],[5.312980278,45.36344],[5.312921111,45.363452778],[5.312871944,45.363456667],[5.312825833,45.363454722],[5.312774722,45.363444722],[5.312721944,45.3634325],[5.312656944,45.36341],[5.312588333,45.363379444],[5.312533889,45.363338889],[5.312504722,45.363308333],[5.312483889,45.363275833],[5.312474444,45.3632425],[5.312471111,45.3631775]]]}},{"type":"Feature","id":"LFLS-2c204102b20dab22769f","properties":{"airport":"LFLS","name":"LFLS AVISO","layer":"Airfield surfaces","category":"Hard Surface 4","object_type":"Area","style_id":"polygon.hardsurface4.969393","source_group":"LFLS AVISO","vsmr_group_ids":[],"geometry_role":"filled_region"},"geometry":{"type":"Polygon","coordinates":[[[5.332148056,45.358071944],[5.332209444,45.358145833],[5.332085278,45.358383889],[5.331810833,45.358448056],[5.331610833,45.358800278],[5.331249444,45.359436111],[5.330741667,45.360248611],[5.330693611,45.360246111],[5.330650833,45.360252778],[5.330623611,45.360270556],[5.330549444,45.360411944],[5.330527222,45.360502778],[5.330540278,45.360528889],[5.330577222,45.360544167],[5.3306525,45.360548611],[5.330902222,45.360539722],[5.330895833,45.3604825],[5.330910556,45.360429722],[5.330920278,45.360366389],[5.330945556,45.360311389],[5.330991111,45.360235],[5.333039444,45.360211667],[5.333121111,45.360339444],[5.334094444,45.360325],[5.334095833,45.360376944],[5.334682222,45.360376389],[5.334678333,45.360448056],[5.334687222,45.360472222],[5.33471,45.360491111],[5.334743611,45.360496944],[5.335964167,45.360491944],[5.335983056,45.360454167],[5.33602,45.360425278],[5.336077222,45.360395556],[5.336143333,45.3603675],[5.336221111,45.360338333],[5.336313056,45.360307778],[5.336395833,45.360288056],[5.336456111,45.360276667],[5.3365425,45.360269167],[5.336708056,45.360265556],[5.336835833,45.360266389],[5.336836111,45.360546944],[5.333846111,45.360571667],[5.333506944,45.360646111],[5.331151389,45.360654444],[5.331026111,45.360692778],[5.330905278,45.360696944],[5.330535833,45.360707222],[5.330544722,45.360740556],[5.330568056,45.360766111],[5.330919167,45.361016389],[5.330931389,45.361112222],[5.330904167,45.361126111],[5.330896389,45.361095556],[5.330867222,45.3610675],[5.330527222,45.360809444],[5.330491389,45.360783056],[5.330463056,45.360753056],[5.330455833,45.360731111],[5.3304475,45.360711667],[5.330199444,45.360708333],[5.330212778,45.360813056],[5.330160278,45.360833333],[5.329977778,45.360807778],[5.329973889,45.360649722],[5.330311111,45.360647778],[5.330338056,45.360624167],[5.330348056,45.360601389],[5.330350833,45.360571111],[5.330361111,45.360530278],[5.330598056,45.360081667],[5.331754167,45.358023333],[5.332148056,45.358071944]]]}},{"type":"Feature","id":"LFLS-8820057f4588d920ef4a","properties":{"airport":"LFLS","name":"LFLS AVISO","layer":"Airfield surfaces","category":"Hard Surface 4","object_type":"Area","style_id":"polygon.hardsurface4.969393","source_group":"LFLS AVISO","vsmr_group_ids":[],"geometry_role":"filled_region"},"geometry":{"type":"Polygon","coordinates":[[[5.338478333,45.359973889],[5.3384775,45.359931111],[5.341133889,45.359869444],[5.341134167,45.359923611],[5.338478333,45.359973889]]]}},{"type":"Feature","id":"LFLS-cf9405066caed64b9d47","properties":{"airport":"LFLS","name":"LFLS AVISO","layer":"Airfield surfaces","category":"Hard Surface 4","object_type":"Area","style_id":"polygon.hardsurface4.969393","source_group":"LFLS AVISO","vsmr_group_ids":[],"geometry_role":"filled_region"},"geometry":{"type":"Polygon","coordinates":[[[5.331604444,45.357066667],[5.331922778,45.357049444],[5.33228,45.356427222],[5.332577222,45.356513889],[5.332751667,45.356228333],[5.332949167,45.356284444],[5.332874167,45.356821944],[5.332900833,45.356867222],[5.3328325,45.357040833],[5.332543611,45.356962222],[5.33236,45.357326944],[5.332139722,45.357544722],[5.331976667,45.357480833],[5.331604444,45.357066667]]]}},{"type":"Feature","id":"LFLS-9a8806d7e001b0cf81a5","properties":{"airport":"LFLS","name":"LFLS AVISO","layer":"Terrain","category":"Gras Surface 2","object_type":"Area","style_id":"polygon.grassurface2.339933","source_group":"LFLS AVISO","vsmr_group_ids":[],"geometry_role":"filled_region"},"geometry":{"type":"Polygon","coordinates":[[[5.318441111,45.361932222],[5.318453611,45.361502778],[5.318661667,45.3615025],[5.318639722,45.361850556],[5.3186525,45.361880278],[5.318678889,45.361906944],[5.318738333,45.361933889],[5.318441111,45.361932222]]]}},{"type":"Feature","id":"LFLS-6060f7bd8f60369f4a36","properties":{"airport":"LFLS","name":"LFLS AVISO","layer":"Terrain","category":"Gras Surface 2","object_type":"Area","style_id":"polygon.grassurface2.339933","source_group":"LFLS AVISO","vsmr_group_ids":[],"geometry_role":"filled_region"},"geometry":{"type":"Polygon","coordinates":[[[5.329781389,45.361478611],[5.3297925,45.361904722],[5.329569722,45.361906667],[5.329612778,45.361874444],[5.329633056,45.361837778],[5.329636667,45.361815556],[5.329625556,45.361479444],[5.329781389,45.361478611]]]}},{"type":"Feature","id":"LFLS-4319453f13ae3d97f347","properties":{"airport":"LFLS","name":"LFLS AVISO","layer":"Airfield surfaces","category":"Hard Surface 2","object_type":"Area","style_id":"polygon.hardsurface2.595e5b","source_group":"LFLS AVISO","vsmr_group_ids":[],"geometry_role":"filled_region"},"geometry":{"type":"Polygon","coordinates":[[[5.310302222,45.361838889],[5.31004,45.361734444],[5.31009,45.361678333],[5.310153333,45.361611389],[5.310227222,45.361553333],[5.310293889,45.361511389],[5.310376944,45.361472778],[5.310452778,45.361440556],[5.310531389,45.361415833],[5.310610278,45.361398056],[5.310695833,45.361381111],[5.310810556,45.361362778],[5.310949167,45.361357778],[5.311077222,45.361353889],[5.327883333,45.361316111],[5.327913056,45.361285],[5.329033056,45.361223889],[5.329122222,45.361193611],[5.329189167,45.361159444],[5.329244167,45.361115833],[5.329294167,45.361072778],[5.329339722,45.361023333],[5.329382778,45.360960278],[5.329494722,45.360714167],[5.329610556,45.360496944],[5.329889722,45.360043056],[5.329972778,45.359931111],[5.329995556,45.359891389],[5.330005278,45.359841111],[5.330011667,45.359608056],[5.330007778,45.359552222],[5.329971667,45.359485278],[5.329821944,45.359234167],[5.330683889,45.357627222],[5.330381389,45.357543333],[5.330575833,45.357185556],[5.332027778,45.357578333],[5.331878611,45.357885278],[5.331280833,45.357728889],[5.330425,45.359339444],[5.330575556,45.359805833],[5.330424167,45.360050556],[5.330306667,45.360021111],[5.330105556,45.360325833],[5.330018056,45.360492222],[5.329938611,45.360652222],[5.329901111,45.360754444],[5.329889167,45.360856111],[5.329909444,45.360943056],[5.3299525,45.361016111],[5.329999167,45.361069167],[5.330083333,45.361128333],[5.330193333,45.361179167],[5.330312778,45.361214167],[5.330417222,45.361228333],[5.330524722,45.361236389],[5.330663611,45.361231389],[5.330772222,45.361217778],[5.330843889,45.361186111],[5.330923056,45.361114444],[5.336849167,45.361083889],[5.3368775,45.361138889],[5.336925556,45.361183056],[5.336974444,45.361219167],[5.337021944,45.361250278],[5.33707,45.361275278],[5.337117222,45.361284167],[5.337167222,45.361285],[5.347735833,45.361241389],[5.347916667,45.361246944],[5.348040833,45.361259444],[5.34816,45.361284722],[5.348268056,45.361317222],[5.348370833,45.361360556],[5.348470278,45.361410278],[5.348542222,45.361459722],[5.348605833,45.361508056],[5.348357778,45.361643611],[5.348308056,45.3616025],[5.348259167,45.361569444],[5.348200278,45.36154],[5.348128056,45.361510278],[5.348060278,45.3614875],[5.347967222,45.361469444],[5.347846389,45.361459444],[5.347558056,45.361445556],[5.347325833,45.361423889],[5.339233056,45.361453056],[5.339098333,45.361468056],[5.3389925,45.361495],[5.338910556,45.361529167],[5.3388325,45.361571667],[5.338768333,45.361614167],[5.338704722,45.361683611],[5.338663889,45.361755556],[5.33864,45.3618125],[5.338624444,45.361886944],[5.338614722,45.361951944],[5.338619167,45.362009444],[5.338324722,45.362017778],[5.338323611,45.361954722],[5.338309444,45.361918333],[5.338293611,45.361879444],[5.338261944,45.361836944],[5.338232222,45.361790556],[5.338193889,45.3617475],[5.338141667,45.361698611],[5.338099167,45.361663056],[5.338044722,45.361630278],[5.337996944,45.361598056],[5.337939444,45.361569444],[5.337890278,45.361548611],[5.337842222,45.361531111],[5.337766111,45.361509167],[5.337698056,45.361492222],[5.337600833,45.361475556],[5.337468889,45.361468611],[5.337225556,45.3614625],[5.333076667,45.361478333],[5.333019167,45.361486944],[5.332946389,45.361511111],[5.332898333,45.361537222],[5.33285,45.361576111],[5.332816667,45.3616275],[5.3327975,45.361676111],[5.332789167,45.361718333],[5.332789722,45.3620225],[5.332536111,45.362023056],[5.332526111,45.361746944],[5.332516667,45.361693056],[5.332495556,45.361635556],[5.332471111,45.361585278],[5.332441667,45.361550556],[5.332403333,45.361525556],[5.332333056,45.361500278],[5.332222778,45.361482778],[5.332139722,45.361476667],[5.331926389,45.361476667],[5.317515556,45.361517222],[5.31741,45.361534444],[5.317311944,45.361561389],[5.317213056,45.361603333],[5.317132222,45.361647222],[5.3170725,45.361699167],[5.316989167,45.361791111],[5.3166525,45.361793333],[5.3166325,45.361754167],[5.316590278,45.361708889],[5.316546111,45.36166],[5.316498056,45.361624167],[5.316455278,45.361598333],[5.316397222,45.361568889],[5.316323333,45.361545556],[5.316243333,45.361525],[5.316175278,45.361516944],[5.311390556,45.361529444],[5.311135833,45.361545556],[5.310934444,45.361558611],[5.310782778,45.361574722],[5.310663611,45.361605],[5.310566111,45.361646111],[5.310457778,45.361708889],[5.310376111,45.361771667],[5.310302222,45.361838889]]]}},{"type":"Feature","id":"LFLS-e14e9e9da9f6cbaca778","properties":{"airport":"LFLS","name":"LFLS AVISO","layer":"Airfield surfaces","category":"Hard Surface 2","object_type":"Area","style_id":"polygon.hardsurface2.595e5b","source_group":"LFLS AVISO","vsmr_group_ids":[],"geometry_role":"filled_region"},"geometry":{"type":"Polygon","coordinates":[[[5.336906111,45.363876667],[5.33691,45.363900833],[5.336909444,45.363931944],[5.336903056,45.363961667],[5.336882222,45.363991111],[5.336838611,45.364035556],[5.336745,45.364124444],[5.336704722,45.364144444],[5.336670556,45.364155833],[5.336628333,45.364163889],[5.336586389,45.364166389],[5.336543889,45.364172222],[5.336501667,45.364188611],[5.335993889,45.364698889],[5.335973889,45.364737778],[5.335961389,45.364795278],[5.335961667,45.364840556],[5.335974167,45.366096111],[5.335969722,45.366169444],[5.335967778,45.366207222],[5.335959167,45.36625],[5.335949167,45.366282222],[5.335930278,45.366315556],[5.335911667,45.36634],[5.335892222,45.366363889],[5.335866389,45.366384167],[5.335835833,45.366404722],[5.335798056,45.366423889],[5.335748056,45.366438333],[5.335683333,45.366444167],[5.334378333,45.366449167],[5.334302222,45.366465556],[5.334248611,45.366491944],[5.334205278,45.366520278],[5.334176667,45.366577778],[5.334179444,45.366779444],[5.330756667,45.366772222],[5.330763333,45.366734167],[5.330790278,45.365481667],[5.330790278,45.365400278],[5.3308075,45.365314444],[5.330837778,45.365257222],[5.330871944,45.365208611],[5.331380556,45.364624444],[5.331347222,45.364364167],[5.331570556,45.364192222],[5.331609444,45.364177222],[5.331688889,45.364169167],[5.331773333,45.364163611],[5.331888889,45.364214722],[5.33098,45.365243333],[5.330937778,45.365306944],[5.3309175,45.365367778],[5.330915833,45.365438889],[5.330914722,45.366253056],[5.330925,45.366283889],[5.330963333,45.366326111],[5.331014444,45.366354167],[5.331068889,45.366360556],[5.335625833,45.36637],[5.335695833,45.366366389],[5.335744444,45.3663525],[5.335785,45.366322778],[5.335805833,45.366298333],[5.335833333,45.366264722],[5.335855,45.366222778],[5.335859444,45.366162222],[5.335841944,45.364798611],[5.335849722,45.364725833],[5.335868333,45.364674722],[5.335925833,45.364615833],[5.336708333,45.363823333],[5.336906111,45.363876667]]]}},{"type":"Feature","id":"LFLS-2e182643f89f01b016c2","properties":{"airport":"LFLS","name":"LFLS AVISO","layer":"Airfield surfaces","category":"Hard Surface 3","object_type":"Area","style_id":"polygon.hardsurface3.8a807f","source_group":"LFLS AVISO","vsmr_group_ids":[],"geometry_role":"filled_region"},"geometry":{"type":"Polygon","coordinates":[[[5.330388056,45.357531111],[5.330708333,45.357618611],[5.329824722,45.359237778],[5.329637222,45.358951667],[5.329635833,45.358924444],[5.329640556,45.358894167],[5.330388056,45.357531111]]]}},{"type":"Feature","id":"LFLS-0dd3d5b5755d725b475a","properties":{"airport":"LFLS","name":"LFLS AVISO","layer":"Airfield surfaces","category":"Hard Surface 3","object_type":"Area","style_id":"polygon.hardsurface3.8a807f","source_group":"LFLS AVISO","vsmr_group_ids":[],"geometry_role":"filled_region"},"geometry":{"type":"Polygon","coordinates":[[[5.330566944,45.357200556],[5.330757778,45.35684],[5.3316125,45.357066389],[5.331872778,45.357163889],[5.331945,45.357188611],[5.331934167,45.357251667],[5.331941944,45.357315556],[5.331965833,45.357388889],[5.332005278,45.357448056],[5.332024167,45.357475833],[5.332134722,45.3575075],[5.331999444,45.357591944],[5.330566944,45.357200556]]]}},{"type":"Feature","id":"LFLS-d0c72939df721d89b492","properties":{"airport":"LFLS","name":"LFLS AVISO","layer":"Airfield surfaces","category":"Hard Surface 3","object_type":"Area","style_id":"polygon.hardsurface3.8a807f","source_group":"LFLS AVISO","vsmr_group_ids":[],"geometry_role":"filled_region"},"geometry":{"type":"Polygon","coordinates":[[[5.333250833,45.358310556],[5.332188056,45.358018889],[5.332139722,45.358095],[5.332120556,45.358103611],[5.332102778,45.358106667],[5.331753056,45.358022778],[5.330592778,45.360094444],[5.330415278,45.360048333],[5.330464444,45.359959444],[5.330485278,45.359894722],[5.330498611,45.359827778],[5.3305025,45.359766111],[5.330499722,45.359683889],[5.330484167,45.359615],[5.330463056,45.359554722],[5.330428056,45.359466111],[5.330404444,45.359394167],[5.330391111,45.359364444],[5.33039,45.359345],[5.3312625,45.357719722],[5.331273611,45.357711389],[5.331288611,45.35771],[5.331313056,45.357713889],[5.331840833,45.357857778],[5.331997222,45.357579167],[5.332114444,45.357501667],[5.333495278,45.357890833],[5.333250833,45.358310556]]]}},{"type":"Feature","id":"LFLS-4875d6eb20c73325f43c","properties":{"airport":"LFLS","name":"LFLS AVISO","layer":"Airfield surfaces","category":"Hard Surface 3","object_type":"Area","style_id":"polygon.hardsurface3.8a807f","source_group":"LFLS AVISO","vsmr_group_ids":[],"geometry_role":"filled_region"},"geometry":{"type":"Polygon","coordinates":[[[5.330924722,45.361115],[5.330904722,45.3606925],[5.331026389,45.360693056],[5.331062778,45.360682778],[5.3311025,45.360668611],[5.331152222,45.360655278],[5.333507778,45.360646667],[5.333844167,45.360568611],[5.3368375,45.360546667],[5.3368375,45.360545],[5.33684,45.361034167],[5.336851389,45.361085833],[5.330924722,45.361115]]]}},{"type":"Feature","id":"LFLS-6c2eabb139a28649238a","properties":{"airport":"LFLS","name":"LFLS AVISO","layer":"Airfield surfaces","category":"Hard Surface 3","object_type":"Area","style_id":"polygon.hardsurface3.8a807f","source_group":"LFLS AVISO","vsmr_group_ids":[],"geometry_role":"filled_region"},"geometry":{"type":"Polygon","coordinates":[[[5.330923889,45.366696111],[5.330928056,45.366473611],[5.333952778,45.366476944],[5.333948889,45.366690556],[5.330923889,45.366696111]]]}},{"type":"Feature","id":"LFLS-7147d29dfb13deee34e6","properties":{"airport":"LFLS","name":"LFLS AVISO","layer":"Airfield surfaces","category":"Hard Surface 3","object_type":"Area","style_id":"polygon.hardsurface3.8a807f","source_group":"LFLS AVISO","vsmr_group_ids":[],"geometry_role":"filled_region"},"geometry":{"type":"Polygon","coordinates":[[[5.329353611,45.366990278],[5.329353889,45.366908056],[5.330275278,45.366893611],[5.330274167,45.366835],[5.330638056,45.366821111],[5.330693056,45.366813333],[5.330738889,45.366784722],[5.330760278,45.366763611],[5.334183889,45.366771944],[5.334176667,45.366792222],[5.331026944,45.366808056],[5.331039444,45.3669825],[5.330611667,45.366981111],[5.330611667,45.367041944],[5.3302775,45.3670475],[5.330270833,45.366986667],[5.329353611,45.366990278]]]}},{"type":"Feature","id":"LFLS-9a495a410f1dbdbfd461","properties":{"airport":"LFLS","name":"LFLS AVISO","layer":"Airfield surfaces","category":"Hard Surface 3","object_type":"Area","style_id":"polygon.hardsurface3.8a807f","source_group":"LFLS AVISO","vsmr_group_ids":[],"geometry_role":"filled_region"},"geometry":{"type":"Polygon","coordinates":[[[5.339293889,45.361279722],[5.338876389,45.361280556],[5.338932778,45.361268611],[5.338974722,45.361253056],[5.3390025,45.361233056],[5.339020833,45.3612125],[5.339036389,45.361185278],[5.339039444,45.361164444],[5.339036111,45.361091667],[5.3390275,45.361074167],[5.339010556,45.361061944],[5.338989444,45.361050556],[5.338961944,45.361044167],[5.338927778,45.361043611],[5.338735833,45.361046389],[5.338682778,45.360187222],[5.338676111,45.360170833],[5.338658333,45.360154167],[5.3386075,45.3601275],[5.338556944,45.360112222],[5.338514167,45.360090278],[5.338488889,45.360066944],[5.33848,45.360045833],[5.338478333,45.359973333],[5.341134722,45.359921389],[5.341165,45.360627222],[5.341167778,45.360636667],[5.341179444,45.360648333],[5.341188611,45.360651389],[5.341203889,45.360654444],[5.341448056,45.360651389],[5.341460833,45.360963611],[5.341208333,45.360965],[5.341195833,45.360966944],[5.341188333,45.360971389],[5.341179722,45.360981111],[5.341177222,45.360991944],[5.341181111,45.361158056],[5.341185,45.361181667],[5.341195833,45.3612025],[5.341215833,45.361223056],[5.341241667,45.361239167],[5.341277222,45.361252222],[5.341370278,45.361274167],[5.340987778,45.361275],[5.341031667,45.361248611],[5.341061667,45.361219444],[5.341076389,45.361196389],[5.341079444,45.361160833],[5.341067778,45.360696389],[5.341061944,45.360680833],[5.341045833,45.36067],[5.3410175,45.36066],[5.340967778,45.3606575],[5.339211111,45.360688611],[5.339178611,45.360693333],[5.3391525,45.360701389],[5.339133333,45.360710556],[5.339122222,45.360720278],[5.339117778,45.360730278],[5.339114444,45.360746111],[5.339126111,45.3611],[5.339130278,45.361147222],[5.339134722,45.361180278],[5.339142778,45.361199167],[5.339155833,45.361219167],[5.339181389,45.361242778],[5.339223056,45.361263889],[5.339293889,45.361279722]]]}},{"type":"Feature","id":"LFLS-44ffb413062efd9928f2","properties":{"airport":"LFLS","name":"LFLS AVISO","layer":"Airfield surfaces","category":"Hard Surface 3","object_type":"Area","style_id":"polygon.hardsurface3.8a807f","source_group":"LFLS AVISO","vsmr_group_ids":[],"geometry_role":"filled_region"},"geometry":{"type":"Polygon","coordinates":[[[5.342800278,45.361270556],[5.342213889,45.361272222],[5.34229,45.361260556],[5.342330833,45.361246389],[5.342363056,45.361223611],[5.342386944,45.361186944],[5.342408889,45.361126944],[5.342422778,45.361068889],[5.342434167,45.360995278],[5.342439722,45.360922222],[5.342443333,45.360774444],[5.342440278,45.360632222],[5.342435833,45.360573056],[5.342426667,45.360530278],[5.342416389,45.3604975],[5.342398056,45.360464722],[5.342371389,45.3604175],[5.342335,45.360376667],[5.342308611,45.360346111],[5.342278611,45.36033],[5.342249167,45.360322222],[5.342205,45.360317222],[5.341872222,45.360318611],[5.341871667,45.360349167],[5.341813889,45.360349722],[5.341813889,45.359957778],[5.342577778,45.359956944],[5.342582778,45.360749167],[5.342581111,45.36091],[5.3425875,45.360986389],[5.3426025,45.361053056],[5.34262,45.361117222],[5.342641389,45.361181111],[5.342656389,45.3612125],[5.342668611,45.361226389],[5.342688611,45.361240278],[5.342725833,45.361255],[5.342758889,45.361263333],[5.342800278,45.361270556]]]}},{"type":"Feature","id":"LFLS-01e8358edeb8a183fea7","properties":{"airport":"LFLS","name":"LFLS AVISO","layer":"Airfield surfaces","category":"Runways","object_type":"Area","style_id":"polygon.runwayconcrete.555555","source_group":"LFLS AVISO","vsmr_group_ids":[],"geometry_role":"filled_region"},"geometry":{"type":"Polygon","coordinates":[[[5.310395833,45.362405278],[5.310466111,45.362466944],[5.3105825,45.362549444],[5.310731944,45.362635833],[5.310868889,45.362713889],[5.310991667,45.362761389],[5.31111,45.362788333],[5.316401944,45.362773333],[5.316466111,45.362763333],[5.316525278,45.362736389],[5.316580556,45.362698611],[5.316625278,45.362660833],[5.316652222,45.362623333],[5.316666944,45.362580556],[5.316696389,45.3619625],[5.316686944,45.361898889],[5.316671944,45.361837778],[5.316654444,45.361793889],[5.316991111,45.361789167],[5.316970278,45.361846111],[5.316953889,45.361921667],[5.316963333,45.362529722],[5.316975556,45.362596944],[5.317023333,45.362659444],[5.317079722,45.362701389],[5.317150833,45.362735],[5.317320833,45.362770833],[5.332236111,45.362730278],[5.332316389,45.362709444],[5.332371111,45.362685278],[5.332424444,45.362652778],[5.332466667,45.362612222],[5.332499167,45.362570278],[5.332521944,45.362530278],[5.332534722,45.362481111],[5.332535278,45.362023056],[5.332789722,45.362023889],[5.332789167,45.362498056],[5.332799722,45.362544444],[5.332826111,45.362589722],[5.332865,45.362628889],[5.332914722,45.362665556],[5.3329775,45.362698333],[5.333060833,45.362728611],[5.337534722,45.362716389],[5.337633611,45.362701389],[5.337721389,45.362675278],[5.337793333,45.362646667],[5.3378675,45.362608889],[5.337937778,45.362558056],[5.338036944,45.362464167],[5.338183333,45.362315833],[5.338248056,45.362240556],[5.338294444,45.362168333],[5.338310833,45.362118889],[5.338321111,45.362055556],[5.338327222,45.362017778],[5.338619444,45.362011944],[5.338630556,45.362285833],[5.338635278,45.362338056],[5.338646389,45.362383056],[5.338662778,45.362423333],[5.338693889,45.362478333],[5.338740278,45.362529444],[5.338802778,45.362578056],[5.338875833,45.362621944],[5.338976389,45.362665278],[5.339066111,45.362691944],[5.339162778,45.362710833],[5.347719167,45.362686389],[5.347828056,45.362653889],[5.347947222,45.362609722],[5.348045,45.362550833],[5.348188056,45.362438056],[5.348314444,45.362333889],[5.348421111,45.362223889],[5.348496389,45.362144444],[5.348524167,45.362087778],[5.348534444,45.362022222],[5.348535278,45.361949167],[5.348528056,45.361886944],[5.348503611,45.361823889],[5.348467778,45.361757778],[5.348421944,45.361697778],[5.348356111,45.3616425],[5.348604167,45.361508056],[5.348650556,45.361553333],[5.348711111,45.361616389],[5.348770278,45.361702778],[5.348806667,45.361788611],[5.348837222,45.361904444],[5.348846667,45.362053056],[5.348848333,45.363089722],[5.337905556,45.3631225],[5.337801389,45.363159167],[5.337708889,45.363188889],[5.3376175,45.363219167],[5.337533056,45.363252222],[5.337461389,45.363276111],[5.337380278,45.363312222],[5.336882778,45.363809444],[5.336894167,45.36383],[5.336902778,45.363855],[5.336905556,45.363876389],[5.3367075,45.363824167],[5.3372125,45.363328056],[5.337239167,45.363301944],[5.337255278,45.363265556],[5.337245833,45.363238611],[5.337218056,45.363202778],[5.337179722,45.363166944],[5.337131944,45.363123611],[5.33315,45.363135278],[5.333071667,45.363156389],[5.333002778,45.363183889],[5.332937778,45.363208056],[5.332867222,45.3632325],[5.332790833,45.363265],[5.332728333,45.363294722],[5.332652222,45.363340278],[5.331888889,45.364211944],[5.331790556,45.364164444],[5.332516389,45.363346944],[5.332536389,45.363285556],[5.3325275,45.363251389],[5.332494167,45.363209444],[5.332460833,45.363180556],[5.3324275,45.363153889],[5.332391389,45.363136667],[5.309920833,45.363195833],[5.309881389,45.36211],[5.309891944,45.362008611],[5.309913333,45.361937222],[5.309943889,45.361869167],[5.309997222,45.361785278],[5.310042222,45.361731389],[5.310302778,45.361836944],[5.310256667,45.361896667],[5.310229444,45.361961111],[5.310210556,45.362044444],[5.310206389,45.362115833],[5.310217222,45.362172222],[5.310250556,45.362240556],[5.310309167,45.362320833],[5.310395833,45.362405278]]]}},{"type":"Feature","id":"LFLS-364e0f8e0285070d8a24","properties":{"airport":"LFLS","name":"LFLS AVISO","layer":"Airfield surfaces","category":"Grass runways","object_type":"Area","style_id":"polygon.runwaygrass.008000","source_group":"LFLS AVISO","vsmr_group_ids":[],"geometry_role":"filled_region"},"geometry":{"type":"Polygon","coordinates":[[[5.318367222,45.362391667],[5.318365,45.361930278],[5.329873611,45.361901667],[5.329873056,45.362363333],[5.318367222,45.362391667]]]}},{"type":"Feature","id":"LFLS-05376ae2376a107524cb","properties":{"airport":"LFLS","name":"LFLS AVISO","layer":"Buildings and structures","category":"Buildings","object_type":"Area","style_id":"polygon.building.394446","source_group":"LFLS AVISO","vsmr_group_ids":[],"geometry_role":"filled_region"},"geometry":{"type":"Polygon","coordinates":[[[5.332881667,45.356833056],[5.332645556,45.356773611],[5.332921389,45.356277222],[5.333164167,45.356343611],[5.332881667,45.356833056]]]}},{"type":"Feature","id":"LFLS-18b0172f331dc83626c2","properties":{"airport":"LFLS","name":"LFLS AVISO","layer":"Buildings and structures","category":"Buildings","object_type":"Area","style_id":"polygon.building.394446","source_group":"LFLS AVISO","vsmr_group_ids":[],"geometry_role":"filled_region"},"geometry":{"type":"Polygon","coordinates":[[[5.332829167,45.357046389],[5.332768056,45.3571475],[5.332363889,45.357038056],[5.332417222,45.356939167],[5.332829167,45.357046389]]]}},{"type":"Feature","id":"LFLS-174c12afd5d35668e057","properties":{"airport":"LFLS","name":"LFLS AVISO","layer":"Buildings and structures","category":"Buildings","object_type":"Area","style_id":"polygon.building.394446","source_group":"LFLS AVISO","vsmr_group_ids":[],"geometry_role":"filled_region"},"geometry":{"type":"Polygon","coordinates":[[[5.332329167,45.357095556],[5.332684444,45.357191667],[5.332622778,45.357293056],[5.332275,45.357196667],[5.332329167,45.357095556]]]}},{"type":"Feature","id":"LFLS-0a44d1c250d618ba318e","properties":{"airport":"LFLS","name":"LFLS AVISO","layer":"Buildings and structures","category":"Buildings","object_type":"Area","style_id":"polygon.building.394446","source_group":"LFLS AVISO","vsmr_group_ids":[],"geometry_role":"filled_region"},"geometry":{"type":"Polygon","coordinates":[[[5.332485278,45.357323333],[5.332500278,45.357296389],[5.332582222,45.357320278],[5.332510556,45.35745],[5.332426944,45.357431111],[5.3323425,45.357581944],[5.332098889,45.357516944],[5.332241111,45.35726],[5.332485278,45.357323333]]]}},{"type":"Feature","id":"LFLS-11e3657cc4e3838532dc","properties":{"airport":"LFLS","name":"LFLS AVISO","layer":"Buildings and structures","category":"Buildings","object_type":"Area","style_id":"polygon.building.394446","source_group":"LFLS AVISO","vsmr_group_ids":[],"geometry_role":"filled_region"},"geometry":{"type":"Polygon","coordinates":[[[5.332411667,45.357604167],[5.332488611,45.357469444],[5.332734444,45.357533056],[5.33266,45.357671667],[5.332411667,45.357604167]]]}},{"type":"Feature","id":"LFLS-9a3f0bc9ce167361ceea","properties":{"airport":"LFLS","name":"LFLS AVISO","layer":"Buildings and structures","category":"Buildings","object_type":"Area","style_id":"polygon.building.394446","source_group":"LFLS AVISO","vsmr_group_ids":[],"geometry_role":"filled_region"},"geometry":{"type":"Polygon","coordinates":[[[5.332809444,45.357558611],[5.333155278,45.357655],[5.333082778,45.357783889],[5.3327325,45.357688889],[5.332748333,45.357661111],[5.332669722,45.357643333],[5.332711944,45.35757],[5.332793611,45.357593889],[5.332809444,45.357558611]]]}},{"type":"Feature","id":"LFLS-c07c102048f290a2a206","properties":{"airport":"LFLS","name":"LFLS AVISO","layer":"Buildings and structures","category":"Buildings","object_type":"Area","style_id":"polygon.building.394446","source_group":"LFLS AVISO","vsmr_group_ids":[],"geometry_role":"filled_region"},"geometry":{"type":"Polygon","coordinates":[[[5.333068889,45.357779444],[5.333128889,45.357683056],[5.333196111,45.357701944],[5.333234167,45.357630833],[5.333581389,45.357721667],[5.333483333,45.357896111],[5.333068889,45.357779444]]]}},{"type":"Feature","id":"LFLS-6181504228eb57f60abc","properties":{"airport":"LFLS","name":"LFLS AVISO","layer":"Buildings and structures","category":"Buildings","object_type":"Area","style_id":"polygon.building.394446","source_group":"LFLS AVISO","vsmr_group_ids":[],"geometry_role":"filled_region"},"geometry":{"type":"Polygon","coordinates":[[[5.333552222,45.357834722],[5.333833889,45.357913889],[5.333798889,45.357965556],[5.333711111,45.357940833],[5.333625278,45.358105],[5.333621944,45.358137222],[5.333683611,45.358160278],[5.333653056,45.3582075],[5.333590833,45.358196111],[5.333547778,45.358258611],[5.333524722,45.3582925],[5.333476944,45.358281389],[5.333456389,45.3583],[5.333425,45.358289444],[5.333428611,45.358268889],[5.333390278,45.358254722],[5.333398611,45.358224167],[5.333328333,45.358208056],[5.3334125,45.358056111],[5.333486944,45.3580775],[5.333526111,45.358005278],[5.333590278,45.358018056],[5.333628056,45.357921389],[5.333519167,45.357887778],[5.333552222,45.357834722]]]}},{"type":"Feature","id":"LFLS-0dd7adbba44bc4d66047","properties":{"airport":"LFLS","name":"LFLS AVISO","layer":"Buildings and structures","category":"Buildings","object_type":"Area","style_id":"polygon.building.394446","source_group":"LFLS AVISO","vsmr_group_ids":[],"geometry_role":"filled_region"},"geometry":{"type":"Polygon","coordinates":[[[5.332515,45.358621389],[5.332501111,45.358609167],[5.3324825,45.358598889],[5.332461111,45.358591667],[5.332434167,45.358593056],[5.332402222,45.358599444],[5.332315278,45.358476389],[5.332391389,45.358457222],[5.332507222,45.358465833],[5.332597778,45.358490833],[5.332659167,45.358528889],[5.3327,45.358586667],[5.332516389,45.358633333],[5.332515,45.358621389]]]}},{"type":"Feature","id":"LFLS-e7f35fab99758a636b85","properties":{"airport":"LFLS","name":"LFLS AVISO","layer":"Buildings and structures","category":"Buildings","object_type":"Area","style_id":"polygon.building.394446","source_group":"LFLS AVISO","vsmr_group_ids":[],"geometry_role":"filled_region"},"geometry":{"type":"Polygon","coordinates":[[[5.331593056,45.358483611],[5.331688889,45.358501944],[5.331659722,45.358557222],[5.331566944,45.358530556],[5.331593056,45.358483611]]]}},{"type":"Feature","id":"LFLS-248d4de023d8aa2030a8","properties":{"airport":"LFLS","name":"LFLS AVISO","layer":"Buildings and structures","category":"Buildings","object_type":"Area","style_id":"polygon.building.394446","source_group":"LFLS AVISO","vsmr_group_ids":[],"geometry_role":"filled_region"},"geometry":{"type":"Polygon","coordinates":[[[5.331598333,45.358878333],[5.331515556,45.358993889],[5.331286389,45.359418056],[5.331249722,45.359443333],[5.331095278,45.3594],[5.331110278,45.3593675],[5.33124,45.359116389],[5.331333889,45.358945278],[5.331356667,45.358950833],[5.331385278,45.358908056],[5.331351389,45.358893889],[5.331425278,45.358765556],[5.331622778,45.358808056],[5.331598333,45.358878333]]]}},{"type":"Feature","id":"LFLS-fb88135e015c6faaa95f","properties":{"airport":"LFLS","name":"LFLS AVISO","layer":"Buildings and structures","category":"Buildings","object_type":"Area","style_id":"polygon.building.394446","source_group":"LFLS AVISO","vsmr_group_ids":[],"geometry_role":"filled_region"},"geometry":{"type":"Polygon","coordinates":[[[5.331475,45.359075833],[5.331529722,45.359095833],[5.331485278,45.359181111],[5.331419444,45.359164444],[5.331475,45.359075833]]]}},{"type":"Feature","id":"LFLS-a9b54c2007e2589215b5","properties":{"airport":"LFLS","name":"LFLS AVISO","layer":"Buildings and structures","category":"Buildings","object_type":"Area","style_id":"polygon.building.394446","source_group":"LFLS AVISO","vsmr_group_ids":[],"geometry_role":"filled_region"},"geometry":{"type":"Polygon","coordinates":[[[5.331318611,45.359431111],[5.331348889,45.359365278],[5.331379444,45.359314444],[5.331395556,45.359317778],[5.331424444,45.359265278],[5.331511944,45.359287222],[5.3314875,45.359337222],[5.331457778,45.359391389],[5.3314275,45.359455833],[5.331318611,45.359431111]]]}},{"type":"Feature","id":"LFLS-a938b4625b749c1fc632","properties":{"airport":"LFLS","name":"LFLS AVISO","layer":"Buildings and structures","category":"Buildings","object_type":"Area","style_id":"polygon.building.394446","source_group":"LFLS AVISO","vsmr_group_ids":[],"geometry_role":"filled_region"},"geometry":{"type":"Polygon","coordinates":[[[5.330890278,45.359910278],[5.331073611,45.359959444],[5.330921944,45.360239722],[5.330677778,45.3601725],[5.330763889,45.359994444],[5.330834167,45.360008889],[5.330890278,45.359910278]]]}},{"type":"Feature","id":"LFLS-8d7a71cacd5f0dd44bb1","properties":{"airport":"LFLS","name":"LFLS AVISO","layer":"Buildings and structures","category":"Buildings","object_type":"Area","style_id":"polygon.building.394446","source_group":"LFLS AVISO","vsmr_group_ids":[],"geometry_role":"filled_region"},"geometry":{"type":"Polygon","coordinates":[[[5.331218889,45.359666667],[5.331272778,45.359683889],[5.331206944,45.359771944],[5.331159167,45.359754444],[5.331218889,45.359666667]]]}},{"type":"Feature","id":"LFLS-1cc29b1d59b9deeddbbe","properties":{"airport":"LFLS","name":"LFLS AVISO","layer":"Buildings and structures","category":"Buildings","object_type":"Area","style_id":"polygon.building.394446","source_group":"LFLS AVISO","vsmr_group_ids":[],"geometry_role":"filled_region"},"geometry":{"type":"Polygon","coordinates":[[[5.331499444,45.359815278],[5.331508333,45.359886389],[5.331296667,45.359888611],[5.331302778,45.359817778],[5.331499444,45.359815278]]]}},{"type":"Feature","id":"LFLS-80cf63cf937e6e6219d7","properties":{"airport":"LFLS","name":"LFLS AVISO","layer":"Buildings and structures","category":"Buildings","object_type":"Area","style_id":"polygon.building.394446","source_group":"LFLS AVISO","vsmr_group_ids":[],"geometry_role":"filled_region"},"geometry":{"type":"Polygon","coordinates":[[[5.330635278,45.360556667],[5.330633333,45.36049],[5.330689722,45.36049],[5.330688889,45.360296944],[5.330831111,45.360293333],[5.33083,45.360484167],[5.330897222,45.360485],[5.330898056,45.360554722],[5.330635278,45.360556667]]]}},{"type":"Feature","id":"LFLS-843f2dd94f5eea509022","properties":{"airport":"LFLS","name":"LFLS AVISO","layer":"Buildings and structures","category":"Buildings","object_type":"Area","style_id":"polygon.building.394446","source_group":"LFLS AVISO","vsmr_group_ids":[],"geometry_role":"filled_region"},"geometry":{"type":"Polygon","coordinates":[[[5.331438611,45.360414722],[5.331175278,45.360418056],[5.331176111,45.360240278],[5.330981944,45.360242778],[5.331089167,45.360041944],[5.331153611,45.360041944],[5.331153611,45.359982222],[5.331226389,45.359983611],[5.331228056,45.359931111],[5.331645556,45.359929444],[5.332756111,45.3599275],[5.332759444,45.360234722],[5.331783611,45.360236944],[5.331783611,45.360333889],[5.332520833,45.360329167],[5.332517778,45.360540556],[5.331525,45.360553889],[5.331531667,45.360363889],[5.331650833,45.360363333],[5.331652222,45.360299722],[5.331504167,45.360299167],[5.3315025,45.360325556],[5.331438889,45.360325556],[5.331438611,45.360414722]]]}},{"type":"Feature","id":"LFLS-7071de6df43d2be3a02a","properties":{"airport":"LFLS","name":"LFLS AVISO","layer":"Buildings and structures","category":"Buildings","object_type":"Area","style_id":"polygon.building.394446","source_group":"LFLS AVISO","vsmr_group_ids":[],"geometry_role":"filled_region"},"geometry":{"type":"Polygon","coordinates":[[[5.332750556,45.359978611],[5.333028056,45.359979444],[5.333029444,45.3599975],[5.333105278,45.360000833],[5.333108056,45.360126389],[5.333187778,45.360126944],[5.333189167,45.360307222],[5.3336775,45.360311111],[5.333680833,45.36036],[5.333761944,45.360360556],[5.333760278,45.360493333],[5.333337222,45.360498611],[5.333336667,45.360561389],[5.333135833,45.360562222],[5.333136667,45.360534444],[5.333092778,45.360535],[5.333091944,45.360545556],[5.332742778,45.360545833],[5.332737778,45.360364722],[5.332585833,45.360366944],[5.332586111,45.360303056],[5.332675,45.360301667],[5.3326925,45.360276667],[5.332697778,45.360259167],[5.332696111,45.360243611],[5.332681667,45.360232778],[5.332750556,45.359978611]]]}},{"type":"Feature","id":"LFLS-8a3a51137f912b4b97a4","properties":{"airport":"LFLS","name":"LFLS AVISO","layer":"Buildings and structures","category":"Buildings","object_type":"Area","style_id":"polygon.building.394446","source_group":"LFLS AVISO","vsmr_group_ids":[],"geometry_role":"filled_region"},"geometry":{"type":"Polygon","coordinates":[[[5.330143056,45.367360556],[5.330143889,45.367285556],[5.330257222,45.367283611],[5.330262778,45.367361667],[5.330143056,45.367360556]]]}},{"type":"Feature","id":"LFLS-369d3274143927ede077","properties":{"airport":"LFLS","name":"LFLS AVISO","layer":"Buildings and structures","category":"Buildings","object_type":"Area","style_id":"polygon.building.394446","source_group":"LFLS AVISO","vsmr_group_ids":[],"geometry_role":"filled_region"},"geometry":{"type":"Polygon","coordinates":[[[5.329342778,45.367180833],[5.329351111,45.366993889],[5.3301475,45.366987778],[5.330151667,45.367175],[5.329342778,45.367180833]]]}},{"type":"Feature","id":"LFLS-3de8078b077d19ae044f","properties":{"airport":"LFLS","name":"LFLS AVISO","layer":"Buildings and structures","category":"Buildings","object_type":"Area","style_id":"polygon.building.394446","source_group":"LFLS AVISO","vsmr_group_ids":[],"geometry_role":"filled_region"},"geometry":{"type":"Polygon","coordinates":[[[5.329095278,45.367038056],[5.329159167,45.367036667],[5.329155278,45.367084167],[5.329088056,45.367085556],[5.329095278,45.367038056]]]}},{"type":"Feature","id":"LFLS-41d1da35e976a7cce255","properties":{"airport":"LFLS","name":"LFLS AVISO","layer":"Buildings and structures","category":"Buildings","object_type":"Area","style_id":"polygon.building.394446","source_group":"LFLS AVISO","vsmr_group_ids":[],"geometry_role":"filled_region"},"geometry":{"type":"Polygon","coordinates":[[[5.330615278,45.367362778],[5.330613611,45.366981389],[5.331496667,45.366984444],[5.331491667,45.367146944],[5.331423611,45.367146667],[5.331425278,45.367224167],[5.331297778,45.367221944],[5.331298333,45.367311944],[5.331161389,45.367308889],[5.331161667,45.367258056],[5.331112778,45.367259167],[5.331117222,45.3673625],[5.330615278,45.367362778]]]}},{"type":"Feature","id":"LFLS-e6f29e0c212e6ad5a6e8","properties":{"airport":"LFLS","name":"LFLS AVISO","layer":"Buildings and structures","category":"Buildings","object_type":"Area","style_id":"polygon.building.394446","source_group":"LFLS AVISO","vsmr_group_ids":[],"geometry_role":"filled_region"},"geometry":{"type":"Polygon","coordinates":[[[5.331293611,45.366959167],[5.331302222,45.366845],[5.331486389,45.366841111],[5.331483333,45.366959167],[5.331293611,45.366959167]]]}},{"type":"Feature","id":"LFLS-6e3fc7302857ce8df773","properties":{"airport":"LFLS","name":"LFLS AVISO","layer":"Buildings and structures","category":"Buildings","object_type":"Area","style_id":"polygon.building.394446","source_group":"LFLS AVISO","vsmr_group_ids":[],"geometry_role":"filled_region"},"geometry":{"type":"Polygon","coordinates":[[[5.332096667,45.366981667],[5.332103889,45.366800278],[5.333051667,45.366798611],[5.333048333,45.366871667],[5.332905833,45.366875],[5.332903056,45.366886667],[5.332922222,45.366886389],[5.332921944,45.366955],[5.332902222,45.366956111],[5.332897778,45.366981944],[5.332096667,45.366981667]]]}},{"type":"Feature","id":"LFLS-50d76b25e3e698cec8df","properties":{"airport":"LFLS","name":"LFLS AVISO","layer":"Buildings and structures","category":"Buildings","object_type":"Area","style_id":"polygon.building.394446","source_group":"LFLS AVISO","vsmr_group_ids":[],"geometry_role":"filled_region"},"geometry":{"type":"Polygon","coordinates":[[[5.333441667,45.366976111],[5.333445833,45.366795556],[5.334254167,45.366792222],[5.334252778,45.3669775],[5.333441667,45.366976111]]]}},{"type":"Feature","id":"LFLS-a6b010377f02b3aa11c0","properties":{"airport":"LFLS","name":"LFLS AVISO","layer":"Buildings and structures","category":"Buildings","object_type":"Area","style_id":"polygon.building.394446","source_group":"LFLS AVISO","vsmr_group_ids":[],"geometry_role":"filled_region"},"geometry":{"type":"Polygon","coordinates":[[[5.338540278,45.359932778],[5.338533056,45.359738611],[5.339190278,45.359721111],[5.339188056,45.359633333],[5.340760278,45.359596111],[5.340764167,45.359885],[5.338540278,45.359932778]]]}},{"type":"Feature","id":"LFLS-e9c3af07591045c6cf36","properties":{"airport":"LFLS","name":"LFLS AVISO","layer":"Buildings and structures","category":"Buildings","object_type":"Area","style_id":"polygon.building.394446","source_group":"LFLS AVISO","vsmr_group_ids":[],"geometry_role":"filled_region"},"geometry":{"type":"Polygon","coordinates":[[[5.341781389,45.359968056],[5.341775833,45.359602222],[5.342574167,45.359599167],[5.342580278,45.359961111],[5.341781389,45.359968056]]]}},{"type":"Feature","id":"LFLS-b1f8b3a020bf603c22a9","properties":{"airport":"LFLS","name":"LFLS AVISO","layer":"Surface markings","category":"Stopbars","object_type":"Area","style_id":"polygon.stopbar.7e0000","source_group":"LFLS AVISO","vsmr_group_ids":[],"geometry_role":"filled_region"},"geometry":{"type":"Polygon","coordinates":[[[5.310032778,45.361739444],[5.310051389,45.361719444],[5.310313611,45.361828889],[5.310295278,45.361847778],[5.310032778,45.361739444]]]}},{"type":"Feature","id":"LFLS-0b70bbafcb95ebf2d28c","properties":{"airport":"LFLS","name":"LFLS AVISO","layer":"Surface markings","category":"Stopbars","object_type":"Area","style_id":"polygon.stopbar.7e0000","source_group":"LFLS AVISO","vsmr_group_ids":[],"geometry_role":"filled_region"},"geometry":{"type":"Polygon","coordinates":[[[5.316658056,45.361807778],[5.316646944,45.361781944],[5.316998056,45.361783611],[5.316985833,45.361806389],[5.316658056,45.361807778]]]}},{"type":"Feature","id":"LFLS-4e7ba827a6b5732e48e7","properties":{"airport":"LFLS","name":"LFLS AVISO","layer":"Surface markings","category":"Stopbars","object_type":"Area","style_id":"polygon.stopbar.7e0000","source_group":"LFLS AVISO","vsmr_group_ids":[],"geometry_role":"filled_region"},"geometry":{"type":"Polygon","coordinates":[[[5.332533333,45.362039444],[5.332534167,45.362014444],[5.332791111,45.362013333],[5.332791944,45.362038333],[5.332533333,45.362039444]]]}},{"type":"Feature","id":"LFLS-b8fbdd7d1cf73d360510","properties":{"airport":"LFLS","name":"LFLS AVISO","layer":"Surface markings","category":"Stopbars","object_type":"Area","style_id":"polygon.stopbar.7e0000","source_group":"LFLS AVISO","vsmr_group_ids":[],"geometry_role":"filled_region"},"geometry":{"type":"Polygon","coordinates":[[[5.338325,45.3620275],[5.338323611,45.362005],[5.338618611,45.361998056],[5.338620278,45.362021944],[5.338325,45.3620275]]]}},{"type":"Feature","id":"LFLS-2b8d5adc4b200703269e","properties":{"airport":"LFLS","name":"LFLS AVISO","layer":"Surface markings","category":"Stopbars","object_type":"Area","style_id":"polygon.stopbar.7e0000","source_group":"LFLS AVISO","vsmr_group_ids":[],"geometry_role":"filled_region"},"geometry":{"type":"Polygon","coordinates":[[[5.348368889,45.361654167],[5.348349167,45.3616375],[5.348599722,45.361502222],[5.348619444,45.361520833],[5.348368889,45.361654167]]]}},{"type":"Feature","id":"LFLS-0e26d002d2e6b73a7552","properties":{"airport":"LFLS","name":"LFLS AVISO","layer":"Surface markings","category":"Stopbars","object_type":"Area","style_id":"polygon.stopbar.7e0000","source_group":"LFLS AVISO","vsmr_group_ids":[],"geometry_role":"filled_region"},"geometry":{"type":"Polygon","coordinates":[[[5.336703889,45.363826944],[5.336723333,45.363807778],[5.336903333,45.363855556],[5.3369075,45.363881667],[5.336703889,45.363826944]]]}},{"type":"Feature","id":"LFLS-18e89f9a6a274ce979ee","properties":{"airport":"LFLS","name":"LFLS AVISO","layer":"Surface markings","category":"Stopbars","object_type":"Area","style_id":"polygon.stopbar.7e0000","source_group":"LFLS AVISO","vsmr_group_ids":[],"geometry_role":"filled_region"},"geometry":{"type":"Polygon","coordinates":[[[5.331769444,45.364163056],[5.331790278,45.364161944],[5.331801944,45.364150556],[5.331904444,45.364196389],[5.331886944,45.364216944],[5.331769444,45.364163056]]]}},{"type":"Feature","id":"LFLS-f29665a70766dea3657f","properties":{"airport":"LFLS","name":"LFLS AVISO","layer":"Surface markings","category":"Stopbars","object_type":"Area","style_id":"polygon.stopbar.7e0000","source_group":"LFLS AVISO","vsmr_group_ids":[],"geometry_role":"filled_region"},"geometry":{"type":"Polygon","coordinates":[[[5.329632778,45.361729444],[5.329788056,45.361727778],[5.329788611,45.361737222],[5.329633611,45.361738889],[5.329632778,45.361729444]]]}},{"type":"Feature","id":"LFLS-9a88c33b85be7f60e9ed","properties":{"airport":"LFLS","name":"LFLS AVISO","layer":"Surface markings","category":"Stopbars","object_type":"Area","style_id":"polygon.stopbar.7e0000","source_group":"LFLS AVISO","vsmr_group_ids":[],"geometry_role":"filled_region"},"geometry":{"type":"Polygon","coordinates":[[[5.318645556,45.361766389],[5.318445,45.361764167],[5.318445556,45.361755278],[5.318646389,45.361757778],[5.318645556,45.361766389]]]}},{"type":"Feature","id":"LFLS-a9c07c1fc22827b09099","properties":{"airport":"LFLS","name":"C1","layer":"Labels","category":"Gates","object_type":"Label","style_id":"label.gates","source_group":"LFLS Gates","vsmr_group_ids":[],"geometry_role":"text_label","text-field":"C1"},"geometry":{"type":"Point","coordinates":[5.3313525,45.360690278]}},{"type":"Feature","id":"LFLS-25c67bbf46345787e68f","properties":{"airport":"LFLS","name":"C11","layer":"Labels","category":"Gates","object_type":"Label","style_id":"label.gates","source_group":"LFLS Gates","vsmr_group_ids":[],"geometry_role":"text_label","text-field":"C11"},"geometry":{"type":"Point","coordinates":[5.331035833,45.361032222]}},{"type":"Feature","id":"LFLS-01a4ea4e9cdd938fc016","properties":{"airport":"LFLS","name":"C2","layer":"Labels","category":"Gates","object_type":"Label","style_id":"label.gates","source_group":"LFLS Gates","vsmr_group_ids":[],"geometry_role":"text_label","text-field":"C2"},"geometry":{"type":"Point","coordinates":[5.332219167,45.360683889]}},{"type":"Feature","id":"LFLS-b319932a9f160db004e8","properties":{"airport":"LFLS","name":"C3","layer":"Labels","category":"Gates","object_type":"Label","style_id":"label.gates","source_group":"LFLS Gates","vsmr_group_ids":[],"geometry_role":"text_label","text-field":"C3"},"geometry":{"type":"Point","coordinates":[5.333072778,45.360687222]}},{"type":"Feature","id":"LFLS-0ae187aff43565f38540","properties":{"airport":"LFLS","name":"C4","layer":"Labels","category":"Gates","object_type":"Label","style_id":"label.gates","source_group":"LFLS Gates","vsmr_group_ids":[],"geometry_role":"text_label","text-field":"C4"},"geometry":{"type":"Point","coordinates":[5.334049444,45.360607222]}},{"type":"Feature","id":"LFLS-8509952964c678a2ba02","properties":{"airport":"LFLS","name":"C5","layer":"Labels","category":"Gates","object_type":"Label","style_id":"label.gates","source_group":"LFLS Gates","vsmr_group_ids":[],"geometry_role":"text_label","text-field":"C5"},"geometry":{"type":"Point","coordinates":[5.334779722,45.360613611]}},{"type":"Feature","id":"LFLS-dad830883b5fc797d3b2","properties":{"airport":"LFLS","name":"C6","layer":"Labels","category":"Gates","object_type":"Label","style_id":"label.gates","source_group":"LFLS Gates","vsmr_group_ids":[],"geometry_role":"text_label","text-field":"C6"},"geometry":{"type":"Point","coordinates":[5.33551,45.360613611]}},{"type":"Feature","id":"LFLS-39e619baf81bdb5762b3","properties":{"airport":"LFLS","name":"C7","layer":"Labels","category":"Gates","object_type":"Label","style_id":"label.gates","source_group":"LFLS Gates","vsmr_group_ids":[],"geometry_role":"text_label","text-field":"C7"},"geometry":{"type":"Point","coordinates":[5.336236111,45.360610556]}},{"type":"Feature","id":"LFLS-1bebe56d3d387f9d31c0","properties":{"airport":"LFLS","name":"C21","layer":"Labels","category":"Gates","object_type":"Label","style_id":"label.gates","source_group":"LFLS Gates","vsmr_group_ids":[],"geometry_role":"text_label","text-field":"C21"},"geometry":{"type":"Point","coordinates":[5.334700556,45.3609875]}},{"type":"Feature","id":"LFLS-e8da1b31fb789489c821","properties":{"airport":"LFLS","name":"C22","layer":"Labels","category":"Gates","object_type":"Label","style_id":"label.gates","source_group":"LFLS Gates","vsmr_group_ids":[],"geometry_role":"text_label","text-field":"C22"},"geometry":{"type":"Point","coordinates":[5.336363611,45.360961944]}},{"type":"Feature","id":"LFLS-1fcbfcc97a4b36100f42","properties":{"airport":"LFLS","name":"A2","layer":"Labels","category":"Gates","object_type":"Label","style_id":"label.gates","source_group":"LFLS Gates","vsmr_group_ids":[],"geometry_role":"text_label","text-field":"A2"},"geometry":{"type":"Point","coordinates":[5.32987,45.358971111]}},{"type":"Feature","id":"LFLS-ac1157c1395af07d5fc4","properties":{"airport":"LFLS","name":"A21","layer":"Labels","category":"Gates","object_type":"Label","style_id":"label.gates","source_group":"LFLS Gates","vsmr_group_ids":[],"geometry_role":"text_label","text-field":"A21"},"geometry":{"type":"Point","coordinates":[5.330826667,45.359270556]}},{"type":"Feature","id":"LFLS-db7446505c29f7ea8dfd","properties":{"airport":"LFLS","name":"A3","layer":"Labels","category":"Gates","object_type":"Label","style_id":"label.gates","source_group":"LFLS Gates","vsmr_group_ids":[],"geometry_role":"text_label","text-field":"A3"},"geometry":{"type":"Point","coordinates":[5.331046667,45.359042778]}},{"type":"Feature","id":"LFLS-5767aeec0776b3b35400","properties":{"airport":"LFLS","name":"A4","layer":"Labels","category":"Gates","object_type":"Label","style_id":"label.gates","source_group":"LFLS Gates","vsmr_group_ids":[],"geometry_role":"text_label","text-field":"A4"},"geometry":{"type":"Point","coordinates":[5.330012778,45.358691389]}},{"type":"Feature","id":"LFLS-22e5c593f406377bb738","properties":{"airport":"LFLS","name":"A5","layer":"Labels","category":"Gates","object_type":"Label","style_id":"label.gates","source_group":"LFLS Gates","vsmr_group_ids":[],"geometry_role":"text_label","text-field":"A5"},"geometry":{"type":"Point","coordinates":[5.331239167,45.358683611]}},{"type":"Feature","id":"LFLS-a790cf3a218c23ddb453","properties":{"airport":"LFLS","name":"A6","layer":"Labels","category":"Gates","object_type":"Label","style_id":"label.gates","source_group":"LFLS Gates","vsmr_group_ids":[],"geometry_role":"text_label","text-field":"A6"},"geometry":{"type":"Point","coordinates":[5.330177778,45.358416111]}},{"type":"Feature","id":"LFLS-e020d8fe3c27052224da","properties":{"airport":"LFLS","name":"A7","layer":"Labels","category":"Gates","object_type":"Label","style_id":"label.gates","source_group":"LFLS Gates","vsmr_group_ids":[],"geometry_role":"text_label","text-field":"A7"},"geometry":{"type":"Point","coordinates":[5.331437222,45.358304167]}},{"type":"Feature","id":"LFLS-6664a1e098569daaf17e","properties":{"airport":"LFLS","name":"A8","layer":"Labels","category":"Gates","object_type":"Label","style_id":"label.gates","source_group":"LFLS Gates","vsmr_group_ids":[],"geometry_role":"text_label","text-field":"A8"},"geometry":{"type":"Point","coordinates":[5.330326389,45.3581325]}},{"type":"Feature","id":"LFLS-df94b513f472d4fcd906","properties":{"airport":"LFLS","name":"A9","layer":"Labels","category":"Gates","object_type":"Label","style_id":"label.gates","source_group":"LFLS Gates","vsmr_group_ids":[],"geometry_role":"text_label","text-field":"A9"},"geometry":{"type":"Point","coordinates":[5.331640556,45.358060556]}},{"type":"Feature","id":"LFLS-6b0b1c302209da5315c9","properties":{"airport":"LFLS","name":"A10","layer":"Labels","category":"Gates","object_type":"Label","style_id":"label.gates","source_group":"LFLS Gates","vsmr_group_ids":[],"geometry_role":"text_label","text-field":"A10"},"geometry":{"type":"Point","coordinates":[5.330375833,45.357848889]}},{"type":"Feature","id":"LFLS-50a702539c58b9813075","properties":{"airport":"LFLS","name":"A11","layer":"Labels","category":"Gates","object_type":"Label","style_id":"label.gates","source_group":"LFLS Gates","vsmr_group_ids":[],"geometry_role":"text_label","text-field":"A11"},"geometry":{"type":"Point","coordinates":[5.331299722,45.357841111]}},{"type":"Feature","id":"LFLS-055fd96dc914ee56e709","properties":{"airport":"LFLS","name":"A12","layer":"Labels","category":"Gates","object_type":"Label","style_id":"label.gates","source_group":"LFLS Gates","vsmr_group_ids":[],"geometry_role":"text_label","text-field":"A12"},"geometry":{"type":"Point","coordinates":[5.331569167,45.357912778]}},{"type":"Feature","id":"LFLS-bfefbf0345adec14f460","properties":{"airport":"LFLS","name":"B1","layer":"Labels","category":"Gates","object_type":"Label","style_id":"label.gates","source_group":"LFLS Gates","vsmr_group_ids":[],"geometry_role":"text_label","text-field":"B1"},"geometry":{"type":"Point","coordinates":[5.331107222,45.356986667]}},{"type":"Feature","id":"LFLS-47b2f6dd23b68ce76730","properties":{"airport":"LFLS","name":"B2","layer":"Labels","category":"Gates","object_type":"Label","style_id":"label.gates","source_group":"LFLS Gates","vsmr_group_ids":[],"geometry_role":"text_label","text-field":"B2"},"geometry":{"type":"Point","coordinates":[5.331387778,45.357054444]}},{"type":"Feature","id":"LFLS-41d00c3d0a9d869ffd56","properties":{"airport":"LFLS","name":"B3","layer":"Labels","category":"Gates","object_type":"Label","style_id":"label.gates","source_group":"LFLS Gates","vsmr_group_ids":[],"geometry_role":"text_label","text-field":"B3"},"geometry":{"type":"Point","coordinates":[5.331772778,45.357198056]}},{"type":"Feature","id":"LFLS-1bda4eb56e93435f4468","properties":{"airport":"LFLS","name":"D1","layer":"Labels","category":"Gates","object_type":"Label","style_id":"label.gates","source_group":"LFLS Gates","vsmr_group_ids":[],"geometry_role":"text_label","text-field":"D1"},"geometry":{"type":"Point","coordinates":[5.333158611,45.358068611]}},{"type":"Feature","id":"LFLS-38ae154b266703f89bee","properties":{"airport":"LFLS","name":"D2","layer":"Labels","category":"Gates","object_type":"Label","style_id":"label.gates","source_group":"LFLS Gates","vsmr_group_ids":[],"geometry_role":"text_label","text-field":"D2"},"geometry":{"type":"Point","coordinates":[5.332916667,45.357992778]}},{"type":"Feature","id":"LFLS-20a8a8ae1ee079d77f42","properties":{"airport":"LFLS","name":"D3","layer":"Labels","category":"Gates","object_type":"Label","style_id":"label.gates","source_group":"LFLS Gates","vsmr_group_ids":[],"geometry_role":"text_label","text-field":"D3"},"geometry":{"type":"Point","coordinates":[5.332674444,45.357928889]}},{"type":"Feature","id":"LFLS-3265c96e5da4aac51bc8","properties":{"airport":"LFLS","name":"D4","layer":"Labels","category":"Gates","object_type":"Label","style_id":"label.gates","source_group":"LFLS Gates","vsmr_group_ids":[],"geometry_role":"text_label","text-field":"D4"},"geometry":{"type":"Point","coordinates":[5.3324325,45.357865]}},{"type":"Feature","id":"LFLS-91d4f058a17e8a2945c2","properties":{"airport":"LFLS","name":"D5","layer":"Labels","category":"Gates","object_type":"Label","style_id":"label.gates","source_group":"LFLS Gates","vsmr_group_ids":[],"geometry_role":"text_label","text-field":"D5"},"geometry":{"type":"Point","coordinates":[5.331932222,45.357976667]}},{"type":"Feature","id":"LFLS-c022811f15c125d887b7","properties":{"airport":"LFLS","name":"PRKG J","layer":"Labels","category":"Gates","object_type":"Label","style_id":"label.gates","source_group":"LFLS Gates","vsmr_group_ids":[],"geometry_role":"text_label","text-field":"PRKG J"},"geometry":{"type":"Point","coordinates":[5.339946667,45.360311111]}},{"type":"Feature","id":"LFLS-9452fae01894fae791cc","properties":{"airport":"LFLS","name":"PRKG R","layer":"Labels","category":"Gates","object_type":"Label","style_id":"label.gates","source_group":"LFLS Gates","vsmr_group_ids":[],"geometry_role":"text_label","text-field":"PRKG R"},"geometry":{"type":"Point","coordinates":[5.342213056,45.360116111]}},{"type":"Feature","id":"LFLS-7e5a20301833377a2f63","properties":{"airport":"LFLS","name":"PRKG E","layer":"Labels","category":"Gates","object_type":"Label","style_id":"label.gates","source_group":"LFLS Gates","vsmr_group_ids":[],"geometry_role":"text_label","text-field":"PRKG E"},"geometry":{"type":"Point","coordinates":[5.332484722,45.366598611]}},{"type":"Feature","id":"LFLS-280ef5af703c3e38c89f","properties":{"airport":"LFLS","name":"Terminal","layer":"Labels","category":"Gates","object_type":"Label","style_id":"label.gates","source_group":"LFLS Gates","vsmr_group_ids":[],"geometry_role":"text_label","text-field":"Terminal"},"geometry":{"type":"Point","coordinates":[5.332229167,45.360081944]}},{"type":"Feature","id":"LFLS-6012c5aa88fc57c4b3dd","properties":{"airport":"LFLS","name":"GA Terminal","layer":"Labels","category":"Gates","object_type":"Label","style_id":"label.gates","source_group":"LFLS Gates","vsmr_group_ids":[],"geometry_role":"text_label","text-field":"GA Terminal"},"geometry":{"type":"Point","coordinates":[5.334113333,45.357740833]}},{"type":"Feature","id":"LFLS-ca255e1d7e3ddddb7797","properties":{"airport":"LFLS","name":"LFLS Groundlayout AVISO","layer":"Guidance lines","category":"Taxiways","object_type":"Line","style_id":"line.taxiway.c0b631","source_group":"LFLS Groundlayout AVISO","vsmr_group_ids":[],"geometry_role":"linework"},"geometry":{"type":"MultiLineString","coordinates":[[[5.336393611,45.360900833],[5.336362222,45.360901111],[5.336378889,45.360900833],[5.336376667,45.360711389]],[[5.336148056,45.360626667],[5.336594167,45.361025556]],[[5.335861111,45.361026667],[5.335416389,45.360629444]],[[5.335136944,45.361028611],[5.334689167,45.360631667]],[[5.33516,45.360735],[5.334788889,45.360943056],[5.334773889,45.360929722],[5.3348025,45.360955278]],[[5.334407778,45.361030833],[5.33396,45.360634444]],[[5.333484722,45.361034722],[5.332985556,45.360715833]],[[5.332636944,45.361035278],[5.332136111,45.360716667]],[[5.331793056,45.361040278],[5.331284722,45.360717222]],[[5.331521944,45.360786667],[5.331010833,45.360985],[5.330999444,45.360971667],[5.331021389,45.360997222]],[[5.330906389,45.359308333],[5.330501667,45.359577778]],[[5.329668889,45.358858056],[5.329959167,45.358938056],[5.3299525,45.358950556],[5.329965278,45.358926667]],[[5.330607222,45.358995],[5.331051111,45.359116111]],[[5.329826944,45.358578056],[5.330112778,45.358655556],[5.330104722,45.358670278],[5.330120278,45.3586425]],[[5.330809722,45.358618056],[5.331255556,45.358736944]],[[5.329986667,45.3583],[5.330265833,45.358374444],[5.330256667,45.358388611],[5.330274444,45.35836]],[[5.330423611,45.358080556],[5.330408333,45.358106389],[5.330416111,45.358092778],[5.330131389,45.358025278]],[[5.331459444,45.358357778],[5.3310175,45.358239167]],[[5.330431389,45.357591389],[5.33049,45.3578475],[5.330465556,45.357849444],[5.330513611,45.357845556]],[[5.331206111,45.357886111],[5.331655278,45.358006111]],[[5.331422222,45.357762222],[5.331364167,45.35787]],[[5.3316875,45.357831944],[5.331628056,45.357943056]],[[5.331092222,45.357057222],[5.3308,45.357149722],[5.330771944,45.357160833],[5.330754444,45.357173889],[5.330740278,45.357188611],[5.330731944,45.357201944]],[[5.331365833,45.357098611],[5.331235833,45.357338333]],[[5.331743333,45.357250556],[5.331647222,45.357455]],[[5.332085278,45.357866111],[5.331999444,45.358018056],[5.331983889,45.358013333],[5.332015278,45.358022222]],[[5.332339167,45.358052222],[5.332410833,45.357926111],[5.332399722,45.357923333],[5.3324225,45.357929167]],[[5.33258,45.358116667],[5.33265,45.357989722],[5.332638889,45.357986944],[5.332661111,45.357992778]],[[5.332815833,45.358181667],[5.332885556,45.358055],[5.332873056,45.358051944],[5.332899167,45.358058333]],[[5.333056667,45.358248333],[5.333124167,45.358121389],[5.333108611,45.3581175],[5.333138611,45.358124722]]]}},{"type":"Feature","id":"LFLS-32b290e057f144bc3238","properties":{"airport":"LFLS","name":"LFLS Groundlayout AVISO","layer":"Guidance lines","category":"Taxiway Orange","object_type":"Line","style_id":"line.taxiwayorange.cc6d00","source_group":"LFLS Groundlayout AVISO","vsmr_group_ids":[],"geometry_role":"linework"},"geometry":{"type":"MultiLineString","coordinates":[[[5.338738056,45.360973333],[5.338773611,45.360972778]],[[5.338805833,45.360971944],[5.338842222,45.360971389]],[[5.338875556,45.360970556],[5.3389125,45.360970278]],[[5.338943611,45.360969722],[5.338980556,45.360969722]],[[5.339014167,45.360968611],[5.339048056,45.360968333]],[[5.339080556,45.3609675],[5.339117222,45.360966667]],[[5.341083889,45.360964444],[5.341108611,45.360963889]],[[5.341130278,45.360963333],[5.341154444,45.360962778]],[[5.341176111,45.360962778],[5.341200556,45.3609625]],[[5.342444722,45.360959444],[5.342466944,45.360959444]],[[5.342485,45.360959444],[5.342507778,45.360959167]],[[5.342530833,45.360959167],[5.342553333,45.360959444]],[[5.342568889,45.360959444],[5.342580278,45.360959444]]]}},{"type":"Feature","id":"LFLS-720fafe83a343589a599","properties":{"airport":"LFLS","name":"09","layer":"Labels","category":"Taxiways","object_type":"Label","style_id":"label.taxiways","source_group":"LFLS Taxiways","vsmr_group_ids":[],"geometry_role":"text_label","text-field":"09"},"geometry":{"type":"Point","coordinates":[5.310364722,45.362936111]}},{"type":"Feature","id":"LFLS-6cfd89a8a6d215bebf77","properties":{"airport":"LFLS","name":"27","layer":"Labels","category":"Taxiways","object_type":"Label","style_id":"label.taxiways","source_group":"LFLS Taxiways","vsmr_group_ids":[],"geometry_role":"text_label","text-field":"27"},"geometry":{"type":"Point","coordinates":[5.348335833,45.362879167]}},{"type":"Feature","id":"LFLS-b498a69eccaa9433de75","properties":{"airport":"LFLS","name":"S1","layer":"Labels","category":"Taxiways","object_type":"Label","style_id":"label.taxiways","source_group":"LFLS Taxiways","vsmr_group_ids":[],"geometry_role":"text_label","text-field":"S1"},"geometry":{"type":"Point","coordinates":[5.309923611,45.361676389]}},{"type":"Feature","id":"LFLS-06af5bec1fb6090617c9","properties":{"airport":"LFLS","name":"S2","layer":"Labels","category":"Taxiways","object_type":"Label","style_id":"label.taxiways","source_group":"LFLS Taxiways","vsmr_group_ids":[],"geometry_role":"text_label","text-field":"S2"},"geometry":{"type":"Point","coordinates":[5.316445833,45.3618125]}},{"type":"Feature","id":"LFLS-91739137a78462e4d89a","properties":{"airport":"LFLS","name":"S3","layer":"Labels","category":"Taxiways","object_type":"Label","style_id":"label.taxiways","source_group":"LFLS Taxiways","vsmr_group_ids":[],"geometry_role":"text_label","text-field":"S3"},"geometry":{"type":"Point","coordinates":[5.332254167,45.362040278]}},{"type":"Feature","id":"LFLS-517ea0bce2b6d2f5d3a6","properties":{"airport":"LFLS","name":"S4","layer":"Labels","category":"Taxiways","object_type":"Label","style_id":"label.taxiways","source_group":"LFLS Taxiways","vsmr_group_ids":[],"geometry_role":"text_label","text-field":"S4"},"geometry":{"type":"Point","coordinates":[5.338081944,45.362001389]}},{"type":"Feature","id":"LFLS-146010982f99a9f7ef65","properties":{"airport":"LFLS","name":"S5","layer":"Labels","category":"Taxiways","object_type":"Label","style_id":"label.taxiways","source_group":"LFLS Taxiways","vsmr_group_ids":[],"geometry_role":"text_label","text-field":"S5"},"geometry":{"type":"Point","coordinates":[5.348156944,45.361756944]}},{"type":"Feature","id":"LFLS-e23711170341d336ccd8","properties":{"airport":"LFLS","name":"N7","layer":"Labels","category":"Taxiways","object_type":"Label","style_id":"label.taxiways","source_group":"LFLS Taxiways","vsmr_group_ids":[],"geometry_role":"text_label","text-field":"N7"},"geometry":{"type":"Point","coordinates":[5.336545833,45.363790278]}},{"type":"Feature","id":"LFLS-4a0a873eefefd2dbc14a","properties":{"airport":"LFLS","name":"N7","layer":"Labels","category":"Taxiways","object_type":"Label","style_id":"label.taxiways","source_group":"LFLS Taxiways","vsmr_group_ids":[],"geometry_role":"text_label","text-field":"N7"},"geometry":{"type":"Point","coordinates":[5.335131944,45.366609722]}},{"type":"Feature","id":"LFLS-b1c27cf2f52c99bb37ba","properties":{"airport":"LFLS","name":"N6","layer":"Labels","category":"Taxiways","object_type":"Label","style_id":"label.taxiways","source_group":"LFLS Taxiways","vsmr_group_ids":[],"geometry_role":"text_label","text-field":"N6"},"geometry":{"type":"Point","coordinates":[5.330593056,45.3658375]}},{"type":"Feature","id":"LFLS-56871ed3a2699af007e0","properties":{"airport":"LFLS","name":"N6","layer":"Labels","category":"Taxiways","object_type":"Label","style_id":"label.taxiways","source_group":"LFLS Taxiways","vsmr_group_ids":[],"geometry_role":"text_label","text-field":"N6"},"geometry":{"type":"Point","coordinates":[5.332098611,45.364231944]}},{"type":"Feature","id":"LFLS-7af452c7047223a7f976","properties":{"airport":"LFLS","name":"T1","layer":"Labels","category":"Taxiways","object_type":"Label","style_id":"label.taxiways","source_group":"LFLS Taxiways","vsmr_group_ids":[],"geometry_role":"text_label","text-field":"T1"},"geometry":{"type":"Point","coordinates":[5.313175,45.361397222]}},{"type":"Feature","id":"LFLS-f0c084d62d50c2caf146","properties":{"airport":"LFLS","name":"T2","layer":"Labels","category":"Taxiways","object_type":"Label","style_id":"label.taxiways","source_group":"LFLS Taxiways","vsmr_group_ids":[],"geometry_role":"text_label","text-field":"T2"},"geometry":{"type":"Point","coordinates":[5.323993056,45.361398889]}},{"type":"Feature","id":"LFLS-81ba2dd9cb223a50ec76","properties":{"airport":"LFLS","name":"T3","layer":"Labels","category":"Taxiways","object_type":"Label","style_id":"label.taxiways","source_group":"LFLS Taxiways","vsmr_group_ids":[],"geometry_role":"text_label","text-field":"T3"},"geometry":{"type":"Point","coordinates":[5.331228056,45.361380278]}},{"type":"Feature","id":"LFLS-97cf13cfb452edcb47a8","properties":{"airport":"LFLS","name":"T4","layer":"Labels","category":"Taxiways","object_type":"Label","style_id":"label.taxiways","source_group":"LFLS Taxiways","vsmr_group_ids":[],"geometry_role":"text_label","text-field":"T4"},"geometry":{"type":"Point","coordinates":[5.335401111,45.361369167]}},{"type":"Feature","id":"LFLS-acabdca5a779d6f4894b","properties":{"airport":"LFLS","name":"T5","layer":"Labels","category":"Taxiways","object_type":"Label","style_id":"label.taxiways","source_group":"LFLS Taxiways","vsmr_group_ids":[],"geometry_role":"text_label","text-field":"T5"},"geometry":{"type":"Point","coordinates":[5.34415,45.361354722]}},{"type":"Feature","id":"LFLS-ac1267ec273b1734e82c","properties":{"airport":"LFLS","name":"TH1","layer":"Labels","category":"Taxiways","object_type":"Label","style_id":"label.taxiways","source_group":"LFLS Taxiways","vsmr_group_ids":[],"geometry_role":"text_label","text-field":"TH1"},"geometry":{"type":"Point","coordinates":[5.318824444,45.361756667]}},{"type":"Feature","id":"LFLS-d7ceee9f0a3b663ed8b8","properties":{"airport":"LFLS","name":"TH2","layer":"Labels","category":"Taxiways","object_type":"Label","style_id":"label.taxiways","source_group":"LFLS Taxiways","vsmr_group_ids":[],"geometry_role":"text_label","text-field":"TH2"},"geometry":{"type":"Point","coordinates":[5.329431389,45.3617325]}},{"type":"Feature","id":"LFLS-131e84a4a1557fa76bfd","properties":{"airport":"LFLS","name":"TL","layer":"Labels","category":"Taxiways","object_type":"Label","style_id":"label.taxiways","source_group":"LFLS Taxiways","vsmr_group_ids":[],"geometry_role":"text_label","text-field":"TL"},"geometry":{"type":"Point","coordinates":[5.3299025,45.360357778]}},{"type":"Feature","id":"LFLS-89ab5ac4cc95b1d42849","properties":{"airport":"LFLS","name":"K1","layer":"Labels","category":"Taxiways","object_type":"Label","style_id":"label.taxiways","source_group":"LFLS Taxiways","vsmr_group_ids":[],"geometry_role":"text_label","text-field":"K1"},"geometry":{"type":"Point","coordinates":[5.338481944,45.360962222]}},{"type":"Feature","id":"LFLS-70c587dece1e82604f8c","properties":{"airport":"LFLS","name":"K2","layer":"Labels","category":"Taxiways","object_type":"Label","style_id":"label.taxiways","source_group":"LFLS Taxiways","vsmr_group_ids":[],"geometry_role":"text_label","text-field":"K2"},"geometry":{"type":"Point","coordinates":[5.340818056,45.3609525]}},{"type":"Feature","id":"LFLS-c35b4317e8ede74a03d4","properties":{"airport":"LFLS","name":"K3","layer":"Labels","category":"Taxiways","object_type":"Label","style_id":"label.taxiways","source_group":"LFLS Taxiways","vsmr_group_ids":[],"geometry_role":"text_label","text-field":"K3"},"geometry":{"type":"Point","coordinates":[5.342751389,45.360942778]}}]}
