{"type":"FeatureCollection","name":"LFLU AVISO","bbox":[4.886541111025742,44.86815085416679,5.065968123878013,44.95046678762285],"metadata":{"schema":"vSMR AVISO","schema_version":2,"geometry_mode":"shared","airport":"LFLU","coordinate_reference_system":"WGS84","coordinate_order":"longitude, latitude","default_color_palette":"dark","color_palettes":["dark","light"],"background_colors":{"dark":"#434A4F","light":"#434A4F"},"runways":[{"ends":["01L","19R"],"headings":[6,186],"thresholds":[[4.969671944,44.915585833],[4.971702778,44.926213889]]},{"ends":["01","19"],"headings":[6,186],"thresholds":[[4.968538889,44.914496944],[4.971482778,44.929832778]]}],"saved_active_runways":[],"saved_active_airport_modes":[],"airport_reference":[4.968610833,44.915555833],"feature_count":25,"style_count":6,"layer_counts":{"Airfield surfaces":16,"Guidance lines":4,"Labels":5},"category_counts":{"":20,"Gates":5},"geometry_source":"local GNG/KMZ","geometry_source_url":"","geometry_license":"GPL-3.0"},"styles":{"line.taxiway.c0b631":{"name":"Taxiways","layer":"Guidance lines","object_type":"Line","paint":{"stroke":"#4E5A69","stroke-opacity":1,"stroke-width":1,"palette-overrides":{"light":{"stroke":"#C0B631"}}},"feature_count":0},"line.runwayconcrete.555555":{"name":"Runways","layer":"Guidance lines","object_type":"Line","paint":{"stroke":"#111318","stroke-opacity":1,"stroke-width":1,"palette-overrides":{"light":{"stroke":"#555555"}}},"feature_count":0},"line.apronsurface.808080":{"name":"Apron Surface","layer":"Guidance lines","object_type":"Line","paint":{"stroke":"#808080","stroke-opacity":1,"stroke-width":1,"palette-overrides":{"light":{"stroke":"#808080"}}},"feature_count":0},"label.gates":{"name":"Gates","layer":"Labels","object_type":"Label","paint":{"text-color":"#CCCCCC","text-font":"Arial","text-size":12,"text-halo-color":"#000000","text-halo-width":1,"text-anchor":"center","zoomLevel":9},"feature_count":5},"polygon":{"name":"","layer":"Airfield surfaces","object_type":"Area","paint":{"fill":"#1d2b2b","fill-opacity":1},"feature_count":16},"line":{"name":"","layer":"Guidance lines","object_type":"Line","paint":{"stroke":"#ffff00","stroke-width":1,"stroke-opacity":1},"feature_count":4}},"vsmr_groups":[],"features":[{"type":"Feature","id":"LFLU-64af0a0850115baa5890","properties":{"airport":"LFLU","name":"LFLU_Background","layer":"Airfield surfaces","category":"","object_type":"Area","style_id":"polygon","source_group":"LFLU_Background","vsmr_group_ids":[],"geometry_role":"filled_region"},"geometry":{"type":"Polygon","coordinates":[[[4.886541111025742,44.87497062810381],[5.056205330347854,44.86815085416679],[5.065968123878013,44.94450620050466],[4.899144245114453,44.95046678762285],[4.886541111025742,44.87497062810381]]]}},{"type":"Feature","id":"LFLU-55f0ca648417ca96be1b","properties":{"airport":"LFLU","name":"LFLU_Base","layer":"Airfield surfaces","category":"","object_type":"Area","style_id":"polygon","source_group":"LFLU_Base","vsmr_group_ids":[],"geometry_role":"filled_region"},"geometry":{"type":"Polygon","coordinates":[[[4.971975442352643,44.93093786929812],[4.971428204267716,44.93097886730809],[4.971133530177068,44.93088574615113],[4.971007237338401,44.93077026764684],[4.970996704210791,44.93060263221746],[4.971101935199913,44.93047969612587],[4.971291352282872,44.93030460421755],[4.970900450671651,44.92832479560575],[4.970590006822883,44.92823912421695],[4.970495288626458,44.92807521686],[4.970474234514263,44.92792248324625],[4.970584721702722,44.92777719672496],[4.970742559130789,44.92756485499161],[4.969118546980811,44.9189246003672],[4.966723583468522,44.91915009081711],[4.966606972839729,44.91923583691438],[4.966382723416539,44.91925171382606],[4.966547792385891,44.92052614628687],[4.965933335702257,44.92060235906274],[4.965569724672152,44.9189702580288],[4.965210460585173,44.91789190614054],[4.964905526433543,44.91711064658023],[4.965484071257651,44.91704714220903],[4.965488553924349,44.91710430701021],[4.965973632142722,44.91705032595032],[4.96603192459175,44.91741554605501],[4.966260651916929,44.91739649379164],[4.966274105310948,44.91744413123566],[4.966354831886893,44.91746636280504],[4.967184525979922,44.91739014869837],[4.966887255161801,44.91594879780079],[4.966788590506475,44.91603136831193],[4.966698893620776,44.91619968580394],[4.966649558079224,44.91640928931423],[4.965936481048161,44.91646327081349],[4.965637339362818,44.9150741563397],[4.964969121572858,44.91515989097337],[4.964744917618875,44.91457235857565],[4.965220290111185,44.91451838055196],[4.965242706515398,44.91468352353826],[4.965516269109496,44.91466129806105],[4.965137746747841,44.91268873719057],[4.965353002265271,44.91267286260919],[4.96530368109976,44.912460081611],[4.966035498318384,44.91240610434355],[4.966071369755005,44.91258712690713],[4.96628662399178,44.91261571212818],[4.967506396093024,44.91247598412753],[4.967533302765775,44.91235530308526],[4.967605053541735,44.91228543508162],[4.967815820975041,44.91219016022679],[4.96838982572741,44.91213934416785],[4.971975442352643,44.93093786929812]]]}},{"type":"Feature","id":"LFLU-efe6971c466df87d7900","properties":{"airport":"LFLU","name":"LFLU_Grass","layer":"Airfield surfaces","category":"","object_type":"Area","style_id":"polygon","source_group":"LFLU_Grass","vsmr_group_ids":[],"geometry_role":"filled_region"},"geometry":{"type":"Polygon","coordinates":[[[4.965754003707663,44.91471145617043],[4.965657165346793,44.91425877437055],[4.966267343052135,44.91419019511802],[4.966199558140872,44.91368085060768],[4.965666869148815,44.9137048484661],[4.965516775459157,44.9129103273364],[4.967608754248856,44.91271144251331],[4.967705604748456,44.91282461240999],[4.96785572340694,44.91290348812291],[4.967986472183505,44.91295492851712],[4.968393119205241,44.91522057761801],[4.96829142415484,44.91539547704856],[4.967991175437911,44.91556351859524],[4.967807150820547,44.91558752482066],[4.967313189211591,44.91561153061543],[4.967143692715932,44.91557723628517],[4.966916083782991,44.91549835934238],[4.966887028472293,44.91540576556636],[4.966736914333874,44.91462729280377],[4.965754003707663,44.91471145617043]]]}},{"type":"Feature","id":"LFLU-d1066003090ffcbcc9c0","properties":{"airport":"LFLU","name":"LFLU_Grass","layer":"Airfield surfaces","category":"","object_type":"Area","style_id":"polygon","source_group":"LFLU_Grass","vsmr_group_ids":[],"geometry_role":"filled_region"},"geometry":{"type":"Polygon","coordinates":[[[4.968015317227499,44.91574288332876],[4.968153206603237,44.91576424276504],[4.968338495905758,44.91582221881026],[4.968467768279064,44.91590155489708],[4.968562569880812,44.91605717668553],[4.96878666545377,44.91723668106916],[4.967493919866312,44.91736484814353],[4.967381881308601,44.91736484817571],[4.967300007119992,44.91734653956349],[4.967252606735295,44.91727635649698],[4.967004841006841,44.91591521396868],[4.967013459406955,44.91588164828023],[4.967030695895551,44.91585113408703],[4.968015317227499,44.91574288332876]]]}},{"type":"Feature","id":"LFLU-1ef051b634bcf721b3f2","properties":{"airport":"LFLU","name":"LFLU_Grass","layer":"Airfield surfaces","category":"","object_type":"Area","style_id":"polygon","source_group":"LFLU_Grass","vsmr_group_ids":[],"geometry_role":"filled_region"},"geometry":{"type":"Polygon","coordinates":[[[4.968802852318999,44.91728533907625],[4.969100743053958,44.91881393103929],[4.969085390144574,44.91883567519313],[4.969023976603621,44.91885741988725],[4.967691289059202,44.91898354498944],[4.967636016094776,44.91896180113174],[4.967599167514969,44.91893788282214],[4.967565389818789,44.91888352282241],[4.967285962863195,44.91743320244048],[4.968802852318999,44.91728533907625]]]}},{"type":"Feature","id":"LFLU-1373072ebf03917be326","properties":{"airport":"LFLU","name":"LFLU_Grass","layer":"Airfield surfaces","category":"","object_type":"Area","style_id":"polygon","source_group":"LFLU_Grass","vsmr_group_ids":[],"geometry_role":"filled_region"},"geometry":{"type":"Polygon","coordinates":[[[4.966275717024631,44.91761366975882],[4.966297211832405,44.91759627491606],[4.966312565757796,44.91756148480862],[4.966361696640337,44.91752669509663],[4.967190768239592,44.91744189993262],[4.967470192540109,44.91889656652613],[4.967457909690952,44.91897049591714],[4.967393424674064,44.91900311174123],[4.967325868915458,44.9190183323222],[4.966668735009707,44.91908138651816],[4.966610391625843,44.91906616530402],[4.966564332007943,44.91900745621189],[4.966306390296394,44.91906616273558],[4.966155941699433,44.91845298223266],[4.966122166591922,44.91836165754024],[4.966091462474934,44.91825946092892],[4.965934874411238,44.91764628076869],[4.966275717024631,44.91761366975882]]]}},{"type":"Feature","id":"LFLU-5ce14cf9a02db35ff0bb","properties":{"airport":"LFLU","name":"LFLU_Buildings","layer":"Airfield surfaces","category":"","object_type":"Area","style_id":"polygon","source_group":"LFLU_Buildings","vsmr_group_ids":[],"geometry_role":"filled_region"},"geometry":{"type":"Polygon","coordinates":[[[4.965184252218934,44.91976325095788],[4.96575732684345,44.91971502079606],[4.96595767814314,44.92051525329198],[4.966061874621146,44.92050957929322],[4.966077902308603,44.9206003859362],[4.965396614332569,44.92065429233835],[4.965184252218934,44.91976325095788]]]}},{"type":"Feature","id":"LFLU-cb8288c418e65a7eeab0","properties":{"airport":"LFLU","name":"LFLU_Buildings","layer":"Airfield surfaces","category":"","object_type":"Area","style_id":"polygon","source_group":"LFLU_Buildings","vsmr_group_ids":[],"geometry_role":"filled_region"},"geometry":{"type":"Polygon","coordinates":[[[4.965084090846599,44.91913044178208],[4.965621093544447,44.91905383458527],[4.965753320387663,44.9196355636575],[4.965208298882895,44.91967811977165],[4.965084090846599,44.91913044178208]]]}},{"type":"Feature","id":"LFLU-174723d3ffb95ea36dd9","properties":{"airport":"LFLU","name":"LFLU_Buildings","layer":"Airfield surfaces","category":"","object_type":"Area","style_id":"polygon","source_group":"LFLU_Buildings","vsmr_group_ids":[],"geometry_role":"filled_region"},"geometry":{"type":"Polygon","coordinates":[[[4.96504000759511,44.91908733797168],[4.964839662715923,44.91850276787989],[4.965408720852955,44.91839778560589],[4.965585025210848,44.91900789267096],[4.96504000759511,44.91908733797168]]]}},{"type":"Feature","id":"LFLU-7a6fce17131f594bca61","properties":{"airport":"LFLU","name":"LFLU_Buildings","layer":"Airfield surfaces","category":"","object_type":"Area","style_id":"polygon","source_group":"LFLU_Buildings","vsmr_group_ids":[],"geometry_role":"filled_region"},"geometry":{"type":"Polygon","coordinates":[[[4.964823644621332,44.91825305009446],[4.964739499115629,44.9180288695251],[4.965268479670268,44.91792104973798],[4.965420744699493,44.91835238275553],[4.965104157862808,44.91838926618641],[4.965040046552267,44.91821616526048],[4.964823644621332,44.91825305009446]]]}},{"type":"Feature","id":"LFLU-8267b8bfb1c4dcb4b4ac","properties":{"airport":"LFLU","name":"LFLU_Buildings","layer":"Airfield surfaces","category":"","object_type":"Area","style_id":"polygon","source_group":"LFLU_Buildings","vsmr_group_ids":[],"geometry_role":"filled_region"},"geometry":{"type":"Polygon","coordinates":[[[4.964672237830168,44.91749910519999],[4.964566970210306,44.9172206276586],[4.964656769670654,44.91720966649334],[4.964641289407783,44.91716361904682],[4.96495094253808,44.91710661633527],[4.965068595484685,44.91743114043481],[4.964672237830168,44.91749910519999]]]}},{"type":"Feature","id":"LFLU-19bdf601d26bd606f364","properties":{"airport":"LFLU","name":"LFLU_Buildings","layer":"Airfield surfaces","category":"","object_type":"Area","style_id":"polygon","source_group":"LFLU_Buildings","vsmr_group_ids":[],"geometry_role":"filled_region"},"geometry":{"type":"Polygon","coordinates":[[[4.965037610326006,44.91786968227844],[4.965019036356464,44.91775785345092],[4.964960203532652,44.91773153963038],[4.964932336814538,44.91768768474452],[4.965022136991073,44.91767014501112],[4.965022138302784,44.91764163973728],[4.964984979693674,44.91764821706727],[4.964950923318614,44.91753200255037],[4.965180067638273,44.91748376787821],[4.965235796616225,44.91768111299881],[4.965167672362087,44.91769865330529],[4.965201727618562,44.91784995120143],[4.965037610326006,44.91786968227844]]]}},{"type":"Feature","id":"LFLU-aa93710748dda4a6ef7c","properties":{"airport":"LFLU","name":"LFLU_Buildings","layer":"Airfield surfaces","category":"","object_type":"Area","style_id":"polygon","source_group":"LFLU_Buildings","vsmr_group_ids":[],"geometry_role":"filled_region"},"geometry":{"type":"Polygon","coordinates":[[[4.965053694475678,44.91351624573257],[4.96492426700134,44.91274754241423],[4.965128413053924,44.91272991675061],[4.965287718574619,44.91347746345292],[4.965053694475678,44.91351624573257]]]}},{"type":"Feature","id":"LFLU-c9240c3e37f2ece07ac7","properties":{"airport":"LFLU","name":"LFLU_Buildings","layer":"Airfield surfaces","category":"","object_type":"Area","style_id":"polygon","source_group":"LFLU_Buildings","vsmr_group_ids":[],"geometry_role":"filled_region"},"geometry":{"type":"Polygon","coordinates":[[[4.965073581540674,44.91421089393843],[4.965038735859833,44.91400637766201],[4.965133342079211,44.91399227521973],[4.965118409786689,44.91386533424372],[4.965372351891013,44.91382655210897],[4.9654470264868,44.91419679688945],[4.965521697233246,44.914683404146],[4.965292649324866,44.91468692613987],[4.965227925150026,44.9145317750362],[4.964734972756022,44.91456702577726],[4.964705112919139,44.91426025129094],[4.965073581540674,44.91421089393843]]]}},{"type":"Feature","id":"LFLU-6305543f0f7ebf6ae596","properties":{"airport":"LFLU","name":"LFLU_Buildings","layer":"Airfield surfaces","category":"","object_type":"Area","style_id":"polygon","source_group":"LFLU_Buildings","vsmr_group_ids":[],"geometry_role":"filled_region"},"geometry":{"type":"Polygon","coordinates":[[[4.964705060416796,44.91528635808655],[4.964580595157797,44.91493021523399],[4.964964008573074,44.91484559733759],[4.96508349584643,44.91521584380108],[4.964705060416796,44.91528635808655]]]}},{"type":"Feature","id":"LFLU-56602031856ca3f4e7b0","properties":{"airport":"LFLU","name":"LFLU_Buildings","layer":"Airfield surfaces","category":"","object_type":"Area","style_id":"polygon","source_group":"LFLU_Buildings","vsmr_group_ids":[],"geometry_role":"filled_region"},"geometry":{"type":"Polygon","coordinates":[[[4.965148224585699,44.91527931551727],[4.965093458541858,44.91512769067412],[4.965606332362951,44.91507480841636],[4.965651138093657,44.91531105984644],[4.965422086989932,44.91533573885459],[4.96540715138514,44.91527226821663],[4.965148224585699,44.91527931551727]]]}},{"type":"Feature","id":"LFLU-2e966720057acf6aa9f0","properties":{"airport":"LFLU","name":"LFLU_Holding","layer":"Guidance lines","category":"","object_type":"Line","style_id":"line","source_group":"LFLU_Holding","vsmr_group_ids":[],"geometry_role":"linework"},"geometry":{"type":"LineString","coordinates":[[4.96701342110997,44.91254393069065],[4.967053789011651,44.91275835140471]]}},{"type":"Feature","id":"LFLU-e768bbee85f87d4761f0","properties":{"airport":"LFLU","name":"LFLU_Holding","layer":"Guidance lines","category":"","object_type":"Line","style_id":"line","source_group":"LFLU_Holding","vsmr_group_ids":[],"geometry_role":"linework"},"geometry":{"type":"LineString","coordinates":[[4.967598924940488,44.91558135226867],[4.96763526022487,44.91577576035297]]}},{"type":"Feature","id":"LFLU-494fb59ea6bab503d326","properties":{"airport":"LFLU","name":"LFLU_Holding","layer":"Guidance lines","category":"","object_type":"Line","style_id":"line","source_group":"LFLU_Holding","vsmr_group_ids":[],"geometry_role":"linework"},"geometry":{"type":"LineString","coordinates":[[4.96793442096407,44.91732671053503],[4.967942495858964,44.91736673567198]]}},{"type":"Feature","id":"LFLU-4ab1b4cf3f49177ddfbc","properties":{"airport":"LFLU","name":"LFLU_Holding","layer":"Guidance lines","category":"","object_type":"Line","style_id":"line","source_group":"LFLU_Holding","vsmr_group_ids":[],"geometry_role":"linework"},"geometry":{"type":"LineString","coordinates":[[4.968247128010348,44.91892842423021],[4.968255203792031,44.91899989770406]]}},{"type":"Feature","id":"LFLU-2f7e4a4e4d32cd10f1e4","properties":{"airport":"LFLU","name":"1","layer":"Labels","category":"Gates","object_type":"Label","style_id":"label.gates","source_group":"LFLU Gates","vsmr_group_ids":[],"geometry_role":"text_label","text-field":"1"},"geometry":{"type":"Point","coordinates":[4.964861111,44.915611111]}},{"type":"Feature","id":"LFLU-2056b36e5431a2bae6ec","properties":{"airport":"LFLU","name":"2","layer":"Labels","category":"Gates","object_type":"Label","style_id":"label.gates","source_group":"LFLU Gates","vsmr_group_ids":[],"geometry_role":"text_label","text-field":"2"},"geometry":{"type":"Point","coordinates":[4.96525,44.915083333]}},{"type":"Feature","id":"LFLU-04785f39bad68d225a62","properties":{"airport":"LFLU","name":"3","layer":"Labels","category":"Gates","object_type":"Label","style_id":"label.gates","source_group":"LFLU Gates","vsmr_group_ids":[],"geometry_role":"text_label","text-field":"3"},"geometry":{"type":"Point","coordinates":[4.965694444,44.915027778]}},{"type":"Feature","id":"LFLU-d260edc54eb4ff34b98c","properties":{"airport":"LFLU","name":"4","layer":"Labels","category":"Gates","object_type":"Label","style_id":"label.gates","source_group":"LFLU Gates","vsmr_group_ids":[],"geometry_role":"text_label","text-field":"4"},"geometry":{"type":"Point","coordinates":[4.964944444,44.915944444]}},{"type":"Feature","id":"LFLU-0a8d89117417293243ed","properties":{"airport":"LFLU","name":"5","layer":"Labels","category":"Gates","object_type":"Label","style_id":"label.gates","source_group":"LFLU Gates","vsmr_group_ids":[],"geometry_role":"text_label","text-field":"5"},"geometry":{"type":"Point","coordinates":[4.965027778,44.916305556]}}]}
