{"type":"FeatureCollection","name":"LFLV AVISO","bbox":[3.399361111,46.159666667,3.407861111,46.17975],"metadata":{"schema":"vSMR AVISO","schema_version":2,"geometry_mode":"shared","airport":"LFLV","coordinate_reference_system":"WGS84","coordinate_order":"longitude, latitude","default_color_palette":"dark","color_palettes":["dark","light"],"background_colors":{"dark":"#434A4F","light":"#434A4F"},"runways":[{"ends":["01","19"],"headings":[7,187],"thresholds":[[3.401607778,46.159916944],[3.405607778,46.179502778]]}],"saved_active_runways":[],"saved_active_airport_modes":[],"airport_reference":[3.404166944,46.171666944],"feature_count":1,"style_count":1,"layer_counts":{"Guidance lines":1},"category_counts":{"Runways":1},"geometry_source":"local GNG/KMZ","geometry_source_url":"","geometry_license":"GPL-3.0"},"styles":{"line.runwayconcrete.555555":{"name":"Runways","layer":"Guidance lines","object_type":"Line","paint":{"stroke":"#111318","stroke-opacity":1,"stroke-width":1,"palette-overrides":{"light":{"stroke":"#555555"}}},"feature_count":1}},"vsmr_groups":[],"features":[{"type":"Feature","id":"LFLV-59b8152c13ff8aeab765","properties":{"airport":"LFLV","name":"LFLV Groundlayout","layer":"Guidance lines","category":"Runways","object_type":"Line","style_id":"line.runwayconcrete.555555","source_group":"LFLV Groundlayout","vsmr_group_ids":[],"geometry_role":"linework"},"geometry":{"type":"MultiLineString","coordinates":[[[3.403861111,46.159666667],[3.407861111,46.17925]],[[3.399361111,46.160138889],[3.403861111,46.159666667]],[[3.403361111,46.17975],[3.407861111,46.17925],[3.403861111,46.159666667]],[[3.403361111,46.17975],[3.399361111,46.160138889]],[[3.407861111,46.17925],[3.403361111,46.17975]],[[3.403861111,46.159666667],[3.399361111,46.160138889]]]}}]}
