{"type":"FeatureCollection","name":"LFLW AVISO","bbox":[2.414638889,44.883638889,2.429361111,44.898555556],"metadata":{"schema":"vSMR AVISO","schema_version":2,"geometry_mode":"shared","airport":"LFLW","coordinate_reference_system":"WGS84","coordinate_order":"longitude, latitude","default_color_palette":"dark","color_palettes":["dark","light"],"background_colors":{"dark":"#434A4F","light":"#434A4F"},"runways":[{"ends":["15","33"],"headings":[149,329],"thresholds":[[2.416593889,44.897735833],[2.427399722,44.884507778]]}],"saved_active_runways":[],"saved_active_airport_modes":[],"airport_reference":[2.416666944,44.8975],"feature_count":1,"style_count":1,"layer_counts":{"Guidance lines":1},"category_counts":{"Runways":1},"geometry_source":"local GNG","geometry_source_url":"","geometry_license":"GPL-3.0"},"styles":{"line.runwayconcrete.555555":{"name":"Runways","layer":"Guidance lines","object_type":"Line","paint":{"stroke":"#111318","stroke-opacity":1,"stroke-width":1,"palette-overrides":{"light":{"stroke":"#555555"}}},"feature_count":1}},"vsmr_groups":[],"features":[{"type":"Feature","id":"LFLW-52840416334ac416ecd5","properties":{"airport":"LFLW","name":"LFLW Groundlayout","layer":"Guidance lines","category":"Runways","object_type":"Line","style_id":"line.runwayconcrete.555555","source_group":"LFLW Groundlayout","vsmr_group_ids":[],"geometry_role":"linework"},"geometry":{"type":"MultiLineString","coordinates":[[[2.414638889,44.896833333],[2.425444444,44.883638889]],[[2.418555556,44.898555556],[2.414638889,44.896833333]],[[2.429361111,44.885361111],[2.425444444,44.883638889]]]}}]}
