{"type":"FeatureCollection","name":"LFLX AVISO","bbox":[1.711461111,46.846036389,1.7499125,46.881763333],"metadata":{"schema":"vSMR AVISO","schema_version":2,"geometry_mode":"shared","airport":"LFLX","coordinate_reference_system":"WGS84","coordinate_order":"longitude, latitude","default_color_palette":"dark","color_palettes":["dark","light"],"background_colors":{"dark":"#434A4F","light":"#434A4F"},"runways":[{"ends":["03","21"],"headings":[32,212],"thresholds":[[1.718060833,46.849582778],[1.743210833,46.875921944]]}],"saved_active_runways":[],"saved_active_airport_modes":[],"airport_reference":[1.721110833,46.860277778],"feature_count":51,"style_count":9,"layer_counts":{"Airfield surfaces":10,"Buildings and structures":11,"Labels":23,"Surface markings":6,"Terrain":1},"category_counts":{"Buildings":11,"Gates":12,"Grass":1,"Hard Surface 2":1,"Hard Surface 3":2,"Hard Surface 4":6,"Runways":1,"Stopbars":6,"Taxiways":11},"geometry_source":"local GNG","geometry_source_url":"","geometry_license":"GPL-3.0"},"styles":{"polygon.grassurface.00512f":{"name":"Grass","layer":"Terrain","object_type":"Area","paint":{"fill":"#010D19","fill-opacity":1,"palette-overrides":{"light":{"fill":"#00512F"}}},"feature_count":1},"polygon.hardsurface4.969393":{"name":"Hard Surface 4","layer":"Airfield surfaces","object_type":"Area","paint":{"fill":"#152841","fill-opacity":1,"palette-overrides":{"light":{"fill":"#969393"}}},"feature_count":6},"polygon.hardsurface3.8a807f":{"name":"Hard Surface 3","layer":"Airfield surfaces","object_type":"Area","paint":{"fill":"#222D3C","fill-opacity":1,"palette-overrides":{"light":{"fill":"#8A807F"}}},"feature_count":2},"polygon.hardsurface2.595e5b":{"name":"Hard Surface 2","layer":"Airfield surfaces","object_type":"Area","paint":{"fill":"#2F3949","fill-opacity":1,"palette-overrides":{"light":{"fill":"#595E5B"}}},"feature_count":1},"polygon.runwayconcrete.555555":{"name":"Runways","layer":"Airfield surfaces","object_type":"Area","paint":{"fill":"#111318","fill-opacity":1,"palette-overrides":{"light":{"fill":"#555555"}}},"feature_count":1},"polygon.building.394446":{"name":"Buildings","layer":"Buildings and structures","object_type":"Area","paint":{"fill":"#475570","fill-opacity":1,"palette-overrides":{"light":{"fill":"#394446"}}},"feature_count":11},"polygon.stopbar.7e0000":{"name":"Stopbars","layer":"Surface markings","object_type":"Area","paint":{"fill":"#7E0000","fill-opacity":1,"palette-overrides":{"light":{"fill":"#7E0000"}}},"feature_count":6},"label.gates":{"name":"Gates","layer":"Labels","object_type":"Label","paint":{"text-color":"#CCCCCC","text-font":"Arial","text-size":12,"text-halo-color":"#000000","text-halo-width":1,"text-anchor":"center","zoomLevel":9},"feature_count":12},"label.taxiways":{"name":"Taxiways","layer":"Labels","object_type":"Label","paint":{"text-color":"#CCCCCC","text-font":"Arial","text-size":12,"text-halo-color":"#000000","text-halo-width":1,"text-anchor":"center","zoomLevel":7},"feature_count":11}},"vsmr_groups":[],"features":[{"type":"Feature","id":"LFLX-b4d54bca9286030f1465","properties":{"airport":"LFLX","name":"LFLX AVISO","layer":"Terrain","category":"Grass","object_type":"Area","style_id":"polygon.grassurface.00512f","source_group":"LFLX AVISO","vsmr_group_ids":[],"geometry_role":"filled_region"},"geometry":{"type":"Polygon","coordinates":[[[1.726719722,46.864380833],[1.726497778,46.864151111],[1.726218889,46.863944722],[1.725888611,46.863796667],[1.725512778,46.863695556],[1.725211111,46.863636944],[1.7248125,46.863625278],[1.724684167,46.863473333],[1.722815,46.864123056],[1.7200075,46.861378889],[1.719964444,46.8611725],[1.719493333,46.860710833],[1.719423333,46.860671667],[1.719334167,46.860654167],[1.717775278,46.860943611],[1.717648056,46.860948611],[1.717521111,46.860938889],[1.717401111,46.860914722],[1.717295278,46.860866389],[1.717210556,46.860789167],[1.71714,46.860726389],[1.717034167,46.860702222],[1.716893056,46.860683056],[1.715658056,46.860746667],[1.712460278,46.853000278],[1.711461111,46.850929722],[1.713993889,46.850411111],[1.713208056,46.849604444],[1.712336389,46.847985278],[1.72113,46.846040278],[1.721297222,46.846371389],[1.722830278,46.846036389],[1.723716667,46.846370833],[1.725705278,46.847156389],[1.730390278,46.849822222],[1.730829722,46.849838611],[1.732221389,46.85129],[1.731964167,46.851665833],[1.731817778,46.851941389],[1.731700556,46.852242222],[1.731641944,46.852612778],[1.731619722,46.852998889],[1.731856389,46.856322778],[1.731888889,46.856647222],[1.731883611,46.856917222],[1.731841111,46.857165],[1.731750278,46.857376667],[1.731675833,46.8575225],[1.731574444,46.857668333],[1.732001111,46.858131389],[1.730445,46.858453611],[1.7499125,46.87884],[1.749896944,46.878911667],[1.749401667,46.879334722],[1.749061389,46.879603611],[1.748585556,46.879939167],[1.7479275,46.880310278],[1.747580278,46.880513333],[1.747228889,46.880685],[1.746490833,46.880975278],[1.745823611,46.881241667],[1.745188889,46.881475833],[1.744450278,46.881763333],[1.738814167,46.875873333],[1.736327222,46.873739722],[1.734350278,46.872045556],[1.733149167,46.8710225],[1.732621667,46.870554167],[1.726719722,46.864380833]]]}},{"type":"Feature","id":"LFLX-1d9b37ac2c7f5b5dcb92","properties":{"airport":"LFLX","name":"LFLX AVISO","layer":"Airfield surfaces","category":"Hard Surface 4","object_type":"Area","style_id":"polygon.hardsurface4.969393","source_group":"LFLX AVISO","vsmr_group_ids":[],"geometry_role":"filled_region"},"geometry":{"type":"Polygon","coordinates":[[[1.724753611,46.863285278],[1.724360833,46.863452222],[1.723479167,46.862878056],[1.723211944,46.862475278],[1.723636667,46.862309444],[1.722619722,46.861221389],[1.722546389,46.861185],[1.722462778,46.861173889],[1.722396111,46.861186667],[1.721938333,46.861378889],[1.721275833,46.860766667],[1.721800556,46.860503889],[1.721849444,46.860467222],[1.721849167,46.860440278],[1.721664722,46.860233333],[1.721618889,46.8602125],[1.721572778,46.860205278],[1.721533333,46.860208611],[1.721208889,46.860350278],[1.72076,46.859912222],[1.72085,46.8598725],[1.720761111,46.859785],[1.721086111,46.859635],[1.721017222,46.859544444],[1.720918333,46.859436111],[1.720812778,46.859315833],[1.720705556,46.859201111],[1.720601667,46.859083056],[1.720560556,46.859053889],[1.720513889,46.859040556],[1.720420278,46.859036111],[1.720679444,46.858971944],[1.724753611,46.863285278]]]}},{"type":"Feature","id":"LFLX-b30b6aae91f6601815fc","properties":{"airport":"LFLX","name":"LFLX AVISO","layer":"Airfield surfaces","category":"Hard Surface 4","object_type":"Area","style_id":"polygon.hardsurface4.969393","source_group":"LFLX AVISO","vsmr_group_ids":[],"geometry_role":"filled_region"},"geometry":{"type":"Polygon","coordinates":[[[1.715643611,46.8527825],[1.715579722,46.852696944],[1.715518889,46.852641389],[1.715434444,46.852580833],[1.715345833,46.852532778],[1.715233333,46.852493333],[1.715124167,46.852470556],[1.715018889,46.852466944],[1.714884722,46.852477222],[1.713874444,46.852664444],[1.713363333,46.851475556],[1.713606667,46.851414444],[1.713918889,46.851315278],[1.714254167,46.8512125],[1.714604444,46.851069722],[1.715019167,46.850921111],[1.715470833,46.850741944],[1.716318611,46.850368056],[1.715358333,46.851094167],[1.7153,46.851861389],[1.715643611,46.8527825]]]}},{"type":"Feature","id":"LFLX-b018be29e7e8bd2f3b19","properties":{"airport":"LFLX","name":"LFLX AVISO","layer":"Airfield surfaces","category":"Hard Surface 4","object_type":"Area","style_id":"polygon.hardsurface4.969393","source_group":"LFLX AVISO","vsmr_group_ids":[],"geometry_role":"filled_region"},"geometry":{"type":"Polygon","coordinates":[[[1.721882222,46.848431389],[1.721883056,46.848360833],[1.722056389,46.848434167],[1.722086667,46.848591667],[1.720844722,46.848699722],[1.720812778,46.848524167],[1.721882222,46.848431389]]]}},{"type":"Feature","id":"LFLX-02c8e1ea763bad124f1c","properties":{"airport":"LFLX","name":"LFLX AVISO","layer":"Airfield surfaces","category":"Hard Surface 4","object_type":"Area","style_id":"polygon.hardsurface4.969393","source_group":"LFLX AVISO","vsmr_group_ids":[],"geometry_role":"filled_region"},"geometry":{"type":"Polygon","coordinates":[[[1.721531944,46.847628889],[1.721593056,46.847616111],[1.721655833,46.847581667],[1.721688889,46.847546111],[1.721705833,46.847513889],[1.721705556,46.847476111],[1.72169,46.847431667],[1.721660556,46.847395556],[1.721610278,46.847371389],[1.721566667,46.847358611],[1.721509167,46.847351389],[1.721281111,46.847366111],[1.721211389,46.846993889],[1.722310278,46.8469125],[1.722374722,46.847277222],[1.722149444,46.847292222],[1.722088056,46.847304722],[1.722044167,46.847334722],[1.722008889,46.847370833],[1.721993889,46.847422778],[1.721999167,46.847457778],[1.722019722,46.847492222],[1.722065833,46.847529444],[1.722119722,46.847550556],[1.722186667,46.847563333],[1.722273889,46.847574167],[1.721531944,46.847628889]]]}},{"type":"Feature","id":"LFLX-89fff9d79144d765466f","properties":{"airport":"LFLX","name":"LFLX AVISO","layer":"Airfield surfaces","category":"Hard Surface 4","object_type":"Area","style_id":"polygon.hardsurface4.969393","source_group":"LFLX AVISO","vsmr_group_ids":[],"geometry_role":"filled_region"},"geometry":{"type":"Polygon","coordinates":[[[1.728165,46.851496111],[1.728219167,46.8515275],[1.728275,46.851548333],[1.728325833,46.851557778],[1.728394722,46.851556944],[1.7284525,46.851539722],[1.728495556,46.851511667],[1.728526389,46.851476111],[1.728543889,46.8514425],[1.728544167,46.851408333],[1.728523889,46.851359444],[1.728458611,46.851246111],[1.7290075,46.851105556],[1.729386667,46.851791111],[1.7288575,46.851930833],[1.728786944,46.851815556],[1.728760833,46.851782778],[1.7287225,46.851757222],[1.7286625,46.851729722],[1.728609167,46.851724444],[1.728541389,46.851730833],[1.728487222,46.851745],[1.728450833,46.851766389],[1.728419722,46.851798056],[1.728403056,46.851829167],[1.728393333,46.851860833],[1.7283875,46.851900278],[1.728165,46.851496111]]]}},{"type":"Feature","id":"LFLX-0349ac57bd6077e4f2a5","properties":{"airport":"LFLX","name":"LFLX AVISO","layer":"Airfield surfaces","category":"Hard Surface 4","object_type":"Area","style_id":"polygon.hardsurface4.969393","source_group":"LFLX AVISO","vsmr_group_ids":[],"geometry_role":"filled_region"},"geometry":{"type":"Polygon","coordinates":[[[1.729020556,46.854331667],[1.729050833,46.854383056],[1.729092778,46.854413333],[1.729155833,46.854435],[1.729251944,46.854441389],[1.729841111,46.854424444],[1.7298175,46.8542475],[1.729991667,46.854242778],[1.730028333,46.8544225],[1.730229444,46.854417222],[1.730173611,46.853806389],[1.731488333,46.8537825],[1.731549167,46.854687778],[1.730248611,46.854711111],[1.730234722,46.854551944],[1.730049444,46.854558889],[1.730148056,46.8551075],[1.729955,46.855127222],[1.729861389,46.854565833],[1.729248333,46.854576667],[1.729191667,46.854586389],[1.729138333,46.854604722],[1.729099167,46.854628611],[1.729071389,46.854653333],[1.729039722,46.854695],[1.729020556,46.854331667]]]}},{"type":"Feature","id":"LFLX-0f042dfc73acaac00ad3","properties":{"airport":"LFLX","name":"LFLX AVISO","layer":"Airfield surfaces","category":"Hard Surface 3","object_type":"Area","style_id":"polygon.hardsurface3.8a807f","source_group":"LFLX AVISO","vsmr_group_ids":[],"geometry_role":"filled_region"},"geometry":{"type":"Polygon","coordinates":[[[1.72584,46.862791389],[1.724739444,46.863291667],[1.720649444,46.859003611],[1.720409444,46.8590375],[1.720341667,46.859055],[1.719256111,46.8595575],[1.719108333,46.859617778],[1.718952222,46.859682778],[1.718780833,46.859731944],[1.718663889,46.859758056],[1.718553056,46.859761389],[1.718400278,46.859755833],[1.718266944,46.859726944],[1.718143611,46.8596925],[1.718032222,46.859634167],[1.717935556,46.859566389],[1.717821389,46.859460833],[1.717534444,46.859143333],[1.717454444,46.859057778],[1.7173775,46.859004444],[1.717265278,46.858946944],[1.717143889,46.858916389],[1.717036944,46.858888056],[1.716770278,46.858865278],[1.716628333,46.858891667],[1.716582222,46.8588075],[1.715348056,46.859067778],[1.714984722,46.858453056],[1.715871389,46.858285556],[1.715828333,46.8581725],[1.715061389,46.856398333],[1.714998333,46.8562375],[1.715006667,46.856123333],[1.715122222,46.856017778],[1.715398333,46.855917778],[1.716341389,46.855741111],[1.7165125,46.855690278],[1.716642222,46.855631389],[1.716718056,46.8555825],[1.716759722,46.855514444],[1.716774722,46.855454444],[1.716763889,46.855375833],[1.716725833,46.855286111],[1.716618611,46.8550575],[1.721623889,46.858239167],[1.72584,46.862791389]]]}},{"type":"Feature","id":"LFLX-1fff8826236080ba2f45","properties":{"airport":"LFLX","name":"LFLX AVISO","layer":"Airfield surfaces","category":"Hard Surface 3","object_type":"Area","style_id":"polygon.hardsurface3.8a807f","source_group":"LFLX AVISO","vsmr_group_ids":[],"geometry_role":"filled_region"},"geometry":{"type":"Polygon","coordinates":[[[1.719323056,46.848240278],[1.719097222,46.848107778],[1.719160833,46.848060278],[1.719283333,46.847990278],[1.71941,46.847923333],[1.719543056,46.847867778],[1.719673889,46.847825556],[1.719802222,46.847793056],[1.7199525,46.84777],[1.720141944,46.847751389],[1.720207222,46.847743056],[1.720254167,46.847727222],[1.720302222,46.847698333],[1.720333889,46.847665278],[1.720346667,46.8476375],[1.720356111,46.847603889],[1.720349167,46.847570556],[1.720334167,46.847537222],[1.720307222,46.847513889],[1.720268889,46.847490278],[1.720228611,46.847472222],[1.720172222,46.847466944],[1.71993,46.8474875],[1.719858056,46.847111111],[1.720955,46.847015833],[1.721019167,46.847388333],[1.720825833,46.847405278],[1.720761944,46.847420556],[1.720710278,46.847441944],[1.720674444,46.847472778],[1.720652222,46.847501389],[1.720639722,46.847540833],[1.720648611,46.847576389],[1.720673889,46.847614722],[1.720717778,46.847650556],[1.720784167,46.847672222],[1.7208375,46.847679167],[1.720891944,46.847680833],[1.721564167,46.847620278],[1.721873333,46.847594722],[1.722089444,46.847579167],[1.722278333,46.84757],[1.722437222,46.847578056],[1.722619444,46.847595833],[1.722786667,46.847633056],[1.722951944,46.847683056],[1.723081389,46.847728333],[1.723199444,46.847787778],[1.723361944,46.847889444],[1.727103333,46.850201667],[1.727358889,46.850369444],[1.727501667,46.8504875],[1.7276325,46.850615278],[1.727734722,46.850746111],[1.727833333,46.850893056],[1.728156389,46.851458333],[1.728535278,46.852133889],[1.728766111,46.852541389],[1.7288275,46.852670278],[1.72888,46.8527975],[1.728921111,46.852933611],[1.728943333,46.8530625],[1.728959444,46.853276111],[1.729032778,46.854372778],[1.729148611,46.856506111],[1.729258333,46.858082222],[1.729266111,46.85828],[1.729262222,46.858335833],[1.729256944,46.858386111],[1.728964167,46.858363056],[1.728967222,46.858256111],[1.728951111,46.858021111],[1.728830278,46.855965278],[1.728816389,46.855719167],[1.72881,46.855674167],[1.728794722,46.85564],[1.728763889,46.855608056],[1.728710556,46.855587222],[1.728645833,46.855576667],[1.728572778,46.855579444],[1.728506389,46.855597222],[1.728458889,46.85563],[1.728434444,46.855670278],[1.7284225,46.855721111],[1.728426944,46.855856111],[1.727879722,46.855868611],[1.727869722,46.855635833],[1.727601389,46.855644722],[1.727585278,46.855371389],[1.727847222,46.8553575],[1.727834444,46.855120833],[1.728379444,46.855109167],[1.728392778,46.855240556],[1.728406944,46.855286111],[1.728443611,46.85533],[1.728501944,46.8553575],[1.728565,46.855370556],[1.728628056,46.855371667],[1.728686944,46.855357778],[1.728743056,46.855326389],[1.728776944,46.855284444],[1.7287875,46.855244167],[1.728778333,46.855064722],[1.728762778,46.855021111],[1.7287325,46.854994444],[1.728583333,46.854903611],[1.728571389,46.854891944],[1.728032778,46.854903611],[1.727866667,46.855058611],[1.727657222,46.855061944],[1.727658889,46.855118889],[1.727108333,46.855124444],[1.7270625,46.854381111],[1.727722778,46.854364722],[1.727909444,46.854492222],[1.728140278,46.854488333],[1.728185278,46.854496944],[1.728226389,46.854514444],[1.728274722,46.854550278],[1.728553611,46.854545278],[1.7287375,46.854409167],[1.728733889,46.854333333],[1.728632778,46.854273333],[1.728625833,46.854204444],[1.728440833,46.85408],[1.728389444,46.854106667],[1.728353333,46.854135],[1.728338611,46.854163333],[1.728331389,46.854350278],[1.727782778,46.854359444],[1.727457222,46.854170278],[1.727433333,46.853613611],[1.728688889,46.853580556],[1.728671667,46.853288056],[1.728659722,46.853115556],[1.728639444,46.852974722],[1.728594444,46.852817222],[1.728535,46.852686389],[1.7277075,46.851220556],[1.727589722,46.850978333],[1.727477778,46.850823056],[1.727391944,46.850715],[1.727273056,46.850598611],[1.727102778,46.850468889],[1.727073056,46.850459444],[1.727041111,46.850461111],[1.726224167,46.851066667],[1.725633889,46.850712778],[1.725619444,46.850450278],[1.725628889,46.850420833],[1.725653611,46.850394167],[1.725982778,46.850145833],[1.726194444,46.850258611],[1.726245833,46.8502775],[1.726299722,46.850280556],[1.726333333,46.850259722],[1.726346111,46.850228056],[1.726335833,46.850071111],[1.726253056,46.850027778],[1.726244722,46.849927778],[1.726065,46.849818611],[1.726011389,46.849804722],[1.725936667,46.849804444],[1.725840278,46.849829444],[1.725359167,46.850210278],[1.725315556,46.850242778],[1.725294722,46.85029],[1.725294444,46.850335278],[1.725313056,46.850375278],[1.725350278,46.850407778],[1.725510833,46.850509444],[1.725144722,46.850793333],[1.724304444,46.850285556],[1.724680833,46.850004444],[1.724824167,46.850092778],[1.724903611,46.850128611],[1.724976111,46.8501425],[1.725050833,46.850131944],[1.725118889,46.850102778],[1.725599722,46.849726944],[1.725642222,46.849686389],[1.725653611,46.849649444],[1.725648611,46.849619722],[1.725634167,46.849572222],[1.725593056,46.849524444],[1.725545833,46.849478889],[1.725286944,46.849336389],[1.725218611,46.849311944],[1.725169444,46.849305],[1.725104167,46.849309444],[1.7250425,46.849329722],[1.724995833,46.849358333],[1.724964444,46.849400278],[1.724953333,46.849458333],[1.724959167,46.849485556],[1.724990556,46.849518056],[1.725194444,46.849628333],[1.7248,46.849921944],[1.724543889,46.8497575],[1.7243625,46.849896111],[1.724067778,46.849702222],[1.724243333,46.849577222],[1.723978611,46.849412222],[1.724346667,46.84913],[1.724518333,46.849239444],[1.724583889,46.849261389],[1.724655278,46.849261389],[1.724726944,46.849247778],[1.724775833,46.849220278],[1.724810556,46.849185556],[1.724830278,46.849136944],[1.7248275,46.849092778],[1.724793889,46.849041944],[1.724690556,46.848968611],[1.72327,46.848098889],[1.723101667,46.847986944],[1.722983333,46.847927222],[1.722865833,46.847875278],[1.722746944,46.847834444],[1.722624444,46.847801944],[1.722493333,46.847779444],[1.722319167,46.847767222],[1.722133611,46.84776],[1.721928056,46.847776667],[1.721583611,46.847808611],[1.721501667,46.847836667],[1.721449722,46.847871667],[1.721423611,46.847909722],[1.721412778,46.847959167],[1.721425,46.848000833],[1.721455833,46.848038333],[1.721515833,46.848066667],[1.721596667,46.848083333],[1.721833056,46.848073056],[1.7219075,46.848450278],[1.720815833,46.848540556],[1.720742222,46.848168056],[1.720954167,46.848147222],[1.721028333,46.848126111],[1.721073611,46.848099444],[1.721106944,46.84806],[1.721119722,46.848023611],[1.721116944,46.847981667],[1.721088333,46.847938333],[1.721045833,46.847906667],[1.72099,46.8478875],[1.720923056,46.847873611],[1.720006111,46.8479525],[1.719866389,46.847978333],[1.719740556,46.848013889],[1.719609444,46.848069167],[1.719460278,46.848144167],[1.719323056,46.848240278]]]}},{"type":"Feature","id":"LFLX-0dfd6e9e1b15c9c177a6","properties":{"airport":"LFLX","name":"LFLX AVISO","layer":"Airfield surfaces","category":"Hard Surface 2","object_type":"Area","style_id":"polygon.hardsurface2.595e5b","source_group":"LFLX AVISO","vsmr_group_ids":[],"geometry_role":"filled_region"},"geometry":{"type":"Polygon","coordinates":[[[1.716378611,46.850338889],[1.716597222,46.850554167],[1.7162525,46.850712222],[1.716051111,46.850808889],[1.715928056,46.8508825],[1.715828333,46.850957778],[1.715745833,46.851038056],[1.715676111,46.851119444],[1.715615,46.851220278],[1.715575833,46.851313056],[1.715548333,46.851412222],[1.715541667,46.851513611],[1.715548889,46.851600833],[1.715573056,46.851693333],[1.715610833,46.851793889],[1.715844167,46.852323056],[1.716410556,46.853624167],[1.716512222,46.853855278],[1.716559444,46.853954167],[1.716611111,46.854046111],[1.71667,46.854137778],[1.716736944,46.854225],[1.7168025,46.854305833],[1.71689,46.854393889],[1.7169975,46.854492222],[1.717089167,46.854563333],[1.717200833,46.854644722],[1.717334722,46.854731667],[1.719153611,46.855918889],[1.719296944,46.856010556],[1.719418333,46.856073333],[1.719562778,46.85612],[1.719708611,46.856153889],[1.719828889,46.856172778],[1.719941667,46.856181389],[1.720046389,46.856181389],[1.720166111,46.8561725],[1.720299444,46.856152222],[1.720432778,46.856121111],[1.720573611,46.856074444],[1.721465,46.855676667],[1.721628333,46.855845278],[1.720780556,46.856227778],[1.720715,46.856264444],[1.720667222,46.856299167],[1.720615556,46.856339722],[1.720573611,46.856380833],[1.720536944,46.856431667],[1.720509167,46.856488889],[1.720493611,46.856549167],[1.720493611,46.856614167],[1.720495556,46.856673333],[1.720521667,46.856738889],[1.720559167,46.856801111],[1.720612778,46.856861667],[1.720698333,46.856926389],[1.721935833,46.857731944],[1.722045,46.857804722],[1.7221575,46.857895833],[1.722254444,46.857980278],[1.722363889,46.858094722],[1.723772778,46.859571944],[1.724230278,46.860053611],[1.724433611,46.860267778],[1.724506667,46.86033],[1.724590833,46.860381667],[1.724683056,46.860420833],[1.724778056,46.860446944],[1.724876111,46.860463611],[1.724974722,46.860471944],[1.725074722,46.860466944],[1.725174167,46.860451389],[1.725254722,46.860428056],[1.725351111,46.860389167],[1.725773889,46.860197778],[1.725941389,46.860365278],[1.7255225,46.860555278],[1.725423611,46.860603056],[1.725347778,46.860662778],[1.7252825,46.860725833],[1.725239167,46.860793333],[1.725210556,46.860867778],[1.725205,46.860930278],[1.725209444,46.861005556],[1.725228333,46.861066944],[1.725263333,46.861133056],[1.725346111,46.861227778],[1.727386667,46.863364722],[1.729431389,46.865499444],[1.730261944,46.866374167],[1.730924444,46.867065],[1.731872778,46.868059167],[1.732812222,46.8690425],[1.732976667,46.869214167],[1.733041111,46.869273611],[1.733103333,46.869324722],[1.733186111,46.869371944],[1.733266667,46.869413333],[1.733343056,46.869441389],[1.733438611,46.8694675],[1.733533611,46.869485556],[1.733658056,46.869500833],[1.733757222,46.869504722],[1.733866111,46.869498333],[1.734003056,46.8694775],[1.734120278,46.869450278],[1.734244444,46.869403333],[1.734490833,46.869295278],[1.734705278,46.869517222],[1.734405,46.869653889],[1.734275,46.8697025],[1.734151667,46.869734722],[1.734039444,46.869754167],[1.733903333,46.869768333],[1.733750278,46.8697775],[1.7335775,46.869768056],[1.733377778,46.86974],[1.7332375,46.869703611],[1.733103889,46.869655833],[1.732969444,46.869599167],[1.732849167,46.869528889],[1.732739444,46.869449444],[1.732625278,46.869341389],[1.729175,46.865734167],[1.726363056,46.862785278],[1.726258056,46.862751111],[1.726133889,46.862734167],[1.726011944,46.862741389],[1.7259175,46.8627675],[1.725835556,46.862793333],[1.721596667,46.858352778],[1.721477222,46.858245556],[1.721369722,46.8581675],[1.716622778,46.855062778],[1.716150278,46.853974167],[1.715612778,46.852745833],[1.715204167,46.851758333],[1.715173611,46.851647222],[1.7151675,46.851524167],[1.715181111,46.851380556],[1.715219722,46.851231389],[1.715293333,46.851091667],[1.715369444,46.850983333],[1.715474722,46.8508675],[1.715648889,46.850720833],[1.715833889,46.850602778],[1.715971944,46.850529722],[1.716378611,46.850338889]]]}},{"type":"Feature","id":"LFLX-840686aeba5b4cf915ab","properties":{"airport":"LFLX","name":"LFLX AVISO","layer":"Airfield surfaces","category":"Runways","object_type":"Area","style_id":"polygon.runwayconcrete.555555","source_group":"LFLX AVISO","vsmr_group_ids":[],"geometry_role":"filled_region"},"geometry":{"type":"Polygon","coordinates":[[[1.7165875,46.850559722],[1.716372778,46.850342222],[1.718324444,46.849472222],[1.718452222,46.849415],[1.718556944,46.849345],[1.718624167,46.849276944],[1.718676667,46.849196667],[1.718714167,46.849114722],[1.718719167,46.849036389],[1.718699167,46.848920556],[1.718696667,46.848833611],[1.718701667,46.848755],[1.718714167,46.848666389],[1.718744167,46.8485725],[1.718785556,46.8484775],[1.718847778,46.848371944],[1.718918056,46.848274722],[1.719011667,46.848186667],[1.719099444,46.848105556],[1.7193275,46.8482375],[1.71923,46.848324167],[1.719151944,46.8484175],[1.719093333,46.848510833],[1.719036944,46.848634722],[1.719,46.848759722],[1.718996111,46.848873611],[1.719009167,46.848991111],[1.719074167,46.849343333],[1.719136389,46.849652222],[1.719169444,46.849856389],[1.71921,46.850039167],[1.719255,46.850174167],[1.719313611,46.850357222],[1.719370278,46.850489167],[1.7194575,46.850659722],[1.727361944,46.858942778],[1.727453889,46.858993056],[1.727572222,46.8590325],[1.727710556,46.859068889],[1.727857778,46.859094722],[1.727985278,46.859107222],[1.7281025,46.859105278],[1.728224722,46.859087778],[1.728326389,46.85906],[1.728429167,46.859016389],[1.728535556,46.858955278],[1.728653056,46.858876944],[1.728751111,46.858793333],[1.728821389,46.858708611],[1.728875278,46.858616944],[1.728924722,46.858507222],[1.728950833,46.858425],[1.728963889,46.858357222],[1.729258333,46.858381667],[1.729241111,46.85847],[1.729217222,46.858550278],[1.729193056,46.858625],[1.729149167,46.858709722],[1.729101944,46.858775278],[1.729047222,46.858841667],[1.728984722,46.858905556],[1.7289075,46.858972222],[1.728823889,46.859036111],[1.728735278,46.859092222],[1.728601111,46.859163056],[1.728520278,46.859203333],[1.728437222,46.859250556],[1.728373333,46.859296944],[1.728313056,46.859353889],[1.728274167,46.859409722],[1.728238889,46.859475],[1.7282125,46.859556111],[1.728192778,46.859651389],[1.728191389,46.8597425],[1.728209722,46.859810556],[1.728241111,46.859865],[1.743471111,46.875808889],[1.742979167,46.876031389],[1.742939167,46.8760375],[1.742864444,46.876045833],[1.742800833,46.876048611],[1.742739167,46.87605],[1.742681667,46.876048611],[1.742626389,46.876039722],[1.742566667,46.876027222],[1.742497222,46.876005833],[1.7424375,46.875978333],[1.742428333,46.875972778],[1.7423975,46.875569167],[1.742392222,46.875516389],[1.742378889,46.875465278],[1.742355,46.875408889],[1.742325,46.875353333],[1.7422875,46.875303889],[1.74225,46.875266944],[1.736433333,46.86918],[1.736361944,46.869145278],[1.736265278,46.869108889],[1.736169722,46.869079722],[1.736090556,46.869065],[1.736004444,46.869062222],[1.735933611,46.869065833],[1.735765278,46.869091667],[1.735623333,46.869124167],[1.73551,46.869161944],[1.7347025,46.869523056],[1.734483889,46.869293889],[1.735314444,46.868913611],[1.735385278,46.8688725],[1.735454722,46.868820278],[1.7355025,46.868768611],[1.735536389,46.868716944],[1.735572778,46.868651667],[1.735599444,46.868580833],[1.735615278,46.868510278],[1.735629444,46.868438889],[1.735636667,46.868388333],[1.735634167,46.868345833],[1.727744167,46.860079722],[1.727656667,46.860035278],[1.727568611,46.859997222],[1.72748,46.859963889],[1.727390556,46.859941667],[1.727300833,46.859921944],[1.727234722,46.859915556],[1.72716,46.859914444],[1.727078611,46.859919167],[1.726989167,46.859933889],[1.726895278,46.859952778],[1.7268125,46.8599775],[1.725939444,46.860366111],[1.725771389,46.860197778],[1.726436389,46.859900278],[1.726554444,46.859846944],[1.726634444,46.859807222],[1.7267075,46.859761389],[1.726776667,46.859715],[1.726826667,46.859664167],[1.726868889,46.859611667],[1.726897778,46.859563056],[1.7269175,46.859503333],[1.72693,46.859429167],[1.726926667,46.859351667],[1.726916389,46.859291111],[1.726895833,46.859223889],[1.726869444,46.859163333],[1.72343,46.855564722],[1.723360278,46.855518056],[1.723277778,46.855476944],[1.723196944,46.855449444],[1.723101389,46.855425556],[1.722991111,46.855403889],[1.722880833,46.855392778],[1.722793056,46.855396389],[1.722707778,46.855405833],[1.722616389,46.855420556],[1.722540556,46.855445278],[1.722424167,46.855490556],[1.721628056,46.855846667],[1.721461111,46.855677778],[1.722210278,46.855341667],[1.722299444,46.8552975],[1.722369444,46.855258333],[1.722431111,46.855219722],[1.722483611,46.855174722],[1.722534444,46.855115833],[1.722569444,46.855061111],[1.722591944,46.855007778],[1.722604444,46.854940556],[1.722610278,46.854867222],[1.722598889,46.854781389],[1.722578333,46.854717222],[1.722558056,46.854649167],[1.718509167,46.850405556],[1.718409444,46.850320556],[1.718309167,46.850254722],[1.718203056,46.850203333],[1.718097778,46.850170278],[1.717963889,46.850144444],[1.717861667,46.850130833],[1.717753333,46.850128611],[1.717645833,46.850141389],[1.717513333,46.850165278],[1.717396667,46.850199722],[1.7165875,46.850559722]]]}},{"type":"Feature","id":"LFLX-b3ee30f68706977c5e17","properties":{"airport":"LFLX","name":"LFLX AVISO","layer":"Buildings and structures","category":"Buildings","object_type":"Area","style_id":"polygon.building.394446","source_group":"LFLX AVISO","vsmr_group_ids":[],"geometry_role":"filled_region"},"geometry":{"type":"Polygon","coordinates":[[[1.724444722,46.863491111],[1.723328889,46.863865556],[1.722676944,46.862988056],[1.723798056,46.862582222],[1.724444722,46.863491111]]]}},{"type":"Feature","id":"LFLX-3da347a25792d196ad4d","properties":{"airport":"LFLX","name":"LFLX AVISO","layer":"Buildings and structures","category":"Buildings","object_type":"Area","style_id":"polygon.building.394446","source_group":"LFLX AVISO","vsmr_group_ids":[],"geometry_role":"filled_region"},"geometry":{"type":"Polygon","coordinates":[[[1.720699444,46.861883056],[1.720386667,46.8615525],[1.721146667,46.861215833],[1.720921389,46.8609775],[1.720969444,46.860956944],[1.7209125,46.860899444],[1.7212925,46.860739167],[1.721954444,46.861375833],[1.72173,46.861473056],[1.721768333,46.8615175],[1.721265556,46.861739722],[1.721188889,46.861663056],[1.720699444,46.861883056]]]}},{"type":"Feature","id":"LFLX-81852fc8ca197aa52a41","properties":{"airport":"LFLX","name":"LFLX AVISO","layer":"Buildings and structures","category":"Buildings","object_type":"Area","style_id":"polygon.building.394446","source_group":"LFLX AVISO","vsmr_group_ids":[],"geometry_role":"filled_region"},"geometry":{"type":"Polygon","coordinates":[[[1.721760556,46.860378056],[1.721870556,46.860491389],[1.721700278,46.860566667],[1.721590278,46.860454444],[1.721760556,46.860378056]]]}},{"type":"Feature","id":"LFLX-92b07e53fef2e2a8e7e3","properties":{"airport":"LFLX","name":"LFLX AVISO","layer":"Buildings and structures","category":"Buildings","object_type":"Area","style_id":"polygon.building.394446","source_group":"LFLX AVISO","vsmr_group_ids":[],"geometry_role":"filled_region"},"geometry":{"type":"Polygon","coordinates":[[[1.720576389,46.860005833],[1.7207775,46.859918611],[1.721228333,46.860344722],[1.721071944,46.860417222],[1.720883333,46.860220833],[1.720813333,46.860248889],[1.720576389,46.860005833]]]}},{"type":"Feature","id":"LFLX-818f9e34348bb2e191f9","properties":{"airport":"LFLX","name":"LFLX AVISO","layer":"Buildings and structures","category":"Buildings","object_type":"Area","style_id":"polygon.building.394446","source_group":"LFLX AVISO","vsmr_group_ids":[],"geometry_role":"filled_region"},"geometry":{"type":"Polygon","coordinates":[[[1.716611111,46.858788889],[1.716721667,46.859035278],[1.716083333,46.859164722],[1.715976389,46.858924722],[1.716611111,46.858788889]]]}},{"type":"Feature","id":"LFLX-ab59d6ce8e4b00024899","properties":{"airport":"LFLX","name":"LFLX AVISO","layer":"Buildings and structures","category":"Buildings","object_type":"Area","style_id":"polygon.building.394446","source_group":"LFLX AVISO","vsmr_group_ids":[],"geometry_role":"filled_region"},"geometry":{"type":"Polygon","coordinates":[[[1.715649722,46.8589875],[1.715876944,46.858942778],[1.715996944,46.859191667],[1.715758611,46.859241944],[1.715649722,46.8589875]]]}},{"type":"Feature","id":"LFLX-6c245af4d233fca3c897","properties":{"airport":"LFLX","name":"LFLX AVISO","layer":"Buildings and structures","category":"Buildings","object_type":"Area","style_id":"polygon.building.394446","source_group":"LFLX AVISO","vsmr_group_ids":[],"geometry_role":"filled_region"},"geometry":{"type":"Polygon","coordinates":[[[1.715349444,46.859051667],[1.715555833,46.859009444],[1.715655278,46.859230278],[1.715443333,46.859271389],[1.715349444,46.859051667]]]}},{"type":"Feature","id":"LFLX-de534342f51cab2fdb11","properties":{"airport":"LFLX","name":"LFLX AVISO","layer":"Buildings and structures","category":"Buildings","object_type":"Area","style_id":"polygon.building.394446","source_group":"LFLX AVISO","vsmr_group_ids":[],"geometry_role":"filled_region"},"geometry":{"type":"Polygon","coordinates":[[[1.715111111,46.856596111],[1.716171389,46.856393611],[1.716864444,46.857976667],[1.715811667,46.858186667],[1.715111111,46.856596111]]]}},{"type":"Feature","id":"LFLX-45fec2aab6322da68fc1","properties":{"airport":"LFLX","name":"LFLX AVISO","layer":"Buildings and structures","category":"Buildings","object_type":"Area","style_id":"polygon.building.394446","source_group":"LFLX AVISO","vsmr_group_ids":[],"geometry_role":"filled_region"},"geometry":{"type":"Polygon","coordinates":[[[1.714933889,46.858355556],[1.714171111,46.856616389],[1.714868333,46.8564675],[1.715618889,46.858221667],[1.714933889,46.858355556]]]}},{"type":"Feature","id":"LFLX-7f9835ca3bd5fec94039","properties":{"airport":"LFLX","name":"LFLX AVISO","layer":"Buildings and structures","category":"Buildings","object_type":"Area","style_id":"polygon.building.394446","source_group":"LFLX AVISO","vsmr_group_ids":[],"geometry_role":"filled_region"},"geometry":{"type":"Polygon","coordinates":[[[1.722048611,46.846927222],[1.722311111,46.846906944],[1.722326944,46.846989167],[1.722065833,46.847014722],[1.722048611,46.846927222]]]}},{"type":"Feature","id":"LFLX-56e6f3b7e3e3d5a40303","properties":{"airport":"LFLX","name":"LFLX AVISO","layer":"Buildings and structures","category":"Buildings","object_type":"Area","style_id":"polygon.building.394446","source_group":"LFLX AVISO","vsmr_group_ids":[],"geometry_role":"filled_region"},"geometry":{"type":"Polygon","coordinates":[[[1.72897,46.851107222],[1.729419167,46.850984722],[1.729815278,46.851683056],[1.729346944,46.851807778],[1.72897,46.851107222]]]}},{"type":"Feature","id":"LFLX-ab4bae619d319418db29","properties":{"airport":"LFLX","name":"LFLX AVISO","layer":"Surface markings","category":"Stopbars","object_type":"Area","style_id":"polygon.stopbar.7e0000","source_group":"LFLX AVISO","vsmr_group_ids":[],"geometry_role":"filled_region"},"geometry":{"type":"Polygon","coordinates":[[[1.716366944,46.850343056],[1.716392778,46.850331944],[1.716606111,46.850551944],[1.716581944,46.850563333],[1.716366944,46.850343056]]]}},{"type":"Feature","id":"LFLX-a294c24a957b77a74a30","properties":{"airport":"LFLX","name":"LFLX AVISO","layer":"Surface markings","category":"Stopbars","object_type":"Area","style_id":"polygon.stopbar.7e0000","source_group":"LFLX AVISO","vsmr_group_ids":[],"geometry_role":"filled_region"},"geometry":{"type":"Polygon","coordinates":[[[1.721454722,46.855680556],[1.721481111,46.855667778],[1.721646111,46.85584],[1.721619167,46.855850556],[1.721454722,46.855680556]]]}},{"type":"Feature","id":"LFLX-156b8512c5cedaa96b1a","properties":{"airport":"LFLX","name":"LFLX AVISO","layer":"Surface markings","category":"Stopbars","object_type":"Area","style_id":"polygon.stopbar.7e0000","source_group":"LFLX AVISO","vsmr_group_ids":[],"geometry_role":"filled_region"},"geometry":{"type":"Polygon","coordinates":[[[1.725765278,46.860199167],[1.725790278,46.8601875],[1.725958333,46.860359444],[1.725933889,46.860370556],[1.725765278,46.860199167]]]}},{"type":"Feature","id":"LFLX-1de40ceb345ebcec844b","properties":{"airport":"LFLX","name":"LFLX AVISO","layer":"Surface markings","category":"Stopbars","object_type":"Area","style_id":"polygon.stopbar.7e0000","source_group":"LFLX AVISO","vsmr_group_ids":[],"geometry_role":"filled_region"},"geometry":{"type":"Polygon","coordinates":[[[1.7344775,46.869296944],[1.734504444,46.869285],[1.734721111,46.869515833],[1.734695833,46.869526389],[1.7344775,46.869296944]]]}},{"type":"Feature","id":"LFLX-f8e4b0baa33a9522d55b","properties":{"airport":"LFLX","name":"LFLX AVISO","layer":"Surface markings","category":"Stopbars","object_type":"Area","style_id":"polygon.stopbar.7e0000","source_group":"LFLX AVISO","vsmr_group_ids":[],"geometry_role":"filled_region"},"geometry":{"type":"Polygon","coordinates":[[[1.728960556,46.858371944],[1.728963333,46.858350556],[1.729259722,46.858375],[1.729256111,46.858398056],[1.728960556,46.858371944]]]}},{"type":"Feature","id":"LFLX-4583da746ec2c37adc10","properties":{"airport":"LFLX","name":"LFLX AVISO","layer":"Surface markings","category":"Stopbars","object_type":"Area","style_id":"polygon.stopbar.7e0000","source_group":"LFLX AVISO","vsmr_group_ids":[],"geometry_role":"filled_region"},"geometry":{"type":"Polygon","coordinates":[[[1.719086944,46.848114722],[1.7191075,46.848098611],[1.719331389,46.848235278],[1.719315,46.848251111],[1.719086944,46.848114722]]]}},{"type":"Feature","id":"LFLX-e2e137fe0601069185f0","properties":{"airport":"LFLX","name":"1","layer":"Labels","category":"Gates","object_type":"Label","style_id":"label.gates","source_group":"LFLX Gates","vsmr_group_ids":[],"geometry_role":"text_label","text-field":"1"},"geometry":{"type":"Point","coordinates":[1.728127222,46.855477222]}},{"type":"Feature","id":"LFLX-4e3e3e252315e689fa57","properties":{"airport":"LFLX","name":"2","layer":"Labels","category":"Gates","object_type":"Label","style_id":"label.gates","source_group":"LFLX Gates","vsmr_group_ids":[],"geometry_role":"text_label","text-field":"2"},"geometry":{"type":"Point","coordinates":[1.727467778,46.854725556]}},{"type":"Feature","id":"LFLX-2e5a9cc68329edebca56","properties":{"airport":"LFLX","name":"3","layer":"Labels","category":"Gates","object_type":"Label","style_id":"label.gates","source_group":"LFLX Gates","vsmr_group_ids":[],"geometry_role":"text_label","text-field":"3"},"geometry":{"type":"Point","coordinates":[1.727885556,46.853913889]}},{"type":"Feature","id":"LFLX-3c8a2d178b7f676de09a","properties":{"airport":"LFLX","name":"4","layer":"Labels","category":"Gates","object_type":"Label","style_id":"label.gates","source_group":"LFLX Gates","vsmr_group_ids":[],"geometry_role":"text_label","text-field":"4"},"geometry":{"type":"Point","coordinates":[1.726170833,46.850606944]}},{"type":"Feature","id":"LFLX-954f507e602ae9b1da13","properties":{"airport":"LFLX","name":"5","layer":"Labels","category":"Gates","object_type":"Label","style_id":"label.gates","source_group":"LFLX Gates","vsmr_group_ids":[],"geometry_role":"text_label","text-field":"5"},"geometry":{"type":"Point","coordinates":[1.724917778,46.850396667]}},{"type":"Feature","id":"LFLX-89230035fe6b053ca351","properties":{"airport":"LFLX","name":"6","layer":"Labels","category":"Gates","object_type":"Label","style_id":"label.gates","source_group":"LFLX Gates","vsmr_group_ids":[],"geometry_role":"text_label","text-field":"6"},"geometry":{"type":"Point","coordinates":[1.724500278,46.849464722]}},{"type":"Feature","id":"LFLX-0d3e3a4ce78f580d7d74","properties":{"airport":"LFLX","name":"7","layer":"Labels","category":"Gates","object_type":"Label","style_id":"label.gates","source_group":"LFLX Gates","vsmr_group_ids":[],"geometry_role":"text_label","text-field":"7"},"geometry":{"type":"Point","coordinates":[1.721268611,46.848262222]}},{"type":"Feature","id":"LFLX-ec762bef5e170ca036fa","properties":{"airport":"LFLX","name":"8","layer":"Labels","category":"Gates","object_type":"Label","style_id":"label.gates","source_group":"LFLX Gates","vsmr_group_ids":[],"geometry_role":"text_label","text-field":"8"},"geometry":{"type":"Point","coordinates":[1.720345556,46.84724]}},{"type":"Feature","id":"LFLX-3a83e31d26127ed9bf31","properties":{"airport":"LFLX","name":"X","layer":"Labels","category":"Gates","object_type":"Label","style_id":"label.gates","source_group":"LFLX Gates","vsmr_group_ids":[],"geometry_role":"text_label","text-field":"X"},"geometry":{"type":"Point","coordinates":[1.714300278,46.851884722]}},{"type":"Feature","id":"LFLX-5db0a7ef7f08e866b870","properties":{"airport":"LFLX","name":"X","layer":"Labels","category":"Gates","object_type":"Label","style_id":"label.gates","source_group":"LFLX Gates","vsmr_group_ids":[],"geometry_role":"text_label","text-field":"X"},"geometry":{"type":"Point","coordinates":[1.721664444,46.847164722]}},{"type":"Feature","id":"LFLX-3580efb063142daf6976","properties":{"airport":"LFLX","name":"X","layer":"Labels","category":"Gates","object_type":"Label","style_id":"label.gates","source_group":"LFLX Gates","vsmr_group_ids":[],"geometry_role":"text_label","text-field":"X"},"geometry":{"type":"Point","coordinates":[1.728852778,46.851553889]}},{"type":"Feature","id":"LFLX-bf72f9aa705325b8118f","properties":{"airport":"LFLX","name":"X","layer":"Labels","category":"Gates","object_type":"Label","style_id":"label.gates","source_group":"LFLX Gates","vsmr_group_ids":[],"geometry_role":"text_label","text-field":"X"},"geometry":{"type":"Point","coordinates":[1.730897222,46.854229444]}},{"type":"Feature","id":"LFLX-dae5e4e0e75b3dbb57a9","properties":{"airport":"LFLX","name":"03","layer":"Labels","category":"Taxiways","object_type":"Label","style_id":"label.taxiways","source_group":"LFLX Taxiways","vsmr_group_ids":[],"geometry_role":"text_label","text-field":"03"},"geometry":{"type":"Point","coordinates":[1.718528056,46.849865]}},{"type":"Feature","id":"LFLX-982efa4a4026549c45b0","properties":{"airport":"LFLX","name":"21","layer":"Labels","category":"Taxiways","object_type":"Label","style_id":"label.taxiways","source_group":"LFLX Taxiways","vsmr_group_ids":[],"geometry_role":"text_label","text-field":"21"},"geometry":{"type":"Point","coordinates":[1.742880278,46.875645278]}},{"type":"Feature","id":"LFLX-f68378ba6357cfd3705f","properties":{"airport":"LFLX","name":"B","layer":"Labels","category":"Taxiways","object_type":"Label","style_id":"label.taxiways","source_group":"LFLX Taxiways","vsmr_group_ids":[],"geometry_role":"text_label","text-field":"B"},"geometry":{"type":"Point","coordinates":[1.734212778,46.868915833]}},{"type":"Feature","id":"LFLX-d3a552688e49d2134d4a","properties":{"airport":"LFLX","name":"C","layer":"Labels","category":"Taxiways","object_type":"Label","style_id":"label.taxiways","source_group":"LFLX Taxiways","vsmr_group_ids":[],"geometry_role":"text_label","text-field":"C"},"geometry":{"type":"Point","coordinates":[1.726269722,46.860842222]}},{"type":"Feature","id":"LFLX-f2b59f75f5091903553b","properties":{"airport":"LFLX","name":"D","layer":"Labels","category":"Taxiways","object_type":"Label","style_id":"label.taxiways","source_group":"LFLX Taxiways","vsmr_group_ids":[],"geometry_role":"text_label","text-field":"D"},"geometry":{"type":"Point","coordinates":[1.721868889,46.856218333]}},{"type":"Feature","id":"LFLX-d66d0e34bcc58de48077","properties":{"airport":"LFLX","name":"E","layer":"Labels","category":"Taxiways","object_type":"Label","style_id":"label.taxiways","source_group":"LFLX Taxiways","vsmr_group_ids":[],"geometry_role":"text_label","text-field":"E"},"geometry":{"type":"Point","coordinates":[1.716770278,46.850860556]}},{"type":"Feature","id":"LFLX-fc84db2168248fde6b69","properties":{"airport":"LFLX","name":"F","layer":"Labels","category":"Taxiways","object_type":"Label","style_id":"label.taxiways","source_group":"LFLX Taxiways","vsmr_group_ids":[],"geometry_role":"text_label","text-field":"F"},"geometry":{"type":"Point","coordinates":[1.728540556,46.858327222]}},{"type":"Feature","id":"LFLX-071d6b163d0f070d1976","properties":{"airport":"LFLX","name":"G","layer":"Labels","category":"Taxiways","object_type":"Label","style_id":"label.taxiways","source_group":"LFLX Taxiways","vsmr_group_ids":[],"geometry_role":"text_label","text-field":"G"},"geometry":{"type":"Point","coordinates":[1.719735556,46.848488889]}},{"type":"Feature","id":"LFLX-d9198e7fc7b196ad988d","properties":{"airport":"LFLX","name":"T2","layer":"Labels","category":"Taxiways","object_type":"Label","style_id":"label.taxiways","source_group":"LFLX Taxiways","vsmr_group_ids":[],"geometry_role":"text_label","text-field":"T2"},"geometry":{"type":"Point","coordinates":[1.729288611,46.865618611]}},{"type":"Feature","id":"LFLX-bd5385bf3b0d7091582c","properties":{"airport":"LFLX","name":"T3","layer":"Labels","category":"Taxiways","object_type":"Label","style_id":"label.taxiways","source_group":"LFLX Taxiways","vsmr_group_ids":[],"geometry_role":"text_label","text-field":"T3"},"geometry":{"type":"Point","coordinates":[1.722333056,46.858425833]}},{"type":"Feature","id":"LFLX-e8823611acb20debbb43","properties":{"airport":"LFLX","name":"T4","layer":"Labels","category":"Taxiways","object_type":"Label","style_id":"label.taxiways","source_group":"LFLX Taxiways","vsmr_group_ids":[],"geometry_role":"text_label","text-field":"T4"},"geometry":{"type":"Point","coordinates":[1.7161075,46.853464167]}}]}
