{"type":"FeatureCollection","name":"LFMA AVISO","bbox":[5.361452222,43.4993225,5.37308,43.511425278],"metadata":{"schema":"vSMR AVISO","schema_version":2,"geometry_mode":"shared","airport":"LFMA","coordinate_reference_system":"WGS84","coordinate_order":"longitude, latitude","default_color_palette":"dark","color_palettes":["dark","light"],"background_colors":{"dark":"#434A4F","light":"#434A4F"},"runways":[{"ends":["14","32"],"headings":[144,324],"thresholds":[[5.362591944,43.510432778],[5.370435833,43.502080833]]}],"saved_active_runways":[],"saved_active_airport_modes":[],"airport_reference":[5.367221944,43.505277778],"feature_count":43,"style_count":9,"layer_counts":{"Guidance lines":7,"Labels":36},"category_counts":{"Apron Surface":1,"Centerlines":1,"Gates":32,"Labels":1,"Runways":1,"Stopbars":1,"TWR-CTR":1,"Taxiways":5},"geometry_source":"local GNG","geometry_source_url":"","geometry_license":"GPL-3.0"},"styles":{"line.runwayconcrete.555555":{"name":"Runways","layer":"Guidance lines","object_type":"Line","paint":{"stroke":"#111318","stroke-opacity":1,"stroke-width":1,"palette-overrides":{"light":{"stroke":"#555555"}}},"feature_count":1},"line.taxiway.c0b631":{"name":"Taxiways","layer":"Guidance lines","object_type":"Line","paint":{"stroke":"#4E5A69","stroke-opacity":1,"stroke-width":1,"palette-overrides":{"light":{"stroke":"#C0B631"}}},"feature_count":1},"line.apronsurface.808080":{"name":"Apron Surface","layer":"Guidance lines","object_type":"Line","paint":{"stroke":"#808080","stroke-opacity":1,"stroke-width":1,"palette-overrides":{"light":{"stroke":"#808080"}}},"feature_count":1},"line.stopbar.7e0000":{"name":"Stopbars","layer":"Guidance lines","object_type":"Line","paint":{"stroke":"#7E0000","stroke-opacity":1,"stroke-width":1,"palette-overrides":{"light":{"stroke":"#7E0000"}}},"feature_count":1},"line.twr-ctr.000000":{"name":"TWR-CTR","layer":"Guidance lines","object_type":"Line","paint":{"stroke":"#000000","stroke-opacity":1,"stroke-width":1,"palette-overrides":{"light":{"stroke":"#000000"}}},"feature_count":1},"line.centerlines.ffff00":{"name":"Centerlines","layer":"Guidance lines","object_type":"Line","paint":{"stroke":"#FFFF00","stroke-opacity":1,"stroke-width":1,"palette-overrides":{"light":{"stroke":"#FFFF00"}}},"feature_count":1},"line.labels.808080":{"name":"Labels","layer":"Guidance lines","object_type":"Line","paint":{"stroke":"#808080","stroke-opacity":1,"stroke-width":1,"palette-overrides":{"light":{"stroke":"#808080"}}},"feature_count":1},"label.gates":{"name":"Gates","layer":"Labels","object_type":"Label","paint":{"text-color":"#CCCCCC","text-font":"Arial","text-size":12,"text-halo-color":"#000000","text-halo-width":1,"text-anchor":"center","zoomLevel":9},"feature_count":32},"label.taxiways":{"name":"Taxiways","layer":"Labels","object_type":"Label","paint":{"text-color":"#CCCCCC","text-font":"Arial","text-size":12,"text-halo-color":"#000000","text-halo-width":1,"text-anchor":"center","zoomLevel":7},"feature_count":4}},"vsmr_groups":[],"features":[{"type":"Feature","id":"LFMA-cb155c4867db3cb86f43","properties":{"airport":"LFMA","name":"Aire-Novembre Ouest","layer":"Labels","category":"Gates","object_type":"Label","style_id":"label.gates","source_group":"LFMA Gates","vsmr_group_ids":[],"geometry_role":"text_label","text-field":"Aire-Novembre Ouest"},"geometry":{"type":"Point","coordinates":[5.363801944,43.505792222]}},{"type":"Feature","id":"LFMA-0570289055cc0e5e53d5","properties":{"airport":"LFMA","name":"TWR","layer":"Labels","category":"Gates","object_type":"Label","style_id":"label.gates","source_group":"LFMA Gates","vsmr_group_ids":[],"geometry_role":"text_label","text-field":"TWR"},"geometry":{"type":"Point","coordinates":[5.36594,43.504083333]}},{"type":"Feature","id":"LFMA-e6cfac1bc89edb995805","properties":{"airport":"LFMA","name":"Aire-Sierra Ouest","layer":"Labels","category":"Gates","object_type":"Label","style_id":"label.gates","source_group":"LFMA Gates","vsmr_group_ids":[],"geometry_role":"text_label","text-field":"Aire-Sierra Ouest"},"geometry":{"type":"Point","coordinates":[5.367426667,43.502156111]}},{"type":"Feature","id":"LFMA-b1f189fe16bbfc490d39","properties":{"airport":"LFMA","name":"Aire-Sierra en herbe","layer":"Labels","category":"Gates","object_type":"Label","style_id":"label.gates","source_group":"LFMA Gates","vsmr_group_ids":[],"geometry_role":"text_label","text-field":"Aire-Sierra en herbe"},"geometry":{"type":"Point","coordinates":[5.372655833,43.5019225]}},{"type":"Feature","id":"LFMA-8e4fbca199d9bb6d4440","properties":{"airport":"LFMA","name":"Aire-Sierra Est","layer":"Labels","category":"Gates","object_type":"Label","style_id":"label.gates","source_group":"LFMA Gates","vsmr_group_ids":[],"geometry_role":"text_label","text-field":"Aire-Sierra Est"},"geometry":{"type":"Point","coordinates":[5.372515833,43.503053056]}},{"type":"Feature","id":"LFMA-6370690d0ed3c4369e72","properties":{"airport":"LFMA","name":"Aire-Novembre Est","layer":"Labels","category":"Gates","object_type":"Label","style_id":"label.gates","source_group":"LFMA Gates","vsmr_group_ids":[],"geometry_role":"text_label","text-field":"Aire-Novembre Est"},"geometry":{"type":"Point","coordinates":[5.369730556,43.504658056]}},{"type":"Feature","id":"LFMA-2383e61edc9d313473e5","properties":{"airport":"LFMA","name":"ACB","layer":"Labels","category":"Gates","object_type":"Label","style_id":"label.gates","source_group":"LFMA Gates","vsmr_group_ids":[],"geometry_role":"text_label","text-field":"ACB"},"geometry":{"type":"Point","coordinates":[5.372180833,43.503331944]}},{"type":"Feature","id":"LFMA-b574428a8ebca19bbeb0","properties":{"airport":"LFMA","name":"2N","layer":"Labels","category":"Gates","object_type":"Label","style_id":"label.gates","source_group":"LFMA Gates","vsmr_group_ids":[],"geometry_role":"text_label","text-field":"2N"},"geometry":{"type":"Point","coordinates":[5.37041,43.504936667]}},{"type":"Feature","id":"LFMA-6d630ee5804de37cdc37","properties":{"airport":"LFMA","name":"1N","layer":"Labels","category":"Gates","object_type":"Label","style_id":"label.gates","source_group":"LFMA Gates","vsmr_group_ids":[],"geometry_role":"text_label","text-field":"1N"},"geometry":{"type":"Point","coordinates":[5.370620278,43.5047175]}},{"type":"Feature","id":"LFMA-dba5beecddc3480eef1a","properties":{"airport":"LFMA","name":"6N","layer":"Labels","category":"Gates","object_type":"Label","style_id":"label.gates","source_group":"LFMA Gates","vsmr_group_ids":[],"geometry_role":"text_label","text-field":"6N"},"geometry":{"type":"Point","coordinates":[5.3700525,43.504346111]}},{"type":"Feature","id":"LFMA-a0c446802cb1d225c840","properties":{"airport":"LFMA","name":"9N","layer":"Labels","category":"Gates","object_type":"Label","style_id":"label.gates","source_group":"LFMA Gates","vsmr_group_ids":[],"geometry_role":"text_label","text-field":"9N"},"geometry":{"type":"Point","coordinates":[5.370205833,43.504423889]}},{"type":"Feature","id":"LFMA-4a67794f31d60e154eef","properties":{"airport":"LFMA","name":"7N","layer":"Labels","category":"Gates","object_type":"Label","style_id":"label.gates","source_group":"LFMA Gates","vsmr_group_ids":[],"geometry_role":"text_label","text-field":"7N"},"geometry":{"type":"Point","coordinates":[5.370558611,43.504164444]}},{"type":"Feature","id":"LFMA-ab00af1e86b89196440c","properties":{"airport":"LFMA","name":"8N","layer":"Labels","category":"Gates","object_type":"Label","style_id":"label.gates","source_group":"LFMA Gates","vsmr_group_ids":[],"geometry_role":"text_label","text-field":"8N"},"geometry":{"type":"Point","coordinates":[5.370800833,43.504271389]}},{"type":"Feature","id":"LFMA-9ccca32a80d199e3d348","properties":{"airport":"LFMA","name":"10N","layer":"Labels","category":"Gates","object_type":"Label","style_id":"label.gates","source_group":"LFMA Gates","vsmr_group_ids":[],"geometry_role":"text_label","text-field":"10N"},"geometry":{"type":"Point","coordinates":[5.370644167,43.504512222]}},{"type":"Feature","id":"LFMA-a19c62a581b8be96a511","properties":{"airport":"LFMA","name":"3N","layer":"Labels","category":"Gates","object_type":"Label","style_id":"label.gates","source_group":"LFMA Gates","vsmr_group_ids":[],"geometry_role":"text_label","text-field":"3N"},"geometry":{"type":"Point","coordinates":[5.370731667,43.5037125]}},{"type":"Feature","id":"LFMA-8b7a3f4a099614570923","properties":{"airport":"LFMA","name":"4N","layer":"Labels","category":"Gates","object_type":"Label","style_id":"label.gates","source_group":"LFMA Gates","vsmr_group_ids":[],"geometry_role":"text_label","text-field":"4N"},"geometry":{"type":"Point","coordinates":[5.370943333,43.503813611]}},{"type":"Feature","id":"LFMA-2404835ca6af67f538ee","properties":{"airport":"LFMA","name":"5N","layer":"Labels","category":"Gates","object_type":"Label","style_id":"label.gates","source_group":"LFMA Gates","vsmr_group_ids":[],"geometry_role":"text_label","text-field":"5N"},"geometry":{"type":"Point","coordinates":[5.371087778,43.503895278]}},{"type":"Feature","id":"LFMA-39aa9658892925584ab5","properties":{"airport":"LFMA","name":"S2","layer":"Labels","category":"Gates","object_type":"Label","style_id":"label.gates","source_group":"LFMA Gates","vsmr_group_ids":[],"geometry_role":"text_label","text-field":"S2"},"geometry":{"type":"Point","coordinates":[5.371379722,43.5034875]}},{"type":"Feature","id":"LFMA-7552556e1cc98b92bb18","properties":{"airport":"LFMA","name":"S3","layer":"Labels","category":"Gates","object_type":"Label","style_id":"label.gates","source_group":"LFMA Gates","vsmr_group_ids":[],"geometry_role":"text_label","text-field":"S3"},"geometry":{"type":"Point","coordinates":[5.371463333,43.503381944]}},{"type":"Feature","id":"LFMA-dfc8a1f876a71a4d8a50","properties":{"airport":"LFMA","name":"S4","layer":"Labels","category":"Gates","object_type":"Label","style_id":"label.gates","source_group":"LFMA Gates","vsmr_group_ids":[],"geometry_role":"text_label","text-field":"S4"},"geometry":{"type":"Point","coordinates":[5.371725556,43.5031775]}},{"type":"Feature","id":"LFMA-38f9d3a9b6fc3285f71e","properties":{"airport":"LFMA","name":"S5","layer":"Labels","category":"Gates","object_type":"Label","style_id":"label.gates","source_group":"LFMA Gates","vsmr_group_ids":[],"geometry_role":"text_label","text-field":"S5"},"geometry":{"type":"Point","coordinates":[5.371786111,43.503073889]}},{"type":"Feature","id":"LFMA-8b8abd2d8604657ca674","properties":{"airport":"LFMA","name":"S6","layer":"Labels","category":"Gates","object_type":"Label","style_id":"label.gates","source_group":"LFMA Gates","vsmr_group_ids":[],"geometry_role":"text_label","text-field":"S6"},"geometry":{"type":"Point","coordinates":[5.371880278,43.502970278]}},{"type":"Feature","id":"LFMA-9e317b6f03d4a5518bb1","properties":{"airport":"LFMA","name":"S7","layer":"Labels","category":"Gates","object_type":"Label","style_id":"label.gates","source_group":"LFMA Gates","vsmr_group_ids":[],"geometry_role":"text_label","text-field":"S7"},"geometry":{"type":"Point","coordinates":[5.371976667,43.502862778]}},{"type":"Feature","id":"LFMA-9310845a9aa488f1fc3f","properties":{"airport":"LFMA","name":"S8","layer":"Labels","category":"Gates","object_type":"Label","style_id":"label.gates","source_group":"LFMA Gates","vsmr_group_ids":[],"geometry_role":"text_label","text-field":"S8"},"geometry":{"type":"Point","coordinates":[5.371742778,43.5025825]}},{"type":"Feature","id":"LFMA-44cd7461a9b39a17ad08","properties":{"airport":"LFMA","name":"S9","layer":"Labels","category":"Gates","object_type":"Label","style_id":"label.gates","source_group":"LFMA Gates","vsmr_group_ids":[],"geometry_role":"text_label","text-field":"S9"},"geometry":{"type":"Point","coordinates":[5.371641389,43.502685556]}},{"type":"Feature","id":"LFMA-2ce577ef8e995c37a40d","properties":{"airport":"LFMA","name":"S10","layer":"Labels","category":"Gates","object_type":"Label","style_id":"label.gates","source_group":"LFMA Gates","vsmr_group_ids":[],"geometry_role":"text_label","text-field":"S10"},"geometry":{"type":"Point","coordinates":[5.371550278,43.502790278]}},{"type":"Feature","id":"LFMA-9581ba42d844d728e3a6","properties":{"airport":"LFMA","name":"S11","layer":"Labels","category":"Gates","object_type":"Label","style_id":"label.gates","source_group":"LFMA Gates","vsmr_group_ids":[],"geometry_role":"text_label","text-field":"S11"},"geometry":{"type":"Point","coordinates":[5.371445,43.502896667]}},{"type":"Feature","id":"LFMA-7890d556a34cf853b62f","properties":{"airport":"LFMA","name":"S12","layer":"Labels","category":"Gates","object_type":"Label","style_id":"label.gates","source_group":"LFMA Gates","vsmr_group_ids":[],"geometry_role":"text_label","text-field":"S12"},"geometry":{"type":"Point","coordinates":[5.371343611,43.502994167]}},{"type":"Feature","id":"LFMA-3dc3dc85b395e34b50bf","properties":{"airport":"LFMA","name":"S13","layer":"Labels","category":"Gates","object_type":"Label","style_id":"label.gates","source_group":"LFMA Gates","vsmr_group_ids":[],"geometry_role":"text_label","text-field":"S13"},"geometry":{"type":"Point","coordinates":[5.371243333,43.503097222]}},{"type":"Feature","id":"LFMA-df50019155c9d301b8be","properties":{"airport":"LFMA","name":"S14","layer":"Labels","category":"Gates","object_type":"Label","style_id":"label.gates","source_group":"LFMA Gates","vsmr_group_ids":[],"geometry_role":"text_label","text-field":"S14"},"geometry":{"type":"Point","coordinates":[5.371139167,43.503203611]}},{"type":"Feature","id":"LFMA-15aad2919fc0bbaf36ff","properties":{"airport":"LFMA","name":"S15","layer":"Labels","category":"Gates","object_type":"Label","style_id":"label.gates","source_group":"LFMA Gates","vsmr_group_ids":[],"geometry_role":"text_label","text-field":"S15"},"geometry":{"type":"Point","coordinates":[5.37104,43.503310278]}},{"type":"Feature","id":"LFMA-3167eea0affe4bd16332","properties":{"airport":"LFMA","name":"S16","layer":"Labels","category":"Gates","object_type":"Label","style_id":"label.gates","source_group":"LFMA Gates","vsmr_group_ids":[],"geometry_role":"text_label","text-field":"S16"},"geometry":{"type":"Point","coordinates":[5.3709325,43.503413333]}},{"type":"Feature","id":"LFMA-b95717061e0040b6adf1","properties":{"airport":"LFMA","name":"LFMA Groundlayout","layer":"Guidance lines","category":"Runways","object_type":"Line","style_id":"line.runwayconcrete.555555","source_group":"LFMA Groundlayout","vsmr_group_ids":[],"geometry_role":"linework"},"geometry":{"type":"MultiLineString","coordinates":[[[5.366033889,43.507009722],[5.361890278,43.511425278],[5.361585278,43.511275556],[5.361555,43.511260278],[5.361528333,43.511240833],[5.361505833,43.511218056],[5.361491389,43.511199444],[5.361476944,43.511180833],[5.361466944,43.511162222],[5.361460278,43.511139444],[5.361453611,43.511120833],[5.361452222,43.511099167],[5.361454722,43.511076389],[5.361458056,43.511054444],[5.361463611,43.511035],[5.3614725,43.511013889],[5.361485833,43.510992222],[5.361496944,43.510973333],[5.361510556,43.510958056],[5.361529722,43.510941389],[5.361545833,43.510927778],[5.361561111,43.510918611],[5.361578333,43.510908611],[5.361594444,43.510900278],[5.3616125,43.510894444],[5.3616325,43.510885278],[5.361655833,43.51088],[5.361674722,43.510873333],[5.361693611,43.5108675],[5.361721667,43.510864167],[5.3617225,43.510864167],[5.361745833,43.510861667],[5.361766667,43.510863056],[5.361786389,43.510863056],[5.361806389,43.510863611],[5.361828889,43.5108675],[5.361850556,43.510870833],[5.361864722,43.510873333],[5.361883889,43.510874722],[5.361905278,43.510871389],[5.361928889,43.510866111],[5.361957778,43.510859167],[5.3619775,43.510853889],[5.361995556,43.510848611],[5.365726389,43.506879167]],[[5.366488333,43.506525],[5.369491667,43.5033275]],[[5.370024722,43.502762222],[5.37308,43.499516667],[5.372666111,43.4993225],[5.372616111,43.499340556],[5.372551944,43.499351111],[5.372484167,43.499356111],[5.372434167,43.499374167],[5.372395,43.499398889],[5.372363889,43.499418889],[5.372339722,43.499438889],[5.3723225,43.4994525],[5.372313889,43.499468889],[5.372301944,43.499483889],[5.372288056,43.499505278],[5.372277778,43.499532778],[5.372269167,43.499565278],[5.372269167,43.499586667],[5.372275833,43.499612778],[5.372276667,43.499631944],[5.372285833,43.499650556],[5.372296667,43.499672778],[5.372311944,43.499691667],[5.3723225,43.499705],[5.372338056,43.499719444],[5.372344167,43.499736111],[5.372351667,43.499757222],[5.372353333,43.499772778],[5.372353333,43.499788333],[5.372348611,43.499805],[5.372348611,43.499818333],[5.372338056,43.499833889],[5.372322778,43.499851667],[5.369691389,43.502656667]],[[5.367689722,43.504785556],[5.369192222,43.50319]]]}},{"type":"Feature","id":"LFMA-00bce444051def606887","properties":{"airport":"LFMA","name":"LFMA Groundlayout","layer":"Guidance lines","category":"Taxiways","object_type":"Line","style_id":"line.taxiway.c0b631","source_group":"LFMA Groundlayout","vsmr_group_ids":[],"geometry_role":"linework"},"geometry":{"type":"MultiLineString","coordinates":[[[5.364669444,43.505841111],[5.364690556,43.505866389],[5.364703611,43.505885833],[5.364719167,43.505895833],[5.364739444,43.5059125],[5.364766111,43.505927778],[5.364897778,43.505994722],[5.364926389,43.506002778],[5.365080833,43.50602],[5.365103056,43.506020833],[5.365126111,43.506018056],[5.365128889,43.5060175],[5.3651425,43.506013333],[5.365157222,43.506001944],[5.366608889,43.504454722],[5.366603611,43.504434444],[5.36659,43.50442],[5.366578611,43.504403889],[5.366553889,43.5043875],[5.366185556,43.504205278]],[[5.366033889,43.507009444],[5.366057222,43.506993333],[5.366073889,43.506986667],[5.366093889,43.506976389],[5.366116111,43.506965],[5.366136111,43.506956111],[5.366160556,43.506946389],[5.366190556,43.506938333],[5.366220556,43.506930278],[5.366252778,43.506925556],[5.366287222,43.506920556],[5.366316111,43.506921389],[5.366345,43.506919167],[5.366378333,43.506922222],[5.366402778,43.506926389],[5.366429444,43.506932778],[5.366456111,43.506941667],[5.366483889,43.506949722],[5.367165278,43.507285556],[5.369357778,43.504957222]],[[5.366491389,43.506522778],[5.36648,43.506548611],[5.366473056,43.506564722],[5.36647,43.506581111],[5.366466944,43.506600278],[5.366468056,43.506622222],[5.366468889,43.506648611],[5.366474167,43.506669444],[5.366479167,43.506693611],[5.366482222,43.506710556],[5.366490278,43.506726667],[5.366500278,43.506745278],[5.366511667,43.506762778],[5.366521667,43.506778889],[5.366535833,43.506793056],[5.36655,43.506806111],[5.366569444,43.506821667],[5.366588611,43.506835556],[5.366973056,43.507028333],[5.367005556,43.507038056],[5.367035278,43.507044444],[5.367063333,43.507045556],[5.367100278,43.507045556],[5.367134167,43.507038056],[5.367165278,43.507029444],[5.367191667,43.507016667],[5.367216944,43.506998333],[5.370380556,43.503621667],[5.370395278,43.503601667],[5.370406389,43.503578889],[5.370407222,43.503559167],[5.370403333,43.503540833],[5.370399167,43.5035275],[5.370394167,43.503510833],[5.370387222,43.5034975],[5.370378056,43.503484444],[5.370368889,43.5034675],[5.370354722,43.503458889],[5.369971389,43.503269722],[5.369944722,43.503261667],[5.369914444,43.503253889],[5.369883056,43.503247778],[5.369851389,43.503244167],[5.369817778,43.503238889],[5.369778889,43.503236389],[5.369746389,43.503238056],[5.369706389,43.5032425],[5.3696725,43.503247778],[5.369639722,43.503254722],[5.369595,43.503271389],[5.369564722,43.503284444],[5.369538333,43.503298611],[5.369511667,43.503309167],[5.369488611,43.503328333]],[[5.370025556,43.5027625],[5.370007222,43.502788611],[5.369992778,43.502811111],[5.369980278,43.502832222],[5.369970556,43.502855278],[5.369964722,43.502879167],[5.369958056,43.502904444],[5.369955,43.5029275],[5.369954167,43.502948611],[5.369953056,43.502970556],[5.369956111,43.502990833],[5.369963611,43.503011111],[5.369968611,43.503026667],[5.369976389,43.503041389],[5.369984167,43.503056111],[5.369999167,43.503080278],[5.370015278,43.503098889],[5.370037222,43.503121667],[5.370063056,43.503140278],[5.3700875,43.503161944],[5.370111944,43.503172778],[5.370559444,43.503396667],[5.370593611,43.503413611],[5.370613889,43.5034125],[5.370643333,43.503406944],[5.370682778,43.503404167],[5.370810556,43.503395833],[5.370836111,43.503392222],[5.370853889,43.503383056],[5.370870556,43.50337]],[[5.365726667,43.50688],[5.36574,43.506859167],[5.365748889,43.506840556],[5.365756111,43.506825833],[5.365762222,43.506807778],[5.365766667,43.506791111],[5.365771944,43.506768611],[5.365774722,43.506747222],[5.365774722,43.506724722],[5.365773889,43.506706111],[5.365770278,43.506686667],[5.365762222,43.506666944],[5.365753889,43.506638056],[5.365744722,43.506624167],[5.365738333,43.506612222],[5.3657275,43.506599444],[5.365712778,43.506585556],[5.365701111,43.506571111],[5.365686389,43.506558611],[5.365671667,43.506547778],[5.365656111,43.506537222],[5.365636944,43.506522778],[5.365616944,43.506511389],[5.365596944,43.506501667],[5.364674444,43.506045556],[5.364648056,43.506035278],[5.364621667,43.506026111],[5.364587778,43.506018611],[5.364566667,43.506014722],[5.364541111,43.506011667]],[[5.366231111,43.50634],[5.366190278,43.506369167],[5.366163889,43.506384167],[5.366136111,43.506398889],[5.366107222,43.506413333],[5.366071667,43.506426111],[5.366043611,43.506431389],[5.366009167,43.506439722],[5.365968889,43.506444444],[5.365930833,43.506446944],[5.365894444,43.506445],[5.365859722,43.506442222],[5.365831944,43.506438889],[5.365804722,43.506433611],[5.365771111,43.506424722],[5.365744167,43.506413333],[5.365708611,43.506400278],[5.365663056,43.506377222],[5.365401667,43.506244444],[5.365376111,43.506229444],[5.365355556,43.506214444],[5.365345278,43.506200278],[5.365328889,43.506186944],[5.3653175,43.506166944],[5.365308333,43.506144444],[5.3653,43.506128889],[5.365293889,43.506106667],[5.365293056,43.506088611],[5.365302222,43.506073056],[5.365320556,43.506054444],[5.366770556,43.504518333],[5.366784444,43.504509167],[5.366800833,43.504511111],[5.367439167,43.504824167],[5.367460833,43.504838889],[5.367475833,43.504854444],[5.367491111,43.504873056],[5.367501389,43.504892222],[5.367506389,43.5049125],[5.367511389,43.504938056],[5.367505,43.504961111],[5.3675,43.504980278],[5.367493611,43.504996944]],[[5.36769,43.504784722],[5.367675833,43.504792778],[5.367655833,43.504801111],[5.367640556,43.5048075],[5.367625833,43.504811667],[5.367612222,43.504815833],[5.367596389,43.504818611],[5.367584167,43.504819722],[5.367568056,43.504820556],[5.367553333,43.50482],[5.367533611,43.504817778],[5.367516389,43.504814444],[5.367500278,43.504810833],[5.367482222,43.504804722],[5.366825,43.504481667],[5.366817778,43.504474444],[5.366818889,43.504465833],[5.366828056,43.504455833],[5.368536667,43.502639444],[5.368554444,43.5026275],[5.368573611,43.502624722],[5.368603056,43.502630278],[5.368794167,43.502688611],[5.368814444,43.502690278],[5.368841389,43.502704167],[5.369096111,43.502828056],[5.369131667,43.502849167],[5.369153889,43.50287],[5.369170278,43.502886944],[5.369187778,43.502905556],[5.369202222,43.502923056],[5.369216111,43.502943889],[5.369225556,43.502963333],[5.369233333,43.502985],[5.369240278,43.503006389],[5.369242778,43.503026389],[5.369243889,43.503048889],[5.369241111,43.503069722],[5.369237778,43.503094722],[5.369228333,43.503119722],[5.369219722,43.503142778],[5.369206944,43.5031625],[5.369195278,43.503176389],[5.369191111,43.503192778]],[[5.369692222,43.502655],[5.3696675,43.502670833],[5.369641389,43.502689722],[5.369619722,43.502703333],[5.369586944,43.502716944],[5.369568889,43.502725556],[5.369544167,43.502734167],[5.369518056,43.502741667],[5.369494167,43.502748333],[5.369471111,43.502754167],[5.369447778,43.502755833],[5.369423889,43.5027575],[5.369394722,43.5027575],[5.369358889,43.5027575],[5.369328333,43.502753056],[5.369296111,43.502748889],[5.369271111,43.502744722],[5.369246111,43.502736667],[5.369225,43.502728611],[5.368245556,43.502244167]],[[5.366226944,43.504168333],[5.366616389,43.504375833],[5.366684444,43.504369444],[5.366693056,43.504365556],[5.366701667,43.5043575],[5.368339167,43.502613333],[5.368351944,43.502601667],[5.368355278,43.502590556],[5.368359722,43.502577222],[5.368360833,43.5025625],[5.368356389,43.502544444],[5.368346667,43.502524722],[5.3683325,43.502504167],[5.368268611,43.502428056],[5.368259167,43.502416111],[5.368240278,43.502406111],[5.368139444,43.5023575]]]}},{"type":"Feature","id":"LFMA-442cc17e23a4624069e7","properties":{"airport":"LFMA","name":"LFMA Groundlayout","layer":"Guidance lines","category":"Apron Surface","object_type":"Line","style_id":"line.apronsurface.808080","source_group":"LFMA Groundlayout","vsmr_group_ids":[],"geometry_role":"linework"},"geometry":{"type":"MultiLineString","coordinates":[[[5.366182222,43.504204167],[5.36605,43.504139722],[5.366131944,43.5040575],[5.366260833,43.504118889],[5.366228333,43.504157778],[5.366228333,43.50417]],[[5.364544444,43.506011667],[5.364511944,43.506012778],[5.364474444,43.506016944],[5.364443611,43.506024444],[5.364418333,43.506034722],[5.364394722,43.506045278],[5.364383333,43.506058889],[5.364374167,43.506075278],[5.364374167,43.506095556],[5.364378333,43.506116111],[5.364385556,43.506133889],[5.364420833,43.506231389],[5.364442222,43.5062875],[5.364448889,43.506302778],[5.364455278,43.506312222],[5.364495278,43.506341944],[5.363446944,43.507472778],[5.363105,43.507302778],[5.364046111,43.506291111],[5.363316389,43.505913333],[5.364328056,43.504821111],[5.365053611,43.505181667],[5.364653333,43.505622778],[5.364638056,43.505653611],[5.364631111,43.505690833],[5.3646275,43.505725556],[5.364631111,43.505755278],[5.364642778,43.505791944],[5.364654444,43.505815278],[5.364669722,43.505841944]],[[5.368140833,43.5023575],[5.368114722,43.502345278],[5.368086944,43.502335556],[5.368061944,43.502328889],[5.368030833,43.502323333],[5.367989722,43.502323056],[5.367944722,43.502325833],[5.367883889,43.502334722],[5.367826389,43.502350556],[5.367786944,43.502363333],[5.367749167,43.502384167],[5.367704444,43.502418056],[5.367645278,43.502470278],[5.366657222,43.503526111],[5.365943056,43.503166111],[5.367651111,43.501367778],[5.368355,43.501739444],[5.368108056,43.501996389],[5.368104444,43.502016944],[5.368101944,43.502041667],[5.368101944,43.502063889],[5.368108056,43.502090556],[5.368120278,43.502113611],[5.36813,43.502133889],[5.368144722,43.502156111],[5.368159444,43.502176667],[5.368176389,43.502195278],[5.368197222,43.502210833],[5.368213056,43.502223056],[5.368225833,43.502234444],[5.368245556,43.502243611]],[[5.369358333,43.504957222],[5.369394722,43.504955278],[5.369423056,43.504955833],[5.369441111,43.504959444],[5.369465278,43.504961667],[5.3694825,43.504968333],[5.369841111,43.505141389],[5.369753333,43.505233333],[5.3700575,43.505395],[5.370070833,43.505413333],[5.370082778,43.505423333],[5.370508333,43.504987222],[5.370498056,43.504978611],[5.371539444,43.503888611],[5.371400833,43.503802778],[5.372453889,43.502866667],[5.372316389,43.502785833],[5.372305,43.502767778],[5.372277778,43.502744722],[5.372135278,43.502644722],[5.372658611,43.502167222],[5.372241389,43.5019425],[5.370866111,43.503329444],[5.370859722,43.503349722],[5.370863889,43.503373333]]]}},{"type":"Feature","id":"LFMA-592077249c7dde927358","properties":{"airport":"LFMA","name":"LFMA Groundlayout","layer":"Guidance lines","category":"Stopbars","object_type":"Line","style_id":"line.stopbar.7e0000","source_group":"LFMA Groundlayout","vsmr_group_ids":[],"geometry_role":"linework"},"geometry":{"type":"MultiLineString","coordinates":[[[5.370379167,43.503624167],[5.370535556,43.503705278]],[[5.3653,43.506354444],[5.365404444,43.506245833]],[[5.368767222,43.50268],[5.368880556,43.502558889]],[[5.3668375,43.507124167],[5.366940833,43.507011944]],[[5.370306667,43.503434167],[5.370411944,43.503323056]]]}},{"type":"Feature","id":"LFMA-05239a19f882e5f5a0dc","properties":{"airport":"LFMA","name":"LFMA Groundlayout","layer":"Guidance lines","category":"TWR-CTR","object_type":"Line","style_id":"line.twr-ctr.000000","source_group":"LFMA Groundlayout","vsmr_group_ids":[],"geometry_role":"linework"},"geometry":{"type":"LineString","coordinates":[[5.366074444,43.504022778],[5.366099444,43.5039975],[5.366093333,43.503965],[5.366060278,43.503945556],[5.366012222,43.503949167],[5.365984722,43.50397],[5.365989722,43.5040075],[5.366024444,43.504028056],[5.366051111,43.504025278],[5.366074444,43.504022778]]}},{"type":"Feature","id":"LFMA-1c9b838fa7a0421f62bb","properties":{"airport":"LFMA","name":"LFMA Groundlayout","layer":"Guidance lines","category":"Centerlines","object_type":"Line","style_id":"line.centerlines.ffff00","source_group":"LFMA Groundlayout","vsmr_group_ids":[],"geometry_role":"linework"},"geometry":{"type":"MultiLineString","coordinates":[[[5.366382222,43.502844444],[5.367623611,43.501515833]],[[5.371629722,43.5031725],[5.372,43.502776111]],[[5.371995,43.502839722],[5.371907778,43.502796111]],[[5.371906944,43.502950556],[5.371800833,43.5028975]],[[5.371816944,43.503057222],[5.371704444,43.503001111]],[[5.371718611,43.503160556],[5.371609167,43.503104722]],[[5.371328333,43.503473056],[5.371401389,43.503393333]],[[5.371416111,43.503463056],[5.371308056,43.503411944]],[[5.371416389,43.503377778],[5.371496944,43.503293056]],[[5.371513056,43.503361389],[5.371403889,43.503304167]],[[5.3716625,43.502581389],[5.3717425,43.502497222]],[[5.371758333,43.502566389],[5.3716675,43.5025225]],[[5.371564444,43.5026875],[5.371644444,43.502600833]],[[5.371658889,43.502669722],[5.371565556,43.502624167]],[[5.371468889,43.502789722],[5.371547778,43.502703333]],[[5.371564444,43.502772222],[5.371467778,43.502723333]],[[5.371370278,43.502895278],[5.3714525,43.502807222]],[[5.371371389,43.502830556],[5.3714625,43.502877778]],[[5.371355556,43.502911111],[5.371274167,43.502998333]],[[5.371355278,43.502976111],[5.371276389,43.502936667]],[[5.371178056,43.503100556],[5.371258333,43.503014444]],[[5.371255278,43.503079722],[5.371180278,43.503041389]],[[5.371096667,43.503186389],[5.371153611,43.503124444]],[[5.371164444,43.503185833],[5.371076667,43.503142222]],[[5.37098,43.503310833],[5.371050278,43.503235833]],[[5.371059722,43.503286944],[5.370986389,43.503248889]],[[5.370893333,43.503403056],[5.370963056,43.503329167]],[[5.370958889,43.503393333],[5.370883889,43.503356667]],[[5.3705275,43.5039775],[5.370736944,43.503755]],[[5.370705278,43.504065278],[5.370911944,43.503848611]],[[5.370868889,43.504148333],[5.371071667,43.503935]],[[5.370163889,43.504369167],[5.370406389,43.504109167]],[[5.370338611,43.504458333],[5.370585,43.504195278]],[[5.370501111,43.504539167],[5.370745556,43.504276944]],[[5.370281111,43.504411667],[5.370399444,43.504105833]],[[5.370585278,43.504498333],[5.37068,43.504243333]],[[5.370525556,43.504769722],[5.370588333,43.504696944]],[[5.3705925,43.504759722],[5.370513889,43.504721667]],[[5.370404167,43.504895833],[5.370461667,43.504835833]],[[5.370473889,43.504887778],[5.370390556,43.504845556]],[[5.366866389,43.503123056],[5.3671925,43.502773889]],[[5.367338056,43.502655833],[5.367351944,43.502653333],[5.3673625,43.502649722],[5.367370278,43.502647222],[5.3673775,43.502641944],[5.3673825,43.502637778],[5.367386667,43.502633056],[5.367391389,43.502628333],[5.367395278,43.502620278],[5.367398056,43.502613333],[5.367399444,43.502606667],[5.367399444,43.5026],[5.367398333,43.502593889],[5.367395278,43.502588333],[5.367392222,43.502581944],[5.3673875,43.502576944],[5.367383056,43.502572222],[5.367377778,43.502568056],[5.367371111,43.502563611],[5.367365556,43.502561389],[5.367358056,43.502558056],[5.367350278,43.502555556],[5.367340833,43.502554167],[5.367331667,43.502553611],[5.367323056,43.502553333],[5.367314167,43.502553889],[5.367305833,43.502555],[5.367298056,43.502557222],[5.367287778,43.502561389],[5.367281389,43.502565],[5.367275556,43.50257],[5.36727,43.502574167],[5.367264167,43.502580556],[5.367261111,43.5025875],[5.367258056,43.502595278],[5.367256667,43.502601389],[5.367257222,43.502606944],[5.367258889,43.502613611],[5.367260556,43.502620278],[5.367263611,43.502626389],[5.367268056,43.502631389],[5.367271944,43.502636667],[5.367277778,43.502641389],[5.367284722,43.502645833],[5.367292222,43.502648611],[5.367298889,43.502650556],[5.367307222,43.502653889],[5.367316389,43.502655556],[5.367325556,43.502655556],[5.367338056,43.502655833]]]}},{"type":"Feature","id":"LFMA-0336e79c632cf761d11c","properties":{"airport":"LFMA","name":"LFMA Groundlayout","layer":"Guidance lines","category":"Labels","object_type":"Line","style_id":"line.labels.808080","source_group":"LFMA Groundlayout","vsmr_group_ids":[],"geometry_role":"linework"},"geometry":{"type":"MultiLineString","coordinates":[[[5.369993333,43.502599167],[5.370055833,43.50263],[5.370101667,43.502581944],[5.370105833,43.50251],[5.370116944,43.502498056],[5.370160833,43.502518056],[5.370184444,43.502494722],[5.370120556,43.502463889],[5.370082222,43.502505],[5.370078611,43.502578056],[5.370059167,43.502596111],[5.370033333,43.502583611],[5.370043333,43.502571389],[5.3700275,43.502562778],[5.369993333,43.502599167]],[[5.362458333,43.510655278],[5.362476111,43.510664167],[5.362575278,43.510553333],[5.362583056,43.510555556],[5.362600833,43.510539722],[5.362599167,43.510529167],[5.362582222,43.510520278],[5.362458333,43.510655278]],[[5.362516944,43.510488611],[5.362497778,43.510479167],[5.362444444,43.510573333],[5.362425278,43.510562778],[5.362459167,43.510520833],[5.362444444,43.510511944],[5.362406111,43.510552222],[5.362392222,43.510546389],[5.36237,43.51057],[5.362382222,43.510576667],[5.362355278,43.510604444],[5.362373056,43.510614444],[5.362402222,43.510587222],[5.362450833,43.51061],[5.362516944,43.510488611]],[[5.369885,43.502546111],[5.369947778,43.502575833],[5.369986111,43.502536667],[5.369979722,43.5025125],[5.370011389,43.502508333],[5.3700775,43.502441111],[5.370015556,43.50241],[5.369989167,43.502433889],[5.370032778,43.502456111],[5.370000278,43.502491667],[5.369951944,43.502497778],[5.369960278,43.502535278],[5.3699525,43.5025425],[5.369906944,43.502521667],[5.369885,43.502546111]]]}},{"type":"Feature","id":"LFMA-8787e95fb21af3a17ae1","properties":{"airport":"LFMA","name":"C","layer":"Labels","category":"Taxiways","object_type":"Label","style_id":"label.taxiways","source_group":"LFMA Taxiways","vsmr_group_ids":[],"geometry_role":"text_label","text-field":"C"},"geometry":{"type":"Point","coordinates":[5.365322778,43.5065825]}},{"type":"Feature","id":"LFMA-f7b7652c5b2c2e76160f","properties":{"airport":"LFMA","name":"B","layer":"Labels","category":"Taxiways","object_type":"Label","style_id":"label.taxiways","source_group":"LFMA Taxiways","vsmr_group_ids":[],"geometry_role":"text_label","text-field":"B"},"geometry":{"type":"Point","coordinates":[5.366358056,43.507091667]}},{"type":"Feature","id":"LFMA-8a23bffef92c79871407","properties":{"airport":"LFMA","name":"D","layer":"Labels","category":"Taxiways","object_type":"Label","style_id":"label.taxiways","source_group":"LFMA Taxiways","vsmr_group_ids":[],"geometry_role":"text_label","text-field":"D"},"geometry":{"type":"Point","coordinates":[5.369176111,43.502600278]}},{"type":"Feature","id":"LFMA-b4f9b4f6c873039326fb","properties":{"airport":"LFMA","name":"A","layer":"Labels","category":"Taxiways","object_type":"Label","style_id":"label.taxiways","source_group":"LFMA Taxiways","vsmr_group_ids":[],"geometry_role":"text_label","text-field":"A"},"geometry":{"type":"Point","coordinates":[5.370260833,43.503179444]}}]}
