{"type":"FeatureCollection","name":"LFMC AVISO","bbox":[6.296864457412912,43.30121276455561,6.568088857691508,43.42522067432154],"metadata":{"schema":"vSMR AVISO","schema_version":2,"geometry_mode":"shared","airport":"LFMC","coordinate_reference_system":"WGS84","coordinate_order":"longitude, latitude","default_color_palette":"dark","color_palettes":["dark","light"],"background_colors":{"dark":"#434A4F","light":"#434A4F"},"runways":[{"ends":["13","31"],"headings":[128,308],"thresholds":[[6.382796944,43.387080833],[6.393066944,43.380913889]]},{"ends":["09","27"],"headings":[86,266],"thresholds":[[6.378696944,43.384555833],[6.388468889,43.384705833]]}],"saved_active_runways":[],"saved_active_airport_modes":[],"airport_reference":[6.386943889,43.384721944],"feature_count":33,"style_count":3,"layer_counts":{"Airfield surfaces":24,"Guidance lines":9},"category_counts":{"":33},"geometry_source":"local GNG/KMZ","geometry_source_url":"","geometry_license":"GPL-3.0"},"styles":{"line.runwayconcrete.555555":{"name":"Runways","layer":"Guidance lines","object_type":"Line","paint":{"stroke":"#111318","stroke-opacity":1,"stroke-width":1,"palette-overrides":{"light":{"stroke":"#555555"}}},"feature_count":0},"polygon":{"name":"","layer":"Airfield surfaces","object_type":"Area","paint":{"fill":"#2c2e2d","fill-opacity":1},"feature_count":24},"line":{"name":"","layer":"Guidance lines","object_type":"Line","paint":{"stroke":"#00007f","stroke-width":1,"stroke-opacity":1},"feature_count":9}},"vsmr_groups":[],"features":[{"type":"Feature","id":"LFMC-41d8c9eb0135651fa34d","properties":{"airport":"LFMC","name":"LFMC_Background","layer":"Airfield surfaces","category":"","object_type":"Area","style_id":"polygon","source_group":"LFMC_Background","vsmr_group_ids":[],"geometry_role":"filled_region"},"geometry":{"type":"Polygon","coordinates":[[[6.296864457412912,43.30121276455561],[6.568088857691508,43.30263535715007],[6.561377254668182,43.42364274931676],[6.557842783070882,43.42328135622439],[6.299747094687033,43.42522067432154],[6.296864457412912,43.30121276455561]]]}},{"type":"Feature","id":"LFMC-3093f75c1ec5c55320b7","properties":{"airport":"LFMC","name":"LFMC_Base","layer":"Airfield surfaces","category":"","object_type":"Area","style_id":"polygon","source_group":"LFMC_Base","vsmr_group_ids":[],"geometry_role":"filled_region"},"geometry":{"type":"Polygon","coordinates":[[[6.378096561682487,43.38816884852262],[6.3778446512659,43.38813651716234],[6.377782411940927,43.38814297237209],[6.377761661456695,43.38816666195708],[6.378022436307189,43.38834545184994],[6.377651943375255,43.38848541151433],[6.376973236433887,43.38853703287919],[6.376724287281554,43.38850900724144],[6.376054530641766,43.38826555519951],[6.376356915666726,43.38787790661252],[6.376964425337275,43.38814073480803],[6.37725281073066,43.38790272066816],[6.37746913138463,43.38806212310112],[6.37749877322671,43.3880384344019],[6.377332830398212,43.38790703644924],[6.377092809195659,43.3877045554312],[6.377003919948116,43.38759254897397],[6.376970946675584,43.38751865673513],[6.376956139077676,43.38746481043985],[6.376962078264398,43.38740665874185],[6.376988761552118,43.3873571243872],[6.377033223368946,43.38732482224712],[6.377175491866629,43.38726668484083],[6.377548930364094,43.38718918679423],[6.377608209166422,43.38716119356166],[6.377620070817303,43.38712458040592],[6.377590442737953,43.38707934794476],[6.377061376096076,43.38613746459542],[6.377221422335538,43.38608363663824],[6.378480586698494,43.38537193212113],[6.378566543429907,43.38529871131814],[6.378634723691503,43.38519533582356],[6.378661413724347,43.38509195655605],[6.378676302660651,43.38468058488696],[6.378586647383768,43.38468543582144],[6.378592486656913,43.38438273067814],[6.379217253545177,43.3843911936759],[6.379332954611565,43.38437018230536],[6.379408162103699,43.38434496321069],[6.379466017612582,43.38430292575094],[6.379512310715773,43.38421464081453],[6.379518183558187,43.38366388826383],[6.379500839211367,43.38360082354604],[6.379402511912844,43.38351252667407],[6.379292606406408,43.3834788835431],[6.37756873666961,43.38342749640451],[6.377597812660245,43.3826345291749],[6.377337498201257,43.38262609491986],[6.377331776147786,43.38231077571069],[6.381568910900246,43.38238260540753],[6.383791506918398,43.38243738602485],[6.385845083921864,43.38245427782348],[6.385960778736212,43.38243325990744],[6.386122346865468,43.38234077298277],[6.38918788791038,43.38043467932705],[6.392005343154727,43.37870539568296],[6.392025420553371,43.3788921007212],[6.391840796209898,43.37900296116345],[6.391957207922348,43.37931510531019],[6.39187693514836,43.37934427976493],[6.392113776477768,43.38000940716313],[6.390429868457545,43.38104293959619],[6.390369662483019,43.38111878885676],[6.390353608684909,43.3812004721354],[6.390369665459998,43.38127632055995],[6.390925390071807,43.38178247816119],[6.391073904799363,43.38181748264847],[6.391254529662769,43.38182623104837],[6.392945237697503,43.38079034747972],[6.393013465447432,43.38068240693151],[6.393097747494954,43.38056571408107],[6.393218155150919,43.38047819238678],[6.393294411752473,43.38040234115681],[6.393370671219314,43.38037024864007],[6.393591430183703,43.3803906610153],[6.393804177710298,43.38061819806705],[6.388352915361237,43.38398723724797],[6.389967288744152,43.38535235217268],[6.389975317673573,43.38540486263876],[6.389874966386353,43.38552738786818],[6.388201287419236,43.38655392840801],[6.384968087234332,43.38731781538948],[6.385024276363103,43.38746368050039],[6.384827575154722,43.38749868083518],[6.384703909253502,43.3871719954799],[6.384362691152647,43.38726241812908],[6.384306502003434,43.38713989028179],[6.38463969048384,43.3870553022517],[6.384547382102062,43.3868160829112],[6.384370779704716,43.38653310177743],[6.384330640603373,43.38649809304504],[6.384254371347982,43.38649225539904],[6.381981812054313,43.38789645412358],[6.381971879540462,43.38793012462396],[6.381971875812244,43.38796139064009],[6.381988417316071,43.38801189829813],[6.382084381679647,43.38810810729442],[6.38224652902176,43.38827166233862],[6.382282925357226,43.38834622189982],[6.382256438779635,43.38843761323093],[6.382133974810309,43.38853621394624],[6.381299909266838,43.38902679607811],[6.381203926898724,43.38906527089002],[6.381134425075928,43.38907248137455],[6.381028520592345,43.38906044857357],[6.380919309532289,43.38902676974929],[6.380341501491036,43.38855101890569],[6.378096561682487,43.38816884852262]]]}},{"type":"Feature","id":"LFMC-841671ecfbb6216ff755","properties":{"airport":"LFMC","name":"LFMC_Grass","layer":"Airfield surfaces","category":"","object_type":"Area","style_id":"polygon","source_group":"LFMC_Grass","vsmr_group_ids":[],"geometry_role":"filled_region"},"geometry":{"type":"Polygon","coordinates":[[[6.379702966921997,43.38366598693179],[6.37974586064397,43.38359417362336],[6.379785019947011,43.38355759091139],[6.379855875377853,43.3835183007236],[6.37995656096586,43.38348578810795],[6.380033005437613,43.38347359895376],[6.381108791510157,43.38349806980864],[6.381183367284454,43.3835170454412],[6.38125607741395,43.38354550609816],[6.381336241297221,43.38360648809861],[6.381407081353842,43.38368101975264],[6.381420125229063,43.38373793210329],[6.381395825534706,43.3842230329422],[6.381373444931436,43.38427723288341],[6.381317501362158,43.38434904598727],[6.381239186147385,43.38440188695731],[6.381132907243067,43.38442627006884],[6.380008627644608,43.38440044020008],[6.379926590506926,43.38439907873161],[6.379827779071892,43.3843584197932],[6.379740158470337,43.38429337100392],[6.379710335937315,43.38423510200899],[6.379687973294757,43.38416463834604],[6.379695481571456,43.38384349579851],[6.379702966921997,43.38366598693179]]]}},{"type":"Feature","id":"LFMC-ecf806cab99f32050201","properties":{"airport":"LFMC","name":"LFMC_Grass","layer":"Airfield surfaces","category":"","object_type":"Area","style_id":"polygon","source_group":"LFMC_Grass","vsmr_group_ids":[],"geometry_role":"filled_region"},"geometry":{"type":"Polygon","coordinates":[[[6.381613545831398,43.38366822754301],[6.381624737304625,43.38363028729005],[6.381673218859176,43.38358692934462],[6.381781362733232,43.38354628534567],[6.38189882786947,43.38351241705204],[6.382635287197111,43.38351381646335],[6.382749017174907,43.38352872821022],[6.382875796003782,43.38356667608936],[6.382944774134169,43.38363172136882],[6.382976463681476,43.38369269951539],[6.382961488261172,43.38428025190638],[6.382942838547399,43.38432903212134],[6.38291113688928,43.3843832318143],[6.382812313521951,43.38444013786775],[6.382689255103696,43.38446452166068],[6.381921089430945,43.38444550604387],[6.381816679791969,43.38443059422563],[6.381716002626884,43.38438722673121],[6.381637701565111,43.38432760010439],[6.381594827056927,43.38425849044489],[6.381585513094585,43.3841920930218],[6.381592992604277,43.38401979110542],[6.381613545831398,43.38366822754301]]]}},{"type":"Feature","id":"LFMC-5f05c3c19b978bfab156","properties":{"airport":"LFMC","name":"LFMC_Grass","layer":"Airfield surfaces","category":"","object_type":"Area","style_id":"polygon","source_group":"LFMC_Grass","vsmr_group_ids":[],"geometry_role":"filled_region"},"geometry":{"type":"Polygon","coordinates":[[[6.383156036172933,43.38371218434578],[6.383164086758011,43.38368440250968],[6.383186222472093,43.38364199917162],[6.38321841758283,43.38360252080541],[6.38327073263606,43.38355719458357],[6.383363286575752,43.3835118704061],[6.383415598237134,43.3835001752679],[6.385416021751292,43.38353242666025],[6.385462295983857,43.3835382770348],[6.385532711756589,43.38357337256734],[6.385607150401558,43.38362747705691],[6.385671527983083,43.38370790118709],[6.385691642981611,43.38378686175877],[6.385675517093006,43.38432028606176],[6.385649357970817,43.38438316089522],[6.385603079571764,43.38443726181379],[6.385488393888814,43.3844928227693],[6.38538578207341,43.38451182837321],[6.383453693262609,43.38447457891388],[6.383401487560247,43.38447457640337],[6.383319452225362,43.38445153674132],[6.383246741234534,43.38441088203695],[6.383187083448663,43.38435261242354],[6.383140481365091,43.38425233734819],[6.383156036172933,43.38371218434578]]]}},{"type":"Feature","id":"LFMC-f60317bc50e30d7ae83d","properties":{"airport":"LFMC","name":"LFMC_Grass","layer":"Airfield surfaces","category":"","object_type":"Area","style_id":"polygon","source_group":"LFMC_Grass","vsmr_group_ids":[],"geometry_role":"filled_region"},"geometry":{"type":"Polygon","coordinates":[[[6.385919708081036,43.38291667442955],[6.38592540779136,43.38288768467642],[6.385979543093042,43.38286076702385],[6.386042225659718,43.38283592040459],[6.386213177309514,43.38277794535198],[6.386395525419246,43.38271168740585],[6.386993826317731,43.38322523568861],[6.387070751648237,43.38327907529315],[6.387224604813683,43.38332049188915],[6.38765482016225,43.3836373148409],[6.3877118015482,43.38373049693839],[6.387740291791884,43.38380090101222],[6.387760234273809,43.38388579987363],[6.387737438998382,43.38396448615072],[6.38769185036923,43.38403074792235],[6.386837072657958,43.38453598517308],[6.386113370379933,43.38451733303835],[6.386019346458244,43.38450490647686],[6.385931023916625,43.38444071220764],[6.385874043795283,43.38436409446386],[6.38585410439809,43.38427505353614],[6.385876922149459,43.38385263073422],[6.385919708081036,43.38291667442955]]]}},{"type":"Feature","id":"LFMC-a7d93d6c6cfa0d4c6e46","properties":{"airport":"LFMC","name":"LFMC_Grass","layer":"Airfield surfaces","category":"","object_type":"Area","style_id":"polygon","source_group":"LFMC_Grass","vsmr_group_ids":[],"geometry_role":"filled_region"},"geometry":{"type":"Polygon","coordinates":[[[6.388783926104673,43.38207187040181],[6.388860851974747,43.38206358779271],[6.388974816124485,43.38207394148569],[6.389080232985405,43.38209257791004],[6.389197046318871,43.38214848687827],[6.389644359250286,43.38255020168335],[6.389678549412167,43.38262888806539],[6.389675700774302,43.38269929187003],[6.389655757483103,43.38278419060024],[6.389598775249472,43.38286908946659],[6.3883508416934,43.38363731722556],[6.388259667128282,43.38368287225049],[6.388097263287946,43.38369736609903],[6.387994692535934,43.38369529462941],[6.387880726092751,43.38364766736751],[6.387775308236448,43.38356483802428],[6.387359338612701,43.38319003543415],[6.387327999464545,43.38313205525708],[6.387319455128846,43.38303059066396],[6.387319456679405,43.3829808937838],[6.387350798725424,43.38294362161373],[6.387430577062981,43.38288564316151],[6.388783926104673,43.38207187040181]]]}},{"type":"Feature","id":"LFMC-6270a2521975c4b4b3ae","properties":{"airport":"LFMC","name":"LFMC_Grass","layer":"Airfield surfaces","category":"","object_type":"Area","style_id":"polygon","source_group":"LFMC_Grass","vsmr_group_ids":[],"geometry_role":"filled_region"},"geometry":{"type":"Polygon","coordinates":[[[6.389906466857824,43.38136575991024],[6.38993210857871,43.38136575977417],[6.390080260538751,43.38136990021959],[6.390165733003556,43.38138646523357],[6.390291093307454,43.38144237307398],[6.390738407874402,43.3818337297706],[6.390806788309195,43.38191862732734],[6.390803942165095,43.38202630353911],[6.390761209033622,43.38215054589228],[6.390179997629617,43.38250878357322],[6.390091674877585,43.38251913795251],[6.389966313375726,43.38252742185365],[6.389880839227007,43.38250257409464],[6.389795365037221,43.38246944348443],[6.389288218624536,43.38204288122312],[6.389256878139169,43.38198490161101],[6.389245481536228,43.3819227805568],[6.38925117957309,43.38182131614349],[6.389271123116947,43.38177783137481],[6.389353747066629,43.38171156887221],[6.389906466857824,43.38136575991024]]]}},{"type":"Feature","id":"LFMC-13b436b5b50513e1ba81","properties":{"airport":"LFMC","name":"LFMC_Grass","layer":"Airfield surfaces","category":"","object_type":"Area","style_id":"polygon","source_group":"LFMC_Grass","vsmr_group_ids":[],"geometry_role":"filled_region"},"geometry":{"type":"Polygon","coordinates":[[[6.385827475552482,43.38518657636852],[6.385848504233298,43.38479471971382],[6.386450712074552,43.38480152079233],[6.385827475552482,43.38518657636852]]]}},{"type":"Feature","id":"LFMC-3d0ebfea23a151dbcb80","properties":{"airport":"LFMC","name":"LFMC_Grass","layer":"Airfield surfaces","category":"","object_type":"Area","style_id":"polygon","source_group":"LFMC_Grass","vsmr_group_ids":[],"geometry_role":"filled_region"},"geometry":{"type":"Polygon","coordinates":[[[6.385646942123935,43.38479026825038],[6.385633338450827,43.38510621042528],[6.385617030879334,43.38519506877929],[6.385600724086958,43.38527010464731],[6.385551811881172,43.38535106343989],[6.384286733996982,43.3861219029892],[6.38422967165589,43.38615744408737],[6.384099249398036,43.3861633622975],[6.383982413416966,43.38616138244053],[6.383898185621248,43.38612780967918],[6.38174339241716,43.38487956789482],[6.381691772158893,43.38484402090199],[6.381675474757924,43.38480255223986],[6.38166189535784,43.3847531851976],[6.381664618581966,43.38470184453596],[6.385646942123935,43.38479026825038]]]}},{"type":"Feature","id":"LFMC-78f0f303625270c2ab54","properties":{"airport":"LFMC","name":"LFMC_Grass","layer":"Airfield surfaces","category":"","object_type":"Area","style_id":"polygon","source_group":"LFMC_Grass","vsmr_group_ids":[],"geometry_role":"filled_region"},"geometry":{"type":"Polygon","coordinates":[[[6.381327371008818,43.3883627366087],[6.381384787789449,43.38829213908029],[6.381384795585932,43.38823116510861],[6.381680686059415,43.38806591307118],[6.381773421452319,43.3880643144692],[6.381839657973128,43.38808838736707],[6.382053812672581,43.38825527697221],[6.382075883372309,43.38833390269764],[6.382064837987123,43.38838043480464],[6.382005216250755,43.38843017305031],[6.3812500185508,43.38891952038869],[6.38118598359644,43.38893877101857],[6.381113119091431,43.3889387660024],[6.381027008859446,43.38892110962948],[6.380905582149379,43.38881840775886],[6.380874679950679,43.38874619941736],[6.380883517745335,43.38870448092352],[6.380901186001733,43.38867399514843],[6.381327371008818,43.3883627366087]]]}},{"type":"Feature","id":"LFMC-296ead3f7759602250d8","properties":{"airport":"LFMC","name":"LFMC_Grass","layer":"Airfield surfaces","category":"","object_type":"Area","style_id":"polygon","source_group":"LFMC_Grass","vsmr_group_ids":[],"geometry_role":"filled_region"},"geometry":{"type":"Polygon","coordinates":[[[6.377644948373038,43.3871967937887],[6.37765620051068,43.38718044491618],[6.377671955431228,43.38714774646964],[6.377674210219904,43.38712158673151],[6.377674217108873,43.38708561684305],[6.37744030521338,43.38673650170523],[6.377161435384711,43.38620784160372],[6.37715694050764,43.38618495112686],[6.377426942981179,43.38603292386677],[6.378537168783591,43.38541092108625],[6.378636170287287,43.38533572044619],[6.378712676125611,43.38524907283016],[6.378746437180523,43.38516078636625],[6.378780810882827,43.38478362708719],[6.378783082363291,43.38465609793043],[6.381061042938601,43.38469648815483],[6.381121287366208,43.38470118350196],[6.381205199070932,43.38470900784969],[6.381267592868561,43.38473090394672],[6.381267587392541,43.38477312379581],[6.381246072715041,43.38476217642357],[6.381153543611662,43.38483722753485],[6.381558018514033,43.38506242749715],[6.381665611867879,43.38496235788536],[6.383698389019646,43.38613201960754],[6.383743893362559,43.38616509372895],[6.383787120920513,43.38621470372139],[6.383807593613713,43.38627919504344],[6.383809863183285,43.38634533912294],[6.383778002154211,43.38641148162182],[6.383739316128228,43.38646439498581],[6.380644751328757,43.3883809389333],[6.38055780680018,43.38842071182022],[6.380454764074388,43.38844878350911],[6.380371045130431,43.38844877688106],[6.380239028736754,43.38843472646131],[6.377527117143044,43.38800349108646],[6.377304977819089,43.38782797033863],[6.377115036098278,43.38766649279632],[6.377021683340494,43.38754714473273],[6.377005597575634,43.38747928406394],[6.377008827318007,43.38743014516354],[6.37704747702748,43.38737399009409],[6.37712154285537,43.38732953858197],[6.377237465862784,43.3872897712815],[6.377588443504174,43.38722428821762],[6.377644948373038,43.3871967937887]]]}},{"type":"Feature","id":"LFMC-de12b15814317de3ddd7","properties":{"airport":"LFMC","name":"LFMC_Grass","layer":"Airfield surfaces","category":"","object_type":"Area","style_id":"polygon","source_group":"LFMC_Grass","vsmr_group_ids":[],"geometry_role":"filled_region"},"geometry":{"type":"Polygon","coordinates":[[[6.386665851102265,43.38501818584424],[6.386760418297619,43.38508102537252],[6.38720085089671,43.38482379215171],[6.388501992911282,43.38483166142896],[6.388512803578983,43.38456067504572],[6.387637370174355,43.38454495720031],[6.387548207431026,43.38445855423856],[6.388145345006833,43.38410117260715],[6.388312863478967,43.38422684938593],[6.388442557300788,43.38416204901346],[6.388477682253296,43.38418364964538],[6.388588461172374,43.38424059682762],[6.389401748315484,43.38494555600013],[6.389385536679331,43.38501735830385],[6.389312583275513,43.38505859556337],[6.389234225932219,43.38510572377165],[6.388920555403068,43.38574041092699],[6.388834090826389,43.38572666505037],[6.38872601033783,43.38570113701645],[6.388582803744168,43.38569524545864],[6.388590911927792,43.38548905978738],[6.388336923882376,43.38548905850859],[6.387237212616565,43.38545959040558],[6.386975112864423,43.38563042511737],[6.387226393818488,43.38581108750265],[6.387226390405418,43.38591908939272],[6.388461210452173,43.38594070377469],[6.388012668475172,43.386343252819],[6.387042938243816,43.38656424144655],[6.386959837163639,43.38654101176201],[6.385793783530609,43.38682204406995],[6.385697892148754,43.38689404855543],[6.384857263999004,43.38707984701365],[6.384518517499993,43.38633420911397],[6.386665851102265,43.38501818584424]]]}},{"type":"Feature","id":"LFMC-661a3bd77e7ab6177809","properties":{"airport":"LFMC","name":"LFMC_Holding","layer":"Guidance lines","category":"","object_type":"Line","style_id":"line","source_group":"LFMC_Holding","vsmr_group_ids":[],"geometry_role":"linework"},"geometry":{"type":"LineString","coordinates":[[6.379493550823774,43.38384999373867],[6.379692117038205,43.38385837594378]]}},{"type":"Feature","id":"LFMC-60bd3e81338918e5773d","properties":{"airport":"LFMC","name":"LFMC_Holding","layer":"Guidance lines","category":"","object_type":"Line","style_id":"line","source_group":"LFMC_Holding","vsmr_group_ids":[],"geometry_role":"linework"},"geometry":{"type":"LineString","coordinates":[[6.381410148119624,43.38388987603383],[6.381600081631822,43.38389198002885]]}},{"type":"Feature","id":"LFMC-d88dd5a3bd7679d87a02","properties":{"airport":"LFMC","name":"LFMC_Holding","layer":"Guidance lines","category":"","object_type":"Line","style_id":"line","source_group":"LFMC_Holding","vsmr_group_ids":[],"geometry_role":"linework"},"geometry":{"type":"LineString","coordinates":[[6.382949757925969,43.3839129751585],[6.383151202231725,43.38391507728924]]}},{"type":"Feature","id":"LFMC-24b8800c8c437144bd0b","properties":{"airport":"LFMC","name":"LFMC_Holding","layer":"Guidance lines","category":"","object_type":"Line","style_id":"line","source_group":"LFMC_Holding","vsmr_group_ids":[],"geometry_role":"linework"},"geometry":{"type":"LineString","coordinates":[[6.385675929876513,43.38398195683359],[6.385866172888777,43.38398824702313]]}},{"type":"Feature","id":"LFMC-8a9215c52d264f1d66a4","properties":{"airport":"LFMC","name":"LFMC_Holding","layer":"Guidance lines","category":"","object_type":"Line","style_id":"line","source_group":"LFMC_Holding","vsmr_group_ids":[],"geometry_role":"linework"},"geometry":{"type":"LineString","coordinates":[[6.387555315661491,43.38357768475068],[6.38769944055597,43.38348970140556]]}},{"type":"Feature","id":"LFMC-88f6fbe3174737020e78","properties":{"airport":"LFMC","name":"LFMC_Holding","layer":"Guidance lines","category":"","object_type":"Line","style_id":"line","source_group":"LFMC_Holding","vsmr_group_ids":[],"geometry_role":"linework"},"geometry":{"type":"LineString","coordinates":[[6.389345317232758,43.38230609909734],[6.38950384961408,43.38221392325095]]}},{"type":"Feature","id":"LFMC-a495e59f744d0afea33e","properties":{"airport":"LFMC","name":"LFMC_Holding","layer":"Guidance lines","category":"","object_type":"Line","style_id":"line","source_group":"LFMC_Holding","vsmr_group_ids":[],"geometry_role":"linework"},"geometry":{"type":"LineString","coordinates":[[6.390466556441337,43.3816147783688],[6.390619319171503,43.38151631679141]]}},{"type":"Feature","id":"LFMC-8230f4ecea9a2433f9d6","properties":{"airport":"LFMC","name":"LFMC_Holding","layer":"Guidance lines","category":"","object_type":"Line","style_id":"line","source_group":"LFMC_Holding","vsmr_group_ids":[],"geometry_role":"linework"},"geometry":{"type":"LineString","coordinates":[[6.377483333262923,43.38805682996809],[6.377672452261784,43.38818911563135]]}},{"type":"Feature","id":"LFMC-58846e73c763649af0ee","properties":{"airport":"LFMC","name":"LFMC_Holding","layer":"Guidance lines","category":"","object_type":"Line","style_id":"line","source_group":"LFMC_Holding","vsmr_group_ids":[],"geometry_role":"linework"},"geometry":{"type":"LineString","coordinates":[[6.378286273906277,43.38820992265687],[6.378318408365171,43.38812174806942]]}},{"type":"Feature","id":"LFMC-46f1797af25c81bb69ab","properties":{"airport":"LFMC","name":"LFMC_Building","layer":"Airfield surfaces","category":"","object_type":"Area","style_id":"polygon","source_group":"LFMC_Building","vsmr_group_ids":[],"geometry_role":"filled_region"},"geometry":{"type":"Polygon","coordinates":[[[6.376020439442462,43.388233898935],[6.376736485746932,43.38852157004624],[6.376521055943575,43.38880326943036],[6.375796927445212,43.3885253782336],[6.376020439442462,43.388233898935]]]}},{"type":"Feature","id":"LFMC-6151ce67ecda758dd96a","properties":{"airport":"LFMC","name":"LFMC_Building","layer":"Airfield surfaces","category":"","object_type":"Area","style_id":"polygon","source_group":"LFMC_Building","vsmr_group_ids":[],"geometry_role":"filled_region"},"geometry":{"type":"Polygon","coordinates":[[[6.377116005881511,43.38887572014643],[6.377059536372642,43.38854703769888],[6.377678739658368,43.38847862717855],[6.37772444159904,43.38882295951879],[6.377116005881511,43.38887572014643]]]}},{"type":"Feature","id":"LFMC-a8aa2d5a8260530899a1","properties":{"airport":"LFMC","name":"LFMC_Building","layer":"Airfield surfaces","category":"","object_type":"Area","style_id":"polygon","source_group":"LFMC_Building","vsmr_group_ids":[],"geometry_role":"filled_region"},"geometry":{"type":"Polygon","coordinates":[[[6.377757097775582,43.38230780864069],[6.377778057963608,43.38203806403245],[6.380313357054554,43.38208387943876],[6.38031331661892,43.38236122333355],[6.377757097775582,43.38230780864069]]]}},{"type":"Feature","id":"LFMC-5ccd31345281c92a2a31","properties":{"airport":"LFMC","name":"LFMC_Building","layer":"Airfield surfaces","category":"","object_type":"Area","style_id":"polygon","source_group":"LFMC_Building","vsmr_group_ids":[],"geometry_role":"filled_region"},"geometry":{"type":"Polygon","coordinates":[[[6.380501591683519,43.38235282726425],[6.380508612365075,43.38204100928688],[6.38181315685121,43.38206391636261],[6.381827132980344,43.38186617931246],[6.382325925808086,43.38187635046248],[6.38231191551424,43.38239097517646],[6.380501591683519,43.38235282726425]]]}},{"type":"Feature","id":"LFMC-5dc0044827b45edb7a68","properties":{"airport":"LFMC","name":"LFMC_Building","layer":"Airfield surfaces","category":"","object_type":"Area","style_id":"polygon","source_group":"LFMC_Building","vsmr_group_ids":[],"geometry_role":"filled_region"},"geometry":{"type":"Polygon","coordinates":[[[6.382489723233928,43.38315658759644],[6.382524674310021,43.3825278832932],[6.382876973530478,43.38253297331787],[6.382862954847244,43.38316674859706],[6.382489723233928,43.38315658759644]]]}},{"type":"Feature","id":"LFMC-3e7e9a8ca918680b577f","properties":{"airport":"LFMC","name":"LFMC_Building","layer":"Airfield surfaces","category":"","object_type":"Area","style_id":"polygon","source_group":"LFMC_Building","vsmr_group_ids":[],"geometry_role":"filled_region"},"geometry":{"type":"Polygon","coordinates":[[[6.382444461199148,43.38240365847909],[6.382447990241107,43.38202592768698],[6.38332349937258,43.38203358158259],[6.383299046536424,43.38241131075809],[6.382444461199148,43.38240365847909]]]}},{"type":"Feature","id":"LFMC-b62375366c44f3efbe5d","properties":{"airport":"LFMC","name":"LFMC_Building","layer":"Airfield surfaces","category":"","object_type":"Area","style_id":"polygon","source_group":"LFMC_Building","vsmr_group_ids":[],"geometry_role":"filled_region"},"geometry":{"type":"Polygon","coordinates":[[[6.383752498385434,43.38242400862235],[6.38377346000957,43.38205388423049],[6.38465594407821,43.38207927334928],[6.384638476499687,43.38244432724009],[6.383752498385434,43.38242400862235]]]}},{"type":"Feature","id":"LFMC-017650c04ab6543b0192","properties":{"airport":"LFMC","name":"LFMC_Building","layer":"Airfield surfaces","category":"","object_type":"Area","style_id":"polygon","source_group":"LFMC_Building","vsmr_group_ids":[],"geometry_role":"filled_region"},"geometry":{"type":"Polygon","coordinates":[[[6.386093024448973,43.38232269023546],[6.385803525145883,43.38207170669868],[6.38648023604458,43.38162301048879],[6.386797638747401,43.38189934352342],[6.386093024448973,43.38232269023546]]]}},{"type":"Feature","id":"LFMC-f2ef5311ad132fd3e6b3","properties":{"airport":"LFMC","name":"LFMC_Building","layer":"Airfield surfaces","category":"","object_type":"Area","style_id":"polygon","source_group":"LFMC_Building","vsmr_group_ids":[],"geometry_role":"filled_region"},"geometry":{"type":"Polygon","coordinates":[[[6.387366202864689,43.3815672570106],[6.386888349449071,43.38116923614129],[6.388750977858841,43.38003099370409],[6.389221853861631,43.38043154120696],[6.387366202864689,43.3815672570106]]]}},{"type":"Feature","id":"LFMC-db2ee72e2f49489866bf","properties":{"airport":"LFMC","name":"LFMC_Building","layer":"Airfield surfaces","category":"","object_type":"Area","style_id":"polygon","source_group":"LFMC_Building","vsmr_group_ids":[],"geometry_role":"filled_region"},"geometry":{"type":"Polygon","coordinates":[[[6.389302079576962,43.38033774249827],[6.389166047255794,43.38022619786067],[6.389253247598501,43.38017549541104],[6.389054431750196,43.3800005729733],[6.389853175465545,43.37951890035395],[6.390191511110405,43.37981550491857],[6.389302079576962,43.38033774249827]]]}},{"type":"Feature","id":"LFMC-047ea56990d451a51ef8","properties":{"airport":"LFMC","name":"LFMC_Building","layer":"Airfield surfaces","category":"","object_type":"Area","style_id":"polygon","source_group":"LFMC_Building","vsmr_group_ids":[],"geometry_role":"filled_region"},"geometry":{"type":"Polygon","coordinates":[[[6.390456591747427,43.37966086219383],[6.390107789747783,43.37935918773471],[6.390896053857588,43.37887243734861],[6.391244855594742,43.37918678438235],[6.390456591747427,43.37966086219383]]]}}]}
