{"type":"FeatureCollection","name":"LFMH AVISO","bbox":[4.290861111,45.530138889,4.299972222,45.551194444],"metadata":{"schema":"vSMR AVISO","schema_version":2,"geometry_mode":"shared","airport":"LFMH","coordinate_reference_system":"WGS84","coordinate_order":"longitude, latitude","default_color_palette":"dark","color_palettes":["dark","light"],"background_colors":{"dark":"#434A4F","light":"#434A4F"},"runways":[{"ends":["17","35"],"headings":[173,353],"thresholds":[[4.295482778,45.548505833],[4.297563889,45.532066944]]}],"saved_active_runways":[],"saved_active_airport_modes":[],"airport_reference":[4.297221944,45.534166944],"feature_count":17,"style_count":5,"layer_counts":{"Guidance lines":3,"Labels":14},"category_counts":{"Apron Surface":1,"Gates":8,"Runways":1,"Taxiways":7},"geometry_source":"local GNG","geometry_source_url":"","geometry_license":"GPL-3.0"},"styles":{"line.taxiway.c0b631":{"name":"Taxiways","layer":"Guidance lines","object_type":"Line","paint":{"stroke":"#4E5A69","stroke-opacity":1,"stroke-width":1,"palette-overrides":{"light":{"stroke":"#C0B631"}}},"feature_count":1},"line.runwayconcrete.555555":{"name":"Runways","layer":"Guidance lines","object_type":"Line","paint":{"stroke":"#111318","stroke-opacity":1,"stroke-width":1,"palette-overrides":{"light":{"stroke":"#555555"}}},"feature_count":1},"line.apronsurface.808080":{"name":"Apron Surface","layer":"Guidance lines","object_type":"Line","paint":{"stroke":"#808080","stroke-opacity":1,"stroke-width":1,"palette-overrides":{"light":{"stroke":"#808080"}}},"feature_count":1},"label.gates":{"name":"Gates","layer":"Labels","object_type":"Label","paint":{"text-color":"#CCCCCC","text-font":"Arial","text-size":12,"text-halo-color":"#000000","text-halo-width":1,"text-anchor":"center","zoomLevel":9},"feature_count":8},"label.taxiways":{"name":"Taxiways","layer":"Labels","object_type":"Label","paint":{"text-color":"#CCCCCC","text-font":"Arial","text-size":12,"text-halo-color":"#000000","text-halo-width":1,"text-anchor":"center","zoomLevel":7},"feature_count":6}},"vsmr_groups":[],"features":[{"type":"Feature","id":"LFMH-95497d6afd43b7a29077","properties":{"airport":"LFMH","name":"1","layer":"Labels","category":"Gates","object_type":"Label","style_id":"label.gates","source_group":"LFMH Gates","vsmr_group_ids":[],"geometry_role":"text_label","text-field":"1"},"geometry":{"type":"Point","coordinates":[4.295333333,45.530833333]}},{"type":"Feature","id":"LFMH-c2972b11ae1fc7295a7a","properties":{"airport":"LFMH","name":"2","layer":"Labels","category":"Gates","object_type":"Label","style_id":"label.gates","source_group":"LFMH Gates","vsmr_group_ids":[],"geometry_role":"text_label","text-field":"2"},"geometry":{"type":"Point","coordinates":[4.295305556,45.531222222]}},{"type":"Feature","id":"LFMH-6fb9d3315c9097145609","properties":{"airport":"LFMH","name":"3","layer":"Labels","category":"Gates","object_type":"Label","style_id":"label.gates","source_group":"LFMH Gates","vsmr_group_ids":[],"geometry_role":"text_label","text-field":"3"},"geometry":{"type":"Point","coordinates":[4.29525,45.531638889]}},{"type":"Feature","id":"LFMH-1c44294ef3acbefb790e","properties":{"airport":"LFMH","name":"4","layer":"Labels","category":"Gates","object_type":"Label","style_id":"label.gates","source_group":"LFMH Gates","vsmr_group_ids":[],"geometry_role":"text_label","text-field":"4"},"geometry":{"type":"Point","coordinates":[4.295222222,45.532]}},{"type":"Feature","id":"LFMH-f19529b8afa89ded3381","properties":{"airport":"LFMH","name":"5","layer":"Labels","category":"Gates","object_type":"Label","style_id":"label.gates","source_group":"LFMH Gates","vsmr_group_ids":[],"geometry_role":"text_label","text-field":"5"},"geometry":{"type":"Point","coordinates":[4.299666667,45.542416667]}},{"type":"Feature","id":"LFMH-8bfedbcae3f88d38c992","properties":{"airport":"LFMH","name":"6","layer":"Labels","category":"Gates","object_type":"Label","style_id":"label.gates","source_group":"LFMH Gates","vsmr_group_ids":[],"geometry_role":"text_label","text-field":"6"},"geometry":{"type":"Point","coordinates":[4.299583333,45.542916667]}},{"type":"Feature","id":"LFMH-2449f518727b73013e0c","properties":{"airport":"LFMH","name":"7","layer":"Labels","category":"Gates","object_type":"Label","style_id":"label.gates","source_group":"LFMH Gates","vsmr_group_ids":[],"geometry_role":"text_label","text-field":"7"},"geometry":{"type":"Point","coordinates":[4.299694444,45.542111111]}},{"type":"Feature","id":"LFMH-7c6a0fe60a3a67eac68f","properties":{"airport":"LFMH","name":"8","layer":"Labels","category":"Gates","object_type":"Label","style_id":"label.gates","source_group":"LFMH Gates","vsmr_group_ids":[],"geometry_role":"text_label","text-field":"8"},"geometry":{"type":"Point","coordinates":[4.299527778,45.543194444]}},{"type":"Feature","id":"LFMH-8a9c64d5106b409639af","properties":{"airport":"LFMH","name":"LFMH Groundlayout","layer":"Guidance lines","category":"Taxiways","object_type":"Line","style_id":"line.taxiway.c0b631","source_group":"LFMH Groundlayout","vsmr_group_ids":[],"geometry_role":"linework"},"geometry":{"type":"MultiLineString","coordinates":[[[4.297444444,45.530833333],[4.297027778,45.530805556]],[[4.297083333,45.530527778],[4.295694444,45.530444444]],[[4.297027778,45.530805556],[4.296055556,45.53075]],[[4.295694444,45.530444444],[4.295666667,45.530861111]],[[4.296055556,45.53075],[4.296027778,45.530861111]],[[4.295666667,45.530861111],[4.295611111,45.531277778]],[[4.296027778,45.530861111],[4.296,45.531277778]],[[4.295611111,45.531277778],[4.295583333,45.531638889]],[[4.296,45.531277778],[4.295944444,45.531666667]],[[4.295583333,45.531638889],[4.295527778,45.532]],[[4.295944444,45.531666667],[4.295916667,45.532027778]],[[4.295527778,45.532],[4.295388889,45.533472222]],[[4.295916667,45.532027778],[4.295777778,45.5335]],[[4.295361111,45.53375],[4.295194444,45.53525]],[[4.29575,45.533777778],[4.295555556,45.535416667]],[[4.295166667,45.535527778],[4.295083333,45.536194444]],[[4.295555556,45.535416667],[4.295472222,45.536194444]],[[4.295083333,45.536194444],[4.295638889,45.538]],[[4.295472222,45.536194444],[4.295944444,45.53775]],[[4.295638889,45.538],[4.296138889,45.538027778]],[[4.295944444,45.53775],[4.296166667,45.537777778]],[[4.296138889,45.538027778],[4.296527778,45.538055556]],[[4.296166667,45.537777778],[4.296555556,45.537777778]],[[4.293166667,45.534277778],[4.293944444,45.533694444]],[[4.292888889,45.534083333],[4.293611111,45.533555556]],[[4.296527778,45.5425],[4.296916667,45.542527778]],[[4.296555556,45.542222222],[4.296972222,45.54225]],[[4.296916667,45.542527778],[4.298694444,45.542694444]],[[4.296972222,45.54225],[4.29875,45.542416667]],[[4.297083333,45.533583333],[4.296694444,45.533555556]],[[4.297055556,45.533861111],[4.296666667,45.533833333]],[[4.296694444,45.533555556],[4.295777778,45.5335]],[[4.296666667,45.533833333],[4.29575,45.533777778]],[[4.295388889,45.533472222],[4.293972222,45.533416667]],[[4.295361111,45.53375],[4.293944444,45.533694444]],[[4.293972222,45.533416667],[4.292444444,45.532305556]],[[4.293611111,45.533555556],[4.292444444,45.532722222]],[[4.292444444,45.532305556],[4.291194444,45.533277778]],[[4.292444444,45.532722222],[4.291722222,45.533277778]],[[4.291194444,45.533277778],[4.29275,45.534361111]],[[4.291722222,45.533277778],[4.292888889,45.534083333]],[[4.29275,45.534361111],[4.294305556,45.535472222]],[[4.293166667,45.534277778],[4.294222222,45.535027778]],[[4.294305556,45.535472222],[4.295166667,45.535527778]],[[4.294583333,45.535222222],[4.295194444,45.53525]],[[4.2945,45.532083333],[4.294222222,45.535027778]],[[4.294888889,45.532111111],[4.294583333,45.535222222]],[[4.294638889,45.530805556],[4.294583333,45.531222222]],[[4.295027778,45.530805556],[4.294972222,45.531222222]],[[4.294638889,45.530805556],[4.295027778,45.530805556]],[[4.294583333,45.531222222],[4.294555556,45.531583333]],[[4.294972222,45.531222222],[4.294944444,45.531611111]],[[4.294555556,45.531583333],[4.294527778,45.531888889]],[[4.294944444,45.531611111],[4.294916667,45.531888889]],[[4.294527778,45.531888889],[4.2945,45.532083333]],[[4.294916667,45.531888889],[4.294888889,45.532111111]],[[4.298805556,45.542055556],[4.29875,45.542333333]],[[4.299194444,45.542083333],[4.299138889,45.542361111]],[[4.298805556,45.542055556],[4.299194444,45.542083333]],[[4.29875,45.542333333],[4.29875,45.542416667]],[[4.299138889,45.542361111],[4.299111111,45.542583333]],[[4.298694444,45.542694444],[4.298666667,45.542861111]],[[4.299111111,45.542583333],[4.299055556,45.542888889]],[[4.298666667,45.542861111],[4.298611111,45.543111111]],[[4.299055556,45.542888889],[4.299,45.543138889]],[[4.298611111,45.543111111],[4.299,45.543138889]]]}},{"type":"Feature","id":"LFMH-28c027b14aa070e18766","properties":{"airport":"LFMH","name":"LFMH Groundlayout","layer":"Guidance lines","category":"Runways","object_type":"Line","style_id":"line.runwayconcrete.555555","source_group":"LFMH Groundlayout","vsmr_group_ids":[],"geometry_role":"linework"},"geometry":{"type":"MultiLineString","coordinates":[[[4.297472222,45.530527778],[4.297472222,45.530555556]],[[4.298027778,45.530583333],[4.298027778,45.530722222]],[[4.297472222,45.530527778],[4.298027778,45.530583333]],[[4.297444444,45.530833333],[4.297083333,45.533583333]],[[4.298027778,45.53075],[4.297638889,45.53375]],[[4.297055556,45.533861111],[4.296555556,45.537777778]],[[4.297638889,45.53375],[4.297111111,45.537972222]],[[4.296527778,45.538055556],[4.295972222,45.542305556]],[[4.297111111,45.537972222],[4.296555556,45.542222222]],[[4.295972222,45.542305556],[4.294861111,45.551166667]],[[4.296527778,45.5425],[4.295444444,45.551194444]],[[4.294861111,45.551166667],[4.295444444,45.551194444]]]}},{"type":"Feature","id":"LFMH-5ac3bd5fb93e458cd155","properties":{"airport":"LFMH","name":"LFMH Groundlayout","layer":"Guidance lines","category":"Apron Surface","object_type":"Line","style_id":"line.apronsurface.808080","source_group":"LFMH Groundlayout","vsmr_group_ids":[],"geometry_role":"linework"},"geometry":{"type":"MultiLineString","coordinates":[[[4.295805556,45.530194444],[4.294694444,45.530138889],[4.2945,45.532222222],[4.295888889,45.532277778],[4.296055556,45.530583333]],[[4.295805556,45.530194444],[4.296055556,45.530583333]],[[4.295166667,45.536277778],[4.294194444,45.536194444],[4.294333333,45.535416667],[4.295194444,45.535472222]],[[4.295166667,45.536277778],[4.295194444,45.535472222]],[[4.291805556,45.533083333],[4.292638889,45.532472222],[4.291722222,45.531861111],[4.290861111,45.5325]],[[4.291805556,45.533083333],[4.290861111,45.5325]],[[4.298833333,45.541777778],[4.298583333,45.54325],[4.299694444,45.543361111],[4.299972222,45.541916667]],[[4.298833333,45.541777778],[4.299972222,45.541916667]]]}},{"type":"Feature","id":"LFMH-ee8e2a21a7500d7543d2","properties":{"airport":"LFMH","name":"A","layer":"Labels","category":"Taxiways","object_type":"Label","style_id":"label.taxiways","source_group":"LFMH Taxiways","vsmr_group_ids":[],"geometry_role":"text_label","text-field":"A"},"geometry":{"type":"Point","coordinates":[4.297388889,45.530694444]}},{"type":"Feature","id":"LFMH-fb251c3a918c8515b84f","properties":{"airport":"LFMH","name":"A","layer":"Labels","category":"Taxiways","object_type":"Label","style_id":"label.taxiways","source_group":"LFMH Taxiways","vsmr_group_ids":[],"geometry_role":"text_label","text-field":"A"},"geometry":{"type":"Point","coordinates":[4.296472222,45.530638889]}},{"type":"Feature","id":"LFMH-150f1d8a5934605d4aef","properties":{"airport":"LFMH","name":"C","layer":"Labels","category":"Taxiways","object_type":"Label","style_id":"label.taxiways","source_group":"LFMH Taxiways","vsmr_group_ids":[],"geometry_role":"text_label","text-field":"C"},"geometry":{"type":"Point","coordinates":[4.296611111,45.542361111]}},{"type":"Feature","id":"LFMH-68727a6dacf50bc392cb","properties":{"airport":"LFMH","name":"C","layer":"Labels","category":"Taxiways","object_type":"Label","style_id":"label.taxiways","source_group":"LFMH Taxiways","vsmr_group_ids":[],"geometry_role":"text_label","text-field":"C"},"geometry":{"type":"Point","coordinates":[4.297916667,45.542472222]}},{"type":"Feature","id":"LFMH-4055917a6d0830e49990","properties":{"airport":"LFMH","name":"B","layer":"Labels","category":"Taxiways","object_type":"Label","style_id":"label.taxiways","source_group":"LFMH Taxiways","vsmr_group_ids":[],"geometry_role":"text_label","text-field":"B"},"geometry":{"type":"Point","coordinates":[4.297,45.533722222]}},{"type":"Feature","id":"LFMH-00457715f9281b35dbe6","properties":{"airport":"LFMH","name":"B","layer":"Labels","category":"Taxiways","object_type":"Label","style_id":"label.taxiways","source_group":"LFMH Taxiways","vsmr_group_ids":[],"geometry_role":"text_label","text-field":"B"},"geometry":{"type":"Point","coordinates":[4.296111111,45.533666667]}}]}
