{"type":"FeatureCollection","name":"LFMI AVISO","bbox":[4.905105833,43.502935833,4.948536111,43.548336944],"metadata":{"schema":"vSMR AVISO","schema_version":2,"geometry_mode":"shared","airport":"LFMI","coordinate_reference_system":"WGS84","coordinate_order":"longitude, latitude","default_color_palette":"dark","color_palettes":["dark","light"],"background_colors":{"dark":"#434A4F","light":"#434A4F"},"runways":[{"ends":["15","33"],"headings":[151,331],"thresholds":[[4.913296944,43.537768889],[4.934618889,43.507785833]]}],"saved_active_runways":[],"saved_active_airport_modes":[],"airport_reference":[4.924166944,43.5225],"feature_count":59,"style_count":6,"layer_counts":{"Guidance lines":4,"Labels":55},"category_counts":{"Apron Surface":1,"Gates":21,"Labels":1,"Runways":1,"Taxiways":35},"geometry_source":"local GNG","geometry_source_url":"","geometry_license":"GPL-3.0"},"styles":{"line.runwayconcrete.555555":{"name":"Runways","layer":"Guidance lines","object_type":"Line","paint":{"stroke":"#111318","stroke-opacity":1,"stroke-width":1,"palette-overrides":{"light":{"stroke":"#555555"}}},"feature_count":1},"line.taxiway.c0b631":{"name":"Taxiways","layer":"Guidance lines","object_type":"Line","paint":{"stroke":"#4E5A69","stroke-opacity":1,"stroke-width":1,"palette-overrides":{"light":{"stroke":"#C0B631"}}},"feature_count":1},"line.apronsurface.808080":{"name":"Apron Surface","layer":"Guidance lines","object_type":"Line","paint":{"stroke":"#808080","stroke-opacity":1,"stroke-width":1,"palette-overrides":{"light":{"stroke":"#808080"}}},"feature_count":1},"line.labels.808080":{"name":"Labels","layer":"Guidance lines","object_type":"Line","paint":{"stroke":"#808080","stroke-opacity":1,"stroke-width":1,"palette-overrides":{"light":{"stroke":"#808080"}}},"feature_count":1},"label.gates":{"name":"Gates","layer":"Labels","object_type":"Label","paint":{"text-color":"#CCCCCC","text-font":"Arial","text-size":12,"text-halo-color":"#000000","text-halo-width":1,"text-anchor":"center","zoomLevel":9},"feature_count":21},"label.taxiways":{"name":"Taxiways","layer":"Labels","object_type":"Label","paint":{"text-color":"#CCCCCC","text-font":"Arial","text-size":12,"text-halo-color":"#000000","text-halo-width":1,"text-anchor":"center","zoomLevel":7},"feature_count":34}},"vsmr_groups":[],"features":[{"type":"Feature","id":"LFMI-5ce27d898cd10c429d89","properties":{"airport":"LFMI","name":"Raquette Nord / North Loop","layer":"Labels","category":"Gates","object_type":"Label","style_id":"label.gates","source_group":"LFMI Gates","vsmr_group_ids":[],"geometry_role":"text_label","text-field":"Raquette Nord / North Loop"},"geometry":{"type":"Point","coordinates":[4.909598889,43.548238333]}},{"type":"Feature","id":"LFMI-01f59e7998a0d0a44b34","properties":{"airport":"LFMI","name":"Aire de Degivrage","layer":"Labels","category":"Gates","object_type":"Label","style_id":"label.gates","source_group":"LFMI Gates","vsmr_group_ids":[],"geometry_role":"text_label","text-field":"Aire de Degivrage"},"geometry":{"type":"Point","coordinates":[4.917513611,43.539539167]}},{"type":"Feature","id":"LFMI-4e45977d069732b12311","properties":{"airport":"LFMI","name":"Portail Gate","layer":"Labels","category":"Gates","object_type":"Label","style_id":"label.gates","source_group":"LFMI Gates","vsmr_group_ids":[],"geometry_role":"text_label","text-field":"Portail Gate"},"geometry":{"type":"Point","coordinates":[4.923596111,43.533863611]}},{"type":"Feature","id":"LFMI-ebd68dcb25960297e439","properties":{"airport":"LFMI","name":"Mercure","layer":"Labels","category":"Gates","object_type":"Label","style_id":"label.gates","source_group":"LFMI Gates","vsmr_group_ids":[],"geometry_role":"text_label","text-field":"Mercure"},"geometry":{"type":"Point","coordinates":[4.930963333,43.533133333]}},{"type":"Feature","id":"LFMI-dd4c7be7c3588a7d77b5","properties":{"airport":"LFMI","name":"Aire Principale","layer":"Labels","category":"Gates","object_type":"Label","style_id":"label.gates","source_group":"LFMI Gates","vsmr_group_ids":[],"geometry_role":"text_label","text-field":"Aire Principale"},"geometry":{"type":"Point","coordinates":[4.928041111,43.523701111]}},{"type":"Feature","id":"LFMI-ee51ef576073e7f17399","properties":{"airport":"LFMI","name":"TWR","layer":"Labels","category":"Gates","object_type":"Label","style_id":"label.gates","source_group":"LFMI Gates","vsmr_group_ids":[],"geometry_role":"text_label","text-field":"TWR"},"geometry":{"type":"Point","coordinates":[4.929785,43.5235725]}},{"type":"Feature","id":"LFMI-ac530c292e245d7609a4","properties":{"airport":"LFMI","name":"P-Phenix","layer":"Labels","category":"Gates","object_type":"Label","style_id":"label.gates","source_group":"LFMI Gates","vsmr_group_ids":[],"geometry_role":"text_label","text-field":"P-Phenix"},"geometry":{"type":"Point","coordinates":[4.94171,43.523819722]}},{"type":"Feature","id":"LFMI-f4ff5434e4e7cdce947c","properties":{"airport":"LFMI","name":"P-F Escale","layer":"Labels","category":"Gates","object_type":"Label","style_id":"label.gates","source_group":"LFMI Gates","vsmr_group_ids":[],"geometry_role":"text_label","text-field":"P-F Escale"},"geometry":{"type":"Point","coordinates":[4.948220556,43.519774167]}},{"type":"Feature","id":"LFMI-024fbe2849110b422b62","properties":{"airport":"LFMI","name":"P-B Interdit","layer":"Labels","category":"Gates","object_type":"Label","style_id":"label.gates","source_group":"LFMI Gates","vsmr_group_ids":[],"geometry_role":"text_label","text-field":"P-B Interdit"},"geometry":{"type":"Point","coordinates":[4.942635278,43.521055278]}},{"type":"Feature","id":"LFMI-7ac607814b347e58c5d8","properties":{"airport":"LFMI","name":"P-A Interdit","layer":"Labels","category":"Gates","object_type":"Label","style_id":"label.gates","source_group":"LFMI Gates","vsmr_group_ids":[],"geometry_role":"text_label","text-field":"P-A Interdit"},"geometry":{"type":"Point","coordinates":[4.934753889,43.521774444]}},{"type":"Feature","id":"LFMI-92d3f9a103218dce0883","properties":{"airport":"LFMI","name":"P-I","layer":"Labels","category":"Gates","object_type":"Label","style_id":"label.gates","source_group":"LFMI Gates","vsmr_group_ids":[],"geometry_role":"text_label","text-field":"P-I"},"geometry":{"type":"Point","coordinates":[4.944339444,43.517737778]}},{"type":"Feature","id":"LFMI-2bbc35aff60eec45a070","properties":{"airport":"LFMI","name":"P-J Dassault","layer":"Labels","category":"Gates","object_type":"Label","style_id":"label.gates","source_group":"LFMI Gates","vsmr_group_ids":[],"geometry_role":"text_label","text-field":"P-J Dassault"},"geometry":{"type":"Point","coordinates":[4.947629167,43.515680556]}},{"type":"Feature","id":"LFMI-724447b809daea4d0bd4","properties":{"airport":"LFMI","name":"P-K","layer":"Labels","category":"Gates","object_type":"Label","style_id":"label.gates","source_group":"LFMI Gates","vsmr_group_ids":[],"geometry_role":"text_label","text-field":"P-K"},"geometry":{"type":"Point","coordinates":[4.942914167,43.513868056]}},{"type":"Feature","id":"LFMI-3d8afea162de6cad1b76","properties":{"airport":"LFMI","name":"P-V","layer":"Labels","category":"Gates","object_type":"Label","style_id":"label.gates","source_group":"LFMI Gates","vsmr_group_ids":[],"geometry_role":"text_label","text-field":"P-V"},"geometry":{"type":"Point","coordinates":[4.936336111,43.5121325]}},{"type":"Feature","id":"LFMI-ae49c73673d084063fd1","properties":{"airport":"LFMI","name":"P-Airbus","layer":"Labels","category":"Gates","object_type":"Label","style_id":"label.gates","source_group":"LFMI Gates","vsmr_group_ids":[],"geometry_role":"text_label","text-field":"P-Airbus"},"geometry":{"type":"Point","coordinates":[4.940318611,43.509738889]}},{"type":"Feature","id":"LFMI-2c7912dfd620f5660cb7","properties":{"airport":"LFMI","name":"P-DGA/EV","layer":"Labels","category":"Gates","object_type":"Label","style_id":"label.gates","source_group":"LFMI Gates","vsmr_group_ids":[],"geometry_role":"text_label","text-field":"P-DGA/EV"},"geometry":{"type":"Point","coordinates":[4.945599444,43.510084167]}},{"type":"Feature","id":"LFMI-b102089283e3ea07707c","properties":{"airport":"LFMI","name":"P-VT","layer":"Labels","category":"Gates","object_type":"Label","style_id":"label.gates","source_group":"LFMI Gates","vsmr_group_ids":[],"geometry_role":"text_label","text-field":"P-VT"},"geometry":{"type":"Point","coordinates":[4.946687222,43.5078975]}},{"type":"Feature","id":"LFMI-2e62bfdd06e33d9c9b39","properties":{"airport":"LFMI","name":"Aire secondaire","layer":"Labels","category":"Gates","object_type":"Label","style_id":"label.gates","source_group":"LFMI Gates","vsmr_group_ids":[],"geometry_role":"text_label","text-field":"Aire secondaire"},"geometry":{"type":"Point","coordinates":[4.943195833,43.507425833]}},{"type":"Feature","id":"LFMI-5421babc258da1f65ef5","properties":{"airport":"LFMI","name":"Aire de point fixe","layer":"Labels","category":"Gates","object_type":"Label","style_id":"label.gates","source_group":"LFMI Gates","vsmr_group_ids":[],"geometry_role":"text_label","text-field":"Aire de point fixe"},"geometry":{"type":"Point","coordinates":[4.938090556,43.508415556]}},{"type":"Feature","id":"LFMI-5fee9307a2019e334b53","properties":{"airport":"LFMI","name":"Zone largage charges exterieures","layer":"Labels","category":"Gates","object_type":"Label","style_id":"label.gates","source_group":"LFMI Gates","vsmr_group_ids":[],"geometry_role":"text_label","text-field":"Zone largage charges exterieures"},"geometry":{"type":"Point","coordinates":[4.913239722,43.526670278]}},{"type":"Feature","id":"LFMI-df47cea6b2773327c303","properties":{"airport":"LFMI","name":"Bloc de commande","layer":"Labels","category":"Gates","object_type":"Label","style_id":"label.gates","source_group":"LFMI Gates","vsmr_group_ids":[],"geometry_role":"text_label","text-field":"Bloc de commande"},"geometry":{"type":"Point","coordinates":[4.917094722,43.517995556]}},{"type":"Feature","id":"LFMI-b51be40bc2e2d0539d57","properties":{"airport":"LFMI","name":"LFMI Groundlayout","layer":"Guidance lines","category":"Runways","object_type":"Line","style_id":"line.runwayconcrete.555555","source_group":"LFMI Groundlayout","vsmr_group_ids":[],"geometry_role":"linework"},"geometry":{"type":"MultiLineString","coordinates":[[[4.937024167,43.504210278],[4.93744,43.504377778],[4.935729444,43.506623056],[4.935845,43.506790833],[4.935891111,43.506941667],[4.935012778,43.507930278]],[[4.913481389,43.538166111],[4.907493333,43.546502222],[4.907684444,43.547030556],[4.908029444,43.547308611],[4.908412778,43.547586667],[4.9086425,43.547948056],[4.908565556,43.548309444],[4.908181944,43.548336944],[4.907760278,43.548198056],[4.907185278,43.547753056],[4.906265278,43.547307778],[4.906495833,43.546863333],[4.912878611,43.537874167]],[[4.928664167,43.5156975],[4.932079444,43.510956111]],[[4.932418056,43.510516111],[4.934307778,43.507995833]],[[4.934992778,43.507948333],[4.932899722,43.510749444]],[[4.932423333,43.511443333],[4.928399167,43.517096389]],[[4.927781111,43.518090278],[4.924811944,43.52227]],[[4.924554722,43.522683333],[4.919609167,43.529772778]],[[4.919028611,43.530529167],[4.914164444,43.537386667]],[[4.928427222,43.516040556],[4.913293611,43.5373675]]]}},{"type":"Feature","id":"LFMI-cfea1a7054ba03fc89f0","properties":{"airport":"LFMI","name":"LFMI Groundlayout","layer":"Guidance lines","category":"Taxiways","object_type":"Line","style_id":"line.taxiway.c0b631","source_group":"LFMI Groundlayout","vsmr_group_ids":[],"geometry_role":"linework"},"geometry":{"type":"MultiLineString","coordinates":[[[4.912874444,43.537855278],[4.912909167,43.537745833],[4.912839722,43.537644722],[4.912711944,43.537535278],[4.912491389,43.537451111],[4.905105833,43.534713889]],[[4.913323611,43.537365],[4.913185,43.537435556],[4.91306,43.537415278],[4.912879722,43.537355],[4.912643889,43.537284722],[4.905321667,43.534553333]],[[4.928422222,43.516034444],[4.928426944,43.515939444],[4.928328333,43.515903611],[4.928101111,43.515910833],[4.924447222,43.516016944],[4.924143333,43.516127222],[4.923738333,43.516274167],[4.923211667,43.516624444]],[[4.928661389,43.515675],[4.928554722,43.515743889],[4.928352778,43.515743889],[4.9281275,43.515743889],[4.924471944,43.515856111],[4.924204444,43.515851111],[4.923959444,43.515945833],[4.923551111,43.516111667],[4.922826944,43.516443611]],[[4.932106944,43.510963611],[4.932144722,43.510812222],[4.932030833,43.510688333],[4.927538333,43.506304722],[4.927265833,43.506082778],[4.927163611,43.505588889],[4.927231667,43.505095],[4.927537778,43.5047],[4.928042222,43.504427222],[4.928696389,43.504256389],[4.929193611,43.504332222],[4.929690833,43.504541111],[4.934323611,43.507690833],[4.934375833,43.507481944],[4.934271111,43.507140556],[4.933537778,43.505052778]],[[4.93246,43.510489722],[4.932279722,43.510489722],[4.932153333,43.510398056],[4.931888889,43.510270833],[4.927908611,43.506343056],[4.927604722,43.506082778],[4.927438611,43.505761944],[4.927438611,43.505481389],[4.927493889,43.505160833],[4.9277425,43.50488],[4.928239722,43.504579444],[4.928571389,43.504479167],[4.929013333,43.504479167],[4.929566111,43.504719444],[4.930035833,43.50498],[4.934126389,43.507745],[4.934234444,43.507798611],[4.934323889,43.507883056],[4.934333056,43.507948056],[4.934288056,43.508013056]],[[4.934037778,43.504956389],[4.934378611,43.506339167],[4.934480833,43.506561389],[4.934855278,43.506536667],[4.935195833,43.5064625]],[[4.935031667,43.507913056],[4.935047778,43.507959444],[4.935228611,43.508017222],[4.937485,43.508858333],[4.938331944,43.508749444],[4.944232778,43.508407222]],[[4.932914722,43.510713056],[4.932968056,43.510924722],[4.933233333,43.511098056],[4.933658333,43.511271111],[4.934667222,43.5117525],[4.935145,43.511752222],[4.935490278,43.511713611],[4.935808611,43.511463333],[4.937082222,43.509961389],[4.937241389,43.509653333],[4.937241389,43.509364444],[4.937135,43.509133611],[4.93679,43.508998889],[4.935170278,43.508248333],[4.934995278,43.508242778],[4.934863333,43.508251389],[4.934743611,43.508303611]],[[4.941557778,43.509050833],[4.940778889,43.509166389],[4.940266111,43.509662778],[4.939924444,43.510221111],[4.938983889,43.510097222],[4.938299444,43.509725278],[4.937530278,43.510221389],[4.936248056,43.511524167],[4.935820833,43.512020278],[4.935996667,43.512258611]],[[4.940161389,43.509183333],[4.940039167,43.509516111],[4.939855833,43.509627222],[4.939764167,43.509849167],[4.9394275,43.5097825],[4.938968611,43.509649444],[4.938448611,43.509427778],[4.938509444,43.509161667],[4.938846111,43.508984167],[4.939243611,43.508983889],[4.9397025,43.508983889],[4.940038889,43.508961667],[4.940161389,43.509183333]],[[4.936150278,43.512394722],[4.937805,43.512953889],[4.938561111,43.513075556],[4.939289167,43.513075278],[4.946318056,43.512809444]],[[4.946147222,43.513008333],[4.939175556,43.513267222],[4.93891,43.513417222],[4.938880556,43.513717222],[4.938999444,43.5154525],[4.938763056,43.515645278],[4.938349444,43.5157525],[4.937847222,43.515774167]],[[4.937793889,43.515578333],[4.938317778,43.5155625],[4.938558056,43.515530833],[4.938688889,43.51542],[4.9387325,43.515166667],[4.938600833,43.513488611],[4.938316944,43.513393611],[4.937945833,43.513235278],[4.936155556,43.5126975],[4.935849722,43.512618333],[4.935566111,43.512665833],[4.932074722,43.517495278],[4.9320275,43.517881944],[4.9321875,43.518298889],[4.9327625,43.518345],[4.939596944,43.518088889]],[[4.932437778,43.511448333],[4.933005278,43.511635],[4.933616667,43.511839722],[4.934181111,43.512044167],[4.934651389,43.512248611],[4.934886667,43.512657778],[4.934698611,43.513169444],[4.934322778,43.513715],[4.931314444,43.517841944],[4.930938333,43.518148889],[4.930468056,43.518251389],[4.929856667,43.518080833],[4.928868889,43.51774],[4.928398611,43.517433333],[4.928390278,43.517233333],[4.92843,43.517060278]],[[4.938763611,43.518479167],[4.932003889,43.518733056],[4.931097778,43.518986111],[4.930679722,43.519440833],[4.930053056,43.520552778],[4.930053056,43.520956944],[4.930610556,43.521108611],[4.932910556,43.521007222]],[[4.9277525,43.518178056],[4.928449444,43.518177778],[4.929006944,43.518430556],[4.929634167,43.518581944],[4.9300525,43.518935556],[4.9300525,43.51934],[4.929634722,43.520098056],[4.927683889,43.522928333],[4.927475,43.523231667],[4.927165833,43.523308333],[4.926743056,43.523180833],[4.925298611,43.52267],[4.924946111,43.5225425],[4.924870833,43.522445278],[4.924817222,43.52227]],[[4.932995556,43.5212925],[4.9298825,43.521355556],[4.929536389,43.521481111],[4.929190556,43.521794722],[4.928816111,43.52215],[4.922741111,43.530908333],[4.922603611,43.531306944],[4.923061944,43.531605833],[4.924666111,43.532203889]],[[4.924551944,43.522678056],[4.925361667,43.522971667],[4.926853611,43.523543056],[4.927109167,43.523651111],[4.927173333,43.523836667],[4.927088056,43.524053056],[4.926896389,43.524253889],[4.922272778,43.530804167],[4.9220725,43.530949167],[4.921815278,43.530949167],[4.921386389,43.530804167],[4.920299722,43.530451667],[4.919699167,43.530203056],[4.919556111,43.530037222],[4.919699167,43.529705556]],[[4.918984167,43.530650556],[4.919806944,43.53075],[4.920858611,43.5311475],[4.921315833,43.531412778],[4.92127,43.531810556],[4.921041667,43.532572778],[4.918390278,43.536252222],[4.917795833,43.536848889],[4.917293056,43.537147222],[4.916332778,43.537478889],[4.915189722,43.537644444],[4.914549444,43.537777222],[4.914138056,43.537644722],[4.914196111,43.537358611]],[[4.924360278,43.532483611],[4.922641667,43.531756944],[4.922283889,43.531705],[4.92189,43.531912778],[4.921531944,43.532431944],[4.916878056,43.539258611],[4.914291111,43.538259444],[4.914035278,43.538190833],[4.913776944,43.538163889],[4.913500556,43.538190833]],[[4.914793333,43.538294722],[4.916697778,43.539029444],[4.917577778,43.537777778],[4.917666944,43.537664722],[4.917655556,43.537511389],[4.917254722,43.537592222],[4.914804444,43.5381575],[4.914793333,43.538294722]]]}},{"type":"Feature","id":"LFMI-8b80c30988fb7e64cf20","properties":{"airport":"LFMI","name":"LFMI Groundlayout","layer":"Guidance lines","category":"Apron Surface","object_type":"Line","style_id":"line.apronsurface.808080","source_group":"LFMI Groundlayout","vsmr_group_ids":[],"geometry_role":"linework"},"geometry":{"type":"MultiLineString","coordinates":[[[4.924333333,43.532478333],[4.924685556,43.532547222],[4.924611944,43.532893889],[4.924611944,43.533213889],[4.925384444,43.533480556],[4.926193611,43.532307222],[4.929651389,43.533640556],[4.930276667,43.532840278],[4.926929444,43.531667222],[4.92715,43.531293889],[4.926009722,43.530893889],[4.925007778,43.532276111],[4.924603889,43.532160833]],[[4.932919722,43.521],[4.933090556,43.520966944],[4.93301,43.518787778],[4.933515,43.518774444],[4.933533056,43.519768611],[4.938744722,43.519470833],[4.938709722,43.518512778]],[[4.9330875,43.521312778],[4.933134444,43.522499722],[4.946321944,43.522080833],[4.946322222,43.522862778],[4.940306667,43.523110556],[4.940363889,43.524921111],[4.948536111,43.524220278],[4.948308611,43.522615278],[4.946946389,43.522656667],[4.946946111,43.5217925],[4.9474,43.521504444],[4.946945278,43.512794722],[4.946373333,43.512794722]],[[4.939591667,43.518026667],[4.939768889,43.518026667],[4.939768889,43.517769722],[4.939566389,43.517751389],[4.939540833,43.517200556],[4.940350833,43.517182222],[4.940401667,43.517714444],[4.940021944,43.517714444],[4.940047222,43.518026667],[4.942502778,43.517971389],[4.942502778,43.517475833],[4.942249444,43.517475833],[4.942224167,43.516943333],[4.942856944,43.516925],[4.942933056,43.517347222],[4.942730556,43.517347222],[4.942781111,43.517934722],[4.944401389,43.517897778],[4.944350556,43.516227222],[4.9433125,43.516208889],[4.9433125,43.515731667],[4.942780833,43.515713333],[4.942653889,43.513437222],[4.946186944,43.513381667],[4.946173611,43.513006667]],[[4.941573889,43.509064444],[4.9419875,43.5090525],[4.942533333,43.509400278],[4.943291667,43.509783333],[4.943335,43.511323056],[4.947711111,43.511196944],[4.947580278,43.508274722],[4.944244444,43.508432222]],[[4.933531944,43.505066944],[4.933440278,43.504534167],[4.932552778,43.504356667],[4.93191,43.504156944],[4.931848889,43.503046944],[4.933685,43.502935833],[4.933746389,43.504334444],[4.934036389,43.504967222]]]}},{"type":"Feature","id":"LFMI-7f0b921105f96b5945bd","properties":{"airport":"LFMI","name":"LFMI Groundlayout","layer":"Guidance lines","category":"Labels","object_type":"Line","style_id":"line.labels.808080","source_group":"LFMI Groundlayout","vsmr_group_ids":[],"geometry_role":"linework"},"geometry":{"type":"MultiLineString","coordinates":[[[4.934356667,43.508491111],[4.934475278,43.508538889],[4.934515833,43.508491389],[4.934491667,43.508465833],[4.934534167,43.508460556],[4.9345675,43.508423056],[4.934451111,43.508381667],[4.934434444,43.508404444],[4.934534167,43.508436389],[4.9344475,43.5084525],[4.934484444,43.508486111],[4.934469722,43.5085075],[4.934375556,43.508465833],[4.934356667,43.508491111]],[[4.934115,43.508401667],[4.934192778,43.508433889],[4.934221389,43.508404444],[4.934200833,43.508382222],[4.934236667,43.508381111],[4.93427,43.508344167],[4.934179167,43.508309722],[4.934168889,43.508326389],[4.934235278,43.508350556],[4.934226389,43.508366389],[4.934168889,43.508371944],[4.934200833,43.508404444],[4.934190556,43.508415556],[4.934123889,43.508388611],[4.934115,43.508401667]],[[4.907552222,43.546271389],[4.907567222,43.546251111],[4.907552222,43.546232222],[4.907498333,43.546211944],[4.907399444,43.546352222],[4.907436111,43.546364722],[4.907515556,43.546255556],[4.907552222,43.546271389]],[[4.907256389,43.5463225],[4.907275,43.546300278],[4.907242778,43.5462875],[4.907272778,43.546250833],[4.907306944,43.546264167],[4.907359722,43.546200556],[4.907314167,43.5461825],[4.907297778,43.546196944],[4.9073275,43.546210278],[4.907297778,43.546245556],[4.907269722,43.546233611],[4.907213889,43.546304722],[4.907256389,43.5463225]]]}},{"type":"Feature","id":"LFMI-69007e3f9ba22b3d10d7","properties":{"airport":"LFMI","name":"G","layer":"Labels","category":"Taxiways","object_type":"Label","style_id":"label.taxiways","source_group":"LFMI Taxiways","vsmr_group_ids":[],"geometry_role":"text_label","text-field":"G"},"geometry":{"type":"Point","coordinates":[4.914769167,43.538738611]}},{"type":"Feature","id":"LFMI-5a72fc87d734ecf78dbb","properties":{"airport":"LFMI","name":"F","layer":"Labels","category":"Taxiways","object_type":"Label","style_id":"label.taxiways","source_group":"LFMI Taxiways","vsmr_group_ids":[],"geometry_role":"text_label","text-field":"F"},"geometry":{"type":"Point","coordinates":[4.915723611,43.537357778]}},{"type":"Feature","id":"LFMI-356569e7e6c59ef39a1b","properties":{"airport":"LFMI","name":"T","layer":"Labels","category":"Taxiways","object_type":"Label","style_id":"label.taxiways","source_group":"LFMI Taxiways","vsmr_group_ids":[],"geometry_role":"text_label","text-field":"T"},"geometry":{"type":"Point","coordinates":[4.919915278,43.535643056]}},{"type":"Feature","id":"LFMI-d004ec77e0f17a144c87","properties":{"airport":"LFMI","name":"E","layer":"Labels","category":"Taxiways","object_type":"Label","style_id":"label.taxiways","source_group":"LFMI Taxiways","vsmr_group_ids":[],"geometry_role":"text_label","text-field":"E"},"geometry":{"type":"Point","coordinates":[4.919886667,43.531186667]}},{"type":"Feature","id":"LFMI-0ebfb33dd21813e169fe","properties":{"airport":"LFMI","name":"C4","layer":"Labels","category":"Taxiways","object_type":"Label","style_id":"label.taxiways","source_group":"LFMI Taxiways","vsmr_group_ids":[],"geometry_role":"text_label","text-field":"C4"},"geometry":{"type":"Point","coordinates":[4.947569444,43.522179167]}},{"type":"Feature","id":"LFMI-bf9c7d9479711de49296","properties":{"airport":"LFMI","name":"E1","layer":"Labels","category":"Taxiways","object_type":"Label","style_id":"label.taxiways","source_group":"LFMI Taxiways","vsmr_group_ids":[],"geometry_role":"text_label","text-field":"E1"},"geometry":{"type":"Point","coordinates":[4.922834167,43.532429444]}},{"type":"Feature","id":"LFMI-50358f799389aae2ede9","properties":{"airport":"LFMI","name":"T","layer":"Labels","category":"Taxiways","object_type":"Label","style_id":"label.taxiways","source_group":"LFMI Taxiways","vsmr_group_ids":[],"geometry_role":"text_label","text-field":"T"},"geometry":{"type":"Point","coordinates":[4.9264375,43.527095556]}},{"type":"Feature","id":"LFMI-96f85d412562ecff4445","properties":{"airport":"LFMI","name":"D","layer":"Labels","category":"Taxiways","object_type":"Label","style_id":"label.taxiways","source_group":"LFMI Taxiways","vsmr_group_ids":[],"geometry_role":"text_label","text-field":"D"},"geometry":{"type":"Point","coordinates":[4.925161667,43.523446111]}},{"type":"Feature","id":"LFMI-64e5764cbc37b23e79c2","properties":{"airport":"LFMI","name":"C2","layer":"Labels","category":"Taxiways","object_type":"Label","style_id":"label.taxiways","source_group":"LFMI Taxiways","vsmr_group_ids":[],"geometry_role":"text_label","text-field":"C2"},"geometry":{"type":"Point","coordinates":[4.931091389,43.52172]}},{"type":"Feature","id":"LFMI-6aa0249d9e039f37a876","properties":{"airport":"LFMI","name":"C","layer":"Labels","category":"Taxiways","object_type":"Label","style_id":"label.taxiways","source_group":"LFMI Taxiways","vsmr_group_ids":[],"geometry_role":"text_label","text-field":"C"},"geometry":{"type":"Point","coordinates":[4.928523611,43.518671667]}},{"type":"Feature","id":"LFMI-fef748aa7cc36afa483d","properties":{"airport":"LFMI","name":"C1","layer":"Labels","category":"Taxiways","object_type":"Label","style_id":"label.taxiways","source_group":"LFMI Taxiways","vsmr_group_ids":[],"geometry_role":"text_label","text-field":"C1"},"geometry":{"type":"Point","coordinates":[4.934777778,43.51809]}},{"type":"Feature","id":"LFMI-85124dff7d728b82cf52","properties":{"airport":"LFMI","name":"S","layer":"Labels","category":"Taxiways","object_type":"Label","style_id":"label.taxiways","source_group":"LFMI Taxiways","vsmr_group_ids":[],"geometry_role":"text_label","text-field":"S"},"geometry":{"type":"Point","coordinates":[4.939291389,43.517898333]}},{"type":"Feature","id":"LFMI-f4dfb968d5f09468186b","properties":{"airport":"LFMI","name":"W","layer":"Labels","category":"Taxiways","object_type":"Label","style_id":"label.taxiways","source_group":"LFMI Taxiways","vsmr_group_ids":[],"geometry_role":"text_label","text-field":"W"},"geometry":{"type":"Point","coordinates":[4.942929444,43.517699722]}},{"type":"Feature","id":"LFMI-86c69a8b9e9ca7bfa22b","properties":{"airport":"LFMI","name":"T","layer":"Labels","category":"Taxiways","object_type":"Label","style_id":"label.taxiways","source_group":"LFMI Taxiways","vsmr_group_ids":[],"geometry_role":"text_label","text-field":"T"},"geometry":{"type":"Point","coordinates":[4.934034444,43.515358889]}},{"type":"Feature","id":"LFMI-d30e3a302a07a9e4ebfa","properties":{"airport":"LFMI","name":"B","layer":"Labels","category":"Taxiways","object_type":"Label","style_id":"label.taxiways","source_group":"LFMI Taxiways","vsmr_group_ids":[],"geometry_role":"text_label","text-field":"B"},"geometry":{"type":"Point","coordinates":[4.932925556,43.512219444]}},{"type":"Feature","id":"LFMI-d3fe23716c1676fc4dfd","properties":{"airport":"LFMI","name":"Y","layer":"Labels","category":"Taxiways","object_type":"Label","style_id":"label.taxiways","source_group":"LFMI Taxiways","vsmr_group_ids":[],"geometry_role":"text_label","text-field":"Y"},"geometry":{"type":"Point","coordinates":[4.937930556,43.51456]}},{"type":"Feature","id":"LFMI-575fc33cb3e3145cf5f1","properties":{"airport":"LFMI","name":"B1","layer":"Labels","category":"Taxiways","object_type":"Label","style_id":"label.taxiways","source_group":"LFMI Taxiways","vsmr_group_ids":[],"geometry_role":"text_label","text-field":"B1"},"geometry":{"type":"Point","coordinates":[4.940781389,43.51351]}},{"type":"Feature","id":"LFMI-273ddb387b3cce978041","properties":{"airport":"LFMI","name":"C3","layer":"Labels","category":"Taxiways","object_type":"Label","style_id":"label.taxiways","source_group":"LFMI Taxiways","vsmr_group_ids":[],"geometry_role":"text_label","text-field":"C3"},"geometry":{"type":"Point","coordinates":[4.947316667,43.513078611]}},{"type":"Feature","id":"LFMI-52861ae50f2f0fc672ac","properties":{"airport":"LFMI","name":"L","layer":"Labels","category":"Taxiways","object_type":"Label","style_id":"label.taxiways","source_group":"LFMI Taxiways","vsmr_group_ids":[],"geometry_role":"text_label","text-field":"L"},"geometry":{"type":"Point","coordinates":[4.928565278,43.508600278]}},{"type":"Feature","id":"LFMI-065c425bddfacd4b975d","properties":{"airport":"LFMI","name":"M","layer":"Labels","category":"Taxiways","object_type":"Label","style_id":"label.taxiways","source_group":"LFMI Taxiways","vsmr_group_ids":[],"geometry_role":"text_label","text-field":"M"},"geometry":{"type":"Point","coordinates":[4.930785833,43.506298889]}},{"type":"Feature","id":"LFMI-b6c43c7912cd912f11da","properties":{"airport":"LFMI","name":"N","layer":"Labels","category":"Taxiways","object_type":"Label","style_id":"label.taxiways","source_group":"LFMI Taxiways","vsmr_group_ids":[],"geometry_role":"text_label","text-field":"N"},"geometry":{"type":"Point","coordinates":[4.933170833,43.5057775]}},{"type":"Feature","id":"LFMI-c890e8572224ff407de6","properties":{"airport":"LFMI","name":"A","layer":"Labels","category":"Taxiways","object_type":"Label","style_id":"label.taxiways","source_group":"LFMI Taxiways","vsmr_group_ids":[],"geometry_role":"text_label","text-field":"A"},"geometry":{"type":"Point","coordinates":[4.935281389,43.508924167]}},{"type":"Feature","id":"LFMI-45beb8f78e013f959bf7","properties":{"airport":"LFMI","name":"A2","layer":"Labels","category":"Taxiways","object_type":"Label","style_id":"label.taxiways","source_group":"LFMI Taxiways","vsmr_group_ids":[],"geometry_role":"text_label","text-field":"A2"},"geometry":{"type":"Point","coordinates":[4.939009722,43.510488333]}},{"type":"Feature","id":"LFMI-f5a089a779ebb5386450","properties":{"airport":"LFMI","name":"A1","layer":"Labels","category":"Taxiways","object_type":"Label","style_id":"label.taxiways","source_group":"LFMI Taxiways","vsmr_group_ids":[],"geometry_role":"text_label","text-field":"A1"},"geometry":{"type":"Point","coordinates":[4.941038056,43.508222778]}},{"type":"Feature","id":"LFMI-a1e21d22d7b2a64411bd","properties":{"airport":"LFMI","name":"H","layer":"Labels","category":"Taxiways","object_type":"Label","style_id":"label.taxiways","source_group":"LFMI Taxiways","vsmr_group_ids":[],"geometry_role":"text_label","text-field":"H"},"geometry":{"type":"Point","coordinates":[4.943724722,43.507881111]}},{"type":"Feature","id":"LFMI-d178c3d0e3debd59655f","properties":{"airport":"LFMI","name":"H","layer":"Labels","category":"Taxiways","object_type":"Label","style_id":"label.taxiways","source_group":"LFMI Taxiways","vsmr_group_ids":[],"geometry_role":"text_label","text-field":"H"},"geometry":{"type":"Point","coordinates":[4.927362222,43.523514722]}},{"type":"Feature","id":"LFMI-ddd4f5df51969d536859","properties":{"airport":"LFMI","name":"J","layer":"Labels","category":"Taxiways","object_type":"Label","style_id":"label.taxiways","source_group":"LFMI Taxiways","vsmr_group_ids":[],"geometry_role":"text_label","text-field":"J"},"geometry":{"type":"Point","coordinates":[4.908455556,43.536740278]}},{"type":"Feature","id":"LFMI-3564deda68124d261991","properties":{"airport":"LFMI","name":"X","layer":"Labels","category":"Taxiways","object_type":"Label","style_id":"label.taxiways","source_group":"LFMI Taxiways","vsmr_group_ids":[],"geometry_role":"text_label","text-field":"X"},"geometry":{"type":"Point","coordinates":[4.9127425,43.537436111]}},{"type":"Feature","id":"LFMI-156e93ca2fdb98a42e96","properties":{"airport":"LFMI","name":"X","layer":"Labels","category":"Taxiways","object_type":"Label","style_id":"label.taxiways","source_group":"LFMI Taxiways","vsmr_group_ids":[],"geometry_role":"text_label","text-field":"X"},"geometry":{"type":"Point","coordinates":[4.912363611,43.537297222]}},{"type":"Feature","id":"LFMI-72ee13437bbb28e93291","properties":{"airport":"LFMI","name":"X","layer":"Labels","category":"Taxiways","object_type":"Label","style_id":"label.taxiways","source_group":"LFMI Taxiways","vsmr_group_ids":[],"geometry_role":"text_label","text-field":"X"},"geometry":{"type":"Point","coordinates":[4.911534722,43.536986667]}},{"type":"Feature","id":"LFMI-785dd6413f83aaacb0e1","properties":{"airport":"LFMI","name":"K","layer":"Labels","category":"Taxiways","object_type":"Label","style_id":"label.taxiways","source_group":"LFMI Taxiways","vsmr_group_ids":[],"geometry_role":"text_label","text-field":"K"},"geometry":{"type":"Point","coordinates":[4.925140278,43.516176389]}},{"type":"Feature","id":"LFMI-7326ec7be2598efc5e3f","properties":{"airport":"LFMI","name":"X","layer":"Labels","category":"Taxiways","object_type":"Label","style_id":"label.taxiways","source_group":"LFMI Taxiways","vsmr_group_ids":[],"geometry_role":"text_label","text-field":"X"},"geometry":{"type":"Point","coordinates":[4.928109167,43.515824444]}},{"type":"Feature","id":"LFMI-560c750ae1adca328b1c","properties":{"airport":"LFMI","name":"X","layer":"Labels","category":"Taxiways","object_type":"Label","style_id":"label.taxiways","source_group":"LFMI Taxiways","vsmr_group_ids":[],"geometry_role":"text_label","text-field":"X"},"geometry":{"type":"Point","coordinates":[4.927086389,43.515863056]}},{"type":"Feature","id":"LFMI-3b0d2d31192d5943238d","properties":{"airport":"LFMI","name":"X","layer":"Labels","category":"Taxiways","object_type":"Label","style_id":"label.taxiways","source_group":"LFMI Taxiways","vsmr_group_ids":[],"geometry_role":"text_label","text-field":"X"},"geometry":{"type":"Point","coordinates":[4.925625833,43.515901667]}}]}
