{"type":"FeatureCollection","name":"LFMK AVISO","bbox":[2.292275278,43.212934444,2.320503889,43.219131111],"metadata":{"schema":"vSMR AVISO","schema_version":2,"geometry_mode":"shared","airport":"LFMK","coordinate_reference_system":"WGS84","coordinate_order":"longitude, latitude","default_color_palette":"dark","color_palettes":["dark","light"],"background_colors":{"dark":"#434A4F","light":"#434A4F"},"runways":[{"ends":["09","27"],"headings":[94,274],"thresholds":[[2.294366944,43.216955833],[2.316382778,43.215182778]]}],"saved_active_runways":[],"saved_active_airport_modes":[],"airport_reference":[2.308610833,43.215832778],"feature_count":56,"style_count":11,"layer_counts":{"Airfield surfaces":10,"Buildings and structures":9,"Labels":28,"Surface markings":7,"Terrain":2},"category_counts":{"Buildings":9,"Gates":15,"Grass":1,"Grass runways":1,"Hard Surface 2":1,"Hard Surface 3":4,"Runways":1,"Stopbars":7,"Taxiway Orange":3,"Taxiways":13,"Terrain 1":1},"geometry_source":"local GNG","geometry_source_url":"","geometry_license":"GPL-3.0"},"styles":{"polygon.grassurface.00512f":{"name":"Grass","layer":"Terrain","object_type":"Area","paint":{"fill":"#010D19","fill-opacity":1,"palette-overrides":{"light":{"fill":"#00512F"}}},"feature_count":1},"polygon.terrain1.574242":{"name":"Terrain 1","layer":"Terrain","object_type":"Area","paint":{"fill":"#574242","fill-opacity":1,"palette-overrides":{"light":{"fill":"#574242"}}},"feature_count":1},"polygon.hardsurface2.595e5b":{"name":"Hard Surface 2","layer":"Airfield surfaces","object_type":"Area","paint":{"fill":"#2F3949","fill-opacity":1,"palette-overrides":{"light":{"fill":"#595E5B"}}},"feature_count":1},"polygon.hardsurface3.8a807f":{"name":"Hard Surface 3","layer":"Airfield surfaces","object_type":"Area","paint":{"fill":"#222D3C","fill-opacity":1,"palette-overrides":{"light":{"fill":"#8A807F"}}},"feature_count":4},"polygon.runwaygrass.008000":{"name":"Grass runways","layer":"Airfield surfaces","object_type":"Area","paint":{"fill":"#859A77","fill-opacity":1,"palette-overrides":{"light":{"fill":"#008000"}}},"feature_count":1},"polygon.runwayconcrete.555555":{"name":"Runways","layer":"Airfield surfaces","object_type":"Area","paint":{"fill":"#111318","fill-opacity":1,"palette-overrides":{"light":{"fill":"#555555"}}},"feature_count":1},"polygon.building.394446":{"name":"Buildings","layer":"Buildings and structures","object_type":"Area","paint":{"fill":"#475570","fill-opacity":1,"palette-overrides":{"light":{"fill":"#394446"}}},"feature_count":9},"polygon.stopbar.7e0000":{"name":"Stopbars","layer":"Surface markings","object_type":"Area","paint":{"fill":"#7E0000","fill-opacity":1,"palette-overrides":{"light":{"fill":"#7E0000"}}},"feature_count":7},"polygon.taxiwayorange.cc6d00":{"name":"Taxiway Orange","layer":"Airfield surfaces","object_type":"Area","paint":{"fill":"#CC8B00","fill-opacity":1,"palette-overrides":{"light":{"fill":"#CC6D00"}}},"feature_count":3},"label.gates":{"name":"Gates","layer":"Labels","object_type":"Label","paint":{"text-color":"#CCCCCC","text-font":"Arial","text-size":12,"text-halo-color":"#000000","text-halo-width":1,"text-anchor":"center","zoomLevel":9},"feature_count":15},"label.taxiways":{"name":"Taxiways","layer":"Labels","object_type":"Label","paint":{"text-color":"#CCCCCC","text-font":"Arial","text-size":12,"text-halo-color":"#000000","text-halo-width":1,"text-anchor":"center","zoomLevel":7},"feature_count":13}},"vsmr_groups":[],"features":[{"type":"Feature","id":"LFMK-e45725cf182a43f34750","properties":{"airport":"LFMK","name":"LFMK AVISO","layer":"Terrain","category":"Grass","object_type":"Area","style_id":"polygon.grassurface.00512f","source_group":"LFMK AVISO","vsmr_group_ids":[],"geometry_role":"filled_region"},"geometry":{"type":"Polygon","coordinates":[[[2.292289167,43.216327778],[2.292323889,43.216314722],[2.293673889,43.216156944],[2.293645833,43.2155125],[2.293656667,43.215472222],[2.293710278,43.215459722],[2.295531944,43.215281944],[2.295555556,43.215541389],[2.295772222,43.215523889],[2.295778611,43.215326667],[2.295911111,43.215276389],[2.296593889,43.215214444],[2.296738889,43.215232222],[2.296775278,43.215237222],[2.296786944,43.215224167],[2.296799722,43.215167778],[2.297785278,43.215403056],[2.298327222,43.215350278],[2.299375833,43.2152825],[2.300812778,43.215131111],[2.300780833,43.2148725],[2.300856667,43.214380833],[2.302015556,43.214291667],[2.302005278,43.214216944],[2.302927222,43.214137778],[2.303059444,43.214093611],[2.303091389,43.214101389],[2.303111111,43.214095833],[2.303440278,43.214073056],[2.303564167,43.214096944],[2.304108056,43.214060833],[2.304118889,43.2141325],[2.304246667,43.214131389],[2.304391389,43.214112222],[2.304358333,43.213860556],[2.304822222,43.213808889],[2.304802778,43.213716667],[2.306722222,43.213560556],[2.307139722,43.213515833],[2.307525,43.213483889],[2.307554722,43.213731944],[2.307631944,43.214173889],[2.309048611,43.214054444],[2.309323889,43.214028889],[2.309324722,43.213999722],[2.309417222,43.214004722],[2.309436667,43.214065556],[2.309718333,43.214047778],[2.309818611,43.214028333],[2.309795833,43.213835],[2.310037778,43.2138075],[2.310053611,43.213783611],[2.310114167,43.213785],[2.310160556,43.213900278],[2.3104325,43.213859722],[2.310621389,43.213717778],[2.312051111,43.213472778],[2.312055833,43.213548333],[2.31215,43.213868056],[2.312189722,43.213868333],[2.312381944,43.213852778],[2.312419444,43.213870278],[2.312530556,43.213867222],[2.313792778,43.213775833],[2.3143775,43.213730833],[2.3147975,43.213649722],[2.314905833,43.213589167],[2.314963611,43.213570833],[2.314989722,43.2135325],[2.314987222,43.213368056],[2.314944722,43.213364167],[2.314953333,43.213261111],[2.314994722,43.213185],[2.314994167,43.213152778],[2.315108056,43.213146389],[2.315189167,43.213108889],[2.315145278,43.213061667],[2.315111111,43.213068333],[2.315100833,43.213023056],[2.315116389,43.212973611],[2.315585,43.212934444],[2.315606389,43.213065833],[2.315672778,43.2131075],[2.316616389,43.213042778],[2.316615278,43.213076667],[2.317026111,43.213040556],[2.317154722,43.213062222],[2.317231944,43.213113056],[2.317288333,43.213189444],[2.317391944,43.213386111],[2.317479444,43.213545833],[2.3175425,43.213616389],[2.318056111,43.213982222],[2.318164722,43.214082778],[2.318285,43.214121389],[2.318505833,43.214121944],[2.318791389,43.214122778],[2.3191675,43.214175278],[2.319425833,43.214291667],[2.319750278,43.214463889],[2.320026944,43.214698056],[2.320228056,43.214882778],[2.320356111,43.215003889],[2.320452222,43.215101111],[2.320503611,43.215170278],[2.320503889,43.215266389],[2.3204575,43.215365833],[2.320312222,43.215457778],[2.318470278,43.216138889],[2.317184444,43.216465278],[2.315538889,43.216710556],[2.312683611,43.217083889],[2.310997778,43.217312222],[2.309678333,43.217532222],[2.30922,43.217627222],[2.308811111,43.217726389],[2.307269167,43.218205556],[2.306096667,43.218533611],[2.306006111,43.218546667],[2.305946389,43.218532222],[2.305868333,43.218491389],[2.305792222,43.2184275],[2.305721111,43.218358889],[2.305653056,43.2182825],[2.305558056,43.218222778],[2.305417778,43.218173611],[2.303807222,43.217987778],[2.303675278,43.217988056],[2.303584444,43.218057222],[2.303484444,43.218133889],[2.303197778,43.218230278],[2.302429722,43.218325556],[2.301405556,43.218408889],[2.301123611,43.218455556],[2.300168611,43.218693333],[2.299762222,43.2187775],[2.299348889,43.218858611],[2.299114167,43.218911389],[2.298946667,43.218932222],[2.298800556,43.218971667],[2.298686111,43.218998611],[2.298564167,43.219051111],[2.298446389,43.219088611],[2.298308611,43.219119444],[2.298151667,43.219119444],[2.298035278,43.219131111],[2.297897222,43.219130278],[2.297729722,43.219122222],[2.297453056,43.219089722],[2.297054722,43.2190075],[2.296287778,43.218830556],[2.296145278,43.218785833],[2.296071111,43.218754167],[2.296004444,43.218709444],[2.295954167,43.218662778],[2.295893333,43.218619167],[2.29585,43.218568611],[2.295769722,43.218556111],[2.295665833,43.218559722],[2.293752778,43.218708889],[2.292901389,43.218772222],[2.292803056,43.218741111],[2.292710833,43.21869],[2.292619167,43.218625],[2.292537222,43.218531667],[2.292523611,43.218439444],[2.292508611,43.218283056],[2.292485,43.218064167],[2.292457222,43.217901944],[2.292478056,43.217801111],[2.292499167,43.217663333],[2.292465278,43.217396944],[2.292381389,43.216881944],[2.292275278,43.216366111],[2.292289167,43.216327778]]]}},{"type":"Feature","id":"LFMK-8689a694f8c8578940f3","properties":{"airport":"LFMK","name":"LFMK AVISO","layer":"Terrain","category":"Terrain 1","object_type":"Area","style_id":"polygon.terrain1.574242","source_group":"LFMK AVISO","vsmr_group_ids":[],"geometry_role":"filled_region"},"geometry":{"type":"Polygon","coordinates":[[[2.304020833,43.214786389],[2.304086389,43.214782222],[2.304260278,43.215988611],[2.30421,43.215989444],[2.304020833,43.214786389]]]}},{"type":"Feature","id":"LFMK-25bc36c7542d9504fa8a","properties":{"airport":"LFMK","name":"LFMK AVISO","layer":"Airfield surfaces","category":"Hard Surface 2","object_type":"Area","style_id":"polygon.hardsurface2.595e5b","source_group":"LFMK AVISO","vsmr_group_ids":[],"geometry_role":"filled_region"},"geometry":{"type":"Polygon","coordinates":[[[2.298015556,43.216094444],[2.298032778,43.215956111],[2.2980625,43.215728333],[2.298071944,43.215691111],[2.298106111,43.215665],[2.298170833,43.215628333],[2.298236944,43.215603611],[2.298326667,43.215575833],[2.2984175,43.215565556],[2.298528333,43.215554444],[2.298572222,43.215547778],[2.298614722,43.215552778],[2.298662222,43.215579722],[2.298716111,43.215605556],[2.298782778,43.215643611],[2.298825556,43.215663611],[2.301762778,43.215426389],[2.301788611,43.215408889],[2.301819722,43.215383333],[2.301833056,43.215338056],[2.301828611,43.215287222],[2.301784444,43.215011389],[2.301761111,43.214970278],[2.301725833,43.214941667],[2.301692778,43.214924722],[2.301661944,43.214915556],[2.301664444,43.214846667],[2.301767222,43.214823333],[2.301869722,43.214855278],[2.301903611,43.214854444],[2.301895,43.214878889],[2.301856944,43.214895],[2.301838889,43.214921389],[2.301901111,43.215284444],[2.301901667,43.215309444],[2.301919722,43.215348889],[2.301951667,43.215385833],[2.301987778,43.215402778],[2.302024444,43.215404444],[2.302531667,43.215355833],[2.302575278,43.215347222],[2.302620556,43.215334167],[2.302658056,43.215325],[2.302693889,43.215310278],[2.302743333,43.215283611],[2.3027625,43.215254722],[2.302782222,43.215217778],[2.302779444,43.215188056],[2.302759722,43.215058889],[2.302749444,43.215031667],[2.302728889,43.215008333],[2.3026975,43.214988611],[2.302669167,43.214976944],[2.302635278,43.214968333],[2.302595833,43.214960833],[2.302548333,43.214951667],[2.302480278,43.214946111],[2.302473333,43.214893333],[2.3030825,43.214849444],[2.303085833,43.214893611],[2.303042222,43.214911667],[2.303002222,43.214925],[2.302976389,43.214935],[2.302946667,43.214948056],[2.302928333,43.214965278],[2.302911389,43.214986111],[2.302897222,43.215011944],[2.302892222,43.215041111],[2.302894444,43.21508],[2.302911667,43.215173889],[2.302926944,43.21522],[2.302947222,43.215250833],[2.302973611,43.215275278],[2.303008333,43.215288889],[2.303050556,43.215296944],[2.303093333,43.215305],[2.303132222,43.215311944],[2.303171389,43.215318056],[2.304091111,43.215239167],[2.304435,43.215211111],[2.304480278,43.215205278],[2.304520556,43.215194722],[2.304540556,43.215185],[2.304560556,43.215169444],[2.304575278,43.215148611],[2.304587778,43.215124444],[2.304538056,43.214772778],[2.304498333,43.214647222],[2.304895833,43.214608333],[2.304937778,43.214704444],[2.304898333,43.214713333],[2.304867222,43.214733889],[2.304834167,43.214773889],[2.304813333,43.214801667],[2.304805833,43.214843611],[2.304805833,43.214946667],[2.304805556,43.215006667],[2.304802222,43.215044722],[2.304811667,43.215075],[2.304822222,43.215108333],[2.3048375,43.215133333],[2.304853333,43.215149722],[2.304885278,43.2151625],[2.304914167,43.215168889],[2.304968889,43.215167778],[2.305018611,43.215163611],[2.306243333,43.215062222],[2.306231944,43.2149675],[2.308904167,43.214756111],[2.308923889,43.214770833],[2.308951944,43.214787778],[2.308984722,43.214806944],[2.309020556,43.214817778],[2.309070833,43.214826944],[2.309125556,43.214830278],[2.309195278,43.214824722],[2.310028056,43.214757778],[2.310043333,43.214746944],[2.310081389,43.214733889],[2.310090833,43.214719444],[2.310101667,43.214690278],[2.310045278,43.214302222],[2.310042778,43.214269722],[2.310049444,43.214249167],[2.310063333,43.214225278],[2.310083056,43.2142075],[2.310096389,43.2142],[2.310176111,43.214167778],[2.310238889,43.214153333],[2.310298889,43.214140833],[2.310336944,43.214134444],[2.310377778,43.214134167],[2.310403333,43.214238056],[2.310355556,43.214238889],[2.310260556,43.214244444],[2.310215556,43.214253889],[2.310176944,43.214261944],[2.310152222,43.214278056],[2.310139722,43.214301111],[2.310141944,43.214355],[2.310151667,43.214431111],[2.310165,43.214509444],[2.3101875,43.214649722],[2.310191111,43.214665833],[2.310197222,43.214686944],[2.310206389,43.214708611],[2.310221667,43.2147225],[2.310256389,43.214729722],[2.310284167,43.2147325],[2.310310278,43.214733333],[2.310795833,43.214690556],[2.310836389,43.214685556],[2.310868056,43.214673056],[2.310894444,43.214657778],[2.310913333,43.214645833],[2.310942222,43.214611667],[2.310962222,43.214573611],[2.310962778,43.21455],[2.310571944,43.214386667],[2.310556389,43.214305556],[2.310548056,43.214243333],[2.311248611,43.214205],[2.311246667,43.2142575],[2.311224444,43.214266944],[2.311172222,43.214306389],[2.311131389,43.214351667],[2.311122222,43.214395556],[2.311128333,43.214495556],[2.311138333,43.214543889],[2.311156111,43.214574444],[2.311185556,43.214598056],[2.311211944,43.214618056],[2.311248611,43.214634722],[2.311293333,43.214646667],[2.311348056,43.21465],[2.311426667,43.214643333],[2.314808611,43.214373611],[2.314763611,43.214094722],[2.314756667,43.214011389],[2.314764444,43.213958889],[2.314785556,43.213919444],[2.314835,43.213826111],[2.314962778,43.213647778],[2.315337222,43.213210556],[2.315374722,43.213422778],[2.315180556,43.213641944],[2.315178611,43.213678056],[2.315206389,43.213699722],[2.315248056,43.213708333],[2.315535,43.2136825],[2.315546944,43.213825278],[2.315056667,43.213890833],[2.314977222,43.213960278],[2.314951944,43.213994444],[2.314943056,43.214043333],[2.314984444,43.214349444],[2.315950556,43.214286667],[2.316000278,43.214270278],[2.316025833,43.214257222],[2.316053056,43.214235278],[2.316076111,43.214211389],[2.316084722,43.2141825],[2.316048056,43.214003333],[2.316038333,43.213974722],[2.316025833,43.213952778],[2.316014167,43.213933056],[2.316001944,43.213914167],[2.3159425,43.2138625],[2.315876111,43.213831667],[2.315789722,43.213811111],[2.315523889,43.213828611],[2.315505556,43.213687222],[2.315881667,43.2136575],[2.315901667,43.213620278],[2.315907222,43.213588333],[2.315897222,43.213559444],[2.315830833,43.213536667],[2.316280833,43.213499722],[2.316208611,43.213534722],[2.3161775,43.213569722],[2.316136389,43.213623333],[2.316362222,43.214901667],[2.316370833,43.21497],[2.316416667,43.215019444],[2.316097222,43.215115],[2.315948333,43.215084722],[2.316065278,43.215008611],[2.316116389,43.214965],[2.316147222,43.2149325],[2.316170833,43.214895],[2.316164722,43.214813333],[2.316136111,43.2145125],[2.316085278,43.214452778],[2.316042222,43.214423611],[2.316014722,43.214403611],[2.315943611,43.214381111],[2.315874444,43.214365278],[2.314984167,43.214434167],[2.315021111,43.214656944],[2.315046389,43.214825],[2.315070833,43.214988889],[2.315112222,43.215048889],[2.3151525,43.215076944],[2.315220278,43.215131944],[2.314761667,43.215177778],[2.314841111,43.215104722],[2.314878889,43.2150725],[2.314900556,43.215033889],[2.314829444,43.2145275],[2.314793611,43.214496111],[2.3147475,43.214468611],[2.314713056,43.214458611],[2.311383889,43.214727778],[2.311313889,43.214733333],[2.311252222,43.214764722],[2.311221389,43.214802778],[2.311191667,43.214845833],[2.3111975,43.214908889],[2.311254722,43.215257778],[2.311279167,43.215290833],[2.311322778,43.2153475],[2.311374167,43.215377778],[2.311448333,43.215443333],[2.310919167,43.215503611],[2.311009444,43.215385556],[2.311051944,43.215316944],[2.311065833,43.215269167],[2.311026111,43.214883889],[2.310996944,43.214844167],[2.310964444,43.214811944],[2.310931667,43.214789167],[2.310884722,43.214779444],[2.310809444,43.214768333],[2.310736667,43.214773611],[2.308870278,43.214927222],[2.308818889,43.214928889],[2.308726111,43.214976389],[2.308660278,43.215013056],[2.308617778,43.215046389],[2.308595,43.215085],[2.308603056,43.215184167],[2.308628611,43.21532],[2.3086375,43.215403889],[2.308649167,43.215457222],[2.308678611,43.215504167],[2.308709722,43.215534167],[2.308747222,43.215550833],[2.308800556,43.215579167],[2.308928611,43.215633889],[2.308152778,43.215694444],[2.308263056,43.215615833],[2.308298333,43.215576389],[2.308327778,43.215508333],[2.308327778,43.2154375],[2.308298333,43.215221389],[2.308273333,43.215129444],[2.308230833,43.215079167],[2.308194444,43.215043889],[2.308095,43.215002778],[2.308053056,43.214993333],[2.304951944,43.215239722],[2.304907778,43.215253889],[2.304868611,43.2152775],[2.304846944,43.215313056],[2.304881389,43.215547222],[2.304891667,43.215632222],[2.304934722,43.215716667],[2.304955278,43.215790278],[2.305008889,43.215862222],[2.305100833,43.215915278],[2.304528333,43.215983611],[2.304597778,43.215925],[2.304622222,43.215896667],[2.304644167,43.215860833],[2.304648611,43.215802778],[2.304662222,43.215655],[2.304624167,43.215363056],[2.304596667,43.215309444],[2.304565556,43.215291389],[2.304522222,43.215276667],[2.3041725,43.215302778],[2.303381389,43.215365278],[2.303292222,43.215373889],[2.303223333,43.215396944],[2.303147778,43.215435833],[2.303103333,43.215473056],[2.303063611,43.215519444],[2.303035278,43.215576389],[2.303025,43.215613611],[2.303018611,43.215662778],[2.303034444,43.215744722],[2.303054444,43.215839444],[2.303062778,43.215908611],[2.303088056,43.215960278],[2.303110556,43.215998056],[2.303165556,43.216025278],[2.303211389,43.216044444],[2.303281944,43.216078889],[2.302926389,43.216112222],[2.302939722,43.216056944],[2.302868889,43.215657222],[2.302844167,43.215615556],[2.302812778,43.215575],[2.302769444,43.215538889],[2.302713611,43.215503611],[2.302670833,43.215481944],[2.302617222,43.215455],[2.302545278,43.215440833],[2.302478056,43.215438611],[2.298794167,43.215731667],[2.298512222,43.215759722],[2.298407222,43.215776389],[2.298313056,43.215800278],[2.298251944,43.215826111],[2.298198333,43.215875556],[2.2981675,43.215919444],[2.298137222,43.2159775],[2.298129444,43.216060278],[2.298146389,43.216154444],[2.298139167,43.216235556],[2.298151111,43.216314444],[2.298159444,43.216348611],[2.298175278,43.216367222],[2.2981925,43.216396944],[2.298224722,43.216415278],[2.298263333,43.216425833],[2.2983175,43.216433889],[2.298390278,43.216454722],[2.298187778,43.216504722],[2.298048611,43.216489444],[2.298015556,43.216094444]]]}},{"type":"Feature","id":"LFMK-279155bff7a4d6e57bca","properties":{"airport":"LFMK","name":"LFMK AVISO","layer":"Airfield surfaces","category":"Hard Surface 3","object_type":"Area","style_id":"polygon.hardsurface3.8a807f","source_group":"LFMK AVISO","vsmr_group_ids":[],"geometry_role":"filled_region"},"geometry":{"type":"Polygon","coordinates":[[[2.301642222,43.214910556],[2.301598889,43.214908333],[2.30126,43.214936944],[2.301191944,43.214926389],[2.301145833,43.214911667],[2.301119167,43.214890833],[2.301089167,43.214866389],[2.301060556,43.214844444],[2.301034167,43.214832778],[2.301003333,43.214828889],[2.300976944,43.21477],[2.300963889,43.214671667],[2.300953611,43.214619444],[2.3009475,43.214553611],[2.301913056,43.214471111],[2.301946944,43.214609722],[2.301956667,43.214688611],[2.301969722,43.214754722],[2.301973889,43.214808611],[2.3019625,43.214842778],[2.301938056,43.214860833],[2.301916667,43.214872222],[2.3018875,43.214884444],[2.301674444,43.214916667],[2.301642222,43.214910556]]]}},{"type":"Feature","id":"LFMK-03002aa3f353ddb358eb","properties":{"airport":"LFMK","name":"LFMK AVISO","layer":"Airfield surfaces","category":"Hard Surface 3","object_type":"Area","style_id":"polygon.hardsurface3.8a807f","source_group":"LFMK AVISO","vsmr_group_ids":[],"geometry_role":"filled_region"},"geometry":{"type":"Polygon","coordinates":[[[2.302101389,43.214972222],[2.302023056,43.214432222],[2.303485556,43.2143125],[2.303467778,43.214178333],[2.303546944,43.214174722],[2.303540833,43.214103333],[2.304100556,43.214059167],[2.304136389,43.214306667],[2.304145,43.214324722],[2.304163056,43.214335],[2.304195,43.214340556],[2.304249444,43.214335833],[2.30425,43.214136111],[2.304267222,43.213873889],[2.304819444,43.21381],[2.304799167,43.213712778],[2.307521111,43.213486944],[2.307527778,43.213574444],[2.307535,43.213616944],[2.307577778,43.213905833],[2.307928056,43.213956389],[2.308015,43.214055833],[2.308604722,43.214012222],[2.308999444,43.214014167],[2.309065833,43.214021667],[2.3090775,43.214092778],[2.309104444,43.214321111],[2.308837222,43.214347778],[2.308906944,43.214765833],[2.306238056,43.214992222],[2.306159167,43.214583333],[2.305777222,43.214603056],[2.305560556,43.214618333],[2.3052175,43.214655],[2.305043611,43.214676667],[2.304978889,43.214693056],[2.304935,43.214701389],[2.304885833,43.21472],[2.304855,43.214751667],[2.304814167,43.214795278],[2.304545,43.214794444],[2.304530556,43.214736111],[2.304501389,43.214647222],[2.304447778,43.214485833],[2.304427778,43.214440278],[2.304408333,43.214399444],[2.304146667,43.214418056],[2.304152222,43.214533333],[2.304155,43.21466],[2.304150556,43.214734444],[2.304125,43.214776389],[2.304096667,43.214813056],[2.303056944,43.214896389],[2.302531111,43.214941944],[2.302101389,43.214972222]]]}},{"type":"Feature","id":"LFMK-396bc57c86a595e37cde","properties":{"airport":"LFMK","name":"LFMK AVISO","layer":"Airfield surfaces","category":"Hard Surface 3","object_type":"Area","style_id":"polygon.hardsurface3.8a807f","source_group":"LFMK AVISO","vsmr_group_ids":[],"geometry_role":"filled_region"},"geometry":{"type":"Polygon","coordinates":[[[2.310229722,43.2141025],[2.310232778,43.214066944],[2.310217778,43.214060833],[2.31021,43.214020278],[2.310278056,43.213951944],[2.310436667,43.213940556],[2.310431667,43.213850278],[2.310464444,43.213774444],[2.310564722,43.2137475],[2.310563056,43.213725833],[2.310765278,43.2136875],[2.311142778,43.213601944],[2.310985833,43.213287778],[2.311073889,43.213227778],[2.3114275,43.213133611],[2.31154,43.213175833],[2.311795556,43.213352222],[2.312028889,43.213471667],[2.312056667,43.213597778],[2.312124167,43.213833333],[2.312145278,43.213863611],[2.31234,43.213833889],[2.312357222,43.213842222],[2.312389444,43.213859722],[2.312401944,43.213878333],[2.312407222,43.213923333],[2.312391944,43.213960278],[2.312347222,43.214007778],[2.312316944,43.214030833],[2.312275556,43.214057222],[2.312206944,43.214080833],[2.312120556,43.2141],[2.311357778,43.214229167],[2.311251667,43.214256667],[2.311229722,43.214265],[2.31055,43.2142925],[2.310499444,43.214295556],[2.310460833,43.214297778],[2.310426389,43.214295],[2.31039,43.214283333],[2.310362778,43.214261389],[2.310359444,43.214237778],[2.310338056,43.214099722],[2.310229722,43.2141025]]]}},{"type":"Feature","id":"LFMK-feea43ec77ceb517bbac","properties":{"airport":"LFMK","name":"LFMK AVISO","layer":"Airfield surfaces","category":"Hard Surface 3","object_type":"Area","style_id":"polygon.hardsurface3.8a807f","source_group":"LFMK AVISO","vsmr_group_ids":[],"geometry_role":"filled_region"},"geometry":{"type":"Polygon","coordinates":[[[2.315335278,43.213162222],[2.316615278,43.213067778],[2.316671111,43.213468611],[2.315402222,43.213573333],[2.315335278,43.213162222]]]}},{"type":"Feature","id":"LFMK-748954742d262781a36e","properties":{"airport":"LFMK","name":"LFMK AVISO","layer":"Airfield surfaces","category":"Grass runways","object_type":"Area","style_id":"polygon.runwaygrass.008000","source_group":"LFMK AVISO","vsmr_group_ids":[],"geometry_role":"filled_region"},"geometry":{"type":"Polygon","coordinates":[[[2.305301111,43.216823056],[2.305386389,43.216853611],[2.305487222,43.216854167],[2.308060556,43.216660833],[2.308242778,43.21601],[2.308540278,43.215966111],[2.3088925,43.216524444],[2.308930833,43.216556667],[2.314979722,43.216106944],[2.315113889,43.216064444],[2.315256389,43.216015556],[2.315420278,43.215861944],[2.315870556,43.215378056],[2.316257778,43.215352222],[2.315556111,43.21613],[2.315456389,43.216254444],[2.315343056,43.216365556],[2.315194722,43.216431667],[2.315048889,43.216445556],[2.306189444,43.217136111],[2.3060175,43.217144167],[2.305878333,43.217156944],[2.305720833,43.217199722],[2.305571111,43.217196667],[2.305438611,43.217168333],[2.305309722,43.217120278],[2.30335,43.216376389],[2.303978333,43.216361944],[2.305301111,43.216823056]]]}},{"type":"Feature","id":"LFMK-1ec31720f3ba5d363f18","properties":{"airport":"LFMK","name":"LFMK AVISO","layer":"Airfield surfaces","category":"Runways","object_type":"Area","style_id":"polygon.runwayconcrete.555555","source_group":"LFMK AVISO","vsmr_group_ids":[],"geometry_role":"filled_region"},"geometry":{"type":"Polygon","coordinates":[[[2.31822,43.214840833],[2.318265,43.215244722],[2.318235833,43.215288889],[2.318206389,43.215326111],[2.318159167,43.215369167],[2.318105,43.215391667],[2.318048056,43.215407222],[2.317987778,43.215416389],[2.317901111,43.215403056],[2.317814444,43.215378889],[2.317685,43.215331667],[2.3175775,43.2152975],[2.295106667,43.217103889],[2.295072778,43.217126111],[2.295015,43.217157222],[2.294953611,43.217187778],[2.294903889,43.217216111],[2.294845278,43.217258889],[2.294732222,43.217281667],[2.294594722,43.217256944],[2.294528333,43.217226667],[2.294478889,43.217186111],[2.294475278,43.217150278],[2.294013889,43.217193611],[2.293671111,43.217414444],[2.2935625,43.217445556],[2.293463056,43.217449167],[2.293321944,43.217418333],[2.293229722,43.217376667],[2.293171667,43.217324167],[2.293141944,43.217263889],[2.292566389,43.217311944],[2.292498056,43.216906111],[2.31822,43.214840833]]]}},{"type":"Feature","id":"LFMK-a4cb159579635e64678b","properties":{"airport":"LFMK","name":"LFMK AVISO","layer":"Buildings and structures","category":"Buildings","object_type":"Area","style_id":"polygon.building.394446","source_group":"LFMK AVISO","vsmr_group_ids":[],"geometry_role":"filled_region"},"geometry":{"type":"Polygon","coordinates":[[[2.3023275,43.214295],[2.302364722,43.214289444],[2.302365278,43.214273056],[2.302469444,43.214259444],[2.302476389,43.214245833],[2.3034625,43.214171667],[2.303483333,43.214311389],[2.302345556,43.214401111],[2.3023275,43.214295]]]}},{"type":"Feature","id":"LFMK-eeff5687d2c58221810e","properties":{"airport":"LFMK","name":"LFMK AVISO","layer":"Buildings and structures","category":"Buildings","object_type":"Area","style_id":"polygon.building.394446","source_group":"LFMK AVISO","vsmr_group_ids":[],"geometry_role":"filled_region"},"geometry":{"type":"Polygon","coordinates":[[[2.303697778,43.214151667],[2.303694167,43.214108611],[2.304019167,43.214078611],[2.304050278,43.214280278],[2.304037778,43.214280278],[2.304043611,43.214304722],[2.303963056,43.214310278],[2.303951667,43.214274167],[2.303691389,43.214293611],[2.303673333,43.214153889],[2.303697778,43.214151667]]]}},{"type":"Feature","id":"LFMK-37de67a133cfa54f74ee","properties":{"airport":"LFMK","name":"LFMK AVISO","layer":"Buildings and structures","category":"Buildings","object_type":"Area","style_id":"polygon.building.394446","source_group":"LFMK AVISO","vsmr_group_ids":[],"geometry_role":"filled_region"},"geometry":{"type":"Polygon","coordinates":[[[2.304115278,43.213871111],[2.304147778,43.213865],[2.304145278,43.213824722],[2.304333056,43.213809167],[2.304328333,43.213777222],[2.304388611,43.2137775],[2.304399722,43.213755833],[2.304746667,43.213728333],[2.304760278,43.213830556],[2.304361111,43.213857222],[2.304396111,43.214113611],[2.304200833,43.214131389],[2.304189722,43.214108889],[2.304149722,43.21411],[2.304115278,43.213871111]]]}},{"type":"Feature","id":"LFMK-b97632847dd3c8b82e44","properties":{"airport":"LFMK","name":"LFMK AVISO","layer":"Buildings and structures","category":"Buildings","object_type":"Area","style_id":"polygon.building.394446","source_group":"LFMK AVISO","vsmr_group_ids":[],"geometry_role":"filled_region"},"geometry":{"type":"Polygon","coordinates":[[[2.308018889,43.213875278],[2.308047778,43.213887222],[2.308083611,43.213880556],[2.308086389,43.213850833],[2.308182778,43.213845556],[2.308300556,43.213916111],[2.308443611,43.213901944],[2.308456944,43.213911944],[2.308472222,43.213913056],[2.308491389,43.213903333],[2.308526667,43.213896111],[2.30864,43.213906667],[2.308645,43.2139175],[2.308799167,43.2139275],[2.308816667,43.213909444],[2.308857222,43.2139325],[2.308891111,43.213931944],[2.3088975,43.213939722],[2.308916667,43.213939167],[2.308911944,43.213869167],[2.309165,43.213851111],[2.309178611,43.213928056],[2.30917,43.213939722],[2.309306944,43.213931667],[2.309323333,43.214030556],[2.308288333,43.214111944],[2.308285556,43.214126111],[2.3078875,43.214157222],[2.307879444,43.214144167],[2.307762778,43.214150556],[2.307767778,43.214166111],[2.307623333,43.214171111],[2.3075875,43.213908889],[2.308018889,43.213875278]]]}},{"type":"Feature","id":"LFMK-1a1adc1b6df5c4bd68ba","properties":{"airport":"LFMK","name":"LFMK AVISO","layer":"Buildings and structures","category":"Buildings","object_type":"Area","style_id":"polygon.building.394446","source_group":"LFMK AVISO","vsmr_group_ids":[],"geometry_role":"filled_region"},"geometry":{"type":"Polygon","coordinates":[[[2.30952,43.213972222],[2.309807778,43.213952222],[2.309816667,43.214027778],[2.309775833,43.214033611],[2.309736111,43.214045556],[2.309635556,43.214053611],[2.309631667,43.214071111],[2.309592778,43.214074722],[2.309587222,43.214052222],[2.309528611,43.214051389],[2.309441389,43.214057778],[2.309435,43.214003333],[2.3094975,43.213991111],[2.30952,43.213972222]]]}},{"type":"Feature","id":"LFMK-9d722244d2be6225754a","properties":{"airport":"LFMK","name":"LFMK AVISO","layer":"Buildings and structures","category":"Buildings","object_type":"Area","style_id":"polygon.building.394446","source_group":"LFMK AVISO","vsmr_group_ids":[],"geometry_role":"filled_region"},"geometry":{"type":"Polygon","coordinates":[[[2.309883333,43.213744722],[2.309936667,43.213741389],[2.310049444,43.2137375],[2.310057222,43.21378],[2.310041111,43.213780556],[2.310038611,43.213813056],[2.309808056,43.213821944],[2.309798056,43.213753611],[2.309883333,43.213744722]]]}},{"type":"Feature","id":"LFMK-c22a4773b8a67931bff6","properties":{"airport":"LFMK","name":"LFMK AVISO","layer":"Buildings and structures","category":"Buildings","object_type":"Area","style_id":"polygon.building.394446","source_group":"LFMK AVISO","vsmr_group_ids":[],"geometry_role":"filled_region"},"geometry":{"type":"Polygon","coordinates":[[[2.310314722,43.213633611],[2.31028,43.213508056],[2.310331944,43.213494167],[2.3103325,43.213486111],[2.310349167,43.213480556],[2.310334444,43.213429444],[2.310452222,43.2134],[2.310566111,43.213723056],[2.310444444,43.21375],[2.310415556,43.213774444],[2.3103575,43.2137875],[2.310331667,43.213769722],[2.310204167,43.213789167],[2.3101725,43.213714722],[2.310136667,43.213719722],[2.310122778,43.213673889],[2.310314722,43.213633611]]]}},{"type":"Feature","id":"LFMK-4d14edb0e6e5d575970a","properties":{"airport":"LFMK","name":"LFMK AVISO","layer":"Buildings and structures","category":"Buildings","object_type":"Area","style_id":"polygon.building.394446","source_group":"LFMK AVISO","vsmr_group_ids":[],"geometry_role":"filled_region"},"geometry":{"type":"Polygon","coordinates":[[[2.311754167,43.2130475],[2.311744722,43.213026111],[2.311867222,43.2130025],[2.311874444,43.2130275],[2.311898611,43.213033056],[2.312046667,43.213464444],[2.3116025,43.213546111],[2.311497222,43.213206667],[2.311431389,43.213215278],[2.311418056,43.213180833],[2.311121944,43.213233611],[2.311128333,43.213268056],[2.311068889,43.213277778],[2.311181667,43.213624722],[2.310747222,43.213686389],[2.310612778,43.213261111],[2.311754167,43.2130475]]]}},{"type":"Feature","id":"LFMK-53f93d18b7eafe12c97d","properties":{"airport":"LFMK","name":"LFMK AVISO","layer":"Buildings and structures","category":"Buildings","object_type":"Area","style_id":"polygon.building.394446","source_group":"LFMK AVISO","vsmr_group_ids":[],"geometry_role":"filled_region"},"geometry":{"type":"Polygon","coordinates":[[[2.313006944,43.213683889],[2.313019167,43.213781111],[2.312261111,43.213845833],[2.312236389,43.2138375],[2.312220833,43.213752222],[2.312244167,43.213742778],[2.313006944,43.213683889]]]}},{"type":"Feature","id":"LFMK-5893fb5aeca95f48a02b","properties":{"airport":"LFMK","name":"LFMK AVISO","layer":"Surface markings","category":"Stopbars","object_type":"Area","style_id":"polygon.stopbar.7e0000","source_group":"LFMK AVISO","vsmr_group_ids":[],"geometry_role":"filled_region"},"geometry":{"type":"Polygon","coordinates":[[[2.298063611,43.215716111],[2.298250278,43.215826944],[2.298231111,43.215840833],[2.298059722,43.215739167],[2.298063611,43.215716111]]]}},{"type":"Feature","id":"LFMK-94503ac65bd5f3c7fee8","properties":{"airport":"LFMK","name":"LFMK AVISO","layer":"Surface markings","category":"Stopbars","object_type":"Area","style_id":"polygon.stopbar.7e0000","source_group":"LFMK AVISO","vsmr_group_ids":[],"geometry_role":"filled_region"},"geometry":{"type":"Polygon","coordinates":[[[2.303191667,43.215408889],[2.303145,43.215435278],[2.302670278,43.215478056],[2.302630556,43.215461667],[2.303191667,43.215408889]]]}},{"type":"Feature","id":"LFMK-e2b29c29d83555cac01c","properties":{"airport":"LFMK","name":"LFMK AVISO","layer":"Surface markings","category":"Stopbars","object_type":"Area","style_id":"polygon.stopbar.7e0000","source_group":"LFMK AVISO","vsmr_group_ids":[],"geometry_role":"filled_region"},"geometry":{"type":"Polygon","coordinates":[[[2.304865,43.215274722],[2.3048475,43.215299444],[2.304604722,43.215317222],[2.304581667,43.215300278],[2.304865,43.215274722]]]}},{"type":"Feature","id":"LFMK-45dfb4dda8c0164eef79","properties":{"airport":"LFMK","name":"LFMK AVISO","layer":"Surface markings","category":"Stopbars","object_type":"Area","style_id":"polygon.stopbar.7e0000","source_group":"LFMK AVISO","vsmr_group_ids":[],"geometry_role":"filled_region"},"geometry":{"type":"Polygon","coordinates":[[[2.308746389,43.214960278],[2.308692778,43.214986389],[2.308179444,43.215034722],[2.308135833,43.215021667],[2.308746389,43.214960278]]]}},{"type":"Feature","id":"LFMK-3634af062a918211704b","properties":{"airport":"LFMK","name":"LFMK AVISO","layer":"Surface markings","category":"Stopbars","object_type":"Area","style_id":"polygon.stopbar.7e0000","source_group":"LFMK AVISO","vsmr_group_ids":[],"geometry_role":"filled_region"},"geometry":{"type":"Polygon","coordinates":[[[2.311236944,43.214780833],[2.310963889,43.214807222],[2.310934722,43.214793333],[2.311253889,43.214760833],[2.311236944,43.214780833]]]}},{"type":"Feature","id":"LFMK-42f1bf83350bb9e33b3a","properties":{"airport":"LFMK","name":"LFMK AVISO","layer":"Surface markings","category":"Stopbars","object_type":"Area","style_id":"polygon.stopbar.7e0000","source_group":"LFMK AVISO","vsmr_group_ids":[],"geometry_role":"filled_region"},"geometry":{"type":"Polygon","coordinates":[[[2.314995556,43.214483611],[2.314799722,43.214500556],[2.314773056,43.214482222],[2.314990556,43.214461667],[2.314995556,43.214483611]]]}},{"type":"Feature","id":"LFMK-f1ac8c095733dfe7d4b9","properties":{"airport":"LFMK","name":"LFMK AVISO","layer":"Surface markings","category":"Stopbars","object_type":"Area","style_id":"polygon.stopbar.7e0000","source_group":"LFMK AVISO","vsmr_group_ids":[],"geometry_role":"filled_region"},"geometry":{"type":"Polygon","coordinates":[[[2.316286944,43.214374722],[2.316007222,43.214400556],[2.315966944,43.214384722],[2.316283333,43.214352778],[2.316286944,43.214374722]]]}},{"type":"Feature","id":"LFMK-c8df47316decf876ac6c","properties":{"airport":"LFMK","name":"LFMK AVISO","layer":"Airfield surfaces","category":"Taxiway Orange","object_type":"Area","style_id":"polygon.taxiwayorange.cc6d00","source_group":"LFMK AVISO","vsmr_group_ids":[],"geometry_role":"filled_region"},"geometry":{"type":"Polygon","coordinates":[[[2.304346667,43.2152175],[2.304356389,43.215289722],[2.304342778,43.215291111],[2.3043325,43.215219167],[2.304346667,43.2152175]]]}},{"type":"Feature","id":"LFMK-98afdbc1be01c9f259d6","properties":{"airport":"LFMK","name":"LFMK AVISO","layer":"Airfield surfaces","category":"Taxiway Orange","object_type":"Area","style_id":"polygon.taxiwayorange.cc6d00","source_group":"LFMK AVISO","vsmr_group_ids":[],"geometry_role":"filled_region"},"geometry":{"type":"Polygon","coordinates":[[[2.305951944,43.215159167],[2.305940556,43.215089167],[2.305951944,43.215087222],[2.305964444,43.215158333],[2.305951944,43.215159167]]]}},{"type":"Feature","id":"LFMK-ea1ebd527b811b968982","properties":{"airport":"LFMK","name":"LFMK AVISO","layer":"Airfield surfaces","category":"Taxiway Orange","object_type":"Area","style_id":"polygon.taxiwayorange.cc6d00","source_group":"LFMK AVISO","vsmr_group_ids":[],"geometry_role":"filled_region"},"geometry":{"type":"Polygon","coordinates":[[[2.3142925,43.214493333],[2.314285278,43.2144175],[2.314295833,43.214416111],[2.314303889,43.214491944],[2.3142925,43.214493333]]]}},{"type":"Feature","id":"LFMK-c71b21123796884c8843","properties":{"airport":"LFMK","name":"TWR","layer":"Labels","category":"Gates","object_type":"Label","style_id":"label.gates","source_group":"LFMK Gates","vsmr_group_ids":[],"geometry_role":"text_label","text-field":"TWR"},"geometry":{"type":"Point","coordinates":[2.309563611,43.213903056]}},{"type":"Feature","id":"LFMK-d91040578ff5fe4fd461","properties":{"airport":"LFMK","name":"Pelicandrome","layer":"Labels","category":"Gates","object_type":"Label","style_id":"label.gates","source_group":"LFMK Gates","vsmr_group_ids":[],"geometry_role":"text_label","text-field":"Pelicandrome"},"geometry":{"type":"Point","coordinates":[2.315630833,43.212951111]}},{"type":"Feature","id":"LFMK-1d3f5c618932c771f53a","properties":{"airport":"LFMK","name":"P ENAC","layer":"Labels","category":"Gates","object_type":"Label","style_id":"label.gates","source_group":"LFMK Gates","vsmr_group_ids":[],"geometry_role":"text_label","text-field":"P ENAC"},"geometry":{"type":"Point","coordinates":[2.311006667,43.213489722]}},{"type":"Feature","id":"LFMK-6faf539314fa5423a75e","properties":{"airport":"LFMK","name":"Bretelle AVGAS","layer":"Labels","category":"Gates","object_type":"Label","style_id":"label.gates","source_group":"LFMK Gates","vsmr_group_ids":[],"geometry_role":"text_label","text-field":"Bretelle AVGAS"},"geometry":{"type":"Point","coordinates":[2.309775278,43.214488611]}},{"type":"Feature","id":"LFMK-5161ce90fb17e1063647","properties":{"airport":"LFMK","name":"Terminal","layer":"Labels","category":"Gates","object_type":"Label","style_id":"label.gates","source_group":"LFMK Gates","vsmr_group_ids":[],"geometry_role":"text_label","text-field":"Terminal"},"geometry":{"type":"Point","coordinates":[2.308040833,43.213954444]}},{"type":"Feature","id":"LFMK-e89675ac4e6e5af0a3a7","properties":{"airport":"LFMK","name":"P Commercial","layer":"Labels","category":"Gates","object_type":"Label","style_id":"label.gates","source_group":"LFMK Gates","vsmr_group_ids":[],"geometry_role":"text_label","text-field":"P Commercial"},"geometry":{"type":"Point","coordinates":[2.305451389,43.213419444]}},{"type":"Feature","id":"LFMK-a1b6ca38fcee3e98057e","properties":{"airport":"LFMK","name":"P Aviation Generale","layer":"Labels","category":"Gates","object_type":"Label","style_id":"label.gates","source_group":"LFMK Gates","vsmr_group_ids":[],"geometry_role":"text_label","text-field":"P Aviation Generale"},"geometry":{"type":"Point","coordinates":[2.30247,43.214154444]}},{"type":"Feature","id":"LFMK-1d522ab5eaf1c8fe3af8","properties":{"airport":"LFMK","name":"P Helicoptere","layer":"Labels","category":"Gates","object_type":"Label","style_id":"label.gates","source_group":"LFMK Gates","vsmr_group_ids":[],"geometry_role":"text_label","text-field":"P Helicoptere"},"geometry":{"type":"Point","coordinates":[2.300996944,43.214333611]}},{"type":"Feature","id":"LFMK-e9810bcbcd4730eb50ab","properties":{"airport":"LFMK","name":"Hangars","layer":"Labels","category":"Gates","object_type":"Label","style_id":"label.gates","source_group":"LFMK Gates","vsmr_group_ids":[],"geometry_role":"text_label","text-field":"Hangars"},"geometry":{"type":"Point","coordinates":[2.303759444,43.213936389]}},{"type":"Feature","id":"LFMK-496d77d9d165b2d3d7d9","properties":{"airport":"LFMK","name":"L1","layer":"Labels","category":"Gates","object_type":"Label","style_id":"label.gates","source_group":"LFMK Gates","vsmr_group_ids":[],"geometry_role":"text_label","text-field":"L1"},"geometry":{"type":"Point","coordinates":[2.308635556,43.214438333]}},{"type":"Feature","id":"LFMK-05608ebea9ed343f5c90","properties":{"airport":"LFMK","name":"L2","layer":"Labels","category":"Gates","object_type":"Label","style_id":"label.gates","source_group":"LFMK Gates","vsmr_group_ids":[],"geometry_role":"text_label","text-field":"L2"},"geometry":{"type":"Point","coordinates":[2.308039444,43.214548611]}},{"type":"Feature","id":"LFMK-3db5d8ac984cf48bbfb2","properties":{"airport":"LFMK","name":"K1","layer":"Labels","category":"Gates","object_type":"Label","style_id":"label.gates","source_group":"LFMK Gates","vsmr_group_ids":[],"geometry_role":"text_label","text-field":"K1"},"geometry":{"type":"Point","coordinates":[2.307260556,43.214069167]}},{"type":"Feature","id":"LFMK-1467a300dbfb32eaa0f5","properties":{"airport":"LFMK","name":"K2","layer":"Labels","category":"Gates","object_type":"Label","style_id":"label.gates","source_group":"LFMK Gates","vsmr_group_ids":[],"geometry_role":"text_label","text-field":"K2"},"geometry":{"type":"Point","coordinates":[2.306563611,43.214137222]}},{"type":"Feature","id":"LFMK-752074359a33686db417","properties":{"airport":"LFMK","name":"K3","layer":"Labels","category":"Gates","object_type":"Label","style_id":"label.gates","source_group":"LFMK Gates","vsmr_group_ids":[],"geometry_role":"text_label","text-field":"K3"},"geometry":{"type":"Point","coordinates":[2.305821111,43.214186944]}},{"type":"Feature","id":"LFMK-3b81246e21122b6ff794","properties":{"airport":"LFMK","name":"K4","layer":"Labels","category":"Gates","object_type":"Label","style_id":"label.gates","source_group":"LFMK Gates","vsmr_group_ids":[],"geometry_role":"text_label","text-field":"K4"},"geometry":{"type":"Point","coordinates":[2.30517,43.214241944]}},{"type":"Feature","id":"LFMK-ee9a6dc8299b10fc3a6f","properties":{"airport":"LFMK","name":"Z","layer":"Labels","category":"Taxiways","object_type":"Label","style_id":"label.taxiways","source_group":"LFMK Taxiways","vsmr_group_ids":[],"geometry_role":"text_label","text-field":"Z"},"geometry":{"type":"Point","coordinates":[2.297898889,43.215813611]}},{"type":"Feature","id":"LFMK-3d4db10e4ee3d20a35e9","properties":{"airport":"LFMK","name":"T1","layer":"Labels","category":"Taxiways","object_type":"Label","style_id":"label.taxiways","source_group":"LFMK Taxiways","vsmr_group_ids":[],"geometry_role":"text_label","text-field":"T1"},"geometry":{"type":"Point","coordinates":[2.300083333,43.215712778]}},{"type":"Feature","id":"LFMK-381751c42b6254ec5c7b","properties":{"airport":"LFMK","name":"A","layer":"Labels","category":"Taxiways","object_type":"Label","style_id":"label.taxiways","source_group":"LFMK Taxiways","vsmr_group_ids":[],"geometry_role":"text_label","text-field":"A"},"geometry":{"type":"Point","coordinates":[2.302688333,43.215744444]}},{"type":"Feature","id":"LFMK-9055f182a26a78e42871","properties":{"airport":"LFMK","name":"T2","layer":"Labels","category":"Taxiways","object_type":"Label","style_id":"label.taxiways","source_group":"LFMK Taxiways","vsmr_group_ids":[],"geometry_role":"text_label","text-field":"T2"},"geometry":{"type":"Point","coordinates":[2.303578333,43.215422222]}},{"type":"Feature","id":"LFMK-c3087eb7598a634c1d9a","properties":{"airport":"LFMK","name":"B","layer":"Labels","category":"Taxiways","object_type":"Label","style_id":"label.taxiways","source_group":"LFMK Taxiways","vsmr_group_ids":[],"geometry_role":"text_label","text-field":"B"},"geometry":{"type":"Point","coordinates":[2.305026111,43.215569722]}},{"type":"Feature","id":"LFMK-eb6f47867ec16062244a","properties":{"airport":"LFMK","name":"T3","layer":"Labels","category":"Taxiways","object_type":"Label","style_id":"label.taxiways","source_group":"LFMK Taxiways","vsmr_group_ids":[],"geometry_role":"text_label","text-field":"T3"},"geometry":{"type":"Point","coordinates":[2.306290278,43.21523]}},{"type":"Feature","id":"LFMK-c4b6fe205557e0e3e26e","properties":{"airport":"LFMK","name":"C","layer":"Labels","category":"Taxiways","object_type":"Label","style_id":"label.taxiways","source_group":"LFMK Taxiways","vsmr_group_ids":[],"geometry_role":"text_label","text-field":"C"},"geometry":{"type":"Point","coordinates":[2.308753056,43.215269167]}},{"type":"Feature","id":"LFMK-a059d979e6d91f104354","properties":{"airport":"LFMK","name":"T4","layer":"Labels","category":"Taxiways","object_type":"Label","style_id":"label.taxiways","source_group":"LFMK Taxiways","vsmr_group_ids":[],"geometry_role":"text_label","text-field":"T4"},"geometry":{"type":"Point","coordinates":[2.309707222,43.214939167]}},{"type":"Feature","id":"LFMK-b7ba040f47c2c85de100","properties":{"airport":"LFMK","name":"D","layer":"Labels","category":"Taxiways","object_type":"Label","style_id":"label.taxiways","source_group":"LFMK Taxiways","vsmr_group_ids":[],"geometry_role":"text_label","text-field":"D"},"geometry":{"type":"Point","coordinates":[2.310835833,43.215136667]}},{"type":"Feature","id":"LFMK-81e523cc8af22d60cc97","properties":{"airport":"LFMK","name":"T5","layer":"Labels","category":"Taxiways","object_type":"Label","style_id":"label.taxiways","source_group":"LFMK Taxiways","vsmr_group_ids":[],"geometry_role":"text_label","text-field":"T5"},"geometry":{"type":"Point","coordinates":[2.312977778,43.214671667]}},{"type":"Feature","id":"LFMK-82289cd5f4b03837546c","properties":{"airport":"LFMK","name":"E","layer":"Labels","category":"Taxiways","object_type":"Label","style_id":"label.taxiways","source_group":"LFMK Taxiways","vsmr_group_ids":[],"geometry_role":"text_label","text-field":"E"},"geometry":{"type":"Point","coordinates":[2.3145575,43.214830278]}},{"type":"Feature","id":"LFMK-ba6eab63eb376ad9815e","properties":{"airport":"LFMK","name":"T6","layer":"Labels","category":"Taxiways","object_type":"Label","style_id":"label.taxiways","source_group":"LFMK Taxiways","vsmr_group_ids":[],"geometry_role":"text_label","text-field":"T6"},"geometry":{"type":"Point","coordinates":[2.315416944,43.214518611]}},{"type":"Feature","id":"LFMK-293467fe88db6a25e52f","properties":{"airport":"LFMK","name":"F","layer":"Labels","category":"Taxiways","object_type":"Label","style_id":"label.taxiways","source_group":"LFMK Taxiways","vsmr_group_ids":[],"geometry_role":"text_label","text-field":"F"},"geometry":{"type":"Point","coordinates":[2.316434444,43.214593889]}}]}
