{"type":"FeatureCollection","name":"LFMO AVISO","bbox":[4.849361111,44.129,4.879861111,44.151222222],"metadata":{"schema":"vSMR AVISO","schema_version":2,"geometry_mode":"shared","airport":"LFMO","coordinate_reference_system":"WGS84","coordinate_order":"longitude, latitude","default_color_palette":"dark","color_palettes":["dark","light"],"background_colors":{"dark":"#434A4F","light":"#434A4F"},"runways":[{"ends":["14","32"],"headings":[142,322],"thresholds":[[4.859746944,44.148896944],[4.877355833,44.131335833]]}],"saved_active_runways":[],"saved_active_airport_modes":[],"airport_reference":[4.868610833,44.14],"feature_count":3,"style_count":3,"layer_counts":{"Guidance lines":3},"category_counts":{"Apron Surface":1,"Runways":1,"Taxiways":1},"geometry_source":"local GNG","geometry_source_url":"","geometry_license":"GPL-3.0"},"styles":{"line.taxiway.c0b631":{"name":"Taxiways","layer":"Guidance lines","object_type":"Line","paint":{"stroke":"#4E5A69","stroke-opacity":1,"stroke-width":1,"palette-overrides":{"light":{"stroke":"#C0B631"}}},"feature_count":1},"line.runwayconcrete.555555":{"name":"Runways","layer":"Guidance lines","object_type":"Line","paint":{"stroke":"#111318","stroke-opacity":1,"stroke-width":1,"palette-overrides":{"light":{"stroke":"#555555"}}},"feature_count":1},"line.apronsurface.808080":{"name":"Apron Surface","layer":"Guidance lines","object_type":"Line","paint":{"stroke":"#808080","stroke-opacity":1,"stroke-width":1,"palette-overrides":{"light":{"stroke":"#808080"}}},"feature_count":1}},"vsmr_groups":[],"features":[{"type":"Feature","id":"LFMO-a7252b81af3d69c5fa17","properties":{"airport":"LFMO","name":"LFMO Groundlayout","layer":"Guidance lines","category":"Taxiways","object_type":"Line","style_id":"line.taxiway.c0b631","source_group":"LFMO Groundlayout","vsmr_group_ids":[],"geometry_role":"linework"},"geometry":{"type":"MultiLineString","coordinates":[[[4.861666667,44.146527778],[4.861333333,44.146166667]],[[4.861722222,44.145972222],[4.861138889,44.145361111]],[[4.861333333,44.146166667],[4.860944444,44.14575]],[[4.861138889,44.145361111],[4.855472222,44.139388889]],[[4.860638889,44.145472222],[4.854972222,44.139472222]],[[4.859777778,44.148388889],[4.859388889,44.148194444]],[[4.8595,44.148666667],[4.859111111,44.148472222]],[[4.859388889,44.148194444],[4.858777778,44.147916667]],[[4.859111111,44.148472222],[4.858111111,44.148]],[[4.858777778,44.147916667],[4.860944444,44.14575]],[[4.858111111,44.148],[4.860638889,44.145472222]],[[4.877027778,44.131222222],[4.876694444,44.131]],[[4.876777778,44.131472222],[4.876388889,44.13125]],[[4.876694444,44.131],[4.875527778,44.130305556]],[[4.876388889,44.13125],[4.875611111,44.130805556]],[[4.875527778,44.130305556],[4.870444444,44.135416667]],[[4.875611111,44.130805556],[4.870916667,44.135527778]],[[4.870444444,44.135416667],[4.861916667,44.136583333]],[[4.870527778,44.13575],[4.862138889,44.136888889]],[[4.861916667,44.136583333],[4.8515,44.137972222]],[[4.861583333,44.136972222],[4.851583333,44.138305556]],[[4.8515,44.137972222],[4.851583333,44.138305556]],[[4.861583333,44.136972222],[4.860833333,44.13825]],[[4.862138889,44.136888889],[4.861166667,44.138527778]],[[4.860833333,44.13825],[4.855027778,44.139111111]],[[4.861166667,44.138527778],[4.855472222,44.139388889]],[[4.855027778,44.139111111],[4.851722222,44.139611111]],[[4.854972222,44.139472222],[4.851805556,44.139944444]],[[4.851722222,44.139611111],[4.851805556,44.139944444]],[[4.870527778,44.13575],[4.871444444,44.136194444]],[[4.870916667,44.135527778],[4.871694444,44.135916667]],[[4.871444444,44.136194444],[4.871833333,44.136388889]],[[4.871694444,44.135916667],[4.872111111,44.136111111]]]}},{"type":"Feature","id":"LFMO-d92f1756a3d0c4237447","properties":{"airport":"LFMO","name":"LFMO Groundlayout","layer":"Guidance lines","category":"Runways","object_type":"Line","style_id":"line.runwayconcrete.555555","source_group":"LFMO Groundlayout","vsmr_group_ids":[],"geometry_role":"linework"},"geometry":{"type":"MultiLineString","coordinates":[[[4.87925,44.129],[4.877027778,44.131222222]],[[4.879861111,44.129305556],[4.8775,44.131666667]],[[4.87925,44.129],[4.879861111,44.129305556]],[[4.876777778,44.131472222],[4.872111111,44.136111111]],[[4.8775,44.131666667],[4.872583333,44.136555556]],[[4.871833333,44.136388889],[4.861944444,44.146222222]],[[4.872583333,44.136555556],[4.862333333,44.14675]],[[4.861666667,44.146527778],[4.859777778,44.148388889]],[[4.862333333,44.14675],[4.86025,44.148833333]],[[4.8595,44.148666667],[4.85725,44.150916667]],[[4.86025,44.148833333],[4.857861111,44.151222222]],[[4.85725,44.150916667],[4.857861111,44.151222222]]]}},{"type":"Feature","id":"LFMO-926ed9bfcb41fb5aba00","properties":{"airport":"LFMO","name":"LFMO Groundlayout","layer":"Guidance lines","category":"Apron Surface","object_type":"Line","style_id":"line.apronsurface.808080","source_group":"LFMO Groundlayout","vsmr_group_ids":[],"geometry_role":"linework"},"geometry":{"type":"MultiLineString","coordinates":[[[4.858444444,44.148166667],[4.857861111,44.147861111],[4.857916667,44.147722222],[4.858416667,44.147277778],[4.858861111,44.147138889],[4.859166667,44.147138889]],[[4.858444444,44.148166667],[4.859166667,44.147138889]],[[4.875638889,44.130416667],[4.8755,44.130361111],[4.874166667,44.130722222],[4.873972222,44.132055556]],[[4.875638889,44.130416667],[4.873972222,44.132055556]],[[4.861444444,44.1375],[4.86075,44.136916667],[4.861972222,44.136722222]],[[4.861444444,44.1375],[4.861972222,44.136722222]],[[4.861194444,44.138],[4.851472222,44.139388889],[4.851055556,44.139194444],[4.850888889,44.138861111],[4.851138889,44.138527778],[4.851611111,44.138277778],[4.855638889,44.13775],[4.855361111,44.137055556],[4.851305556,44.137583333],[4.850805556,44.137333333],[4.849361111,44.137527778],[4.850694444,44.14075],[4.851916667,44.140527778],[4.852111111,44.139805556],[4.855166667,44.139333333],[4.855722222,44.139861111],[4.856388889,44.139138889],[4.861,44.138416667]],[[4.861194444,44.138],[4.861,44.138416667]]]}}]}
