{"type":"FeatureCollection","name":"LFMQ AVISO","bbox":[5.77575,43.247166667,5.794055556,43.258333333],"metadata":{"schema":"vSMR AVISO","schema_version":2,"geometry_mode":"shared","airport":"LFMQ","coordinate_reference_system":"WGS84","coordinate_order":"longitude, latitude","default_color_palette":"dark","color_palettes":["dark","light"],"background_colors":{"dark":"#434A4F","light":"#434A4F"},"runways":[{"ends":["12","30"],"headings":[125,305],"thresholds":[[5.778110833,43.256475],[5.792752778,43.248466944]]}],"saved_active_runways":[],"saved_active_airport_modes":[],"airport_reference":[5.786110833,43.252221944],"feature_count":1,"style_count":1,"layer_counts":{"Guidance lines":1},"category_counts":{"Runways":1},"geometry_source":"local GNG/KMZ","geometry_source_url":"","geometry_license":"GPL-3.0"},"styles":{"line.runwayconcrete.555555":{"name":"Runways","layer":"Guidance lines","object_type":"Line","paint":{"stroke":"#111318","stroke-opacity":1,"stroke-width":1,"palette-overrides":{"light":{"stroke":"#555555"}}},"feature_count":1}},"vsmr_groups":[],"features":[{"type":"Feature","id":"LFMQ-da15b5dbd36ae7093e8b","properties":{"airport":"LFMQ","name":"LFMQ Groundlayout","layer":"Guidance lines","category":"Runways","object_type":"Line","style_id":"line.runwayconcrete.555555","source_group":"LFMQ Groundlayout","vsmr_group_ids":[],"geometry_role":"linework"},"geometry":{"type":"MultiLineString","coordinates":[[[5.77575,43.255666667],[5.791333333,43.247166667]],[[5.778444444,43.258333333],[5.77575,43.255666667]],[[5.794055556,43.249833333],[5.791333333,43.247166667]]]}}]}
