{"type":"FeatureCollection","name":"LFMS AVISO","bbox":[4.145333333,44.073083333,4.1455,44.073694444],"metadata":{"schema":"vSMR AVISO","schema_version":2,"geometry_mode":"shared","airport":"LFMS","coordinate_reference_system":"WGS84","coordinate_order":"longitude, latitude","default_color_palette":"dark","color_palettes":["dark","light"],"background_colors":{"dark":"#434A4F","light":"#434A4F"},"runways":[{"ends":["01","19"],"headings":[11,191],"thresholds":[[4.140475,44.065060833],[4.143888889,44.075771944]]}],"saved_active_runways":[],"saved_active_airport_modes":[],"airport_reference":[4.143055833,44.072777778],"feature_count":3,"style_count":1,"layer_counts":{"Labels":3},"category_counts":{"Gates":3},"geometry_source":"local GNG/KMZ","geometry_source_url":"","geometry_license":"GPL-3.0"},"styles":{"label.gates":{"name":"Gates","layer":"Labels","object_type":"Label","paint":{"text-color":"#CCCCCC","text-font":"Arial","text-size":12,"text-halo-color":"#000000","text-halo-width":1,"text-anchor":"center","zoomLevel":9},"feature_count":3}},"vsmr_groups":[],"features":[{"type":"Feature","id":"LFMS-68d6b041170df2db8566","properties":{"airport":"LFMS","name":"1","layer":"Labels","category":"Gates","object_type":"Label","style_id":"label.gates","source_group":"LFMS Gates","vsmr_group_ids":[],"geometry_role":"text_label","text-field":"1"},"geometry":{"type":"Point","coordinates":[4.1455,44.073694444]}},{"type":"Feature","id":"LFMS-f9396bb330d2bbfd6bf7","properties":{"airport":"LFMS","name":"2","layer":"Labels","category":"Gates","object_type":"Label","style_id":"label.gates","source_group":"LFMS Gates","vsmr_group_ids":[],"geometry_role":"text_label","text-field":"2"},"geometry":{"type":"Point","coordinates":[4.145388889,44.073388889]}},{"type":"Feature","id":"LFMS-d669ab941865177157a7","properties":{"airport":"LFMS","name":"3","layer":"Labels","category":"Gates","object_type":"Label","style_id":"label.gates","source_group":"LFMS Gates","vsmr_group_ids":[],"geometry_role":"text_label","text-field":"3"},"geometry":{"type":"Point","coordinates":[4.145333333,44.073083333]}}]}
