{"type":"FeatureCollection","name":"LFMU AVISO","bbox":[3.350789167,43.319836667,3.357970278,43.322309167],"metadata":{"schema":"vSMR AVISO","schema_version":2,"geometry_mode":"shared","airport":"LFMU","coordinate_reference_system":"WGS84","coordinate_order":"longitude, latitude","default_color_palette":"dark","color_palettes":["dark","light"],"background_colors":{"dark":"#434A4F","light":"#434A4F"},"runways":[{"ends":["09","27"],"headings":[92,272],"thresholds":[[3.342391944,43.324038889],[3.366977778,43.322666944]]}],"saved_active_runways":[],"saved_active_airport_modes":[],"airport_reference":[3.353332778,43.323332778],"feature_count":33,"style_count":12,"layer_counts":{"Labels":33},"category_counts":{"Gates":27,"Taxiways":6},"geometry_source":"local GNG","geometry_source_url":"","geometry_license":"GPL-3.0"},"styles":{"polygon.grassurface.00512f":{"name":"Grass","layer":"Terrain","object_type":"Area","paint":{"fill":"#010D19","fill-opacity":1,"palette-overrides":{"light":{"fill":"#00512F"}}},"feature_count":0},"polygon.hardsurface4.969393":{"name":"Hard Surface 4","layer":"Airfield surfaces","object_type":"Area","paint":{"fill":"#152841","fill-opacity":1,"palette-overrides":{"light":{"fill":"#969393"}}},"feature_count":0},"polygon.hardsurface3.8a807f":{"name":"Hard Surface 3","layer":"Airfield surfaces","object_type":"Area","paint":{"fill":"#222D3C","fill-opacity":1,"palette-overrides":{"light":{"fill":"#8A807F"}}},"feature_count":0},"polygon.runwaygrass.008000":{"name":"Grass runways","layer":"Airfield surfaces","object_type":"Area","paint":{"fill":"#859A77","fill-opacity":1,"palette-overrides":{"light":{"fill":"#008000"}}},"feature_count":0},"polygon.hardsurface2.595e5b":{"name":"Hard Surface 2","layer":"Airfield surfaces","object_type":"Area","paint":{"fill":"#2F3949","fill-opacity":1,"palette-overrides":{"light":{"fill":"#595E5B"}}},"feature_count":0},"polygon.runwayconcrete.555555":{"name":"Runways","layer":"Airfield surfaces","object_type":"Area","paint":{"fill":"#111318","fill-opacity":1,"palette-overrides":{"light":{"fill":"#555555"}}},"feature_count":0},"polygon.building.394446":{"name":"Buildings","layer":"Buildings and structures","object_type":"Area","paint":{"fill":"#475570","fill-opacity":1,"palette-overrides":{"light":{"fill":"#394446"}}},"feature_count":0},"polygon.stopbar.7e0000":{"name":"Stopbars","layer":"Surface markings","object_type":"Area","paint":{"fill":"#7E0000","fill-opacity":1,"palette-overrides":{"light":{"fill":"#7E0000"}}},"feature_count":0},"line.taxiway.c0b631":{"name":"Taxiways","layer":"Guidance lines","object_type":"Line","paint":{"stroke":"#4E5A69","stroke-opacity":1,"stroke-width":1,"palette-overrides":{"light":{"stroke":"#C0B631"}}},"feature_count":0},"line.runwayborder.808080":{"name":"Runway Border","layer":"Guidance lines","object_type":"Line","paint":{"stroke":"#808080","stroke-opacity":1,"stroke-width":1,"palette-overrides":{"light":{"stroke":"#808080"}}},"feature_count":0},"label.gates":{"name":"Gates","layer":"Labels","object_type":"Label","paint":{"text-color":"#CCCCCC","text-font":"Arial","text-size":12,"text-halo-color":"#000000","text-halo-width":1,"text-anchor":"center","zoomLevel":9},"feature_count":27},"label.taxiways":{"name":"Taxiways","layer":"Labels","object_type":"Label","paint":{"text-color":"#CCCCCC","text-font":"Arial","text-size":12,"text-halo-color":"#000000","text-halo-width":1,"text-anchor":"center","zoomLevel":7},"feature_count":6}},"vsmr_groups":[],"features":[{"type":"Feature","id":"LFMU-7bd3632c2bf1c40cc837","properties":{"airport":"LFMU","name":"ACB","layer":"Labels","category":"Gates","object_type":"Label","style_id":"label.gates","source_group":"LFMU Gates","vsmr_group_ids":[],"geometry_role":"text_label","text-field":"ACB"},"geometry":{"type":"Point","coordinates":[3.355191389,43.320332778]}},{"type":"Feature","id":"LFMU-079ef15ce8f50fbbe166","properties":{"airport":"LFMU","name":"Hangars","layer":"Labels","category":"Gates","object_type":"Label","style_id":"label.gates","source_group":"LFMU Gates","vsmr_group_ids":[],"geometry_role":"text_label","text-field":"Hangars"},"geometry":{"type":"Point","coordinates":[3.357357222,43.319836667]}},{"type":"Feature","id":"LFMU-67181f3a602124e98e67","properties":{"airport":"LFMU","name":"TWR","layer":"Labels","category":"Gates","object_type":"Label","style_id":"label.gates","source_group":"LFMU Gates","vsmr_group_ids":[],"geometry_role":"text_label","text-field":"TWR"},"geometry":{"type":"Point","coordinates":[3.352190278,43.320810556]}},{"type":"Feature","id":"LFMU-9c53381aad437996e0fc","properties":{"airport":"LFMU","name":"Terminal","layer":"Labels","category":"Gates","object_type":"Label","style_id":"label.gates","source_group":"LFMU Gates","vsmr_group_ids":[],"geometry_role":"text_label","text-field":"Terminal"},"geometry":{"type":"Point","coordinates":[3.352906944,43.320826111]}},{"type":"Feature","id":"LFMU-c655265ab8547fbb984b","properties":{"airport":"LFMU","name":"Service Piste","layer":"Labels","category":"Gates","object_type":"Label","style_id":"label.gates","source_group":"LFMU Gates","vsmr_group_ids":[],"geometry_role":"text_label","text-field":"Service Piste"},"geometry":{"type":"Point","coordinates":[3.354348056,43.320649722]}},{"type":"Feature","id":"LFMU-fe6a1b7e87ef2d351128","properties":{"airport":"LFMU","name":"SDIS 34","layer":"Labels","category":"Gates","object_type":"Label","style_id":"label.gates","source_group":"LFMU Gates","vsmr_group_ids":[],"geometry_role":"text_label","text-field":"SDIS 34"},"geometry":{"type":"Point","coordinates":[3.351465556,43.320996944]}},{"type":"Feature","id":"LFMU-7083a6c4eced477d6531","properties":{"airport":"LFMU","name":"Reserve Pelicandrome","layer":"Labels","category":"Gates","object_type":"Label","style_id":"label.gates","source_group":"LFMU Gates","vsmr_group_ids":[],"geometry_role":"text_label","text-field":"Reserve Pelicandrome"},"geometry":{"type":"Point","coordinates":[3.350789167,43.321393611]}},{"type":"Feature","id":"LFMU-5f232fad429755363c54","properties":{"airport":"LFMU","name":"AVT","layer":"Labels","category":"Gates","object_type":"Label","style_id":"label.gates","source_group":"LFMU Gates","vsmr_group_ids":[],"geometry_role":"text_label","text-field":"AVT"},"geometry":{"type":"Point","coordinates":[3.356416667,43.319858333]}},{"type":"Feature","id":"LFMU-f2de2262e3f6b73909b1","properties":{"airport":"LFMU","name":"3S","layer":"Labels","category":"Gates","object_type":"Label","style_id":"label.gates","source_group":"LFMU Gates","vsmr_group_ids":[],"geometry_role":"text_label","text-field":"3S"},"geometry":{"type":"Point","coordinates":[3.35166,43.321506667]}},{"type":"Feature","id":"LFMU-4190cc0bfd2df1dbf306","properties":{"airport":"LFMU","name":"4S","layer":"Labels","category":"Gates","object_type":"Label","style_id":"label.gates","source_group":"LFMU Gates","vsmr_group_ids":[],"geometry_role":"text_label","text-field":"4S"},"geometry":{"type":"Point","coordinates":[3.351625278,43.321443611]}},{"type":"Feature","id":"LFMU-c0b78af7c06263cfd1bc","properties":{"airport":"LFMU","name":"2S","layer":"Labels","category":"Gates","object_type":"Label","style_id":"label.gates","source_group":"LFMU Gates","vsmr_group_ids":[],"geometry_role":"text_label","text-field":"2S"},"geometry":{"type":"Point","coordinates":[3.351636667,43.3213075]}},{"type":"Feature","id":"LFMU-81015b6419e9a10db0af","properties":{"airport":"LFMU","name":"1S","layer":"Labels","category":"Gates","object_type":"Label","style_id":"label.gates","source_group":"LFMU Gates","vsmr_group_ids":[],"geometry_role":"text_label","text-field":"1S"},"geometry":{"type":"Point","coordinates":[3.351611111,43.321111944]}},{"type":"Feature","id":"LFMU-ccfab7935dba277c69fe","properties":{"airport":"LFMU","name":"1B","layer":"Labels","category":"Gates","object_type":"Label","style_id":"label.gates","source_group":"LFMU Gates","vsmr_group_ids":[],"geometry_role":"text_label","text-field":"1B"},"geometry":{"type":"Point","coordinates":[3.352337222,43.321565833]}},{"type":"Feature","id":"LFMU-3dd79a2a9692e1d40f18","properties":{"airport":"LFMU","name":"2B","layer":"Labels","category":"Gates","object_type":"Label","style_id":"label.gates","source_group":"LFMU Gates","vsmr_group_ids":[],"geometry_role":"text_label","text-field":"2B"},"geometry":{"type":"Point","coordinates":[3.353048889,43.321541944]}},{"type":"Feature","id":"LFMU-9eeca26e57ca31805d11","properties":{"airport":"LFMU","name":"3B","layer":"Labels","category":"Gates","object_type":"Label","style_id":"label.gates","source_group":"LFMU Gates","vsmr_group_ids":[],"geometry_role":"text_label","text-field":"3B"},"geometry":{"type":"Point","coordinates":[3.353855833,43.321479444]}},{"type":"Feature","id":"LFMU-b1ebb706221e915ede49","properties":{"airport":"LFMU","name":"1AW","layer":"Labels","category":"Gates","object_type":"Label","style_id":"label.gates","source_group":"LFMU Gates","vsmr_group_ids":[],"geometry_role":"text_label","text-field":"1AW"},"geometry":{"type":"Point","coordinates":[3.354624722,43.321202222]}},{"type":"Feature","id":"LFMU-87e4401df34c4aaea7a8","properties":{"airport":"LFMU","name":"1AE","layer":"Labels","category":"Gates","object_type":"Label","style_id":"label.gates","source_group":"LFMU Gates","vsmr_group_ids":[],"geometry_role":"text_label","text-field":"1AE"},"geometry":{"type":"Point","coordinates":[3.354863056,43.321181111]}},{"type":"Feature","id":"LFMU-d6155fed6f7d0ec0e905","properties":{"airport":"LFMU","name":"1CW","layer":"Labels","category":"Gates","object_type":"Label","style_id":"label.gates","source_group":"LFMU Gates","vsmr_group_ids":[],"geometry_role":"text_label","text-field":"1CW"},"geometry":{"type":"Point","coordinates":[3.354608056,43.321118889]}},{"type":"Feature","id":"LFMU-8120edcc1c6dba918f86","properties":{"airport":"LFMU","name":"1CE","layer":"Labels","category":"Gates","object_type":"Label","style_id":"label.gates","source_group":"LFMU Gates","vsmr_group_ids":[],"geometry_role":"text_label","text-field":"1CE"},"geometry":{"type":"Point","coordinates":[3.354784167,43.321230556]}},{"type":"Feature","id":"LFMU-010fb3915a74012cba19","properties":{"airport":"LFMU","name":"3AW","layer":"Labels","category":"Gates","object_type":"Label","style_id":"label.gates","source_group":"LFMU Gates","vsmr_group_ids":[],"geometry_role":"text_label","text-field":"3AW"},"geometry":{"type":"Point","coordinates":[3.355019167,43.321171111]}},{"type":"Feature","id":"LFMU-822136bb831ad2a9b612","properties":{"airport":"LFMU","name":"3AE","layer":"Labels","category":"Gates","object_type":"Label","style_id":"label.gates","source_group":"LFMU Gates","vsmr_group_ids":[],"geometry_role":"text_label","text-field":"3AE"},"geometry":{"type":"Point","coordinates":[3.355229167,43.321158611]}},{"type":"Feature","id":"LFMU-68c62a627a373b4cd139","properties":{"airport":"LFMU","name":"2CW","layer":"Labels","category":"Gates","object_type":"Label","style_id":"label.gates","source_group":"LFMU Gates","vsmr_group_ids":[],"geometry_role":"text_label","text-field":"2CW"},"geometry":{"type":"Point","coordinates":[3.355001667,43.321115]}},{"type":"Feature","id":"LFMU-be08bb16c5e9e99ef3d1","properties":{"airport":"LFMU","name":"2CE","layer":"Labels","category":"Gates","object_type":"Label","style_id":"label.gates","source_group":"LFMU Gates","vsmr_group_ids":[],"geometry_role":"text_label","text-field":"2CE"},"geometry":{"type":"Point","coordinates":[3.355149444,43.321202222]}},{"type":"Feature","id":"LFMU-fed4efe17565d5f42253","properties":{"airport":"LFMU","name":"2AW","layer":"Labels","category":"Gates","object_type":"Label","style_id":"label.gates","source_group":"LFMU Gates","vsmr_group_ids":[],"geometry_role":"text_label","text-field":"2AW"},"geometry":{"type":"Point","coordinates":[3.354559167,43.321019722]}},{"type":"Feature","id":"LFMU-bfdb74e49bcfe6d16a85","properties":{"airport":"LFMU","name":"2AE","layer":"Labels","category":"Gates","object_type":"Label","style_id":"label.gates","source_group":"LFMU Gates","vsmr_group_ids":[],"geometry_role":"text_label","text-field":"2AE"},"geometry":{"type":"Point","coordinates":[3.354825833,43.321000278]}},{"type":"Feature","id":"LFMU-eefbf9f6fd1dcf9f3b65","properties":{"airport":"LFMU","name":"4AW","layer":"Labels","category":"Gates","object_type":"Label","style_id":"label.gates","source_group":"LFMU Gates","vsmr_group_ids":[],"geometry_role":"text_label","text-field":"4AW"},"geometry":{"type":"Point","coordinates":[3.355000833,43.320983333]}},{"type":"Feature","id":"LFMU-1cbf0fbf6d0e96936d44","properties":{"airport":"LFMU","name":"4AE","layer":"Labels","category":"Gates","object_type":"Label","style_id":"label.gates","source_group":"LFMU Gates","vsmr_group_ids":[],"geometry_role":"text_label","text-field":"4AE"},"geometry":{"type":"Point","coordinates":[3.355186944,43.320980556]}},{"type":"Feature","id":"LFMU-34569b86eb3f5d8d9831","properties":{"airport":"LFMU","name":"P","layer":"Labels","category":"Taxiways","object_type":"Label","style_id":"label.taxiways","source_group":"LFMU Taxiways","vsmr_group_ids":[],"geometry_role":"text_label","text-field":"P"},"geometry":{"type":"Point","coordinates":[3.352026667,43.322309167]}},{"type":"Feature","id":"LFMU-416a68251efe9372a698","properties":{"airport":"LFMU","name":"A","layer":"Labels","category":"Taxiways","object_type":"Label","style_id":"label.taxiways","source_group":"LFMU Taxiways","vsmr_group_ids":[],"geometry_role":"text_label","text-field":"A"},"geometry":{"type":"Point","coordinates":[3.353598611,43.322236389]}},{"type":"Feature","id":"LFMU-9131e8b8481c1903d32a","properties":{"airport":"LFMU","name":"B","layer":"Labels","category":"Taxiways","object_type":"Label","style_id":"label.taxiways","source_group":"LFMU Taxiways","vsmr_group_ids":[],"geometry_role":"text_label","text-field":"B"},"geometry":{"type":"Point","coordinates":[3.357970278,43.321841667]}},{"type":"Feature","id":"LFMU-41703af47344f60aa67a","properties":{"airport":"LFMU","name":"T1","layer":"Labels","category":"Taxiways","object_type":"Label","style_id":"label.taxiways","source_group":"LFMU Taxiways","vsmr_group_ids":[],"geometry_role":"text_label","text-field":"T1"},"geometry":{"type":"Point","coordinates":[3.354025833,43.321888056]}},{"type":"Feature","id":"LFMU-0f1a56307642938898bf","properties":{"airport":"LFMU","name":"T2","layer":"Labels","category":"Taxiways","object_type":"Label","style_id":"label.taxiways","source_group":"LFMU Taxiways","vsmr_group_ids":[],"geometry_role":"text_label","text-field":"T2"},"geometry":{"type":"Point","coordinates":[3.354679722,43.321671944]}},{"type":"Feature","id":"LFMU-b459f054e725934801f1","properties":{"airport":"LFMU","name":"T3","layer":"Labels","category":"Taxiways","object_type":"Label","style_id":"label.taxiways","source_group":"LFMU Taxiways","vsmr_group_ids":[],"geometry_role":"text_label","text-field":"T3"},"geometry":{"type":"Point","coordinates":[3.356295,43.321412222]}}]}
