{"type":"FeatureCollection","name":"LFMV AVISO","bbox":[4.893954502803577,43.8966364505213,4.908184010605872,43.9167355933097],"metadata":{"schema":"vSMR AVISO","schema_version":2,"geometry_mode":"shared","airport":"LFMV","coordinate_reference_system":"WGS84","coordinate_order":"longitude, latitude","default_color_palette":"dark","color_palettes":["dark","light"],"background_colors":{"dark":"#434A4F","light":"#434A4F"},"runways":[{"ends":["17R","35L"],"headings":[167,347],"thresholds":[[4.899432778,43.912905833],[4.901105833,43.906725]]},{"ends":["17","35"],"headings":[167,347],"thresholds":[[4.900071944,43.913832778],[4.903335833,43.901738889]]}],"saved_active_runways":[],"saved_active_airport_modes":[],"airport_reference":[4.901943889,43.906666944],"feature_count":118,"style_count":14,"layer_counts":{"Airfield surfaces":24,"Buildings and structures":21,"Guidance lines":37,"Labels":23,"Surface markings":7,"Terrain":6},"category_counts":{"Buildings":21,"Gates":13,"Gras Surface 2":5,"Grass":1,"Grass runways":2,"Hard Surface 2":8,"Hard Surface 3":7,"Hard Surface 4":5,"Runways":2,"Stopbars":7,"Taxiways":47},"geometry_source":"local GNG/KMZ","geometry_source_url":"","geometry_license":"GPL-3.0"},"styles":{"line.taxiway.c0b631":{"name":"Taxiways","layer":"Guidance lines","object_type":"Line","paint":{"stroke":"#4E5A69","stroke-opacity":1,"stroke-width":1,"palette-overrides":{"light":{"stroke":"#C0B631"}}},"feature_count":37},"line.runwayconcrete.555555":{"name":"Runways","layer":"Guidance lines","object_type":"Line","paint":{"stroke":"#111318","stroke-opacity":1,"stroke-width":1,"palette-overrides":{"light":{"stroke":"#555555"}}},"feature_count":0},"line.apronsurface.808080":{"name":"Apron Surface","layer":"Guidance lines","object_type":"Line","paint":{"stroke":"#808080","stroke-opacity":1,"stroke-width":1,"palette-overrides":{"light":{"stroke":"#808080"}}},"feature_count":0},"label.gates":{"name":"Gates","layer":"Labels","object_type":"Label","paint":{"text-color":"#CCCCCC","text-font":"Arial","text-size":12,"text-halo-color":"#000000","text-halo-width":1,"text-anchor":"center","zoomLevel":9},"feature_count":13},"label.taxiways":{"name":"Taxiways","layer":"Labels","object_type":"Label","paint":{"text-color":"#CCCCCC","text-font":"Arial","text-size":12,"text-halo-color":"#000000","text-halo-width":1,"text-anchor":"center","zoomLevel":7},"feature_count":10},"polygon.grassurface.00512f":{"name":"Grass","layer":"Terrain","object_type":"Area","paint":{"fill":"#010D19","fill-opacity":1,"palette-overrides":{"light":{"fill":"#00512F"}}},"feature_count":1},"polygon.hardsurface2.595e5b":{"name":"Hard Surface 2","layer":"Airfield surfaces","object_type":"Area","paint":{"fill":"#2F3949","fill-opacity":1,"palette-overrides":{"light":{"fill":"#595E5B"}}},"feature_count":8},"polygon.hardsurface3.8a807f":{"name":"Hard Surface 3","layer":"Airfield surfaces","object_type":"Area","paint":{"fill":"#222D3C","fill-opacity":1,"palette-overrides":{"light":{"fill":"#8A807F"}}},"feature_count":7},"polygon.hardsurface4.969393":{"name":"Hard Surface 4","layer":"Airfield surfaces","object_type":"Area","paint":{"fill":"#152841","fill-opacity":1,"palette-overrides":{"light":{"fill":"#969393"}}},"feature_count":5},"polygon.building.394446":{"name":"Buildings","layer":"Buildings and structures","object_type":"Area","paint":{"fill":"#475570","fill-opacity":1,"palette-overrides":{"light":{"fill":"#394446"}}},"feature_count":21},"polygon.grassurface2.339933":{"name":"Gras Surface 2","layer":"Terrain","object_type":"Area","paint":{"fill":"#339933","fill-opacity":1,"palette-overrides":{"light":{"fill":"#339933"}}},"feature_count":5},"polygon.runwaygrass.008000":{"name":"Grass runways","layer":"Airfield surfaces","object_type":"Area","paint":{"fill":"#859A77","fill-opacity":1,"palette-overrides":{"light":{"fill":"#008000"}}},"feature_count":2},"polygon.runwayconcrete.555555":{"name":"Runways","layer":"Airfield surfaces","object_type":"Area","paint":{"fill":"#111318","fill-opacity":1,"palette-overrides":{"light":{"fill":"#555555"}}},"feature_count":2},"polygon.stopbar.7e0000":{"name":"Stopbars","layer":"Surface markings","object_type":"Area","paint":{"fill":"#7E0000","fill-opacity":1,"palette-overrides":{"light":{"fill":"#7E0000"}}},"feature_count":7}},"vsmr_groups":[],"features":[{"type":"Feature","id":"LFMV-800f930d29f755598876","properties":{"airport":"LFMV","name":"COLOR_GrasSurface","layer":"Terrain","category":"Grass","object_type":"Area","style_id":"polygon.grassurface.00512f","source_group":"COLOR_GrasSurface","vsmr_group_ids":[],"geometry_role":"filled_region"},"geometry":{"type":"Polygon","coordinates":[[[4.896969445356132,43.91600758953272],[4.897279885675243,43.91466854499764],[4.897173706803668,43.91465585130128],[4.896209728018832,43.91466837729212],[4.895397559790842,43.91470419721504],[4.894845247789188,43.91474335867643],[4.893954502803577,43.9148324269422],[4.896013752450738,43.90711422410811],[4.895975619367528,43.90699900024711],[4.895924850922519,43.90690358531573],[4.895805663308401,43.90679389304943],[4.896378152637864,43.90683875126617],[4.897043435019109,43.90446733323616],[4.897864654188176,43.90400102890104],[4.897495413222932,43.90297669471688],[4.897753383192677,43.90229268517268],[4.898809822795855,43.90162832691114],[4.899253081686867,43.90139055957953],[4.89959430664034,43.9012203261632],[4.899883392265458,43.90102039787944],[4.900178778829187,43.9007727072976],[4.900426999652742,43.90060783062167],[4.900748319955928,43.90052243336117],[4.901344245109311,43.90039901157607],[4.901511660735114,43.89958852084584],[4.901426634092947,43.89949295017782],[4.902433191916657,43.8972002697711],[4.904314666755045,43.89665151347794],[4.904541756935865,43.8966364505213],[4.904695411881832,43.89664496072042],[4.904905000839181,43.89670336973909],[4.906054204099415,43.89748669214951],[4.905583796275361,43.89995286239577],[4.905512027527537,43.90006499694991],[4.905432276001854,43.90010772253059],[4.90486702411046,43.90013680844761],[4.904851644758487,43.90021675577466],[4.90532317231279,43.90019979522773],[4.905524150344807,43.90018471959942],[4.905659887358976,43.90020189721558],[4.905720237422582,43.90028509670677],[4.906414014122631,43.90237256675136],[4.906838873196254,43.903510851102],[4.906934400665309,43.90378293613264],[4.907002382228667,43.90396585316176],[4.907030199400833,43.90410244406066],[4.907353639871179,43.90477461493676],[4.907591598589029,43.90584226109234],[4.907821996496223,43.90847484863587],[4.907803117498877,43.90868790002938],[4.907736841818453,43.90890797194863],[4.907716079726308,43.9090922141864],[4.90771109533113,43.90925881386659],[4.908184010605872,43.9122316217424],[4.906745835261976,43.9127201736932],[4.906304041856697,43.91291394296099],[4.905939652808842,43.91303497533858],[4.905240907078525,43.91319576545977],[4.904961220790716,43.91323265921727],[4.904820404780783,43.91329825310397],[4.904666418019101,43.91335477324967],[4.904402228209912,43.91341808394344],[4.904166757334513,43.91345818614534],[4.903957098321343,43.91349238775557],[4.903775468703017,43.91353762785091],[4.902142490539648,43.91374544761125],[4.902166525230605,43.91379842196842],[4.902208498763234,43.91396074242441],[4.901611171455418,43.91586000567316],[4.901537491607575,43.91602719301238],[4.901471060186191,43.91609985677331],[4.901329789929878,43.91615021869544],[4.89911250226978,43.91658833065419],[4.898969825132536,43.91667806018009],[4.898095919002634,43.9167355933097],[4.897708345989331,43.91673498614023],[4.897470576298115,43.91668242740727],[4.896969445356132,43.91600758953272]]]}},{"type":"Feature","id":"LFMV-ebc0e300dcf03a44ab36","properties":{"airport":"LFMV","name":"COLOR_HardSurface2","layer":"Airfield surfaces","category":"Hard Surface 2","object_type":"Area","style_id":"polygon.hardsurface2.595e5b","source_group":"COLOR_HardSurface2","vsmr_group_ids":[],"geometry_role":"filled_region"},"geometry":{"type":"Polygon","coordinates":[[[4.902814476878861,43.910849600312],[4.902981634201565,43.91066481978933],[4.903019188262805,43.91066815431398],[4.90312612105047,43.910657717966],[4.90345761747492,43.91080337478881],[4.903533568593015,43.91089832463923],[4.903625306714535,43.91093598046716],[4.90359185673293,43.9109802795374],[4.90551732992304,43.91184018408778],[4.905553091750939,43.91184725183],[4.90558365576126,43.91184988940726],[4.905627083477784,43.91184809210058],[4.905692857308805,43.91183228668405],[4.905735435619862,43.91180628150814],[4.905495650030858,43.9121249723267],[4.905513920313085,43.91206163074135],[4.90550895954263,43.91202431622816],[4.905495028883744,43.91199126687012],[4.90548353234932,43.9119690972924],[4.905476051815327,43.91196037990537],[4.903515367097344,43.91109123499503],[4.903253733419661,43.91109280146935],[4.903223185253085,43.91109478475808],[4.902869631096514,43.91093733056839],[4.902814476878861,43.910849600312]]]}},{"type":"Feature","id":"LFMV-e70433bef472a2c94d4c","properties":{"airport":"LFMV","name":"COLOR_HardSurface2","layer":"Airfield surfaces","category":"Hard Surface 2","object_type":"Area","style_id":"polygon.hardsurface2.595e5b","source_group":"COLOR_HardSurface2","vsmr_group_ids":[],"geometry_role":"filled_region"},"geometry":{"type":"Polygon","coordinates":[[[4.90148244881545,43.90368158968847],[4.901458576877205,43.90378368237501],[4.900448503741952,43.90364227264031],[4.900393360808073,43.90364281027473],[4.900364114553215,43.90365015043447],[4.90033729792102,43.90365861159717],[4.900308675444711,43.90367683320242],[4.900289673823495,43.90369089008222],[4.900257815630971,43.90372105125231],[4.900335680082737,43.9034271572288],[4.90034240238651,43.90345871485793],[4.90034689030119,43.90347971142324],[4.900352983079673,43.90349592473973],[4.90036654447392,43.9035138478525],[4.900388605214614,43.9035302868357],[4.900582417390861,43.90355690051649],[4.900614445888976,43.90353760018583],[4.900636186794031,43.90351451759358],[4.900669939737432,43.90347630896519],[4.900680309254977,43.90345570322293],[4.900814864868908,43.90298334835877],[4.900802462061167,43.90295858019717],[4.900790960861015,43.90294618605554],[4.900769648903816,43.90292768150317],[4.900754897565305,43.90292561572117],[4.900566428021593,43.90289101698641],[4.900535672962853,43.90289415714228],[4.900507700088516,43.90290311727507],[4.900480884058879,43.90292250202422],[4.900466162335679,43.90294423823219],[4.900456598550996,43.90298673725403],[4.90020515136822,43.90295980490291],[4.900233487515228,43.90287276553413],[4.900233450455913,43.90285657106384],[4.900213842599614,43.90284497501536],[4.900189464090124,43.90284137968962],[4.898013916293211,43.90252764623669],[4.897965271441964,43.90252649738032],[4.897917368821654,43.90253623523749],[4.897891089884947,43.90256513469397],[4.897867052979441,43.90259673805286],[4.897837964049057,43.90267026645246],[4.897830811219988,43.90270767624015],[4.897837884346332,43.90273060172395],[4.897850801599519,43.902760986223],[4.897849179731459,43.90277736915011],[4.897756510337041,43.90276874555499],[4.897856936548428,43.90241339207593],[4.900760725016546,43.90281750659902],[4.900807031302352,43.90281420631205],[4.90083761053384,43.90279987859962],[4.900862962471209,43.90277554112603],[4.900888208566123,43.90270702803143],[4.901023833806562,43.90224757395124],[4.901023540944347,43.90223117710801],[4.901012703497807,43.90221808723864],[4.900991450473726,43.90220994411739],[4.900398390939024,43.90211869633043],[4.900428698893171,43.90200370451117],[4.90043182618018,43.90202049399453],[4.900447181803294,43.90202870468369],[4.901191266534084,43.90213524209453],[4.900807276749415,43.90349798428438],[4.900809521855916,43.90354184075458],[4.900821897946828,43.90356034854682],[4.900830510195862,43.90357745304685],[4.900843172026605,43.90359484710383],[4.90148244881545,43.90368158968847]]]}},{"type":"Feature","id":"LFMV-4fd9610d453fdcb6b94b","properties":{"airport":"LFMV","name":"COLOR_HardSurface2","layer":"Airfield surfaces","category":"Hard Surface 2","object_type":"Area","style_id":"polygon.hardsurface2.595e5b","source_group":"COLOR_HardSurface2","vsmr_group_ids":[],"geometry_role":"filled_region"},"geometry":{"type":"Polygon","coordinates":[[[4.900252539750259,43.90640328308251],[4.900203865793474,43.90639650206178],[4.90017415991026,43.90639907708893],[4.900153083555018,43.90640858821263],[4.90013303811625,43.90642243912112],[4.900109309686888,43.90644392802096],[4.900077700568666,43.90647803227573],[4.900047976480815,43.90651584530337],[4.900009781707451,43.90657067181142],[4.89903149203458,43.91016352711512],[4.898844373336084,43.91014574824038],[4.898850721877857,43.9100650329189],[4.898831160189008,43.91001483271616],[4.898815662701754,43.9099767563403],[4.898783193456042,43.90993943103505],[4.898736706315145,43.90989077833305],[4.898684645678603,43.90986639907646],[4.898605677452206,43.90984545573204],[4.89851671481373,43.9098249285836],[4.898458763622804,43.90981517849895],[4.898401014554916,43.90981018026639],[4.89834681501576,43.9098098037148],[4.898286393642155,43.90983103091801],[4.898225873462907,43.90985229364234],[4.898195876247176,43.90987723177774],[4.898149655365533,43.90994594255336],[4.89826208211952,43.90952693849678],[4.898273249282434,43.90957292262317],[4.898287639723213,43.90961197995643],[4.898315209727593,43.90963899033213],[4.89835260100123,43.90966546408032],[4.898399929870035,43.90968454913957],[4.898471752089765,43.90970568293424],[4.898552965092609,43.90972124446242],[4.898658594425608,43.90972967192368],[4.898752745289434,43.90971915174684],[4.898836444203274,43.9096954272251],[4.898908544447769,43.90965520366673],[4.898950212924058,43.90961622276638],[4.898997530077054,43.90956086430853],[4.899013690911385,43.90949082996463],[4.899806509920528,43.90656866804035],[4.899805977902059,43.90653194307171],[4.89979921497488,43.9064958082649],[4.899783684477192,43.90647321984536],[4.899764719236215,43.90643189816344],[4.899724647063395,43.90638783259934],[4.899700310474071,43.90635396879863],[4.899663787388395,43.90633697591431],[4.898385713814521,43.90613937028537],[4.898423026517689,43.90601186380973],[4.898865670024137,43.90607448491784],[4.899162565946984,43.90498960039977],[4.899490474972956,43.90503840649399],[4.899209696612834,43.90609492006514],[4.899782357789453,43.9061939381282],[4.899883819349746,43.90620565657629],[4.900115287007647,43.90624111227128],[4.900288854532859,43.90626896677253],[4.900252539750259,43.90640328308251]]]}},{"type":"Feature","id":"LFMV-1f89e61e1ef78c0c5a46","properties":{"airport":"LFMV","name":"COLOR_HardSurface3","layer":"Airfield surfaces","category":"Hard Surface 3","object_type":"Area","style_id":"polygon.hardsurface3.8a807f","source_group":"COLOR_HardSurface3","vsmr_group_ids":[],"geometry_role":"filled_region"},"geometry":{"type":"Polygon","coordinates":[[[4.905987382247003,43.91147615336865],[4.906071629924118,43.91149792524173],[4.906136728716255,43.91149642290812],[4.906189583141892,43.91148585224311],[4.906242099188622,43.91145879839941],[4.906534606073296,43.91108325035272],[4.906548444441587,43.91103946746384],[4.906541948772485,43.91100846729377],[4.906528156963191,43.91098230747401],[4.906502175127468,43.91095485148653],[4.906423991336865,43.91091200410543],[4.907057053542243,43.91007746866447],[4.907396735188834,43.91017190049237],[4.905654626704903,43.91251981616166],[4.905304620319648,43.91237588601332],[4.905987382247003,43.91147615336865]]]}},{"type":"Feature","id":"LFMV-f49e6cd1514eae51177b","properties":{"airport":"LFMV","name":"COLOR_HardSurface3","layer":"Airfield surfaces","category":"Hard Surface 3","object_type":"Area","style_id":"polygon.hardsurface3.8a807f","source_group":"COLOR_HardSurface3","vsmr_group_ids":[],"geometry_role":"filled_region"},"geometry":{"type":"Polygon","coordinates":[[[4.898128189884041,43.90878563593392],[4.898453478385076,43.90882466816275],[4.898052472814307,43.91029476870704],[4.897738831199168,43.91025526283453],[4.898128189884041,43.90878563593392]]]}},{"type":"Feature","id":"LFMV-34bbe0e3b4a72c6d2483","properties":{"airport":"LFMV","name":"COLOR_HardSurface3","layer":"Airfield surfaces","category":"Hard Surface 3","object_type":"Area","style_id":"polygon.hardsurface3.8a807f","source_group":"COLOR_HardSurface3","vsmr_group_ids":[],"geometry_role":"filled_region"},"geometry":{"type":"Polygon","coordinates":[[[4.899726779679359,43.90638660986038],[4.89967207016414,43.90637884220626],[4.899641194457649,43.90638310678547],[4.899587831910768,43.90640250805175],[4.899541990154836,43.90643742045082],[4.89950335260076,43.906469149195],[4.899451787922193,43.90653485679972],[4.899360651294849,43.90692568947075],[4.898054778477647,43.90673993297629],[4.897874595468094,43.90671894908826],[4.897887200304309,43.90669120155579],[4.896605313469888,43.9065385800394],[4.896739144485018,43.90607616829082],[4.897093264040377,43.90610386685064],[4.897130344897642,43.90599424198084],[4.897158650260536,43.90585875413714],[4.898212747378087,43.90600533226692],[4.898250487535307,43.90599346403696],[4.898277173021189,43.90597011947377],[4.898304687730839,43.90587521456684],[4.898366039443269,43.90588082082473],[4.898379501144343,43.90582168147016],[4.898434803374359,43.90582648190947],[4.898629430144479,43.90512053888764],[4.898940913149947,43.90516340557063],[4.898967938060457,43.90516192305918],[4.898991182798971,43.90515298870748],[4.899004820582613,43.9051338992543],[4.899039241082903,43.90498313159341],[4.899008150598756,43.90497901576841],[4.899021042811094,43.90494597102047],[4.899009022837577,43.90492398226146],[4.899049315755759,43.90476625222194],[4.899061509045497,43.9047436632843],[4.899112102643148,43.90471118651488],[4.899274966355884,43.90408922747401],[4.899271516102262,43.90406847479855],[4.899251158245042,43.90406046634831],[4.89922690494881,43.90405254499543],[4.899171468588028,43.90404228120382],[4.899187263012417,43.90399253424249],[4.899249754221064,43.90400364558916],[4.899271566248389,43.90400158305269],[4.899302837639825,43.90398787218913],[4.899316320055509,43.90395942604646],[4.899578807985721,43.90303528796198],[4.89971068189853,43.90305135002539],[4.899746073002418,43.90291622045566],[4.900031934115699,43.9029584095178],[4.900109099367686,43.90296315624288],[4.900207881449761,43.90295674832638],[4.900453828627105,43.90298524558418],[4.89989903571953,43.90506500196774],[4.899825089947145,43.90512844768923],[4.899596703260203,43.90594238213794],[4.899612601586119,43.90602320751228],[4.89965245154623,43.90607669644661],[4.899725140035398,43.9061349688023],[4.899787938007401,43.90615436371447],[4.899726779679359,43.90638660986038]]]}},{"type":"Feature","id":"LFMV-bbdb562aaa3924efb41a","properties":{"airport":"LFMV","name":"COLOR_HardSurface3","layer":"Airfield surfaces","category":"Hard Surface 3","object_type":"Area","style_id":"polygon.hardsurface3.8a807f","source_group":"COLOR_HardSurface3","vsmr_group_ids":[],"geometry_role":"filled_region"},"geometry":{"type":"Polygon","coordinates":[[[4.89918626501801,43.90269638931948],[4.899166228401263,43.90270914655345],[4.899135606419693,43.90272753675418],[4.899071139338959,43.9029467184462],[4.89790585587238,43.902788292414],[4.897943747291043,43.90265405214357],[4.897923098925485,43.90264149674049],[4.897893859247146,43.90263925638637],[4.897861966004959,43.9026495758937],[4.897837120874766,43.90266588536507],[4.897869733678384,43.90259051088199],[4.898302862413861,43.90264798200868],[4.898315483157631,43.90263401742766],[4.898307983815783,43.9026169782881],[4.898277254341698,43.90256797167066],[4.898559339357764,43.90260718874034],[4.898521941382388,43.90262773795951],[4.898495871692141,43.90265218210254],[4.898481888061887,43.90266933656633],[4.898943975703098,43.90273638079246],[4.898964179475154,43.90270817447473],[4.898959680188191,43.90268158084425],[4.89894199050747,43.9026615786446],[4.89918626501801,43.90269638931948]]]}},{"type":"Feature","id":"LFMV-ad70192b436a2262e145","properties":{"airport":"LFMV","name":"COLOR_HardSurface3","layer":"Airfield surfaces","category":"Hard Surface 3","object_type":"Area","style_id":"polygon.hardsurface3.8a807f","source_group":"COLOR_HardSurface3","vsmr_group_ids":[],"geometry_role":"filled_region"},"geometry":{"type":"Polygon","coordinates":[[[4.899818323305358,43.90268541706025],[4.899886145065507,43.90266178985764],[4.899907278609581,43.90262730810306],[4.899807285609061,43.90261017242276],[4.900229966490476,43.90103849121921],[4.900459561047064,43.90109618020549],[4.900437591995925,43.90119401236728],[4.900440329311719,43.90121137253445],[4.900451359537392,43.90122652431277],[4.900634455933098,43.90125828852526],[4.90039845937642,43.90211992737468],[4.900223886218051,43.9020984056442],[4.900209938781726,43.9020984077771],[4.900199761846132,43.90210059990884],[4.900187940234022,43.90211268467681],[4.90018252145072,43.90212753883892],[4.900037398878981,43.90265793863848],[4.900041842025331,43.90266755326378],[4.900053119434857,43.90268131398369],[4.9000948447258,43.90272471973653],[4.899818323305358,43.90268541706025]]]}},{"type":"Feature","id":"LFMV-3907515a73e493268d9c","properties":{"airport":"LFMV","name":"COLOR_HardSurface4","layer":"Airfield surfaces","category":"Hard Surface 4","object_type":"Area","style_id":"polygon.hardsurface4.969393","source_group":"COLOR_HardSurface4","vsmr_group_ids":[],"geometry_role":"filled_region"},"geometry":{"type":"Polygon","coordinates":[[[4.900809462782389,43.91006330642554],[4.90079400916918,43.9100497927819],[4.90076876279399,43.91004051146017],[4.900536116690708,43.91000128827117],[4.900561612142578,43.90990879365994],[4.900815053252017,43.90993545216993],[4.900829678284182,43.90993234582061],[4.900849256780027,43.90992626412617],[4.900809462782389,43.91006330642554]]]}},{"type":"Feature","id":"LFMV-6e690ba275ba384d0e2d","properties":{"airport":"LFMV","name":"COLOR_HardSurface2","layer":"Airfield surfaces","category":"Hard Surface 2","object_type":"Area","style_id":"polygon.hardsurface2.595e5b","source_group":"COLOR_HardSurface2","vsmr_group_ids":[],"geometry_role":"filled_region"},"geometry":{"type":"Polygon","coordinates":[[[4.900919112067941,43.90370790763883],[4.900881524388552,43.90371176141404],[4.900860040848385,43.90372062128667],[4.900834924700403,43.90373824892804],[4.900804470886713,43.9037612159285],[4.900773864076187,43.90378183588392],[4.900742356657213,43.9038144647938],[4.900723540343186,43.90385420069074],[4.900567002798139,43.9038291718777],[4.900570818904351,43.90377392890022],[4.900557341508611,43.90373939197583],[4.900542873092785,43.90371789968612],[4.90051909213808,43.90369393887956],[4.900499820109747,43.90367632922428],[4.900480547481873,43.90366008584574],[4.900452038262328,43.90364146240946],[4.900919112067941,43.90370790763883]]]}},{"type":"Feature","id":"LFMV-022b2cd3b049f544f370","properties":{"airport":"LFMV","name":"COLOR_HardSurface2","layer":"Airfield surfaces","category":"Hard Surface 2","object_type":"Area","style_id":"polygon.hardsurface2.595e5b","source_group":"COLOR_HardSurface2","vsmr_group_ids":[],"geometry_role":"filled_region"},"geometry":{"type":"Polygon","coordinates":[[[4.899788399712214,43.90615431506145],[4.899853934477849,43.90615039718067],[4.899882270588806,43.90612894353321],[4.899915780294577,43.90610148604843],[4.899946953778731,43.90603529055169],[4.89997899824743,43.90592076551949],[4.900163360344978,43.90594570884739],[4.900154970511849,43.90598292725269],[4.900141088723471,43.90603823167352],[4.90012905197929,43.90608571053082],[4.90013925317196,43.90614388300948],[4.90015760303433,43.90616926378071],[4.900185642930794,43.90619903371359],[4.900207778060723,43.90621988479835],[4.900280470219396,43.90623289764118],[4.900267706597957,43.90626620422776],[4.89977470876326,43.90619602434514],[4.899788399712214,43.90615431506145]]]}},{"type":"Feature","id":"LFMV-022b7ba4354b3a6297ed","properties":{"airport":"LFMV","name":"COLOR_HardSurface4","layer":"Airfield surfaces","category":"Hard Surface 4","object_type":"Area","style_id":"polygon.hardsurface4.969393","source_group":"COLOR_HardSurface4","vsmr_group_ids":[],"geometry_role":"filled_region"},"geometry":{"type":"Polygon","coordinates":[[[4.90321554420535,43.90118018583743],[4.903176052977822,43.90115790515647],[4.902558423099741,43.90107220581569],[4.902371520298985,43.90111323527597],[4.902444566357447,43.90085737939664],[4.902587147063988,43.90094290276342],[4.903172078946958,43.90102671691565],[4.903217785004537,43.90102738388784],[4.903220718325203,43.90102640113887],[4.903243382806835,43.90102001729171],[4.903257814184268,43.90101514423765],[4.90321554420535,43.90118018583743]]]}},{"type":"Feature","id":"LFMV-285ed528b94165255d09","properties":{"airport":"LFMV","name":"COLOR_Building","layer":"Buildings and structures","category":"Buildings","object_type":"Area","style_id":"polygon.building.394446","source_group":"COLOR_Building","vsmr_group_ids":[],"geometry_role":"filled_region"},"geometry":{"type":"Polygon","coordinates":[[[4.906328175775181,43.91161594193588],[4.906643027313901,43.91173496142502],[4.905948616943796,43.91263000304605],[4.905647478217741,43.91251093638613],[4.906328175775181,43.91161594193588]]]}},{"type":"Feature","id":"LFMV-7237338db14b47802f55","properties":{"airport":"LFMV","name":"COLOR_Building","layer":"Buildings and structures","category":"Buildings","object_type":"Area","style_id":"polygon.building.394446","source_group":"COLOR_Building","vsmr_group_ids":[],"geometry_role":"filled_region"},"geometry":{"type":"Polygon","coordinates":[[[4.906698115220419,43.91113099200157],[4.90739222036412,43.91021786724563],[4.907549502561626,43.91028556838843],[4.907574018906839,43.91025123908015],[4.907710006175905,43.91030912686693],[4.90768008038464,43.91034353969017],[4.907702104890039,43.91036007706644],[4.907562912290533,43.91054175881492],[4.907483609464767,43.91050946875637],[4.907285279601375,43.91077404647871],[4.907218835324034,43.91074980924039],[4.90687374150903,43.91119447760722],[4.906698115220419,43.91113099200157]]]}},{"type":"Feature","id":"LFMV-928095996b999540d6d3","properties":{"airport":"LFMV","name":"COLOR_Building","layer":"Buildings and structures","category":"Buildings","object_type":"Area","style_id":"polygon.building.394446","source_group":"COLOR_Building","vsmr_group_ids":[],"geometry_role":"filled_region"},"geometry":{"type":"Polygon","coordinates":[[[4.899967686370534,43.90103358336989],[4.900218422561744,43.90103990340393],[4.899799296622329,43.90261062432683],[4.899551210971087,43.90257671107318],[4.899967686370534,43.90103358336989]]]}},{"type":"Feature","id":"LFMV-b1acec8d749507c26550","properties":{"airport":"LFMV","name":"COLOR_Building","layer":"Buildings and structures","category":"Buildings","object_type":"Area","style_id":"polygon.building.394446","source_group":"COLOR_Building","vsmr_group_ids":[],"geometry_role":"filled_region"},"geometry":{"type":"Polygon","coordinates":[[[4.899060843651498,43.90295033207709],[4.899004750873635,43.90315139985331],[4.897838602231063,43.90299477390765],[4.897900979047436,43.90278459992897],[4.899060843651498,43.90295033207709]]]}},{"type":"Feature","id":"LFMV-be668ba799391c2b4030","properties":{"airport":"LFMV","name":"COLOR_Building","layer":"Buildings and structures","category":"Buildings","object_type":"Area","style_id":"polygon.building.394446","source_group":"COLOR_Building","vsmr_group_ids":[],"geometry_role":"filled_region"},"geometry":{"type":"Polygon","coordinates":[[[4.899510487971115,43.90326442079029],[4.899387023856184,43.90366032270685],[4.89898576166391,43.90360599978625],[4.899083121281218,43.90320488584599],[4.899510487971115,43.90326442079029]]]}},{"type":"Feature","id":"LFMV-1497fcc51c07cc5ce272","properties":{"airport":"LFMV","name":"COLOR_Building","layer":"Buildings and structures","category":"Buildings","object_type":"Area","style_id":"polygon.building.394446","source_group":"COLOR_Building","vsmr_group_ids":[],"geometry_role":"filled_region"},"geometry":{"type":"Polygon","coordinates":[[[4.899274501349611,43.90364760537416],[4.899262298985971,43.90370736272632],[4.899294229802322,43.90371277192319],[4.899300199437288,43.90372978074699],[4.899309733856803,43.90374429576676],[4.89930378050671,43.9037615869153],[4.89929177373763,43.90377467137957],[4.899276630777765,43.90378528231371],[4.899237888759091,43.90378554233266],[4.899214484859494,43.90378332018518],[4.899191592626284,43.90379117098941],[4.899183850967191,43.90381412151264],[4.899231649460754,43.90386742971291],[4.899317235810042,43.90388189492181],[4.899294383198778,43.90397585336351],[4.899108488871866,43.90394788643021],[4.899060373372741,43.90385156576762],[4.899089167398964,43.90379452239471],[4.899182787890664,43.90374680770656],[4.899169075461911,43.90371675335373],[4.899161509097016,43.90370644448497],[4.89916895776354,43.90368925557678],[4.899185610736381,43.90368549562207],[4.899216630826498,43.90367692263958],[4.899232321123678,43.90364122349265],[4.899274501349611,43.90364760537416]]]}},{"type":"Feature","id":"LFMV-273bda9fa2fbff9683af","properties":{"airport":"LFMV","name":"COLOR_Building","layer":"Buildings and structures","category":"Buildings","object_type":"Area","style_id":"polygon.building.394446","source_group":"COLOR_Building","vsmr_group_ids":[],"geometry_role":"filled_region"},"geometry":{"type":"Polygon","coordinates":[[[4.899240071384872,43.9042103427454],[4.899172311717795,43.90451071843179],[4.899138342780072,43.90459202608276],[4.899033590103619,43.90457560443867],[4.899008512438794,43.90455822196226],[4.899011246784344,43.90454529337219],[4.89903140169988,43.90452447243963],[4.899047745885685,43.90445417398628],[4.899006560350603,43.9044443524245],[4.899079382484666,43.90419020957069],[4.899240071384872,43.9042103427454]]]}},{"type":"Feature","id":"LFMV-e1968304cfcae44bea45","properties":{"airport":"LFMV","name":"COLOR_Building","layer":"Buildings and structures","category":"Buildings","object_type":"Area","style_id":"polygon.building.394446","source_group":"COLOR_Building","vsmr_group_ids":[],"geometry_role":"filled_region"},"geometry":{"type":"Polygon","coordinates":[[[4.89887027656069,43.90461601579383],[4.898886373859044,43.90456619772515],[4.898989551508928,43.90458351941272],[4.898974283651829,43.90463203714032],[4.89887027656069,43.90461601579383]]]}},{"type":"Feature","id":"LFMV-3c2979fa568a49e2dc56","properties":{"airport":"LFMV","name":"COLOR_Building","layer":"Buildings and structures","category":"Buildings","object_type":"Area","style_id":"polygon.building.394446","source_group":"COLOR_Building","vsmr_group_ids":[],"geometry_role":"filled_region"},"geometry":{"type":"Polygon","coordinates":[[[4.898367437986191,43.90450767541708],[4.898321687823712,43.90466034967431],[4.898246197950559,43.90465638890448],[4.898246358139263,43.90467402180656],[4.898266268505558,43.90468720105968],[4.898229233696059,43.90471734330681],[4.898186804486393,43.90469616690029],[4.898215362072829,43.90466269554732],[4.898127614504377,43.90465102949875],[4.898173568606881,43.9044970341554],[4.898211108310186,43.90448597070625],[4.898367437986191,43.90450767541708]]]}},{"type":"Feature","id":"LFMV-f5f01f899bc4a82f7c20","properties":{"airport":"LFMV","name":"COLOR_Building","layer":"Buildings and structures","category":"Buildings","object_type":"Area","style_id":"polygon.building.394446","source_group":"COLOR_Building","vsmr_group_ids":[],"geometry_role":"filled_region"},"geometry":{"type":"Polygon","coordinates":[[[4.897861932073681,43.90570513573263],[4.897875638047138,43.90565629014542],[4.897827371324619,43.90564842268432],[4.897841083156189,43.90559785468314],[4.897878513412044,43.90560317978922],[4.897952585614675,43.90531894805102],[4.897900004255648,43.90531335384929],[4.897911224154599,43.90526159786671],[4.897972658221132,43.90526612794952],[4.897992648940692,43.90515287308096],[4.897954452200941,43.90514452165166],[4.897981415892161,43.90507226228901],[4.898028079341525,43.90508294026237],[4.898028497646476,43.90505921335355],[4.897954177676898,43.9050470463377],[4.897971851654059,43.90499519427836],[4.898047982503084,43.90499967525007],[4.898108704214383,43.90500738633557],[4.898115552608435,43.90498323946102],[4.898055995345953,43.90497444078454],[4.898097637662508,43.90487226133031],[4.898212150698383,43.90488099144633],[4.898207249082529,43.90491020435127],[4.898240524807404,43.90491529517367],[4.898232700010614,43.90496749399371],[4.89820290970719,43.9049647354942],[4.898199924307843,43.90499708007567],[4.898175090678509,43.90499741230079],[4.898156604500381,43.9051032908944],[4.898258164737781,43.90512240052153],[4.898250915104208,43.90515035175326],[4.898514344661775,43.9051807342771],[4.898488530693152,43.90527447882022],[4.898265324564273,43.90525105668434],[4.898248116966326,43.90533306901196],[4.898398928589156,43.90535011602255],[4.898394211241284,43.9053708101162],[4.898451308875305,43.90537958489167],[4.898403662791186,43.90554554257279],[4.898225907717267,43.90552316362332],[4.898134688702345,43.90550862968573],[4.898140642401058,43.90548533859433],[4.898108385978706,43.9054837756379],[4.898083995333162,43.90559369838266],[4.898049742084005,43.90559313801003],[4.898048471591094,43.90562134175822],[4.898093444487941,43.90562897085972],[4.898077050495797,43.90567503896348],[4.898035997513144,43.90567162562641],[4.898019691394849,43.90572566686055],[4.897861932073681,43.90570513573263]]]}},{"type":"Feature","id":"LFMV-d5460a9ff141dc7c8201","properties":{"airport":"LFMV","name":"COLOR_Building","layer":"Buildings and structures","category":"Buildings","object_type":"Area","style_id":"polygon.building.394446","source_group":"COLOR_Building","vsmr_group_ids":[],"geometry_role":"filled_region"},"geometry":{"type":"Polygon","coordinates":[[[4.89696053222336,43.90658368657846],[4.897879473406109,43.90668918879947],[4.897862713063015,43.90673351613065],[4.897972682260303,43.90674947783865],[4.897909808345409,43.90697351111158],[4.897817234629496,43.90696903132962],[4.897738777187612,43.90732357581527],[4.897557555646999,43.90730545208036],[4.897572582433813,43.90725575278441],[4.89739609728312,43.90722887811742],[4.89747841715332,43.90685765835381],[4.896896590125143,43.9067821897462],[4.89696053222336,43.90658368657846]]]}},{"type":"Feature","id":"LFMV-7f42662caf02d3184b45","properties":{"airport":"LFMV","name":"COLOR_Building","layer":"Buildings and structures","category":"Buildings","object_type":"Area","style_id":"polygon.building.394446","source_group":"COLOR_Building","vsmr_group_ids":[],"geometry_role":"filled_region"},"geometry":{"type":"Polygon","coordinates":[[[4.898124745145987,43.9088035651039],[4.898016295057377,43.90922441207976],[4.897990377002754,43.90930252063288],[4.897905818234047,43.90929090038664],[4.897922938803269,43.9092137745877],[4.897760714834012,43.90919290038998],[4.897862678081538,43.90878072655819],[4.898124745145987,43.9088035651039]]]}},{"type":"Feature","id":"LFMV-3bde27ac8f42ed8eadde","properties":{"airport":"LFMV","name":"COLOR_Building","layer":"Buildings and structures","category":"Buildings","object_type":"Area","style_id":"polygon.building.394446","source_group":"COLOR_Building","vsmr_group_ids":[],"geometry_role":"filled_region"},"geometry":{"type":"Polygon","coordinates":[[[4.897943357081818,43.90948197878055],[4.897761520251165,43.91019796400193],[4.89745574319409,43.91019542095201],[4.897498452696705,43.91000523676232],[4.897258695031903,43.90996333134923],[4.897212921132152,43.91010845741928],[4.896979703386338,43.91007741652992],[4.897056664288069,43.90982031926485],[4.897388393706303,43.90987025956972],[4.897442868375419,43.90968957543853],[4.897330887287277,43.90967364083783],[4.897361585049649,43.90957053110998],[4.897615453047653,43.90960698174312],[4.897662539092695,43.90945295544755],[4.897943357081818,43.90948197878055]]]}},{"type":"Feature","id":"LFMV-6d70d15a3c29adc18c03","properties":{"airport":"LFMV","name":"COLOR_Building","layer":"Buildings and structures","category":"Buildings","object_type":"Area","style_id":"polygon.building.394446","source_group":"COLOR_Building","vsmr_group_ids":[],"geometry_role":"filled_region"},"geometry":{"type":"Polygon","coordinates":[[[4.896105261732671,43.9088400893441],[4.89584089410656,43.90881417542725],[4.895893325143232,43.9086049234315],[4.89615671988579,43.90863545533156],[4.896105261732671,43.9088400893441]]]}},{"type":"Feature","id":"LFMV-47a452c0684d58651172","properties":{"airport":"LFMV","name":"COLOR_Building","layer":"Buildings and structures","category":"Buildings","object_type":"Area","style_id":"polygon.building.394446","source_group":"COLOR_Building","vsmr_group_ids":[],"geometry_role":"filled_region"},"geometry":{"type":"Polygon","coordinates":[[[4.895940101948222,43.9077654638676],[4.896404642338057,43.90782462698764],[4.896364443264907,43.90803499831699],[4.896418878498048,43.90809735110012],[4.896370109856223,43.90813310055487],[4.896264332549669,43.90812282589789],[4.896250844874213,43.90816476657264],[4.89621495304982,43.90816515055643],[4.896195511272472,43.90823432627379],[4.896247963109546,43.90824507780771],[4.896213235118023,43.90840136151694],[4.895848537961389,43.90836164847585],[4.895885637037701,43.90820116131884],[4.895849702779131,43.90819595390094],[4.895867124086069,43.90813450525016],[4.895831342441282,43.90812936371405],[4.895869201660461,43.90801447283543],[4.895940101948222,43.9077654638676]]]}},{"type":"Feature","id":"LFMV-a523ead6d880480137f1","properties":{"airport":"LFMV","name":"COLOR_Building","layer":"Buildings and structures","category":"Buildings","object_type":"Area","style_id":"polygon.building.394446","source_group":"COLOR_Building","vsmr_group_ids":[],"geometry_role":"filled_region"},"geometry":{"type":"Polygon","coordinates":[[[4.896114606047113,43.90742846771271],[4.896443276268093,43.90746796079745],[4.896416179524003,43.90756875788907],[4.896087115469459,43.90752919406773],[4.896114606047113,43.90742846771271]]]}},{"type":"Feature","id":"LFMV-a3d1ef3c8afb43884c13","properties":{"airport":"LFMV","name":"COLOR_Building","layer":"Buildings and structures","category":"Buildings","object_type":"Area","style_id":"polygon.building.394446","source_group":"COLOR_Building","vsmr_group_ids":[],"geometry_role":"filled_region"},"geometry":{"type":"Polygon","coordinates":[[[4.896179575544015,43.90720980173047],[4.896410843880736,43.90723825904022],[4.89639667733528,43.90729458346901],[4.8961700453766,43.90726742763648],[4.896179575544015,43.90720980173047]]]}},{"type":"Feature","id":"LFMV-6e0231ce415bf66ce5f7","properties":{"airport":"LFMV","name":"COLOR_Building","layer":"Buildings and structures","category":"Buildings","object_type":"Area","style_id":"polygon.building.394446","source_group":"COLOR_Building","vsmr_group_ids":[],"geometry_role":"filled_region"},"geometry":{"type":"Polygon","coordinates":[[[4.896229532782062,43.90707446255912],[4.896642265189673,43.90712241728014],[4.896622683681857,43.90720995679495],[4.896205185266438,43.90715625623096],[4.896229532782062,43.90707446255912]]]}},{"type":"Feature","id":"LFMV-9c081e1a33c99d09d872","properties":{"airport":"LFMV","name":"COLOR_Building","layer":"Buildings and structures","category":"Buildings","object_type":"Area","style_id":"polygon.building.394446","source_group":"COLOR_Building","vsmr_group_ids":[],"geometry_role":"filled_region"},"geometry":{"type":"Polygon","coordinates":[[[4.897006542641535,43.90497535438973],[4.897080784125835,43.90498032419763],[4.896914712228142,43.90563141601876],[4.896842277958459,43.90562211878262],[4.897006542641535,43.90497535438973]]]}},{"type":"Feature","id":"LFMV-77453768b4b2c4f7d00a","properties":{"airport":"LFMV","name":"COLOR_Building","layer":"Buildings and structures","category":"Buildings","object_type":"Area","style_id":"polygon.building.394446","source_group":"COLOR_Building","vsmr_group_ids":[],"geometry_role":"filled_region"},"geometry":{"type":"Polygon","coordinates":[[[4.897123716029547,43.90513457253746],[4.897197154949993,43.90514435745378],[4.89718977296437,43.9051975232066],[4.897263154480154,43.9052074566643],[4.897164969394812,43.90560004333273],[4.897090038117349,43.90558647540479],[4.897092524046231,43.90557609042909],[4.896997647531847,43.90556920663059],[4.897123716029547,43.90513457253746]]]}},{"type":"Feature","id":"LFMV-6a09cedf31f10edf684d","properties":{"airport":"LFMV","name":"COLOR_Building","layer":"Buildings and structures","category":"Buildings","object_type":"Area","style_id":"polygon.building.394446","source_group":"COLOR_Building","vsmr_group_ids":[],"geometry_role":"filled_region"},"geometry":{"type":"Polygon","coordinates":[[[4.896605830893852,43.91430835333554],[4.89656086621741,43.91449862838787],[4.896553199970512,43.91451538985417],[4.896535348430766,43.91452388015708],[4.895704307109607,43.91440228534022],[4.895668832732952,43.91438561908981],[4.895662588116347,43.91441294936838],[4.895104984730702,43.91433338825945],[4.895080658544337,43.91431917334401],[4.895076459973806,43.9142928698241],[4.895428086638251,43.91303293789569],[4.896282004104369,43.91315317920083],[4.896252058473253,43.91331469605725],[4.896558869703355,43.91336815923804],[4.896494160922602,43.91361630438445],[4.89592257624845,43.91352971482199],[4.895743824970511,43.91420115563667],[4.896605830893852,43.91430835333554]]]}},{"type":"Feature","id":"LFMV-70aea10b7d4f94351576","properties":{"airport":"LFMV","name":"COLOR_HardSurface3","layer":"Airfield surfaces","category":"Hard Surface 3","object_type":"Area","style_id":"polygon.hardsurface3.8a807f","source_group":"COLOR_HardSurface3","vsmr_group_ids":[],"geometry_role":"filled_region"},"geometry":{"type":"Polygon","coordinates":[[[4.897554161019739,43.91370123157814],[4.897452477411106,43.91403000916228],[4.897542929880901,43.91404289936095],[4.897521845246942,43.91414733218811],[4.897430094493207,43.91413151421811],[4.897335841274558,43.9144812707718],[4.897040901277032,43.91444462301278],[4.897115397814151,43.91416526107533],[4.897077238922225,43.91415714369985],[4.896978833738004,43.91425606716378],[4.89693669935702,43.91438276483038],[4.895726652051005,43.91422530004927],[4.895926510790403,43.91352550688163],[4.896792480149443,43.91367560110159],[4.896749217595923,43.91388286727208],[4.897059007182467,43.91392659245803],[4.897101369296244,43.91381031110807],[4.897148133058207,43.91390899292493],[4.897178354229393,43.91391086640077],[4.897253692037804,43.91365834980116],[4.897554161019739,43.91370123157814]]]}},{"type":"Feature","id":"LFMV-b1620c3f39cbf061afe3","properties":{"airport":"LFMV","name":"COLOR_HardSurface4","layer":"Airfield surfaces","category":"Hard Surface 4","object_type":"Area","style_id":"polygon.hardsurface4.969393","source_group":"COLOR_HardSurface4","vsmr_group_ids":[],"geometry_role":"filled_region"},"geometry":{"type":"Polygon","coordinates":[[[4.899505681873356,43.90766583975171],[4.899507368282587,43.90761807291086],[4.899500090090618,43.90758097717717],[4.899482826943846,43.90754041667953],[4.899450236926941,43.90749837859006],[4.899395812878073,43.90746391904027],[4.89932906072185,43.90743046396747],[4.899256353011898,43.9074094056316],[4.899211045256171,43.90740302911626],[4.899139233613258,43.90737289587303],[4.898851232733474,43.90733142058093],[4.898831833498036,43.9073160554244],[4.898825147203338,43.90730419250228],[4.898835355581241,43.90728340496513],[4.898834430861161,43.90726607487811],[4.898826082211829,43.90725323087719],[4.898830440634292,43.90723851400296],[4.898843289251422,43.90723261268763],[4.89887024623285,43.9072337422247],[4.89919797462977,43.90727622556836],[4.899219735139024,43.90727102508637],[4.89924881441659,43.90726824039049],[4.899313003043623,43.9072730775453],[4.899368021388025,43.90727442337158],[4.899431881235294,43.9072698725615],[4.899484265922263,43.90726043144515],[4.899515520296411,43.90724267598869],[4.899553522162366,43.90722205694112],[4.899593717085835,43.90719215737935],[4.899640365671829,43.90714680884435],[4.899657008884097,43.9071240135607],[4.899505681873356,43.90766583975171]]]}},{"type":"Feature","id":"LFMV-cc55b63c3bea34016f81","properties":{"airport":"LFMV","name":"COLOR_HardSurface4","layer":"Airfield surfaces","category":"Hard Surface 4","object_type":"Area","style_id":"polygon.hardsurface4.969393","source_group":"COLOR_HardSurface4","vsmr_group_ids":[],"geometry_role":"filled_region"},"geometry":{"type":"Polygon","coordinates":[[[4.898423533188874,43.91168907905642],[4.898419687310178,43.91158600296352],[4.898406126725662,43.91155336699732],[4.898377389956378,43.91152040920735],[4.898351028281375,43.91148937109833],[4.8982905228881,43.91146369522346],[4.897941235615155,43.91141750701404],[4.8978509527644,43.91142955641847],[4.897803085368293,43.91144997735731],[4.897769169894104,43.91147419007032],[4.897723599628582,43.91150518220135],[4.897709995158433,43.9115386407816],[4.897698956199646,43.91156132874916],[4.897687871128764,43.91156183789384],[4.897666013740924,43.91155963736739],[4.897663295905388,43.91154738540219],[4.897673494737007,43.91153452755201],[4.897679270527993,43.91150811394376],[4.897695382921752,43.91148893490615],[4.897719250121009,43.9114592265433],[4.897726835111524,43.9114277411252],[4.897740740767052,43.91138046054527],[4.89774403797294,43.91135738115638],[4.897745629014059,43.91133322496269],[4.897745042444665,43.91131507788806],[4.897755877915706,43.91128136998011],[4.897764416255502,43.91125503663417],[4.897778403025363,43.91122204101085],[4.897784661588032,43.91120182842486],[4.897793116178779,43.91117126602396],[4.89779635336256,43.91114623064214],[4.897801527861789,43.91112101867058],[4.897810863256007,43.91110394443392],[4.89782014091277,43.91111506773365],[4.897825367055648,43.91116959958947],[4.897838784019008,43.91121229085794],[4.897866698462805,43.9112456289307],[4.897893522072958,43.91127274932678],[4.897933101378911,43.91129268203083],[4.897962648491467,43.91130636588436],[4.898241311170699,43.9113541333402],[4.898316407329711,43.91135443290653],[4.898390340059149,43.91133889286544],[4.898467163590505,43.91130316313996],[4.898501205601795,43.9112774684235],[4.898517071891957,43.9112524213552],[4.898552480252381,43.91120646904486],[4.898423533188874,43.91168907905642]]]}},{"type":"Feature","id":"LFMV-af2c61c42a2e161cf90e","properties":{"airport":"LFMV","name":"COLOR_HardSurface4","layer":"Airfield surfaces","category":"Hard Surface 4","object_type":"Area","style_id":"polygon.hardsurface4.969393","source_group":"COLOR_HardSurface4","vsmr_group_ids":[],"geometry_role":"filled_region"},"geometry":{"type":"Polygon","coordinates":[[[4.898092453970233,43.91289842370977],[4.898082301119773,43.91285705818318],[4.898071624471307,43.91282050716357],[4.898048126569483,43.91279005809402],[4.898013723435522,43.91276097710234],[4.897969961611617,43.91273560347978],[4.897920612564109,43.91272356747854],[4.897631310874583,43.91267899029526],[4.8975595498021,43.91267991092506],[4.897511050724106,43.91269050959352],[4.89746421042047,43.91270947907685],[4.89742842251649,43.91272947943435],[4.89740212401993,43.91275582781127],[4.897382413946176,43.91278636276302],[4.897365437664416,43.91281845103577],[4.897339505720044,43.91281221109952],[4.897360317684796,43.91277768147653],[4.89737943249531,43.91273281086382],[4.897452395624948,43.91246147479751],[4.897450578766744,43.91242070693787],[4.897453238706673,43.91240440784816],[4.897465451494214,43.91236461856157],[4.897489247693086,43.91236360316828],[4.897480618179482,43.91240991523562],[4.897489983486711,43.91244490515589],[4.89750566041031,43.91248231977389],[4.897529904858279,43.91251455720963],[4.89756355552903,43.91254287742081],[4.897598803362282,43.91256022146319],[4.897636774162367,43.91257186451334],[4.897919434178939,43.91261329237314],[4.897998603603934,43.91261317812125],[4.898049006449652,43.91260165035361],[4.898091614981894,43.91258899230929],[4.898128340760732,43.91256949406501],[4.898158880140797,43.91254778719524],[4.898196859720178,43.91249806688559],[4.898092453970233,43.91289842370977]]]}},{"type":"Feature","id":"LFMV-9b0415804ffc4c75d98b","properties":{"airport":"LFMV","name":"COLOR_HardSurface2","layer":"Airfield surfaces","category":"Hard Surface 2","object_type":"Area","style_id":"polygon.hardsurface2.595e5b","source_group":"COLOR_HardSurface2","vsmr_group_ids":[],"geometry_role":"filled_region"},"geometry":{"type":"Polygon","coordinates":[[[4.899469847347349,43.91350969363681],[4.899308385823577,43.91348793658911],[4.899343565666296,43.91337800811218],[4.899486269298228,43.91339844188509],[4.899469847347349,43.91350969363681]]]}},{"type":"Feature","id":"LFMV-8dfd21325a58ade355b3","properties":{"airport":"LFMV","name":"COLOR_HardSurface2","layer":"Airfield surfaces","category":"Hard Surface 2","object_type":"Area","style_id":"polygon.hardsurface2.595e5b","source_group":"COLOR_HardSurface2","vsmr_group_ids":[],"geometry_role":"filled_region"},"geometry":{"type":"Polygon","coordinates":[[[4.89764897313216,43.91453762973081],[4.897695036047882,43.9143381372617],[4.897698285864718,43.9142921119684],[4.897685163639891,43.91425828094683],[4.897659133625067,43.91422353474469],[4.897636002384584,43.91419605207241],[4.897608800529676,43.91417704141566],[4.897575974740729,43.91416493614146],[4.897522857917389,43.91414763176872],[4.897542161099262,43.91404118643462],[4.897605647868084,43.91404750628084],[4.897644622109198,43.91404022981547],[4.897687604507858,43.91402530856411],[4.897726014108379,43.91400766175186],[4.897761452988389,43.91398521448054],[4.897794574414571,43.91395073395909],[4.897815996407751,43.91390272430706],[4.898083849780832,43.91291505688078],[4.898844873211486,43.9101455047209],[4.899029448605794,43.91016185840271],[4.897843293286888,43.91454040854387],[4.89764897313216,43.91453762973081]]]}},{"type":"Feature","id":"LFMV-4d1f897b8a637803584b","properties":{"airport":"LFMV","name":"COLOR_HardSurface3","layer":"Airfield surfaces","category":"Hard Surface 3","object_type":"Area","style_id":"polygon.hardsurface3.8a807f","source_group":"COLOR_HardSurface3","vsmr_group_ids":[],"geometry_role":"filled_region"},"geometry":{"type":"Polygon","coordinates":[[[4.899145082637424,43.90269050255363],[4.899188557178431,43.90269418392377],[4.900220054102647,43.90284771133587],[4.900237092576198,43.9028607563657],[4.900212586486781,43.90296150632631],[4.899751990273211,43.90291969050862],[4.899709830534611,43.90304973120877],[4.899583406601828,43.90303998731534],[4.899516614391506,43.90326522183072],[4.899073534140477,43.90293511247686],[4.899145082637424,43.90269050255363]]]}},{"type":"Feature","id":"LFMV-19d523a0e40468d6e146","properties":{"airport":"LFMV","name":"COLOR_GrasSurface2","layer":"Terrain","category":"Gras Surface 2","object_type":"Area","style_id":"polygon.grassurface2.339933","source_group":"COLOR_GrasSurface2","vsmr_group_ids":[],"geometry_role":"filled_region"},"geometry":{"type":"Polygon","coordinates":[[[4.900000905217407,43.90659955342704],[4.900117327324902,43.90667118781061],[4.900231289630255,43.90674009840917],[4.900454238193825,43.9067825328667],[4.900422881075044,43.90690476844738],[4.899938043749376,43.90683464193827],[4.900000905217407,43.90659955342704]]]}},{"type":"Feature","id":"LFMV-4a29e15a3ad384a44d22","properties":{"airport":"LFMV","name":"COLOR_GrasSurface2","layer":"Terrain","category":"Gras Surface 2","object_type":"Area","style_id":"polygon.grassurface2.339933","source_group":"COLOR_GrasSurface2","vsmr_group_ids":[],"geometry_role":"filled_region"},"geometry":{"type":"Polygon","coordinates":[[[4.899415089548453,43.9087689724488],[4.900089155483962,43.90934042843556],[4.900034910643482,43.90954142432688],[4.89944649937931,43.90906577382698],[4.899390282646621,43.90906577564205],[4.899327521187271,43.90908335531331],[4.899415089548453,43.9087689724488]]]}},{"type":"Feature","id":"LFMV-ff0abeaf45285373cfb1","properties":{"airport":"LFMV","name":"COLOR_GrasSurface2","layer":"Terrain","category":"Gras Surface 2","object_type":"Area","style_id":"polygon.grassurface2.339933","source_group":"COLOR_GrasSurface2","vsmr_group_ids":[],"geometry_role":"filled_region"},"geometry":{"type":"Polygon","coordinates":[[[4.898234643784476,43.91308694026007],[4.898279706501514,43.91310991889556],[4.898325814333666,43.91313092628035],[4.898385853937056,43.913147121441],[4.898486355456022,43.91318016089981],[4.898633813740865,43.91320692365463],[4.898825471342754,43.91323707821915],[4.898962828657916,43.91320416470203],[4.899084388715476,43.91311828433241],[4.899138851843023,43.91286874747308],[4.899740578820129,43.91295244325119],[4.899316375540346,43.91323135533183],[4.899154026636605,43.91330061939927],[4.898962088694045,43.91335518902839],[4.899343102196035,43.91337986387887],[4.899310316636967,43.91348903538834],[4.898790913654363,43.91344798416136],[4.898413530765565,43.91339118106195],[4.898318971615194,43.91339658190979],[4.898250230932348,43.9134046779364],[4.898187645041039,43.91341285011983],[4.898157744378373,43.91341907593949],[4.898140762453666,43.9134260099978],[4.898143193895955,43.91342440563183],[4.898137941278553,43.91342492405074],[4.898234643784476,43.91308694026007]]]}},{"type":"Feature","id":"LFMV-ce772e31e70d9cd39c9a","properties":{"airport":"LFMV","name":"COLOR_HardSurface2","layer":"Airfield surfaces","category":"Hard Surface 2","object_type":"Area","style_id":"polygon.hardsurface2.595e5b","source_group":"COLOR_HardSurface2","vsmr_group_ids":[],"geometry_role":"filled_region"},"geometry":{"type":"Polygon","coordinates":[[[4.89997899824743,43.90592076551949],[4.900568598846013,43.90382938092728],[4.900722060539506,43.90385472340441],[4.900163297551828,43.90594690546909],[4.89997899824743,43.90592076551949]]]}},{"type":"Feature","id":"LFMV-a819f842d5bcbf3c053c","properties":{"airport":"LFMV","name":"COLOR_GrasSurface2","layer":"Terrain","category":"Gras Surface 2","object_type":"Area","style_id":"polygon.grassurface2.339933","source_group":"COLOR_GrasSurface2","vsmr_group_ids":[],"geometry_role":"filled_region"},"geometry":{"type":"Polygon","coordinates":[[[4.903482913012825,43.91083418586476],[4.903507558259388,43.9108130689478],[4.903550834806573,43.91063997118948],[4.903890743410297,43.90939098769341],[4.904015885915197,43.90941079983561],[4.903672270186885,43.91065826915241],[4.903664883827581,43.9108711643367],[4.903625445844422,43.91093604393868],[4.903529855738791,43.91089590965278],[4.903482913012825,43.91083418586476]]]}},{"type":"Feature","id":"LFMV-5637f5fc78888f7a9951","properties":{"airport":"LFMV","name":"COLOR_GrasSurface2","layer":"Terrain","category":"Gras Surface 2","object_type":"Area","style_id":"polygon.grassurface2.339933","source_group":"COLOR_GrasSurface2","vsmr_group_ids":[],"geometry_role":"filled_region"},"geometry":{"type":"Polygon","coordinates":[[[4.901190789398193,43.90213517568201],[4.901053528535638,43.90211594447307],[4.901616865122016,43.8997824894761],[4.901674679500281,43.89962370530125],[4.901781907292586,43.89947764832149],[4.901894268931699,43.89935909124204],[4.902025102069483,43.89925078316168],[4.902111721174951,43.8991907246012],[4.902234766279577,43.89911086500038],[4.902340241759726,43.89905589232878],[4.90247457250989,43.89899016286306],[4.90251829168455,43.89896565930141],[4.902552284557807,43.89894701177624],[4.90257120833615,43.89893561073492],[4.902669692283208,43.89891148290696],[4.902881866727762,43.8988949537559],[4.903186192809377,43.8989235954477],[4.903499327897416,43.8989619945078],[4.903770145588608,43.89899602365418],[4.903800017612103,43.89900077998054],[4.90376261843215,43.89914251872423],[4.903736024545178,43.89912808594047],[4.903468447764505,43.89909772554309],[4.903124712321675,43.89906565363476],[4.902905962521222,43.89905689491263],[4.902601647167866,43.89908631607974],[4.902197158637296,43.89927430851469],[4.901996224586558,43.89943301127953],[4.901903833061527,43.89952944202631],[4.90181132838273,43.89966542550538],[4.901190789398193,43.90213517568201]]]}},{"type":"Feature","id":"LFMV-1c9ef5f5c86b3595b36e","properties":{"airport":"LFMV","name":"COLOR_RunwayGrass","layer":"Airfield surfaces","category":"Grass runways","object_type":"Area","style_id":"polygon.runwaygrass.008000","source_group":"COLOR_RunwayGrass","vsmr_group_ids":[],"geometry_role":"filled_region"},"geometry":{"type":"Polygon","coordinates":[[[4.904519070923856,43.90659092222105],[4.904896293669497,43.90663395907299],[4.904125269902924,43.90942914798188],[4.903772586511232,43.9093712665614],[4.904519070923856,43.90659092222105]]]}},{"type":"Feature","id":"LFMV-89f7a76dd2c5a5af92dd","properties":{"airport":"LFMV","name":"COLOR_RunwayConcrete","layer":"Airfield surfaces","category":"Runways","object_type":"Area","style_id":"polygon.runwayconcrete.555555","source_group":"COLOR_RunwayConcrete","vsmr_group_ids":[],"geometry_role":"filled_region"},"geometry":{"type":"Polygon","coordinates":[[[4.899357162173176,43.91563654482744],[4.899291076220407,43.91561966176533],[4.899242465827256,43.91559958717887],[4.89918454187714,43.91557596761211],[4.899138656087372,43.91554826469762],[4.899089378194526,43.91550005025213],[4.899056365548629,43.91544984614637],[4.899008195764887,43.91536880111168],[4.898985182411025,43.91530064555526],[4.898983111232895,43.91524267400049],[4.898995099969259,43.91518585050756],[4.899032243188339,43.91510043674018],[4.899085734588788,43.91503942978593],[4.899128291044368,43.91499894247706],[4.899199991391987,43.91495127423064],[4.899280803159504,43.91492428711825],[4.899354127889712,43.91490303920698],[4.899410209995132,43.91488326700746],[4.899460348893784,43.91485825695079],[4.899493861624635,43.91483763140707],[4.899527898579031,43.91480457734668],[4.89980586427653,43.91378929778028],[4.899758891893846,43.91378015121851],[4.899700189443566,43.91376422200488],[4.899656710270164,43.91374642367751],[4.899614281084938,43.91372298228623],[4.899573489730984,43.91369079922016],[4.899557261271927,43.9136772635943],[4.899540378142673,43.91366088731091],[4.89951006725861,43.91362328394312],[4.899494872070762,43.91358760536014],[4.89947977236082,43.91355352429543],[4.899472435540728,43.91351288482548],[4.899472303831365,43.91346737949981],[4.899482236046895,43.91343058703747],[4.899493375416082,43.91339351458971],[4.899507737746567,43.91336582749336],[4.899522797318636,43.91334044288212],[4.899543036170471,43.9133117773114],[4.899560388124504,43.91329267239742],[4.899579393440845,43.91327003062726],[4.899615714217552,43.9132392901883],[4.900015289597754,43.91301144007596],[4.901676849214109,43.90684940739406],[4.901660726434298,43.90678849904425],[4.90164369739432,43.90675197390078],[4.901616635246118,43.9067121070434],[4.901589447561934,43.90668093964511],[4.901560275144112,43.90665164805175],[4.901534225819894,43.90663131752657],[4.901506106614571,43.90661117899015],[4.901471140290534,43.90659359054897],[4.901440539192558,43.90658113669864],[4.901394621845954,43.90656941664505],[4.900258240546034,43.90640386367512],[4.900307691470529,43.90623459120987],[4.901454017479365,43.90640826099212],[4.901536622297051,43.906417715449],[4.901590239224229,43.90641935363769],[4.901639206694428,43.90640589848369],[4.901681990566454,43.90638591257503],[4.901724446405218,43.90636759337104],[4.901758628261264,43.906341347427],[4.901788418555175,43.90631534835487],[4.901837123679529,43.90625688710981],[4.902435240068845,43.9040366870521],[4.902428170586686,43.90399655873033],[4.902416650875101,43.90397152715821],[4.9023969429618,43.90395096004679],[4.902374558993881,43.90393403553028],[4.902353539454952,43.9039203738602],[4.902321867633845,43.9039066771116],[4.902276624143451,43.90389730584046],[4.901462484944634,43.90378326603132],[4.901487184384128,43.90368182156932],[4.902299449541982,43.90379380098644],[4.902336001549743,43.90379687289286],[4.902367574068682,43.90379546277752],[4.902393962877021,43.90379160393801],[4.902429654343923,43.90378096638384],[4.902461243436045,43.90376913164155],[4.902486176933751,43.90375641330845],[4.902518723358746,43.90374202785387],[4.903819324194276,43.89891684396381],[4.90442995900821,43.89900170263823],[4.90447581230285,43.89902018700195],[4.904527310377215,43.89904171511574],[4.904560018355721,43.89906199325501],[4.904586007069083,43.89908230996249],[4.904617500184639,43.89911167939671],[4.904643827771809,43.89913978809405],[4.904664912191119,43.89917227246896],[4.904685973871119,43.89921638214076],[4.90469987163292,43.89926333598105],[4.904710109069419,43.89931416192308],[4.904708730541487,43.89935104304067],[4.904699936241778,43.89940840403426],[4.904684599085993,43.8994500836442],[4.904666293777884,43.89948625019543],[4.904644506328719,43.89952054523239],[4.904620920391736,43.89955135166804],[4.904572882743457,43.89959400655892],[4.904520486838681,43.89963454749634],[4.904451447053752,43.89967078934115],[4.904389052109542,43.89969374351558],[4.904308263182613,43.89971797722232],[4.904206647499705,43.8997519747378],[4.904154419558853,43.89979614903027],[4.901447771257206,43.90980102973418],[4.901444404821276,43.90988778547915],[4.90144887131663,43.90991864606718],[4.901469899676343,43.90997617481877],[4.901490788571357,43.9100098960153],[4.901520413654143,43.91004098379896],[4.901549504330152,43.91006496833007],[4.901582250876427,43.91008924408655],[4.902840431437983,43.91065391000425],[4.902852425489794,43.91064809619363],[4.902861675507086,43.91064917359993],[4.902885006537733,43.91065321583504],[4.902915429051822,43.9106575653492],[4.902978496899706,43.91066530302782],[4.90281232469343,43.91084698202322],[4.902758491583641,43.91075500892113],[4.901520810797882,43.91021629767904],[4.901469157666769,43.91020490215161],[4.901418553331247,43.91020846347595],[4.901371653866815,43.9102186717931],[4.901332395968662,43.91023656272149],[4.899851494543855,43.91570422824942],[4.899357162173176,43.91563654482744]]]}},{"type":"Feature","id":"LFMV-8ef41e4d61d97517ebc7","properties":{"airport":"LFMV","name":"COLOR_RunwayConcrete","layer":"Airfield surfaces","category":"Runways","object_type":"Area","style_id":"polygon.runwayconcrete.555555","source_group":"COLOR_RunwayConcrete","vsmr_group_ids":[],"geometry_role":"filled_region"},"geometry":{"type":"Polygon","coordinates":[[[4.89899575328574,43.91533268329075],[4.898931787644816,43.91528250530003],[4.898876130774963,43.9152436815133],[4.898805401278503,43.91522494893169],[4.898176322621777,43.91513214821249],[4.898118433297523,43.91511301210286],[4.898065978325037,43.91509371090514],[4.898021014844359,43.91507638670316],[4.897982383903452,43.91505133908426],[4.897945903762504,43.91503030382759],[4.897904886024818,43.9150076308656],[4.897860899065403,43.9149755040572],[4.897818476634495,43.91493784796106],[4.897783602282708,43.91490231817631],[4.897752221195559,43.91486346423274],[4.897728475555725,43.91482344737302],[4.897704359130408,43.91478744272843],[4.897680542806215,43.91473796484164],[4.897664142676641,43.91469824811089],[4.897655101184705,43.91463795726438],[4.897651651698269,43.91460024251025],[4.897649111936849,43.91455847208532],[4.897844827452202,43.91456181215687],[4.897846842810862,43.91460845035087],[4.897851045947402,43.9146451682871],[4.897862979387737,43.91468853717018],[4.897877570943761,43.91471702519647],[4.897889296050526,43.91474311576423],[4.897910694387388,43.91477111465071],[4.897935299361866,43.91480673616292],[4.897957211061341,43.91483745525765],[4.89799429170044,43.91486811097748],[4.898026944101863,43.91489515116704],[4.898059993361333,43.914919833841],[4.898115150064417,43.9149446896751],[4.898160731171366,43.91496560706028],[4.898187953713147,43.91497943295753],[4.898237385976869,43.91499499505748],[4.898335342632816,43.91501690871613],[4.898867404055476,43.91507452614524],[4.89891186626603,43.91507283328786],[4.89894770978686,43.91507120633661],[4.89898516162601,43.9150606391399],[4.899023169215106,43.91504563252497],[4.899061081528934,43.91503200485118],[4.899116417572202,43.91500785141704],[4.89899575328574,43.91533268329075]]]}},{"type":"Feature","id":"LFMV-1ebce222c2339ad6a868","properties":{"airport":"LFMV","name":"COLOR_RunwayGrass","layer":"Airfield surfaces","category":"Grass runways","object_type":"Area","style_id":"polygon.runwaygrass.008000","source_group":"COLOR_RunwayGrass","vsmr_group_ids":[],"geometry_role":"filled_region"},"geometry":{"type":"Polygon","coordinates":[[[4.900731984302178,43.9069470481252],[4.900443097493143,43.90690564428012],[4.900474279388529,43.90678611935218],[4.900761621663943,43.90682402853373],[4.900805800869237,43.90667762609491],[4.901410034990274,43.90677524764889],[4.899738522743579,43.91294577380604],[4.899132956395054,43.91286444709597],[4.900731984302178,43.9069470481252]]]}},{"type":"Feature","id":"LFMV-fbed0745339421fcd605","properties":{"airport":"LFMV","name":"COLOR_Stopbar","layer":"Surface markings","category":"Stopbars","object_type":"Area","style_id":"polygon.stopbar.7e0000","source_group":"COLOR_Stopbar","vsmr_group_ids":[],"geometry_role":"filled_region"},"geometry":{"type":"Polygon","coordinates":[[[4.900275719029315,43.90623157709983],[4.90030959587914,43.90623441005374],[4.900262804590316,43.90640546547755],[4.900231679981086,43.9064023178617],[4.900275719029315,43.90623157709983]]]}},{"type":"Feature","id":"LFMV-26ce951b5844a6d57805","properties":{"airport":"LFMV","name":"COLOR_Stopbar","layer":"Surface markings","category":"Stopbars","object_type":"Area","style_id":"polygon.stopbar.7e0000","source_group":"COLOR_Stopbar","vsmr_group_ids":[],"geometry_role":"filled_region"},"geometry":{"type":"Polygon","coordinates":[[[4.901480191801875,43.90368117847652],[4.901494925810807,43.90368291835827],[4.901470142814492,43.90378478014936],[4.90145527791698,43.90378321945007],[4.901480191801875,43.90368117847652]]]}},{"type":"Feature","id":"LFMV-d6545a53e4b0dd58c667","properties":{"airport":"LFMV","name":"COLOR_Stopbar","layer":"Surface markings","category":"Stopbars","object_type":"Area","style_id":"polygon.stopbar.7e0000","source_group":"COLOR_Stopbar","vsmr_group_ids":[],"geometry_role":"filled_region"},"geometry":{"type":"Polygon","coordinates":[[[4.902812736357474,43.91084603921148],[4.902968093338853,43.91066476399406],[4.902981536230473,43.91066441062874],[4.902819559949085,43.91085754759095],[4.902812736357474,43.91084603921148]]]}},{"type":"Feature","id":"LFMV-c4527a1bd4a59dedd071","properties":{"airport":"LFMV","name":"COLOR_Stopbar","layer":"Surface markings","category":"Stopbars","object_type":"Area","style_id":"polygon.stopbar.7e0000","source_group":"COLOR_Stopbar","vsmr_group_ids":[],"geometry_role":"filled_region"},"geometry":{"type":"Polygon","coordinates":[[[4.902741549091312,43.89890437879178],[4.902794757823353,43.89890154458797],[4.902811132206781,43.89906598278339],[4.902758311644297,43.89907139369567],[4.902741549091312,43.89890437879178]]]}},{"type":"Feature","id":"LFMV-191cbc1a02e0865aa0a3","properties":{"airport":"LFMV","name":"COLOR_Stopbar","layer":"Surface markings","category":"Stopbars","object_type":"Area","style_id":"polygon.stopbar.7e0000","source_group":"COLOR_Stopbar","vsmr_group_ids":[],"geometry_role":"filled_region"},"geometry":{"type":"Polygon","coordinates":[[[4.89863502304742,43.91342554480151],[4.898694188965984,43.91321673130881],[4.898758568616914,43.91322590112874],[4.898701039671327,43.91343523628414],[4.89863502304742,43.91342554480151]]]}},{"type":"Feature","id":"LFMV-12bc43fe017d8b97096e","properties":{"airport":"LFMV","name":"COLOR_Stopbar","layer":"Surface markings","category":"Stopbars","object_type":"Area","style_id":"polygon.stopbar.7e0000","source_group":"COLOR_Stopbar","vsmr_group_ids":[],"geometry_role":"filled_region"},"geometry":{"type":"Polygon","coordinates":[[[4.897650280508248,43.914561996896],[4.897649871430875,43.91453630122609],[4.897847735360776,43.91453716397097],[4.897843229555727,43.91456299352983],[4.897650280508248,43.914561996896]]]}},{"type":"Feature","id":"LFMV-cbe4e348d24956ffd39b","properties":{"airport":"LFMV","name":"COLOR_Stopbar","layer":"Surface markings","category":"Stopbars","object_type":"Area","style_id":"polygon.stopbar.7e0000","source_group":"COLOR_Stopbar","vsmr_group_ids":[],"geometry_role":"filled_region"},"geometry":{"type":"Polygon","coordinates":[[[4.900440962420665,43.90677729200844],[4.900471231056043,43.90678302081969],[4.900447380438142,43.9069072027152],[4.900407703277465,43.90690269751472],[4.900440962420665,43.90677729200844]]]}},{"type":"Feature","id":"LFMV-3b22d3fa7127f6ec32c4","properties":{"airport":"LFMV","name":"COLOR_Taxiway","layer":"Guidance lines","category":"Taxiways","object_type":"Line","style_id":"line.taxiway.c0b631","source_group":"COLOR_Taxiway","vsmr_group_ids":[],"geometry_role":"linework"},"geometry":{"type":"LineString","coordinates":[[4.899215714956058,43.90292027971097],[4.899444569176792,43.90309466778189]]}},{"type":"Feature","id":"LFMV-73b2112b0b2baab3141f","properties":{"airport":"LFMV","name":"COLOR_Taxiway","layer":"Guidance lines","category":"Taxiways","object_type":"Line","style_id":"line.taxiway.c0b631","source_group":"COLOR_Taxiway","vsmr_group_ids":[],"geometry_role":"linework"},"geometry":{"type":"LineString","coordinates":[[4.897946138127532,43.90633951043236],[4.8979662217198,43.90626301384203]]}},{"type":"Feature","id":"LFMV-a4677661eb5f0ecf7ed2","properties":{"airport":"LFMV","name":"COLOR_Taxiway","layer":"Guidance lines","category":"Taxiways","object_type":"Line","style_id":"line.taxiway.c0b631","source_group":"COLOR_Taxiway","vsmr_group_ids":[],"geometry_role":"linework"},"geometry":{"type":"LineString","coordinates":[[4.897434526138698,43.90625703256227],[4.897458891178563,43.90617883880956]]}},{"type":"Feature","id":"LFMV-018251eec2a2133e3f90","properties":{"airport":"LFMV","name":"COLOR_Taxiway","layer":"Guidance lines","category":"Taxiways","object_type":"Line","style_id":"line.taxiway.c0b631","source_group":"COLOR_Taxiway","vsmr_group_ids":[],"geometry_role":"linework"},"geometry":{"type":"LineString","coordinates":[[4.897602450711165,43.90628647389502],[4.897627939194809,43.90619900047546]]}},{"type":"Feature","id":"LFMV-8c6364103c082f9875d7","properties":{"airport":"LFMV","name":"COLOR_Taxiway","layer":"Guidance lines","category":"Taxiways","object_type":"Line","style_id":"line.taxiway.c0b631","source_group":"COLOR_Taxiway","vsmr_group_ids":[],"geometry_role":"linework"},"geometry":{"type":"LineString","coordinates":[[4.897775416011387,43.90631245602075],[4.897794626955303,43.90622804280196]]}},{"type":"Feature","id":"LFMV-388c723b4be13c72040f","properties":{"airport":"LFMV","name":"COLOR_Taxiway","layer":"Guidance lines","category":"Taxiways","object_type":"Line","style_id":"line.taxiway.c0b631","source_group":"COLOR_Taxiway","vsmr_group_ids":[],"geometry_role":"linework"},"geometry":{"type":"LineString","coordinates":[[4.898627310966186,43.90591495115606],[4.898782373522002,43.90535744574012]]}},{"type":"Feature","id":"LFMV-67688789dc93194edca0","properties":{"airport":"LFMV","name":"COLOR_Taxiway","layer":"Guidance lines","category":"Taxiways","object_type":"Line","style_id":"line.taxiway.c0b631","source_group":"COLOR_Taxiway","vsmr_group_ids":[],"geometry_role":"linework"},"geometry":{"type":"LineString","coordinates":[[4.898543005924938,43.90567807647896],[4.898841564934353,43.9057199677727]]}},{"type":"Feature","id":"LFMV-0c0ed5f2b7e800580bef","properties":{"airport":"LFMV","name":"COLOR_Taxiway","layer":"Guidance lines","category":"Taxiways","object_type":"Line","style_id":"line.taxiway.c0b631","source_group":"COLOR_Taxiway","vsmr_group_ids":[],"geometry_role":"linework"},"geometry":{"type":"LineString","coordinates":[[4.898625594161028,43.90540061768856],[4.898915548761797,43.90544182937689]]}},{"type":"Feature","id":"LFMV-24ffc384c627f450457b","properties":{"airport":"LFMV","name":"COLOR_Taxiway","layer":"Guidance lines","category":"Taxiways","object_type":"Line","style_id":"line.taxiway.c0b631","source_group":"COLOR_Taxiway","vsmr_group_ids":[],"geometry_role":"linework"},"geometry":{"type":"LineString","coordinates":[[4.898665673339844,43.90523576135731],[4.898963551104718,43.90527849377944]]}},{"type":"Feature","id":"LFMV-468a124eeda7a96a436c","properties":{"airport":"LFMV","name":"COLOR_Taxiway","layer":"Guidance lines","category":"Taxiways","object_type":"Line","style_id":"line.taxiway.c0b631","source_group":"COLOR_Taxiway","vsmr_group_ids":[],"geometry_role":"linework"},"geometry":{"type":"LineString","coordinates":[[4.899449597356844,43.90596652467062],[4.899676960500017,43.90512755638613]]}},{"type":"Feature","id":"LFMV-0ebe12ae07f67a411d53","properties":{"airport":"LFMV","name":"COLOR_Taxiway","layer":"Guidance lines","category":"Taxiways","object_type":"Line","style_id":"line.taxiway.c0b631","source_group":"COLOR_Taxiway","vsmr_group_ids":[],"geometry_role":"linework"},"geometry":{"type":"LineString","coordinates":[[4.899407407960547,43.90596084222658],[4.899487345656651,43.90597160912123]]}},{"type":"Feature","id":"LFMV-8f095b495d93c4ad229f","properties":{"airport":"LFMV","name":"COLOR_Taxiway","layer":"Guidance lines","category":"Taxiways","object_type":"Line","style_id":"line.taxiway.c0b631","source_group":"COLOR_Taxiway","vsmr_group_ids":[],"geometry_role":"linework"},"geometry":{"type":"LineString","coordinates":[[4.899467483369515,43.90574611220966],[4.899550912870243,43.9057586652967]]}},{"type":"Feature","id":"LFMV-12af240e5066cfce1c21","properties":{"airport":"LFMV","name":"COLOR_Taxiway","layer":"Guidance lines","category":"Taxiways","object_type":"Line","style_id":"line.taxiway.c0b631","source_group":"COLOR_Taxiway","vsmr_group_ids":[],"geometry_role":"linework"},"geometry":{"type":"LineString","coordinates":[[4.899528539288196,43.90550938659496],[4.899612102228962,43.90552221437196]]}},{"type":"Feature","id":"LFMV-fd3209b8a95c0d436b23","properties":{"airport":"LFMV","name":"COLOR_Taxiway","layer":"Guidance lines","category":"Taxiways","object_type":"Line","style_id":"line.taxiway.c0b631","source_group":"COLOR_Taxiway","vsmr_group_ids":[],"geometry_role":"linework"},"geometry":{"type":"LineString","coordinates":[[4.899599196141924,43.90525852332728],[4.899678033980662,43.90527151276102]]}},{"type":"Feature","id":"LFMV-67115cf038d89981b2d7","properties":{"airport":"LFMV","name":"COLOR_Taxiway","layer":"Guidance lines","category":"Taxiways","object_type":"Line","style_id":"line.taxiway.c0b631","source_group":"COLOR_Taxiway","vsmr_group_ids":[],"geometry_role":"linework"},"geometry":{"type":"LineString","coordinates":[[4.899749534371209,43.9048603881425],[4.899507165078814,43.90499242775988]]}},{"type":"Feature","id":"LFMV-1c047af29a74753abb6b","properties":{"airport":"LFMV","name":"COLOR_Taxiway","layer":"Guidance lines","category":"Taxiways","object_type":"Line","style_id":"line.taxiway.c0b631","source_group":"COLOR_Taxiway","vsmr_group_ids":[],"geometry_role":"linework"},"geometry":{"type":"LineString","coordinates":[[4.899694122665825,43.90475363123071],[4.899966871537734,43.90479274126444]]}},{"type":"Feature","id":"LFMV-d3bd7dce7df1a56dcb3f","properties":{"airport":"LFMV","name":"COLOR_Taxiway","layer":"Guidance lines","category":"Taxiways","object_type":"Line","style_id":"line.taxiway.c0b631","source_group":"COLOR_Taxiway","vsmr_group_ids":[],"geometry_role":"linework"},"geometry":{"type":"LineString","coordinates":[[4.899939225461905,43.90452546089193],[4.900035908154717,43.90418092601112]]}},{"type":"Feature","id":"LFMV-a878b95b2e8afc393f0a","properties":{"airport":"LFMV","name":"COLOR_Taxiway","layer":"Guidance lines","category":"Taxiways","object_type":"Line","style_id":"line.taxiway.c0b631","source_group":"COLOR_Taxiway","vsmr_group_ids":[],"geometry_role":"linework"},"geometry":{"type":"LineString","coordinates":[[4.8998937866891,43.90452622587339],[4.899984946507773,43.90453889721109]]}},{"type":"Feature","id":"LFMV-f8a0b10eb00e76cca484","properties":{"airport":"LFMV","name":"COLOR_Taxiway","layer":"Guidance lines","category":"Taxiways","object_type":"Line","style_id":"line.taxiway.c0b631","source_group":"COLOR_Taxiway","vsmr_group_ids":[],"geometry_role":"linework"},"geometry":{"type":"LineString","coordinates":[[4.899962323772728,43.90428542133688],[4.900042056182383,43.90429548949475]]}},{"type":"Feature","id":"LFMV-0b2b7cdc0405f266da97","properties":{"airport":"LFMV","name":"COLOR_Taxiway","layer":"Guidance lines","category":"Taxiways","object_type":"Line","style_id":"line.taxiway.c0b631","source_group":"COLOR_Taxiway","vsmr_group_ids":[],"geometry_role":"linework"},"geometry":{"type":"LineString","coordinates":[[4.899460932188777,43.90455221704361],[4.899568745950555,43.90416341525639]]}},{"type":"Feature","id":"LFMV-94bef72cd8ecd0369fc6","properties":{"airport":"LFMV","name":"COLOR_Taxiway","layer":"Guidance lines","category":"Taxiways","object_type":"Line","style_id":"line.taxiway.c0b631","source_group":"COLOR_Taxiway","vsmr_group_ids":[],"geometry_role":"linework"},"geometry":{"type":"LineString","coordinates":[[4.899431118620963,43.90445874111082],[4.899520080274726,43.90447257964567]]}},{"type":"Feature","id":"LFMV-fa7355fb113976347b2a","properties":{"airport":"LFMV","name":"COLOR_Taxiway","layer":"Guidance lines","category":"Taxiways","object_type":"Line","style_id":"line.taxiway.c0b631","source_group":"COLOR_Taxiway","vsmr_group_ids":[],"geometry_role":"linework"},"geometry":{"type":"LineString","coordinates":[[4.89958304824982,43.90423205589001],[4.899506090232002,43.90422246086435]]}},{"type":"Feature","id":"LFMV-13938ce57de2d3487c2f","properties":{"airport":"LFMV","name":"COLOR_Taxiway","layer":"Guidance lines","category":"Taxiways","object_type":"Line","style_id":"line.taxiway.c0b631","source_group":"COLOR_Taxiway","vsmr_group_ids":[],"geometry_role":"linework"},"geometry":{"type":"LineString","coordinates":[[4.899585265310035,43.90390321720076],[4.89960220223322,43.90384798459492]]}},{"type":"Feature","id":"LFMV-58e6c017a43477655212","properties":{"airport":"LFMV","name":"COLOR_Taxiway","layer":"Guidance lines","category":"Taxiways","object_type":"Line","style_id":"line.taxiway.c0b631","source_group":"COLOR_Taxiway","vsmr_group_ids":[],"geometry_role":"linework"},"geometry":{"type":"LineString","coordinates":[[4.899749351386382,43.90392576016224],[4.899767161084498,43.90386924311746]]}},{"type":"Feature","id":"LFMV-e66e7897fd1a971b5fe9","properties":{"airport":"LFMV","name":"COLOR_Taxiway","layer":"Guidance lines","category":"Taxiways","object_type":"Line","style_id":"line.taxiway.c0b631","source_group":"COLOR_Taxiway","vsmr_group_ids":[],"geometry_role":"linework"},"geometry":{"type":"LineString","coordinates":[[4.899908354272979,43.90395336687354],[4.899922506044375,43.90389466890348]]}},{"type":"Feature","id":"LFMV-f9c7455118b6cbd132e1","properties":{"airport":"LFMV","name":"COLOR_Taxiway","layer":"Guidance lines","category":"Taxiways","object_type":"Line","style_id":"line.taxiway.c0b631","source_group":"COLOR_Taxiway","vsmr_group_ids":[],"geometry_role":"linework"},"geometry":{"type":"LineString","coordinates":[[4.89965611501304,43.90365622438679],[4.899673297431228,43.90359894579976]]}},{"type":"Feature","id":"LFMV-e86b081dcdf04f8b7c4a","properties":{"airport":"LFMV","name":"COLOR_Taxiway","layer":"Guidance lines","category":"Taxiways","object_type":"Line","style_id":"line.taxiway.c0b631","source_group":"COLOR_Taxiway","vsmr_group_ids":[],"geometry_role":"linework"},"geometry":{"type":"LineString","coordinates":[[4.899827623958166,43.90368040133307],[4.899845979547175,43.90362344464441]]}},{"type":"Feature","id":"LFMV-6a372fc8a07dc5ed0ca2","properties":{"airport":"LFMV","name":"COLOR_Taxiway","layer":"Guidance lines","category":"Taxiways","object_type":"Line","style_id":"line.taxiway.c0b631","source_group":"COLOR_Taxiway","vsmr_group_ids":[],"geometry_role":"linework"},"geometry":{"type":"LineString","coordinates":[[4.899988109424822,43.90369760499877],[4.900003140343692,43.90364306295632]]}},{"type":"Feature","id":"LFMV-fb1dabacedd5f52b53aa","properties":{"airport":"LFMV","name":"COLOR_Taxiway","layer":"Guidance lines","category":"Taxiways","object_type":"Line","style_id":"line.taxiway.c0b631","source_group":"COLOR_Taxiway","vsmr_group_ids":[],"geometry_role":"linework"},"geometry":{"type":"LineString","coordinates":[[4.90006230490782,43.90345578445091],[4.900082360798008,43.9033963738733]]}},{"type":"Feature","id":"LFMV-73039c13c6e45e4eae09","properties":{"airport":"LFMV","name":"COLOR_Taxiway","layer":"Guidance lines","category":"Taxiways","object_type":"Line","style_id":"line.taxiway.c0b631","source_group":"COLOR_Taxiway","vsmr_group_ids":[],"geometry_role":"linework"},"geometry":{"type":"LineString","coordinates":[[4.899892436671022,43.90343040048604],[4.89990835891041,43.9033718183334]]}},{"type":"Feature","id":"LFMV-cc841249ae9853456614","properties":{"airport":"LFMV","name":"COLOR_Taxiway","layer":"Guidance lines","category":"Taxiways","object_type":"Line","style_id":"line.taxiway.c0b631","source_group":"COLOR_Taxiway","vsmr_group_ids":[],"geometry_role":"linework"},"geometry":{"type":"LineString","coordinates":[[4.899723441177663,43.90340580765668],[4.899739646833701,43.90335813264841]]}},{"type":"Feature","id":"LFMV-40843e13c6041455784d","properties":{"airport":"LFMV","name":"COLOR_Taxiway","layer":"Guidance lines","category":"Taxiways","object_type":"Line","style_id":"line.taxiway.c0b631","source_group":"COLOR_Taxiway","vsmr_group_ids":[],"geometry_role":"linework"},"geometry":{"type":"LineString","coordinates":[[4.899103351252176,43.90683544447509],[4.899184208782268,43.90652210284564]]}},{"type":"Feature","id":"LFMV-5ce3cafefbaec68f19d8","properties":{"airport":"LFMV","name":"COLOR_Taxiway","layer":"Guidance lines","category":"Taxiways","object_type":"Line","style_id":"line.taxiway.c0b631","source_group":"COLOR_Taxiway","vsmr_group_ids":[],"geometry_role":"linework"},"geometry":{"type":"LineString","coordinates":[[4.898551743965149,43.90675787555465],[4.898636814064774,43.90644280763873]]}},{"type":"Feature","id":"LFMV-52643059e29d2934dbda","properties":{"airport":"LFMV","name":"COLOR_Taxiway","layer":"Guidance lines","category":"Taxiways","object_type":"Line","style_id":"line.taxiway.c0b631","source_group":"COLOR_Taxiway","vsmr_group_ids":[],"geometry_role":"linework"},"geometry":{"type":"LineString","coordinates":[[4.897266778048839,43.90623442662733],[4.897301856162313,43.90614956932889]]}},{"type":"Feature","id":"LFMV-f9d9708443c359cb6983","properties":{"airport":"LFMV","name":"COLOR_Taxiway","layer":"Guidance lines","category":"Taxiways","object_type":"Line","style_id":"line.taxiway.c0b631","source_group":"COLOR_Taxiway","vsmr_group_ids":[],"geometry_role":"linework"},"geometry":{"type":"LineString","coordinates":[[4.899432449124291,43.90284166355232],[4.899579617409209,43.90294972747277]]}},{"type":"Feature","id":"LFMV-e812a6eb8a1c3ad5a4b6","properties":{"airport":"LFMV","name":"COLOR_Taxiway","layer":"Guidance lines","category":"Taxiways","object_type":"Line","style_id":"line.taxiway.c0b631","source_group":"COLOR_Taxiway","vsmr_group_ids":[],"geometry_role":"linework"},"geometry":{"type":"LineString","coordinates":[[4.898971023344645,43.90484014494156],[4.89889993747979,43.90509552445371]]}},{"type":"Feature","id":"LFMV-41209bfec311430aebd4","properties":{"airport":"LFMV","name":"COLOR_Taxiway","layer":"Guidance lines","category":"Taxiways","object_type":"Line","style_id":"line.taxiway.c0b631","source_group":"COLOR_Taxiway","vsmr_group_ids":[],"geometry_role":"linework"},"geometry":{"type":"LineString","coordinates":[[4.896699985269608,43.91399959762021],[4.896216659266468,43.91393922511804]]}},{"type":"Feature","id":"LFMV-6f9ff5e72488c8c5f90c","properties":{"airport":"LFMV","name":"1","layer":"Labels","category":"Gates","object_type":"Label","style_id":"label.gates","source_group":"LFMV Gates","vsmr_group_ids":[],"geometry_role":"text_label","text-field":"1"},"geometry":{"type":"Point","coordinates":[4.897277778,43.906777778]}},{"type":"Feature","id":"LFMV-99f1f4126c4d0d2d9799","properties":{"airport":"LFMV","name":"G1","layer":"Labels","category":"Gates","object_type":"Label","style_id":"label.gates","source_group":"LFMV Gates","vsmr_group_ids":[],"geometry_role":"text_label","text-field":"G1"},"geometry":{"type":"Point","coordinates":[4.898027778,43.9075]}},{"type":"Feature","id":"LFMV-595dd8c5a562e645f176","properties":{"airport":"LFMV","name":"2","layer":"Labels","category":"Gates","object_type":"Label","style_id":"label.gates","source_group":"LFMV Gates","vsmr_group_ids":[],"geometry_role":"text_label","text-field":"2"},"geometry":{"type":"Point","coordinates":[4.898444444,43.906277778]}},{"type":"Feature","id":"LFMV-511d8d3de1562fd47ebe","properties":{"airport":"LFMV","name":"3","layer":"Labels","category":"Gates","object_type":"Label","style_id":"label.gates","source_group":"LFMV Gates","vsmr_group_ids":[],"geometry_role":"text_label","text-field":"3"},"geometry":{"type":"Point","coordinates":[4.898555556,43.907583333]}},{"type":"Feature","id":"LFMV-dda22dcf1d427ab0c386","properties":{"airport":"LFMV","name":"4","layer":"Labels","category":"Gates","object_type":"Label","style_id":"label.gates","source_group":"LFMV Gates","vsmr_group_ids":[],"geometry_role":"text_label","text-field":"4"},"geometry":{"type":"Point","coordinates":[4.898333333,43.906583333]}},{"type":"Feature","id":"LFMV-c2f808c9486a7f5f9c55","properties":{"airport":"LFMV","name":"5","layer":"Labels","category":"Gates","object_type":"Label","style_id":"label.gates","source_group":"LFMV Gates","vsmr_group_ids":[],"geometry_role":"text_label","text-field":"5"},"geometry":{"type":"Point","coordinates":[4.899083333,43.904888889]}},{"type":"Feature","id":"LFMV-c22c5c9106460b8e108c","properties":{"airport":"LFMV","name":"6","layer":"Labels","category":"Gates","object_type":"Label","style_id":"label.gates","source_group":"LFMV Gates","vsmr_group_ids":[],"geometry_role":"text_label","text-field":"6"},"geometry":{"type":"Point","coordinates":[4.899138889,43.904666667]}},{"type":"Feature","id":"LFMV-6f5346e11cc50deebeef","properties":{"airport":"LFMV","name":"7","layer":"Labels","category":"Gates","object_type":"Label","style_id":"label.gates","source_group":"LFMV Gates","vsmr_group_ids":[],"geometry_role":"text_label","text-field":"7"},"geometry":{"type":"Point","coordinates":[4.9045,43.912333333]}},{"type":"Feature","id":"LFMV-9cf62eb67a19a9390743","properties":{"airport":"LFMV","name":"8","layer":"Labels","category":"Gates","object_type":"Label","style_id":"label.gates","source_group":"LFMV Gates","vsmr_group_ids":[],"geometry_role":"text_label","text-field":"8"},"geometry":{"type":"Point","coordinates":[4.904944444,43.911888889]}},{"type":"Feature","id":"LFMV-8e62832e93b08a65724c","properties":{"airport":"LFMV","name":"Apron F","layer":"Labels","category":"Gates","object_type":"Label","style_id":"label.gates","source_group":"LFMV Gates","vsmr_group_ids":[],"geometry_role":"text_label","text-field":"Apron F"},"geometry":{"type":"Point","coordinates":[4.8975,43.906258333]}},{"type":"Feature","id":"LFMV-37ef049139b2b31008ea","properties":{"airport":"LFMV","name":"Apron C","layer":"Labels","category":"Gates","object_type":"Label","style_id":"label.gates","source_group":"LFMV Gates","vsmr_group_ids":[],"geometry_role":"text_label","text-field":"Apron C"},"geometry":{"type":"Point","coordinates":[4.89915,43.905619444]}},{"type":"Feature","id":"LFMV-2db26f4ce82861332144","properties":{"airport":"LFMV","name":"Apron B","layer":"Labels","category":"Gates","object_type":"Label","style_id":"label.gates","source_group":"LFMV Gates","vsmr_group_ids":[],"geometry_role":"text_label","text-field":"Apron B"},"geometry":{"type":"Point","coordinates":[4.899858333,43.903527778]}},{"type":"Feature","id":"LFMV-41c1e0004acb5d2c3579","properties":{"airport":"LFMV","name":"Grass apron A","layer":"Labels","category":"Gates","object_type":"Label","style_id":"label.gates","source_group":"LFMV Gates","vsmr_group_ids":[],"geometry_role":"text_label","text-field":"Grass apron A"},"geometry":{"type":"Point","coordinates":[4.900505556,43.902425]}},{"type":"Feature","id":"LFMV-ff8db07b035ee90e6f1a","properties":{"airport":"LFMV","name":"A","layer":"Labels","category":"Taxiways","object_type":"Label","style_id":"label.taxiways","source_group":"LFMV Taxiways","vsmr_group_ids":[],"geometry_role":"text_label","text-field":"A"},"geometry":{"type":"Point","coordinates":[4.90265,43.898991667]}},{"type":"Feature","id":"LFMV-2c530bd7a90452beef5c","properties":{"airport":"LFMV","name":"A1","layer":"Labels","category":"Taxiways","object_type":"Label","style_id":"label.taxiways","source_group":"LFMV Taxiways","vsmr_group_ids":[],"geometry_role":"text_label","text-field":"A1"},"geometry":{"type":"Point","coordinates":[4.900605556,43.902088889]}},{"type":"Feature","id":"LFMV-4c05f6d7f76c53b271c1","properties":{"airport":"LFMV","name":"A2","layer":"Labels","category":"Taxiways","object_type":"Label","style_id":"label.taxiways","source_group":"LFMV Taxiways","vsmr_group_ids":[],"geometry_role":"text_label","text-field":"A2"},"geometry":{"type":"Point","coordinates":[4.900633333,43.902838889]}},{"type":"Feature","id":"LFMV-1df72304a0d838a6fe62","properties":{"airport":"LFMV","name":"B","layer":"Labels","category":"Taxiways","object_type":"Label","style_id":"label.taxiways","source_group":"LFMV Taxiways","vsmr_group_ids":[],"geometry_role":"text_label","text-field":"B"},"geometry":{"type":"Point","coordinates":[4.901325,43.903716667]}},{"type":"Feature","id":"LFMV-b49964171d3df6803b76","properties":{"airport":"LFMV","name":"C","layer":"Labels","category":"Taxiways","object_type":"Label","style_id":"label.taxiways","source_group":"LFMV Taxiways","vsmr_group_ids":[],"geometry_role":"text_label","text-field":"C"},"geometry":{"type":"Point","coordinates":[4.900375,43.906325]}},{"type":"Feature","id":"LFMV-21b64a548f5cc8f6c975","properties":{"airport":"LFMV","name":"C2","layer":"Labels","category":"Taxiways","object_type":"Label","style_id":"label.taxiways","source_group":"LFMV Taxiways","vsmr_group_ids":[],"geometry_role":"text_label","text-field":"C2"},"geometry":{"type":"Point","coordinates":[4.899575,43.909016667]}},{"type":"Feature","id":"LFMV-c066bedf5a28c2f3f0f2","properties":{"airport":"LFMV","name":"C3","layer":"Labels","category":"Taxiways","object_type":"Label","style_id":"label.taxiways","source_group":"LFMV Taxiways","vsmr_group_ids":[],"geometry_role":"text_label","text-field":"C3"},"geometry":{"type":"Point","coordinates":[4.898494444,43.913291667]}},{"type":"Feature","id":"LFMV-9afcf9dfedabf56c021a","properties":{"airport":"LFMV","name":"D","layer":"Labels","category":"Taxiways","object_type":"Label","style_id":"label.taxiways","source_group":"LFMV Taxiways","vsmr_group_ids":[],"geometry_role":"text_label","text-field":"D"},"geometry":{"type":"Point","coordinates":[4.89775,43.914541667]}},{"type":"Feature","id":"LFMV-28f9dfeb792ebf59f3e4","properties":{"airport":"LFMV","name":"E","layer":"Labels","category":"Taxiways","object_type":"Label","style_id":"label.taxiways","source_group":"LFMV Taxiways","vsmr_group_ids":[],"geometry_role":"text_label","text-field":"E"},"geometry":{"type":"Point","coordinates":[4.903083333,43.910808333]}},{"type":"Feature","id":"LFMV-c136b585a394e58eab00","properties":{"airport":"LFMV","name":"P","layer":"Labels","category":"Taxiways","object_type":"Label","style_id":"label.taxiways","source_group":"LFMV Taxiways","vsmr_group_ids":[],"geometry_role":"text_label","text-field":"P"},"geometry":{"type":"Point","coordinates":[4.900622222,43.904922222]}}]}
