{"type":"FeatureCollection","name":"LFMY AVISO","bbox":[5.100552237135478,43.59670735191099,5.120870135788631,43.61852049061586],"metadata":{"schema":"vSMR AVISO","schema_version":2,"geometry_mode":"shared","airport":"LFMY","coordinate_reference_system":"WGS84","coordinate_order":"longitude, latitude","default_color_palette":"dark","color_palettes":["dark","light"],"background_colors":{"dark":"#434A4F","light":"#434A4F"},"runways":[{"ends":["16R","34L"],"headings":[163,343],"thresholds":[[5.114416944,43.612896944],[5.118141944,43.603341944]]},{"ends":["16L","34R"],"headings":[163,343],"thresholds":[[5.115921944,43.614721944],[5.119232778,43.606346944]]},{"ends":["16","34"],"headings":[158,338],"thresholds":[[5.104410833,43.615652778],[5.113035833,43.598766944]]},{"ends":["09","27"],"headings":[85,265],"thresholds":[[5.109263889,43.609116944],[5.118963889,43.608971944]]}],"saved_active_runways":[],"saved_active_airport_modes":[],"airport_reference":[5.108332778,43.603055833],"feature_count":51,"style_count":12,"layer_counts":{"Airfield surfaces":13,"Buildings and structures":10,"Guidance lines":18,"Surface markings":6,"Terrain":4},"category_counts":{"Buildings":10,"Gras Surface 2":1,"Grass":3,"Grass runways":3,"Hard Surface 2":2,"Hard Surface 3":4,"Runways":1,"Stopbars":6,"coastline":2,"gate":18,"white":1},"geometry_source":"local GNG/KMZ","geometry_source_url":"","geometry_license":"GPL-3.0"},"styles":{"line.runwayconcrete.555555":{"name":"Runways","layer":"Guidance lines","object_type":"Line","paint":{"stroke":"#111318","stroke-opacity":1,"stroke-width":1,"palette-overrides":{"light":{"stroke":"#555555"}}},"feature_count":0},"polygon.grassurface.00512f":{"name":"Grass","layer":"Terrain","object_type":"Area","paint":{"fill":"#010D19","fill-opacity":1,"palette-overrides":{"light":{"fill":"#00512F"}}},"feature_count":3},"polygon.white":{"name":"white","layer":"Airfield surfaces","object_type":"Area","paint":{"fill":"#fcfff7","fill-opacity":1},"feature_count":1},"polygon.coastline":{"name":"coastline","layer":"Airfield surfaces","object_type":"Area","paint":{"fill":"#5C7888","fill-opacity":1},"feature_count":2},"polygon.building.394446":{"name":"Buildings","layer":"Buildings and structures","object_type":"Area","paint":{"fill":"#475570","fill-opacity":1,"palette-overrides":{"light":{"fill":"#394446"}}},"feature_count":10},"polygon.grassurface2.339933":{"name":"Gras Surface 2","layer":"Terrain","object_type":"Area","paint":{"fill":"#339933","fill-opacity":1,"palette-overrides":{"light":{"fill":"#339933"}}},"feature_count":1},"polygon.hardsurface3.8a807f":{"name":"Hard Surface 3","layer":"Airfield surfaces","object_type":"Area","paint":{"fill":"#222D3C","fill-opacity":1,"palette-overrides":{"light":{"fill":"#8A807F"}}},"feature_count":4},"polygon.hardsurface2.595e5b":{"name":"Hard Surface 2","layer":"Airfield surfaces","object_type":"Area","paint":{"fill":"#2F3949","fill-opacity":1,"palette-overrides":{"light":{"fill":"#595E5B"}}},"feature_count":2},"polygon.stopbar.7e0000":{"name":"Stopbars","layer":"Surface markings","object_type":"Area","paint":{"fill":"#7E0000","fill-opacity":1,"palette-overrides":{"light":{"fill":"#7E0000"}}},"feature_count":6},"polygon.runwaygrass.008000":{"name":"Grass runways","layer":"Airfield surfaces","object_type":"Area","paint":{"fill":"#859A77","fill-opacity":1,"palette-overrides":{"light":{"fill":"#008000"}}},"feature_count":3},"polygon.runwayconcrete.555555":{"name":"Runways","layer":"Airfield surfaces","object_type":"Area","paint":{"fill":"#111318","fill-opacity":1,"palette-overrides":{"light":{"fill":"#555555"}}},"feature_count":1},"line.gate":{"name":"gate","layer":"Guidance lines","object_type":"Line","paint":{"stroke":"#a8a8a8","stroke-width":1,"stroke-opacity":1},"feature_count":18}},"vsmr_groups":[],"features":[{"type":"Feature","id":"LFMY-df67dfae6a04a48f86ca","properties":{"airport":"LFMY","name":"COLOR_GrasSurface","layer":"Terrain","category":"Grass","object_type":"Area","style_id":"polygon.grassurface.00512f","source_group":"COLOR_GrasSurface","vsmr_group_ids":[],"geometry_role":"filled_region"},"geometry":{"type":"Polygon","coordinates":[[[5.114450579670224,43.59730187350928],[5.114580079090471,43.5975604052805],[5.11468265677366,43.59786912889974],[5.114702453411608,43.59828603170306],[5.114637816502903,43.59857062166162],[5.11453432005561,43.59879054160021],[5.114503679726177,43.59896816981117],[5.114517102845992,43.59925081926738],[5.114506983910402,43.59944915937721],[5.114621363867928,43.59959487743851],[5.114774439100498,43.59973255690105],[5.115005910809039,43.59987535819182],[5.115848708263703,43.60034250842],[5.11603240220812,43.60050772034566],[5.116171023307499,43.60054671371136],[5.116340260445222,43.60061324211829],[5.11921330863202,43.60186455355212],[5.119324006845156,43.60193253800554],[5.11935832246756,43.60203780020713],[5.11936336441382,43.60214379251446],[5.119588495789502,43.60418180860998],[5.119635259177045,43.60434335761838],[5.119841517675566,43.60457167303676],[5.120727475624429,43.6055329305043],[5.12086745177532,43.60580534493263],[5.120870135788631,43.60606703631961],[5.120699181640694,43.60637550767774],[5.120435010574472,43.60677827322527],[5.120034206630497,43.60738960808669],[5.119729640626021,43.60797024414087],[5.119497871300529,43.60845138496367],[5.119273378045063,43.60907247064011],[5.118866458266931,43.61017209452218],[5.118161021061979,43.61216808349742],[5.118114221015981,43.61241686069354],[5.117966077997529,43.61320582975736],[5.11750269245783,43.61585273689116],[5.117505972888936,43.61592173319669],[5.117551128706841,43.61596517436652],[5.117923919292362,43.61626882254901],[5.117933878128018,43.6163487943523],[5.118441122814692,43.61646539401509],[5.120362329557466,43.61647764827578],[5.120455813106708,43.6169544086237],[5.120415211345235,43.6169420514283],[5.120368248924563,43.61692539621969],[5.120287469187423,43.61690958455399],[5.120228527491539,43.61689991312625],[5.120167147133983,43.61690367250279],[5.120084246712175,43.61690796861271],[5.119967952622757,43.61692201088111],[5.119943358065946,43.61692262430356],[5.119929895859476,43.61689844842728],[5.119836831405154,43.61662445654327],[5.11844088461827,43.6168486720216],[5.118448726888703,43.6168841297219],[5.116642157819442,43.61720343699989],[5.116602621382018,43.61714871384357],[5.115302728257499,43.61738810334667],[5.115477503929393,43.61784395214595],[5.115346623043564,43.61782369741763],[5.115190172990012,43.61780239964011],[5.115014706966241,43.61777149766778],[5.114822701603392,43.6177342889169],[5.112068084014602,43.61715149151777],[5.111985867174987,43.61713002261057],[5.111934578772022,43.61707587278482],[5.111892798084472,43.61702652514954],[5.111810351325053,43.61695131593112],[5.11173788995269,43.61689097434464],[5.111654240642631,43.61683930870546],[5.111601670255608,43.61680702485585],[5.111459109508221,43.61675026289461],[5.111852517926723,43.61604514053565],[5.111067013964248,43.61587649606114],[5.110935170744066,43.61664900775585],[5.110824322431498,43.61663184826935],[5.110748644999976,43.6166312403102],[5.110618486918344,43.61664194449789],[5.110501948914816,43.61664982052392],[5.110372262362359,43.61667047051353],[5.11022196836625,43.61669163261206],[5.110093597833448,43.61669932546042],[5.108967960996347,43.61645594963651],[5.108697123393561,43.61690828678546],[5.109212760427733,43.61697762681078],[5.105769585239086,43.61781561164297],[5.105647352502354,43.61784851823157],[5.105520743180247,43.61786161783897],[5.105417351946652,43.61785671518604],[5.105296434564406,43.61784477905344],[5.10387920446507,43.61754025505458],[5.103847351934916,43.61752112962054],[5.103832319359311,43.61749411875956],[5.103834695013465,43.61747165500784],[5.103846550783331,43.61743153019335],[5.104572825154454,43.61598772727183],[5.104648266720289,43.61598336618599],[5.105270693501945,43.61612973532014],[5.105406723030925,43.61587990631728],[5.104701047577294,43.61571817735195],[5.113279844238765,43.59883625269322],[5.113841271400106,43.59899448282997],[5.113992291077489,43.59875773886104],[5.113490120770273,43.59861019040654],[5.114246492479257,43.59709094313657],[5.114450579670224,43.59730187350928]]]}},{"type":"Feature","id":"LFMY-9b79fe9fe20d1c7f1c39","properties":{"airport":"LFMY","name":"COLOR_GrasSurface","layer":"Terrain","category":"Grass","object_type":"Area","style_id":"polygon.grassurface.00512f","source_group":"COLOR_GrasSurface","vsmr_group_ids":[],"geometry_role":"filled_region"},"geometry":{"type":"Polygon","coordinates":[[[5.110966058313668,43.61664379671657],[5.111113805023915,43.61594173091475],[5.111124719111309,43.61593326723361],[5.111135730279446,43.61592684925227],[5.111153999453879,43.61592434691436],[5.111181279120645,43.61593288495425],[5.111414280716062,43.61598443714021],[5.111410430573518,43.6159927251874],[5.111415299785351,43.61600591656937],[5.111418465047244,43.61601300610327],[5.111428742774134,43.6160209428236],[5.111374398421975,43.61615746685626],[5.111274872305886,43.61614662927226],[5.111252353547389,43.61620863130207],[5.111408677066098,43.61625389772617],[5.111457904081682,43.61612876538765],[5.111431988605217,43.61611916950007],[5.111460066722868,43.61602528403066],[5.111482768370569,43.61602676756891],[5.111492560823279,43.61602447596581],[5.111500697846473,43.61601710536707],[5.111504256812096,43.61600268036964],[5.111762689028123,43.61605359923799],[5.111774185443643,43.61605740946123],[5.111783050426391,43.61606538126579],[5.111783632813969,43.6160776552026],[5.111772082497326,43.61610251932482],[5.111400645805341,43.61674051422765],[5.111236135233916,43.61670159550785],[5.111235552953712,43.61668932153432],[5.111234873627597,43.61667500192102],[5.111225668948098,43.61665987024593],[5.11120959436933,43.61664900556832],[5.111181289768028,43.61664868533091],[5.111156393070065,43.61666056882555],[5.111138948529133,43.61668045929741],[5.110966058313668,43.61664379671657]]]}},{"type":"Feature","id":"LFMY-626f2d5eddddf78ec635","properties":{"airport":"LFMY","name":"COLOR_GrasSurface","layer":"Terrain","category":"Grass","object_type":"Area","style_id":"polygon.grassurface.00512f","source_group":"COLOR_GrasSurface","vsmr_group_ids":[],"geometry_role":"filled_region"},"geometry":{"type":"Polygon","coordinates":[[[5.113693575699556,43.59680587367662],[5.112829888949657,43.59843123039293],[5.112302868553833,43.59829449543333],[5.11209877285713,43.59823584449213],[5.111931052224548,43.59849748516863],[5.112786528515374,43.59874396361018],[5.109156039955813,43.60579116657465],[5.109082437834975,43.60585891636354],[5.109012067235947,43.60593482584012],[5.108940526354148,43.60598604410238],[5.108839789324491,43.60602150766341],[5.108744345328105,43.60604859953246],[5.10864253553347,43.60606142936932],[5.108528579288889,43.6060580807768],[5.108442551490504,43.60604373809208],[5.107829200982062,43.60588799411495],[5.107759930556666,43.60586705457724],[5.107718588616734,43.60583512118925],[5.107671466075265,43.60580127134333],[5.10763169852715,43.60574251855047],[5.107629554030031,43.60569725137493],[5.107637118745945,43.60561672266656],[5.107439790114889,43.60595534695873],[5.108053592663198,43.60610082209517],[5.108131864095133,43.60611587336983],[5.108235263362162,43.60614434028771],[5.108405827023517,43.60619035105404],[5.108614595319487,43.60624575768132],[5.108674937509592,43.60627512908707],[5.108731190732891,43.60631737895102],[5.108762165585934,43.60636680408052],[5.108781615368018,43.60642742749812],[5.108787938859409,43.60646546206515],[5.108790211645029,43.60651341802291],[5.105196286716732,43.61363369274107],[5.104188786561088,43.61558131856331],[5.103558457845965,43.61541097497589],[5.10345168348749,43.61563487108746],[5.104022141502176,43.61580349399028],[5.10341200823067,43.61703316255559],[5.103388964903283,43.61706098919679],[5.103364860801589,43.61706639664104],[5.103342589840114,43.61706374237466],[5.103314910049354,43.6170403799423],[5.103305197722552,43.61688189904601],[5.103277590594768,43.61654344334935],[5.103237114579528,43.61635029143229],[5.103156669882325,43.61598216379328],[5.103011523536363,43.61543058061502],[5.102789964857779,43.61474399669142],[5.102701088797488,43.61443984085713],[5.102645905250935,43.61415735053004],[5.102552921290964,43.61384930471],[5.102466054219468,43.61356003181979],[5.102350720808486,43.61333202102403],[5.102197409112648,43.61307467381393],[5.102098777318815,43.61297871528369],[5.102009873636719,43.61286737658282],[5.102972750178479,43.61178376987231],[5.102806600300342,43.6116970552627],[5.102714010594481,43.61183938844834],[5.102794832461299,43.61189037118513],[5.101948685563031,43.61278941354584],[5.100805016259271,43.6113551648062],[5.100625431777585,43.61109468197496],[5.100552237135478,43.61087319552091],[5.100588508320913,43.61064521220791],[5.100686539465855,43.61039677460955],[5.101084079027405,43.60984948732047],[5.102658473936668,43.60760112552359],[5.104789586547569,43.60441046190032],[5.105622840072568,43.6047138535498],[5.106645476512137,43.6032188231998],[5.105808546971307,43.60292393098594],[5.105762389607955,43.60289557472046],[5.105736578763334,43.60286671341539],[5.105750344995467,43.60281326806801],[5.105800874363458,43.602761860339],[5.106548274877616,43.60254269020435],[5.106689723511002,43.60249175418723],[5.106723404733932,43.60228580391261],[5.105868541987261,43.60079600372706],[5.10562445642488,43.60086804227633],[5.105225956803478,43.60016969895662],[5.105118148720857,43.60031855790985],[5.105004685413348,43.60012730308998],[5.104613269812677,43.60024035300343],[5.104587744385105,43.60021578242809],[5.10428354226625,43.60028020391299],[5.104191156980948,43.60020641723204],[5.104226538251162,43.60010019935976],[5.104319804760038,43.60002180635169],[5.104626583663139,43.59984447968273],[5.105006005924208,43.59966534941203],[5.105313610325839,43.5995055571308],[5.10549598763933,43.59926108910016],[5.106536722779397,43.59802968644204],[5.109123355286922,43.59753234027531],[5.10945373939943,43.59751242042316],[5.109839518562104,43.59746771188586],[5.110227792406961,43.59747561106569],[5.111505081075713,43.59748479474076],[5.111858521513051,43.59736532584267],[5.112418557428353,43.59707633554116],[5.113148643837862,43.59679481300071],[5.113226029033353,43.59672265947214],[5.113370759003201,43.59670735191099],[5.11355889771667,43.59675533852252],[5.113693575699556,43.59680587367662]]]}},{"type":"Feature","id":"LFMY-e37cb2e27e9e1683f09b","properties":{"airport":"LFMY","name":"COLOR_White","layer":"Airfield surfaces","category":"white","object_type":"Area","style_id":"polygon.white","source_group":"COLOR_White","vsmr_group_ids":[],"geometry_role":"filled_region"},"geometry":{"type":"Polygon","coordinates":[[[5.11982126319825,43.60562840421781],[5.12056082976186,43.6056531879699],[5.120528867867988,43.60619441927025],[5.119793065182408,43.60616521786196],[5.11982126319825,43.60562840421781]]]}},{"type":"Feature","id":"LFMY-57ca7684d67546be3022","properties":{"airport":"LFMY","name":"COLOR_Coastline","layer":"Airfield surfaces","category":"coastline","object_type":"Area","style_id":"polygon.coastline","source_group":"COLOR_Coastline","vsmr_group_ids":[],"geometry_role":"filled_region"},"geometry":{"type":"Polygon","coordinates":[[[5.119784659125717,43.60616772377536],[5.11980119114483,43.6058995441236],[5.120176429354095,43.60591139253199],[5.120153888205827,43.60618148946089],[5.119784659125717,43.60616772377536]]]}},{"type":"Feature","id":"LFMY-b1feabecabcace648fb9","properties":{"airport":"LFMY","name":"COLOR_Coastline","layer":"Airfield surfaces","category":"coastline","object_type":"Area","style_id":"polygon.coastline","source_group":"COLOR_Coastline","vsmr_group_ids":[],"geometry_role":"filled_region"},"geometry":{"type":"Polygon","coordinates":[[[5.120179960331885,43.60590865328216],[5.120198886239866,43.60563953022069],[5.120563362094144,43.60565606433357],[5.120546623553491,43.60591983067177],[5.120179960331885,43.60590865328216]]]}},{"type":"Feature","id":"LFMY-a305493a85573fe6b54a","properties":{"airport":"LFMY","name":"COLOR_Building","layer":"Buildings and structures","category":"Buildings","object_type":"Area","style_id":"polygon.building.394446","source_group":"COLOR_Building","vsmr_group_ids":[],"geometry_role":"filled_region"},"geometry":{"type":"Polygon","coordinates":[[[5.106752467768532,43.600686086392],[5.106079158447674,43.60089290798889],[5.105758279477239,43.60037553554454],[5.106431294210603,43.6001625909708],[5.106752467768532,43.600686086392]]]}},{"type":"Feature","id":"LFMY-e93cca4b433d9f6adbfd","properties":{"airport":"LFMY","name":"COLOR_Building","layer":"Buildings and structures","category":"Buildings","object_type":"Area","style_id":"polygon.building.394446","source_group":"COLOR_Building","vsmr_group_ids":[],"geometry_role":"filled_region"},"geometry":{"type":"Polygon","coordinates":[[[5.105488816861678,43.60094435781262],[5.105190711121845,43.60102739019322],[5.104905120079111,43.60053980015481],[5.105183488424705,43.60045725893858],[5.105488816861678,43.60094435781262]]]}},{"type":"Feature","id":"LFMY-a59aae01b883deee7092","properties":{"airport":"LFMY","name":"COLOR_Building","layer":"Buildings and structures","category":"Buildings","object_type":"Area","style_id":"polygon.building.394446","source_group":"COLOR_Building","vsmr_group_ids":[],"geometry_role":"filled_region"},"geometry":{"type":"Polygon","coordinates":[[[5.107974865117136,43.60337032309837],[5.1077803310249,43.6033158762559],[5.107875755667108,43.60312544638487],[5.108012737654681,43.60315679337912],[5.108043089779355,43.60308245095872],[5.107991757888217,43.60307146150866],[5.108152155116876,43.60276290273188],[5.108243637083798,43.60278720344229],[5.107974865117136,43.60337032309837]]]}},{"type":"Feature","id":"LFMY-8a984042d396e89be3e4","properties":{"airport":"LFMY","name":"COLOR_Building","layer":"Buildings and structures","category":"Buildings","object_type":"Area","style_id":"polygon.building.394446","source_group":"COLOR_Building","vsmr_group_ids":[],"geometry_role":"filled_region"},"geometry":{"type":"Polygon","coordinates":[[[5.104963739199229,43.6044237360202],[5.105008794796861,43.60423896270224],[5.105198102670279,43.60409791453013],[5.105224096857601,43.6039163974803],[5.105416319736456,43.60375579859229],[5.105458060245665,43.60358223888006],[5.1056591414143,43.60344646373183],[5.105688708170025,43.60325929293433],[5.105885028110948,43.60310415706112],[5.10643038248189,43.60334105551362],[5.106388250412497,43.60350627720303],[5.106198686067057,43.60364176761693],[5.106158132172814,43.60384034169093],[5.10595347607974,43.60398177178794],[5.105947202162435,43.60417392978862],[5.10574877325459,43.60428459626114],[5.105716156427851,43.6044885392804],[5.105503556012778,43.60462460162708],[5.104963739199229,43.6044237360202]]]}},{"type":"Feature","id":"LFMY-29598b9904160251d236","properties":{"airport":"LFMY","name":"COLOR_Building","layer":"Buildings and structures","category":"Buildings","object_type":"Area","style_id":"polygon.building.394446","source_group":"COLOR_Building","vsmr_group_ids":[],"geometry_role":"filled_region"},"geometry":{"type":"Polygon","coordinates":[[[5.104769749565932,43.60519655779414],[5.105056164282155,43.6047525757908],[5.105571900242114,43.6049317784834],[5.105269740953844,43.60536780416166],[5.104769749565932,43.60519655779414]]]}},{"type":"Feature","id":"LFMY-4981d0e1a0fbd813f2d1","properties":{"airport":"LFMY","name":"COLOR_Building","layer":"Buildings and structures","category":"Buildings","object_type":"Area","style_id":"polygon.building.394446","source_group":"COLOR_Building","vsmr_group_ids":[],"geometry_role":"filled_region"},"geometry":{"type":"Polygon","coordinates":[[[5.119052272198353,43.61793647016673],[5.1188524176276,43.61735393753167],[5.119734560797591,43.61720138129794],[5.119914096111726,43.61778738741955],[5.119052272198353,43.61793647016673]]]}},{"type":"Feature","id":"LFMY-3896779b0d0177a8430b","properties":{"airport":"LFMY","name":"COLOR_Building","layer":"Buildings and structures","category":"Buildings","object_type":"Area","style_id":"polygon.building.394446","source_group":"COLOR_Building","vsmr_group_ids":[],"geometry_role":"filled_region"},"geometry":{"type":"Polygon","coordinates":[[[5.11706803881739,43.61801263300944],[5.116978139642605,43.61775968890264],[5.117209945613603,43.61763522283764],[5.117452889431267,43.61765884149261],[5.117709255717086,43.61753376260434],[5.117961090685046,43.6175719948715],[5.118201220696581,43.61745028692016],[5.118484959664262,43.61746991929878],[5.118560040048692,43.61775587073941],[5.11706803881739,43.61801263300944]]]}},{"type":"Feature","id":"LFMY-57d18477d6bb60342b61","properties":{"airport":"LFMY","name":"COLOR_Building","layer":"Buildings and structures","category":"Buildings","object_type":"Area","style_id":"polygon.building.394446","source_group":"COLOR_Building","vsmr_group_ids":[],"geometry_role":"filled_region"},"geometry":{"type":"Polygon","coordinates":[[[5.115858466732897,43.61852049061586],[5.115666407212669,43.6179288557159],[5.116524004562663,43.61777693581282],[5.116740212961528,43.61835906499909],[5.115858466732897,43.61852049061586]]]}},{"type":"Feature","id":"LFMY-efa354e3b2c71585d3d5","properties":{"airport":"LFMY","name":"COLOR_Building","layer":"Buildings and structures","category":"Buildings","object_type":"Area","style_id":"polygon.building.394446","source_group":"COLOR_Building","vsmr_group_ids":[],"geometry_role":"filled_region"},"geometry":{"type":"Polygon","coordinates":[[[5.117199294264121,43.61827344561607],[5.117108971440181,43.61801161081524],[5.118637958423385,43.61775689503291],[5.118740147169989,43.61800953190219],[5.117199294264121,43.61827344561607]]]}},{"type":"Feature","id":"LFMY-efb1dffaad95decf1a67","properties":{"airport":"LFMY","name":"COLOR_Building","layer":"Buildings and structures","category":"Buildings","object_type":"Area","style_id":"polygon.building.394446","source_group":"COLOR_Building","vsmr_group_ids":[],"geometry_role":"filled_region"},"geometry":{"type":"Polygon","coordinates":[[[5.110756037991095,43.61716831332358],[5.110883813115117,43.61681598385572],[5.111238847836479,43.61688896761317],[5.111166889838758,43.61712161170372],[5.111427304471336,43.61717838405189],[5.111446668125017,43.61710511399466],[5.111637653017558,43.61715674218242],[5.111430619343693,43.61763071588002],[5.111503025615791,43.61764449163135],[5.111457697394255,43.61776950352061],[5.110836877006617,43.61764251197803],[5.110789859950109,43.61768818981529],[5.110541560219792,43.61763798513951],[5.11056796789326,43.61758985254445],[5.110008697228441,43.61746429453808],[5.110065466771847,43.61736496409368],[5.110210577098502,43.61739993125946],[5.110382903336781,43.61688528131653],[5.110540574740114,43.61692587037452],[5.110527811835082,43.61700151764611],[5.110797419003013,43.61705278509783],[5.110754020773363,43.61716694990098],[5.110506427928875,43.61710324579782],[5.110372766880626,43.61741648275661],[5.110641158891822,43.61745724665953],[5.110749689371685,43.61716677093114],[5.111102626005124,43.61724021812763],[5.11099846010204,43.61753058572406],[5.111258276879454,43.61757472385057],[5.11136304106426,43.61729699063294],[5.111112314040797,43.61722872040403],[5.111099064201731,43.61723753129784],[5.110756037991095,43.61716831332358]]]}},{"type":"Feature","id":"LFMY-fe3f2f96a78d86754aec","properties":{"airport":"LFMY","name":"COLOR_GrasSurface2","layer":"Terrain","category":"Gras Surface 2","object_type":"Area","style_id":"polygon.grassurface2.339933","source_group":"COLOR_GrasSurface2","vsmr_group_ids":[],"geometry_role":"filled_region"},"geometry":{"type":"Polygon","coordinates":[[[5.117545713004534,43.60350119111047],[5.116770562004326,43.60335467920309],[5.116665530857388,43.6033405034687],[5.116584360250311,43.60334042695766],[5.116521956842551,43.60336927051275],[5.116453862137136,43.60340035497446],[5.116400543235383,43.60343736862358],[5.116356109616557,43.6034783591221],[5.116315063106627,43.60359063552041],[5.112822916732873,43.61252031746542],[5.112803000640438,43.61255460890056],[5.112804356362972,43.61258317170966],[5.112827107175506,43.61260860248746],[5.112906870469097,43.61262481566365],[5.113811974691707,43.61278166961161],[5.113858967797233,43.6127882990089],[5.113876036814792,43.61276967634772],[5.114940054637122,43.61302135490422],[5.114764419834801,43.61348142993348],[5.114708495942583,43.61366480121599],[5.114466497003796,43.61439094079488],[5.114252078111474,43.6150929972926],[5.114201571536892,43.61521414596539],[5.114194387981781,43.61528971566073],[5.11423679953583,43.61535105238998],[5.114344755666124,43.61543155497787],[5.11443750257234,43.61549423829031],[5.114554492299705,43.61553812021283],[5.116121289578823,43.61586566150056],[5.11638359248418,43.61481144906212],[5.119715646455878,43.60638276689616],[5.118773534713139,43.60619610129092],[5.118517142346562,43.60685603770987],[5.117431003919743,43.60659858637213],[5.117988957500441,43.60517080196676],[5.118026091438026,43.60524747431266],[5.118110664770303,43.60538277909756],[5.118214847306401,43.60550789516275],[5.118343099059319,43.60562271132824],[5.118499726535049,43.60572388695888],[5.118617908006897,43.60581470472793],[5.118704102604976,43.60589015381273],[5.118778763760973,43.60595780731825],[5.118829896630272,43.60600018145492],[5.118887854317622,43.60603220575923],[5.11896059547394,43.60605949109573],[5.119114306438397,43.60609930677105],[5.11980681664014,43.60624854689853],[5.119873022156329,43.60627922795429],[5.119919465328817,43.6063168684768],[5.119959833283736,43.60636759355841],[5.119980438830424,43.60642527817524],[5.119983281474325,43.60648502253538],[5.119938368677683,43.60662032322733],[5.119146493699313,43.60860141047396],[5.119120832396651,43.60864488284541],[5.119096572328957,43.60867895067751],[5.119076513796841,43.60872362180994],[5.119039199336159,43.60879415498364],[5.11900353815645,43.60889944821734],[5.118887129139164,43.60925036447294],[5.116738135726444,43.61472487465223],[5.116717857566433,43.61478705696566],[5.116680151111295,43.61486275648762],[5.116659601392348,43.61497353957585],[5.116336854884649,43.61621971398003],[5.116306345272772,43.6161613494132],[5.116050446019404,43.61609409680069],[5.11604322030208,43.61616901910742],[5.1160130817081,43.61611845416043],[5.115972911104516,43.61608375687656],[5.115925362987232,43.61605593667137],[5.115806595124708,43.61602096579087],[5.114035214604762,43.61560135007359],[5.113958087906754,43.61557410315644],[5.113917116930002,43.61555968176492],[5.113884637419841,43.61552446087549],[5.113851344241906,43.61547210345339],[5.113872579986949,43.61537034986414],[5.114425752822287,43.61358520754962],[5.114403756869788,43.61352619934181],[5.114378174786395,43.61344941371151],[5.114329262827133,43.61340100156499],[5.114240973495847,43.61333173258742],[5.113937199006724,43.61315506876655],[5.113709715280708,43.61304161879647],[5.113633699435609,43.61299983641879],[5.113591865958487,43.61298499600434],[5.112866332022357,43.61283430936092],[5.112761886184758,43.61282896732907],[5.112704938833003,43.61284229530975],[5.112660169555838,43.61288112767956],[5.112632679228883,43.61293739680045],[5.11260347157267,43.61308380522154],[5.112576065488408,43.61319962791551],[5.112525244053128,43.61328427011627],[5.112462893425207,43.61341485837586],[5.11240780808238,43.6135829844319],[5.112362736370337,43.61373100958547],[5.112326068813646,43.613882796236],[5.112315179049935,43.61405776428266],[5.112299661378968,43.61423020122039],[5.112319471413061,43.61435874574951],[5.112358264675283,43.61448284756054],[5.112382893901102,43.61459737577985],[5.112455494022536,43.61474048846969],[5.112509497401845,43.6148384044962],[5.112564724701178,43.61496209759262],[5.112648469608447,43.61510890375956],[5.112685663449055,43.61524423620276],[5.112704193978566,43.61531736764277],[5.112477029795961,43.6152507890808],[5.112413763509371,43.61518694746146],[5.112333324337328,43.61507856001511],[5.112273560495972,43.6150091800686],[5.112226764094419,43.61493538912773],[5.112167854039205,43.61480466117344],[5.112108750550782,43.61466984955944],[5.112045628724355,43.61452968650195],[5.112015373690837,43.61440778525508],[5.112007125979203,43.61427611238186],[5.112005490143616,43.61413470616494],[5.112012240724111,43.61400962425423],[5.112037785283359,43.61385284645185],[5.112064122660658,43.61365930956587],[5.112073311265455,43.61358560222433],[5.112160296206724,43.6133868825482],[5.112537637516303,43.61242098348302],[5.112885923939706,43.61152689875912],[5.113484677386968,43.60999724700481],[5.113482053294065,43.60994197228052],[5.113469357624709,43.60988454214827],[5.113441549366633,43.60985876727257],[5.113401149007815,43.60984774229977],[5.113340719639446,43.60983480968528],[5.113194448515652,43.60983363763881],[5.11051753837436,43.60988694840913],[5.110314063645813,43.60988232495979],[5.110161526427676,43.60988030774003],[5.109973253981924,43.60985787802615],[5.109789590513349,43.60981984209901],[5.109685973352358,43.60977787993132],[5.109549017366466,43.60970963638718],[5.10945148869167,43.60962685783479],[5.109331398069403,43.60951946633084],[5.109298438289258,43.60944476497522],[5.109267691362193,43.60936032644552],[5.10964774273001,43.60936637282899],[5.109663941660987,43.60942599927583],[5.109715417078755,43.60949636746172],[5.109758878813267,43.60956693472954],[5.10984416369848,43.60961709821903],[5.109952572898417,43.60964732263457],[5.110058035776788,43.60967181092962],[5.110298540484417,43.60966776857526],[5.113223414980538,43.60961170325115],[5.113340950049916,43.60960877822821],[5.113482342831719,43.60960138647226],[5.113588274777474,43.60957938576265],[5.113648428091344,43.60955077868049],[5.113695784371142,43.60947795236952],[5.113726745868147,43.60939778840168],[5.11374693044178,43.60931595620194],[5.113968007031056,43.60877403179544],[5.114187952195238,43.60822442162554],[5.114427751315698,43.60760210417739],[5.114784901452283,43.60666200366503],[5.115042149008719,43.60599721352553],[5.115873579785665,43.6038597810595],[5.116053765353053,43.6033867251212],[5.116124790799956,43.60324940595827],[5.116194615329535,43.60314309951133],[5.116276501984631,43.60306553885117],[5.116372386570922,43.60300118431294],[5.11649147681285,43.60297497992156],[5.116619223296881,43.6029621146634],[5.116729559859268,43.60297679304607],[5.116932547988453,43.60302789095929],[5.11765507919296,43.60320739919376],[5.117545713004534,43.60350119111047]]]}},{"type":"Feature","id":"LFMY-1fa682a7891e4eff4b46","properties":{"airport":"LFMY","name":"COLOR_HardSurface3","layer":"Airfield surfaces","category":"Hard Surface 3","object_type":"Area","style_id":"polygon.hardsurface3.8a807f","source_group":"COLOR_HardSurface3","vsmr_group_ids":[],"geometry_role":"filled_region"},"geometry":{"type":"Polygon","coordinates":[[[5.108017841690675,43.60012292922724],[5.107940896043022,43.60015360643033],[5.107843073848997,43.60016284953814],[5.107775571509279,43.60015014366353],[5.107687336098701,43.60011902807278],[5.107619117557205,43.60009120014664],[5.107855869627973,43.60050351138958],[5.108423822646508,43.60149139632642],[5.108473237616624,43.60152085085806],[5.108527804310208,43.60156960949394],[5.108609706318243,43.60162893903852],[5.108686505105473,43.60166998592137],[5.108804116724636,43.60170797304745],[5.109085892853747,43.60178279003983],[5.109154331648158,43.60179643032378],[5.109199715472976,43.60180041610816],[5.109244905612886,43.60180031570037],[5.109277205985663,43.60179644466513],[5.109132245493493,43.60208191153552],[5.109101410635146,43.60205710920339],[5.109063473993219,43.60203146063268],[5.10901454240088,43.60201222177783],[5.108805435936617,43.60195093989956],[5.108699641716592,43.60192390929102],[5.108605326682769,43.60190068432737],[5.108548899518168,43.6019020864607],[5.108472868061158,43.60190704392249],[5.108409726315406,43.60191577203808],[5.107569626492818,43.60216510950349],[5.107666709642158,43.60232121340228],[5.10731838474753,43.60243021972612],[5.107454841728964,43.60280934020793],[5.107465549785486,43.60286579620165],[5.107468646272373,43.60293116771864],[5.107460817642268,43.60297790329025],[5.107437008859224,43.60302649021607],[5.107411262713029,43.60307657967449],[5.107151994936261,43.60346230918329],[5.106722365572915,43.60407810456072],[5.106723091430969,43.60409343215924],[5.106734815626024,43.60411725557394],[5.106755559610574,43.60413975888574],[5.106792934928794,43.60416184920135],[5.106848816482419,43.60419115275337],[5.106949114729846,43.60423141053167],[5.106873121575777,43.60435277420284],[5.106715948105758,43.60429419858593],[5.106688370233932,43.60428721057446],[5.106647495971497,43.60428712940386],[5.106612825010714,43.6042901825322],[5.106585817437058,43.60429523759641],[5.106564909467142,43.60430123731612],[5.106135186718197,43.60491891991338],[5.105583338975155,43.60471936237415],[5.106631946389435,43.60319717220722],[5.106674360481334,43.60230320492156],[5.105827863699124,43.60084818687894],[5.10563134198806,43.60090369444693],[5.105200074086009,43.60017356939042],[5.107279343144979,43.59953606074123],[5.107471827758767,43.59984272582778],[5.107503714217541,43.59984500220646],[5.107590183369859,43.59983671738573],[5.107626011658255,43.59983275894167],[5.109079642579488,43.5991546522647],[5.109352691256817,43.59946238047327],[5.108017841690675,43.60012292922724]]]}},{"type":"Feature","id":"LFMY-f7b03bee5426c4dec68c","properties":{"airport":"LFMY","name":"COLOR_HardSurface3","layer":"Airfield surfaces","category":"Hard Surface 3","object_type":"Area","style_id":"polygon.hardsurface3.8a807f","source_group":"COLOR_HardSurface3","vsmr_group_ids":[],"geometry_role":"filled_region"},"geometry":{"type":"Polygon","coordinates":[[[5.112116497477222,43.61560571277543],[5.111910100469396,43.61607252961527],[5.111017438881849,43.61588645029687],[5.111163613580414,43.61546394510608],[5.112116497477222,43.61560571277543]]]}},{"type":"Feature","id":"LFMY-933f48f7f4c2d3e6b964","properties":{"airport":"LFMY","name":"COLOR_HardSurface3","layer":"Airfield surfaces","category":"Hard Surface 3","object_type":"Area","style_id":"polygon.hardsurface3.8a807f","source_group":"COLOR_HardSurface3","vsmr_group_ids":[],"geometry_role":"filled_region"},"geometry":{"type":"Polygon","coordinates":[[[5.118460902071424,43.61685037179529],[5.11863403893615,43.61747014797377],[5.116797389279828,43.61779325585985],[5.11678858274183,43.61777005173391],[5.116773938434203,43.6177536854898],[5.11675027267435,43.61774200561502],[5.116728357626554,43.61773474373657],[5.116700657766369,43.6177354338211],[5.116656612710107,43.61774880056504],[5.116606465060853,43.61776343473494],[5.115668535659228,43.61792910912334],[5.11546035573317,43.6178449858012],[5.115272805536217,43.61738925950387],[5.115278667173373,43.61737833503041],[5.11531024054497,43.61737138970562],[5.116192377461943,43.61720664374057],[5.116329347566961,43.61717686711783],[5.116395625030479,43.61716150646103],[5.116425828800524,43.61715337194382],[5.11643375755138,43.61713630100051],[5.116437121165327,43.61711512543275],[5.116431354517088,43.61708574060036],[5.116419717966005,43.61705544740325],[5.116597326112715,43.61702254902244],[5.116652899873888,43.6171804074493],[5.118089680792148,43.61692021024261],[5.11814440846674,43.61690455185654],[5.118460902071424,43.61685037179529]]]}},{"type":"Feature","id":"LFMY-c26f8ce5a1d7639cf290","properties":{"airport":"LFMY","name":"COLOR_HardSurface3","layer":"Airfield surfaces","category":"Hard Surface 3","object_type":"Area","style_id":"polygon.hardsurface3.8a807f","source_group":"COLOR_HardSurface3","vsmr_group_ids":[],"geometry_role":"filled_region"},"geometry":{"type":"Polygon","coordinates":[[[5.108534876700461,43.60349518206029],[5.108015189001847,43.60336003269684],[5.10814920176871,43.60309325649867],[5.108670344112729,43.60322939022674],[5.108534876700461,43.60349518206029]]]}},{"type":"Feature","id":"LFMY-5c3bfb2a4458bfe0f0e6","properties":{"airport":"LFMY","name":"COLOR_HardSurface2","layer":"Airfield surfaces","category":"Hard Surface 2","object_type":"Area","style_id":"polygon.hardsurface2.595e5b","source_group":"COLOR_HardSurface2","vsmr_group_ids":[],"geometry_role":"filled_region"},"geometry":{"type":"Polygon","coordinates":[[[5.111921956070898,43.59861116858502],[5.111849161960138,43.5985950486226],[5.111774196842804,43.59858061269126],[5.111681631763362,43.59857476499442],[5.111586041766345,43.59857632786019],[5.111499015687802,43.59859234844224],[5.111416551565132,43.59861935040253],[5.111334327447496,43.59865369648919],[5.111271399350443,43.5986811023574],[5.111212830870857,43.59872519612914],[5.111172204815717,43.59877142762336],[5.111122913503864,43.59882304272103],[5.11106377968904,43.5989304597738],[5.108262689208496,43.60441124443896],[5.108242713520472,43.60446471348488],[5.108225713528398,43.60450180928467],[5.108217631353529,43.60452917559261],[5.108221433353624,43.60456982940302],[5.108245973143044,43.60461268454817],[5.108287760751358,43.60466326082641],[5.108328455599409,43.60469077354861],[5.108371216171312,43.6047093599992],[5.108437488350237,43.60473090852016],[5.108762111705774,43.60482163647713],[5.108704181153438,43.604951078774],[5.108318350013301,43.60484554880482],[5.108286151943251,43.6048420533809],[5.108233890313647,43.60484077457838],[5.108175988276901,43.60484564944771],[5.108119677776639,43.60485907552949],[5.108080119735936,43.60487552173838],[5.108047834260462,43.6048952235662],[5.108014566944701,43.60491924520992],[5.107988181589461,43.60495560744502],[5.107475139559821,43.60595208669333],[5.108058815479817,43.60610199128492],[5.108012359903771,43.60609881894013],[5.107961735569207,43.60610223971544],[5.10791887816628,43.60611195712745],[5.107876225466788,43.60612599582549],[5.107833828660802,43.60614543615922],[5.107797450864526,43.60616580855714],[5.107764312871916,43.60619150847916],[5.107738429948072,43.60621270178123],[5.107094045136902,43.60747836907957],[5.107076030767845,43.60750801956868],[5.10708070335872,43.60754359626399],[5.107090158967036,43.60758554376174],[5.107101157758194,43.60762853453404],[5.107119258377937,43.60766377776746],[5.10714754717778,43.60769335999845],[5.107175682485822,43.60771970125151],[5.107200253540913,43.60773361578852],[5.107253394935178,43.60774856709777],[5.107180918987815,43.60787890821729],[5.106908192729298,43.60780371877136],[5.1068531249765,43.60779519095659],[5.106795296051412,43.60778607198603],[5.106736084034623,43.60778622287599],[5.10668430799083,43.60778948750824],[5.10663915152964,43.60779786520994],[5.106589632304519,43.6078103093016],[5.106553258628328,43.60783100285262],[5.10651597490382,43.60785171898943],[5.106483766451115,43.60790265446728],[5.103783284011869,43.61319274811363],[5.103772755735399,43.61321999335166],[5.103765765999688,43.61324517637508],[5.10376838466753,43.61328130961699],[5.103781364183853,43.61332508367969],[5.103805649633464,43.61335804694264],[5.10383619753711,43.61338888042989],[5.103870159618777,43.61341502218303],[5.103904936374892,43.61343916927875],[5.103920900603091,43.61344996185183],[5.103960658622948,43.61346411314319],[5.104285023014934,43.61355676428161],[5.104219807707519,43.61368315462438],[5.103607827003587,43.6135252403208],[5.103371901451852,43.61398295970485],[5.103329544274087,43.61406759497994],[5.103295613679332,43.61413820013535],[5.103276689357303,43.6141801327771],[5.10325857971262,43.6142200707726],[5.103247796058829,43.61426114341685],[5.103250159489701,43.61431110414934],[5.103257564622647,43.61437263457787],[5.103277708457528,43.61443334290281],[5.103405455713162,43.6148359160295],[5.103433417474948,43.61492736346298],[5.103447367287012,43.61497242981699],[5.103461540891542,43.61500301135872],[5.103474402210272,43.61502506950868],[5.103489894212414,43.61504508795672],[5.103507674785488,43.61505583558195],[5.103533751704852,43.61506901004288],[5.103319296091144,43.61515780982766],[5.103236002019544,43.61489595756866],[5.103101258459555,43.61444793959436],[5.103079850504986,43.61435424383113],[5.103079037456038,43.61430715068053],[5.10307788565898,43.61425289649617],[5.10308559890828,43.61420661609994],[5.103114952027035,43.61413931500057],[5.103140849410353,43.61407193615526],[5.103200823588995,43.61393422983618],[5.103644530084162,43.61306129279953],[5.104145933732742,43.61207716691909],[5.104882424990902,43.61060982061186],[5.105510046275206,43.60939938286514],[5.106260474167912,43.60793206795753],[5.106772428587309,43.60692585004755],[5.107551622550641,43.60540581048352],[5.107808774495599,43.60489541302812],[5.107824474950755,43.60483869170246],[5.107829309481351,43.60479145814289],[5.107813340256888,43.60475293499852],[5.107793181236115,43.60471554011504],[5.107749150683651,43.60468181083829],[5.107712571655885,43.60465609010543],[5.106863887661383,43.60435174828527],[5.106944406505676,43.60422752813627],[5.107547551144469,43.60444680511513],[5.107639518461631,43.60447944110603],[5.107698685391946,43.60449834166732],[5.10776948131533,43.60450822328249],[5.10784989926367,43.60450913577748],[5.107943264709944,43.60448644638524],[5.1080079122319,43.60445137518123],[5.108067237470082,43.60438879087014],[5.108106286059703,43.60432234517501],[5.108728004764842,43.60310200466381],[5.108953852552293,43.6026526139139],[5.109169875477821,43.60224056719412],[5.109175698972168,43.60219386215161],[5.109169480973712,43.60214745639104],[5.109151428175796,43.60210570980312],[5.109134546336489,43.60208866925952],[5.109121884967736,43.60207588885743],[5.109271219372937,43.601792815518],[5.109303260902946,43.60179056410419],[5.10933288225176,43.60177964278948],[5.109374338395359,43.60176406226473],[5.109403615291206,43.60174587441349],[5.109439748764919,43.60170278093783],[5.110469683719381,43.59968309893554],[5.110497456912966,43.59963765167265],[5.110523071675576,43.59958463427303],[5.110548824279466,43.5995345234792],[5.110568694199755,43.59948746899115],[5.110580123308295,43.59943189432357],[5.110580062774456,43.59938824546863],[5.110560278531353,43.59935236214726],[5.110542707941031,43.59932078881208],[5.110496972931172,43.59928846081577],[5.110438852609875,43.59924916573429],[5.110387924189535,43.5992344269837],[5.110343085207307,43.59922099181017],[5.110288625557158,43.59921652589722],[5.110234372661742,43.5992164198486],[5.110184684619441,43.59922784035196],[5.1101272449,43.59924527360285],[5.107983850198014,43.60029269686842],[5.10794675267528,43.60031544365273],[5.107921558604751,43.60033498467307],[5.107892970464416,43.60036770510165],[5.107870127447198,43.60039446275312],[5.107863821203591,43.60043099467722],[5.10785938413348,43.60046457013895],[5.107858409979342,43.60048641951589],[5.107859855789574,43.60051693881154],[5.107575764956676,43.60003365802434],[5.107607313218319,43.60006342950592],[5.107632221424396,43.60008027085996],[5.107659343015609,43.60010142224789],[5.107716567301638,43.60012182583258],[5.107759468357427,43.6001367651789],[5.107798218029598,43.60014889762503],[5.107830327602918,43.60014809994249],[5.107874615950747,43.60014990971111],[5.107938559686954,43.60014250110274],[5.107983822216617,43.6001224614942],[5.110828279572672,43.59872834580872],[5.110973227140301,43.59865766718864],[5.110996757304617,43.59864544189473],[5.11101143324492,43.59861597669113],[5.111175770526963,43.59831070206739],[5.111232933379235,43.59828745504279],[5.111341927907938,43.59825564364886],[5.111429330270925,43.59823455432181],[5.111511194814168,43.59822378775704],[5.111637208666022,43.59821192278173],[5.11174993332393,43.5982163934498],[5.111822591276905,43.59822331585448],[5.111937874532426,43.59823936276083],[5.112094121154227,43.59827185049414],[5.111921956070898,43.59861116858502]]]}},{"type":"Feature","id":"LFMY-281a519be30b644687f3","properties":{"airport":"LFMY","name":"COLOR_HardSurface2","layer":"Airfield surfaces","category":"Hard Surface 2","object_type":"Area","style_id":"polygon.hardsurface2.595e5b","source_group":"COLOR_HardSurface2","vsmr_group_ids":[],"geometry_role":"filled_region"},"geometry":{"type":"Polygon","coordinates":[[[5.105561831237364,43.61554461989665],[5.105580594189336,43.61558417400143],[5.105613265380208,43.6156256062404],[5.105653447234673,43.61566351709723],[5.105692893102905,43.61568588298572],[5.10575222418759,43.61570664368175],[5.105815525422464,43.61571396591178],[5.105872534248523,43.61571810930408],[5.105958262272782,43.61571264659437],[5.111074397699911,43.61520468584672],[5.111192511757805,43.61520174890143],[5.111234119522639,43.61519903557308],[5.111776037880227,43.61528292403989],[5.112008948206313,43.61531891533392],[5.11223892881339,43.61536013137328],[5.11246091689201,43.61541119094247],[5.112467483962398,43.61538895327102],[5.112464355471551,43.6152587926847],[5.112456151588818,43.61522951443288],[5.112699944330572,43.61530811745369],[5.112715323064759,43.6153430537555],[5.112726776383751,43.61537298847254],[5.112747079981974,43.61540186432642],[5.112772908368804,43.61543212577963],[5.11280603636481,43.61545558332413],[5.112839112072882,43.61547793845677],[5.112858117132508,43.61549291763897],[5.11289271562392,43.61551523487422],[5.116060512455409,43.6162723265531],[5.116041307283896,43.616156914624],[5.116050504769749,43.61609131234369],[5.116308747594013,43.61615836012584],[5.116336489414994,43.61621311963185],[5.116335943727039,43.6162567392609],[5.116337895595726,43.61627944161278],[5.116347754439827,43.61630321094341],[5.116366542153072,43.61633118165069],[5.116400543843436,43.61634866182094],[5.118328114886377,43.61680534172631],[5.118458013083275,43.61682763146528],[5.118463289545763,43.61685302777991],[5.118140381020204,43.616907223483],[5.116538178308021,43.61652580083684],[5.116505528569729,43.61652366868201],[5.116483901914521,43.61652518927551],[5.116467926623871,43.61653147827968],[5.1164506899777,43.61653976238312],[5.11644340147464,43.61655761706071],[5.116600247130323,43.61702581026903],[5.116416711252507,43.61705892969439],[5.116224365136713,43.61651337163102],[5.116216660209036,43.61649076238437],[5.116205928842421,43.61647422882912],[5.116183778849321,43.61646157988308],[5.116158089745797,43.61644421885463],[5.116126119862676,43.61643421461813],[5.112248369956638,43.61551308339351],[5.112215895003331,43.61552367225145],[5.112182000086918,43.61554767377565],[5.112161536564321,43.61556582728454],[5.112142908060322,43.61559055182684],[5.112116620236185,43.61561436409815],[5.11115789731873,43.61547279018824],[5.111162833390961,43.61544840630552],[5.111163414225981,43.61542854183214],[5.111162682671983,43.61541312110748],[5.111157334637828,43.615396712402],[5.111128799683648,43.61537316076999],[5.111091658803777,43.61536085091783],[5.111028758455607,43.61535138707251],[5.111002946726073,43.61535313163476],[5.107555987606838,43.61568914521237],[5.105779775443846,43.61586499504583],[5.105699296315844,43.61587030070329],[5.10563413577618,43.61587743169579],[5.105579416601129,43.61587989242648],[5.105541485272951,43.61588303929787],[5.105482149689305,43.615884511768],[5.105456233313319,43.61588405212245],[5.105427534838443,43.61588917539033],[5.105561831237364,43.61554461989665]]]}},{"type":"Feature","id":"LFMY-a520237e18333d0a1422","properties":{"airport":"LFMY","name":"COLOR_Stopbar","layer":"Surface markings","category":"Stopbars","object_type":"Area","style_id":"polygon.stopbar.7e0000","source_group":"COLOR_Stopbar","vsmr_group_ids":[],"geometry_role":"filled_region"},"geometry":{"type":"Polygon","coordinates":[[[5.11190692311196,43.59860934072426],[5.111969389809774,43.59848344890237],[5.111985193302548,43.59848671915502],[5.111926489331644,43.59861479102199],[5.11190692311196,43.59860934072426]]]}},{"type":"Feature","id":"LFMY-42dd2b7ed543b05043d6","properties":{"airport":"LFMY","name":"COLOR_Stopbar","layer":"Surface markings","category":"Stopbars","object_type":"Area","style_id":"polygon.stopbar.7e0000","source_group":"COLOR_Stopbar","vsmr_group_ids":[],"geometry_role":"filled_region"},"geometry":{"type":"Polygon","coordinates":[[[5.108684360877678,43.60494594550799],[5.108751096976625,43.60481686583689],[5.108764043139167,43.60482047211415],[5.108698302873216,43.6049502729738],[5.108684360877678,43.60494594550799]]]}},{"type":"Feature","id":"LFMY-984bfa50c4265e76336b","properties":{"airport":"LFMY","name":"COLOR_Stopbar","layer":"Surface markings","category":"Stopbars","object_type":"Area","style_id":"polygon.stopbar.7e0000","source_group":"COLOR_Stopbar","vsmr_group_ids":[],"geometry_role":"filled_region"},"geometry":{"type":"Polygon","coordinates":[[[5.107170729941489,43.60787572688364],[5.107246899843254,43.60774570533596],[5.10725912188753,43.60774842913694],[5.107182951797055,43.60788049298777],[5.107170729941489,43.60787572688364]]]}},{"type":"Feature","id":"LFMY-f1452ca6cdf186fc767c","properties":{"airport":"LFMY","name":"COLOR_Stopbar","layer":"Surface markings","category":"Stopbars","object_type":"Area","style_id":"polygon.stopbar.7e0000","source_group":"COLOR_Stopbar","vsmr_group_ids":[],"geometry_role":"filled_region"},"geometry":{"type":"Polygon","coordinates":[[[5.104211886805765,43.6136799082864],[5.104277305393112,43.6135527234696],[5.104293974387137,43.61355829528938],[5.104231120620685,43.61368455191999],[5.104211886805765,43.6136799082864]]]}},{"type":"Feature","id":"LFMY-026f8f11df13f7bd5e70","properties":{"airport":"LFMY","name":"COLOR_Stopbar","layer":"Surface markings","category":"Stopbars","object_type":"Area","style_id":"polygon.stopbar.7e0000","source_group":"COLOR_Stopbar","vsmr_group_ids":[],"geometry_role":"filled_region"},"geometry":{"type":"Polygon","coordinates":[[[5.103309390931212,43.6151529200897],[5.103534311155178,43.61506279165717],[5.103540101173063,43.61507117818528],[5.10331614634576,43.6151606078848],[5.103309390931212,43.6151529200897]]]}},{"type":"Feature","id":"LFMY-ed55ed7abf1761e5e18d","properties":{"airport":"LFMY","name":"COLOR_Stopbar","layer":"Surface markings","category":"Stopbars","object_type":"Area","style_id":"polygon.stopbar.7e0000","source_group":"COLOR_Stopbar","vsmr_group_ids":[],"geometry_role":"filled_region"},"geometry":{"type":"Polygon","coordinates":[[[5.105432777332002,43.61588972686175],[5.105545388776132,43.61555614427943],[5.105559063873826,43.61556147668829],[5.105453817588279,43.61588744359133],[5.105432777332002,43.61588972686175]]]}},{"type":"Feature","id":"LFMY-cccd11a246b126d077e4","properties":{"airport":"LFMY","name":"COLOR_RunwayGrass","layer":"Airfield surfaces","category":"Grass runways","object_type":"Area","style_id":"polygon.runwaygrass.008000","source_group":"COLOR_RunwayGrass","vsmr_group_ids":[],"geometry_role":"filled_region"},"geometry":{"type":"Polygon","coordinates":[[[5.109196079690921,43.60937947268985],[5.109217464810316,43.60885577989634],[5.1191727026289,43.60869732907523],[5.119177456630912,43.60924658772509],[5.109196079690921,43.60937947268985]]]}},{"type":"Feature","id":"LFMY-b7432352b244494b12af","properties":{"airport":"LFMY","name":"COLOR_RunwayGrass","layer":"Airfield surfaces","category":"Grass runways","object_type":"Area","style_id":"polygon.runwaygrass.008000","source_group":"COLOR_RunwayGrass","vsmr_group_ids":[],"geometry_role":"filled_region"},"geometry":{"type":"Polygon","coordinates":[[[5.117642385336834,43.60318450734561],[5.11869810246663,43.6033704483306],[5.114935669917056,43.61303581599581],[5.113861494030316,43.61277765584064],[5.117642385336834,43.60318450734561]]]}},{"type":"Feature","id":"LFMY-7a336b8204b2362c3ad4","properties":{"airport":"LFMY","name":"COLOR_RunwayGrass","layer":"Airfield surfaces","category":"Grass runways","object_type":"Area","style_id":"polygon.runwaygrass.008000","source_group":"COLOR_RunwayGrass","vsmr_group_ids":[],"geometry_role":"filled_region"},"geometry":{"type":"Polygon","coordinates":[[[5.115407397557965,43.6146222461546],[5.118770565254341,43.60619087436532],[5.119724584756637,43.60637747990817],[5.116388282726414,43.61482699456447],[5.115407397557965,43.6146222461546]]]}},{"type":"Feature","id":"LFMY-f7a8fe8484bf2867cd24","properties":{"airport":"LFMY","name":"COLOR_RunwayConcrete","layer":"Airfield surfaces","category":"Runways","object_type":"Area","style_id":"polygon.runwayconcrete.555555","source_group":"COLOR_RunwayConcrete","vsmr_group_ids":[],"geometry_role":"filled_region"},"geometry":{"type":"Polygon","coordinates":[[[5.111972113406122,43.59848027432827],[5.11329182055964,43.59883242257231],[5.10496482497164,43.61514575258213],[5.104968350351069,43.61517407758921],[5.104975427721399,43.61519417683915],[5.104990127061903,43.61522739234593],[5.105010460525337,43.61526870471814],[5.105035344329973,43.61531370573452],[5.105063610133431,43.61533771438654],[5.105103089651825,43.61535827686441],[5.105138803127483,43.61537323047258],[5.105185134383314,43.61539155710211],[5.105563713983942,43.61549494153728],[5.105571570651978,43.61553149476337],[5.105452522673824,43.61589036685405],[5.105446403846439,43.61589051869357],[5.105413971467476,43.61588942273266],[5.105379641081782,43.61588520591609],[5.105355770182324,43.6158800959527],[5.105287953616601,43.61587100774783],[5.105225381806589,43.61586178936929],[5.105158984006151,43.61584569641385],[5.105091742086938,43.6158302579569],[5.104674937372636,43.61572797804786],[5.103695922288713,43.61546270351564],[5.10357068451736,43.61542887798985],[5.103511826671443,43.61541079016128],[5.103454658466113,43.61539029936107],[5.103412023308049,43.61536631836079],[5.103388327856589,43.61534061578658],[5.103372020138712,43.61530659258371],[5.103354700957883,43.61526946468361],[5.103315490199423,43.61515338324827],[5.103530011984199,43.61506418544865],[5.103555020419281,43.61508109202211],[5.103591196222155,43.61509646973169],[5.103621001603078,43.61510511990205],[5.103659561100713,43.61511605678581],[5.103700533863716,43.61512317807281],[5.103745528723054,43.61512394003671],[5.103786950942029,43.61512228676592],[5.103830786384504,43.61511681789269],[5.103895530922935,43.61509643341984],[5.103964089265178,43.61507016721176],[5.104100884192664,43.61509243844906],[5.104147008909329,43.61509880583846],[5.104182267678095,43.61509480148327],[5.10423834107492,43.61509215867459],[5.104286405561611,43.6150847068543],[5.104332299042607,43.61506791953146],[5.104374590247125,43.61504809176813],[5.104405654926135,43.6150285424745],[5.104435856012546,43.61500901459095],[5.104992823716303,43.61389435602639],[5.104214206709214,43.613682253143],[5.104280186104622,43.61355265054562],[5.104546257358011,43.61362712276543],[5.104588211032926,43.61363222430348],[5.104639247952097,43.61363505301848],[5.10474173751753,43.61363455772107],[5.104812159598618,43.61362871560209],[5.104936984276431,43.61360719144818],[5.105000373287172,43.61358719154848],[5.105076767852205,43.6135581672215],[5.105143812938049,43.61352579178022],[5.105183148480732,43.61349052083121],[5.105210842415737,43.6134632166892],[5.105235518083426,43.61343189251225],[5.107791596956428,43.60843165813458],[5.107800706029384,43.60838871482397],[5.107796245306053,43.60834990564625],[5.107790272985195,43.60830686231231],[5.107773805830035,43.60824984063821],[5.10775717810308,43.60820326488702],[5.107733448765986,43.60816760067297],[5.107703973409709,43.60812656498681],[5.107669327630684,43.60808708164345],[5.107637705113818,43.60805606661529],[5.107602876341153,43.6080265551205],[5.107560213276791,43.60799771283025],[5.107520075904926,43.6079806736372],[5.107489172179347,43.60796482899885],[5.107443909276482,43.60795029024843],[5.107171872000096,43.60787732496491],[5.107246905738259,43.6077454119045],[5.10774020416015,43.60788523165968],[5.107780764710768,43.60789733531318],[5.107836474588239,43.60791070154826],[5.107865059209868,43.60790889891641],[5.107891202098862,43.60790333285989],[5.10793449653264,43.60789351666357],[5.107967968462708,43.60788339814834],[5.108007989995455,43.60786820025392],[5.108048480717391,43.60784698140833],[5.10807239249413,43.60782617440096],[5.108101424266575,43.60780196241122],[5.108121593916765,43.60778179464409],[5.109301756664973,43.60546377791581],[5.109303324853012,43.60543413563716],[5.109295091797154,43.60538589848584],[5.10928987951293,43.60533866278882],[5.109274196631556,43.60529007259836],[5.109252242969548,43.60523464113513],[5.109224117065663,43.6051901278956],[5.109186081184658,43.60515608752296],[5.109150502017965,43.60512683024251],[5.10911727759887,43.60510020563954],[5.109089657979418,43.60508205359383],[5.109060192866348,43.6050599210548],[5.109023714896583,43.60504306558187],[5.108987389847954,43.60502943575953],[5.108962379774262,43.60501929242582],[5.108913535256412,43.60500812666732],[5.108683907056337,43.60494655259595],[5.108750525776058,43.60481518117015],[5.109099846314214,43.60490498390116],[5.109124213076102,43.604908583317],[5.109151280873885,43.6049079106244],[5.10921318329999,43.60490707302012],[5.109276753682527,43.60490058729545],[5.109374594587885,43.60488203649665],[5.109458967921146,43.60486522200928],[5.109530608136286,43.60484521979161],[5.109581947513595,43.60482572212405],[5.10962608855154,43.6047972925696],[5.109652895249361,43.60477069552533],[5.112496505797852,43.59921271342861],[5.112503801008788,43.59918059909197],[5.112493748042248,43.59915459337999],[5.1124709043381,43.59912748673065],[5.112448127911535,43.5991017976442],[5.11241873580139,43.59908124049549],[5.112141903720331,43.59900865153981],[5.112197135059812,43.59889707962537],[5.112205341868106,43.59886352339674],[5.112201669431911,43.59882742429739],[5.112198030631749,43.59879203398248],[5.112183659482499,43.59875762032109],[5.112160681584714,43.59872767851341],[5.112136893117638,43.59870130495498],[5.112096130103813,43.59866825756441],[5.112053069840958,43.59864875003352],[5.111998500275972,43.59863449615255],[5.111944943090365,43.59862092667092],[5.111908091443191,43.59860836078114],[5.111972113406122,43.59848027432827]]]}},{"type":"Feature","id":"LFMY-f11e5e18c8a458ae3731","properties":{"airport":"LFMY","name":"COLOR_Gate","layer":"Guidance lines","category":"gate","object_type":"Line","style_id":"line.gate","source_group":"COLOR_Gate","vsmr_group_ids":[],"geometry_role":"linework"},"geometry":{"type":"LineString","coordinates":[[5.10372211055307,43.61718323247248],[5.103700754713274,43.61684349200935]]}},{"type":"Feature","id":"LFMY-b8e3b60acbd99e9d24f6","properties":{"airport":"LFMY","name":"COLOR_Gate","layer":"Guidance lines","category":"gate","object_type":"Line","style_id":"line.gate","source_group":"COLOR_Gate","vsmr_group_ids":[],"geometry_role":"linework"},"geometry":{"type":"LineString","coordinates":[[5.103553695200606,43.61713961842579],[5.103868988440623,43.6168832871332]]}},{"type":"Feature","id":"LFMY-b715a99cb3ed9291faa9","properties":{"airport":"LFMY","name":"COLOR_Gate","layer":"Guidance lines","category":"gate","object_type":"Line","style_id":"line.gate","source_group":"COLOR_Gate","vsmr_group_ids":[],"geometry_role":"linework"},"geometry":{"type":"LineString","coordinates":[[5.104091749722643,43.61645720403735],[5.104075485211945,43.61611351379162]]}},{"type":"Feature","id":"LFMY-830665704f213770f3be","properties":{"airport":"LFMY","name":"COLOR_Gate","layer":"Guidance lines","category":"gate","object_type":"Line","style_id":"line.gate","source_group":"COLOR_Gate","vsmr_group_ids":[],"geometry_role":"linework"},"geometry":{"type":"LineString","coordinates":[[5.103928520816472,43.61641155010215],[5.104244078535986,43.61616094622261]]}},{"type":"Feature","id":"LFMY-457041a862ed68354b20","properties":{"airport":"LFMY","name":"COLOR_Gate","layer":"Guidance lines","category":"gate","object_type":"Line","style_id":"line.gate","source_group":"COLOR_Gate","vsmr_group_ids":[],"geometry_role":"linework"},"geometry":{"type":"LineString","coordinates":[[5.104747196965884,43.6151129721567],[5.104666124264452,43.6152629661334]]}},{"type":"Feature","id":"LFMY-45bee0f9937b043729ee","properties":{"airport":"LFMY","name":"COLOR_Gate","layer":"Guidance lines","category":"gate","object_type":"Line","style_id":"line.gate","source_group":"COLOR_Gate","vsmr_group_ids":[],"geometry_role":"linework"},"geometry":{"type":"LineString","coordinates":[[5.104634843693319,43.61508190733352],[5.104670031988716,43.61511972260668],[5.104606771554126,43.61525089771354],[5.104540244052997,43.61522836798139],[5.104581863531241,43.61514802452415],[5.104649588152713,43.61516762291245]]}},{"type":"Feature","id":"LFMY-f8c3bbcbb099d6fc709a","properties":{"airport":"LFMY","name":"COLOR_Gate","layer":"Guidance lines","category":"gate","object_type":"Line","style_id":"line.gate","source_group":"COLOR_Gate","vsmr_group_ids":[],"geometry_role":"linework"},"geometry":{"type":"LineString","coordinates":[[5.105921469807488,43.61222477864674],[5.106115241274081,43.61184700732056],[5.106221069797565,43.61187392178003],[5.106022030128498,43.61224813129668],[5.105921469807488,43.61222477864674]]}},{"type":"Feature","id":"LFMY-2aa6964c9c54f3f11383","properties":{"airport":"LFMY","name":"COLOR_Gate","layer":"Guidance lines","category":"gate","object_type":"Line","style_id":"line.gate","source_group":"COLOR_Gate","vsmr_group_ids":[],"geometry_role":"linework"},"geometry":{"type":"LineString","coordinates":[[5.106236497730796,43.61230742947508],[5.106334773032952,43.61233637766603],[5.106538555524953,43.61195466452148],[5.106437821105247,43.61192762390949],[5.106236497730796,43.61230742947508]]}},{"type":"Feature","id":"LFMY-2d0ed65ca0bea8ba0d81","properties":{"airport":"LFMY","name":"COLOR_Gate","layer":"Guidance lines","category":"gate","object_type":"Line","style_id":"line.gate","source_group":"COLOR_Gate","vsmr_group_ids":[],"geometry_role":"linework"},"geometry":{"type":"LineString","coordinates":[[5.112643240532375,43.5992927106945],[5.11271575973306,43.59931291292168],[5.112742744593206,43.59926183842202],[5.112721442743283,43.59924675072632],[5.112752539197314,43.59924100754527],[5.112791818495368,43.59915981127891],[5.112717442165813,43.59914178501221]]}},{"type":"Feature","id":"LFMY-586441667e4ff80a0496","properties":{"airport":"LFMY","name":"COLOR_Gate","layer":"Guidance lines","category":"gate","object_type":"Line","style_id":"line.gate","source_group":"COLOR_Gate","vsmr_group_ids":[],"geometry_role":"linework"},"geometry":{"type":"LineString","coordinates":[[5.112782505168878,43.59933538850476],[5.112798019673339,43.59922851729561],[5.112811020809227,43.59921328582752],[5.112892553941613,43.59923752302529],[5.11286770571,43.59923033252302],[5.112832514552372,43.59929438948439],[5.112892055829441,43.59918571269216]]}},{"type":"Feature","id":"LFMY-3d6d60f5b59eece4b6a4","properties":{"airport":"LFMY","name":"COLOR_Gate","layer":"Guidance lines","category":"gate","object_type":"Line","style_id":"line.gate","source_group":"COLOR_Gate","vsmr_group_ids":[],"geometry_role":"linework"},"geometry":{"type":"LineString","coordinates":[[5.113353143916353,43.59832333091514],[5.113336874564727,43.59798051440487]]}},{"type":"Feature","id":"LFMY-f1f02c1fe96c1710a744","properties":{"airport":"LFMY","name":"COLOR_Gate","layer":"Guidance lines","category":"gate","object_type":"Line","style_id":"line.gate","source_group":"COLOR_Gate","vsmr_group_ids":[],"geometry_role":"linework"},"geometry":{"type":"LineString","coordinates":[[5.113187217366892,43.59827560770759],[5.113509143015071,43.59801820256952]]}},{"type":"Feature","id":"LFMY-bc7317206a76f7b0c56f","properties":{"airport":"LFMY","name":"COLOR_Gate","layer":"Guidance lines","category":"gate","object_type":"Line","style_id":"line.gate","source_group":"COLOR_Gate","vsmr_group_ids":[],"geometry_role":"linework"},"geometry":{"type":"LineString","coordinates":[[5.113861074237256,43.59731559347269],[5.113851377659855,43.59696767678687]]}},{"type":"Feature","id":"LFMY-b61de02021e5acf243bf","properties":{"airport":"LFMY","name":"COLOR_Gate","layer":"Guidance lines","category":"gate","object_type":"Line","style_id":"line.gate","source_group":"COLOR_Gate","vsmr_group_ids":[],"geometry_role":"linework"},"geometry":{"type":"LineString","coordinates":[[5.113695150729882,43.59726787094692],[5.114023643083401,43.59700536439576]]}},{"type":"Feature","id":"LFMY-93314987d1fd61cce2af","properties":{"airport":"LFMY","name":"COLOR_Gate","layer":"Guidance lines","category":"gate","object_type":"Line","style_id":"line.gate","source_group":"COLOR_Gate","vsmr_group_ids":[],"geometry_role":"linework"},"geometry":{"type":"LineString","coordinates":[[5.107821515973971,43.6059867407811],[5.107777035643572,43.6059200280098]]}},{"type":"Feature","id":"LFMY-5cf416f5d59a1411be72","properties":{"airport":"LFMY","name":"COLOR_Gate","layer":"Guidance lines","category":"gate","object_type":"Line","style_id":"line.gate","source_group":"COLOR_Gate","vsmr_group_ids":[],"geometry_role":"linework"},"geometry":{"type":"LineString","coordinates":[[5.107752164400967,43.60597649562312],[5.107855018927083,43.60593803729765]]}},{"type":"Feature","id":"LFMY-4d42f8d8778685e7f87b","properties":{"airport":"LFMY","name":"COLOR_Gate","layer":"Guidance lines","category":"gate","object_type":"Line","style_id":"line.gate","source_group":"COLOR_Gate","vsmr_group_ids":[],"geometry_role":"linework"},"geometry":{"type":"LineString","coordinates":[[5.108605706786078,43.60620063100018],[5.108566445211407,43.60612780506485]]}},{"type":"Feature","id":"LFMY-52c817d96bf2afe6aa93","properties":{"airport":"LFMY","name":"COLOR_Gate","layer":"Guidance lines","category":"gate","object_type":"Line","style_id":"line.gate","source_group":"COLOR_Gate","vsmr_group_ids":[],"geometry_role":"linework"},"geometry":{"type":"LineString","coordinates":[[5.108541480246391,43.60618228048119],[5.108636174518574,43.60614601884036]]}}]}
