{"type":"FeatureCollection","name":"LFMZ AVISO","bbox":[2.726138889,43.172361111,2.739166667,43.178833333],"metadata":{"schema":"vSMR AVISO","schema_version":2,"geometry_mode":"shared","airport":"LFMZ","coordinate_reference_system":"WGS84","coordinate_order":"longitude, latitude","default_color_palette":"dark","color_palettes":["dark","light"],"background_colors":{"dark":"#434A4F","light":"#434A4F"},"runways":[{"ends":["08L","26R"],"headings":[77,257],"thresholds":[[2.728963889,43.175638889],[2.738624722,43.177071944]]},{"ends":["08","26"],"headings":[77,257],"thresholds":[[2.726655833,43.174016944],[2.738710833,43.175810833]]}],"saved_active_runways":[],"saved_active_airport_modes":[],"airport_reference":[2.732777778,43.174999722],"feature_count":2,"style_count":2,"layer_counts":{"Guidance lines":2},"category_counts":{"Grass runways":1,"Runways":1},"geometry_source":"local GNG/KMZ","geometry_source_url":"","geometry_license":"GPL-3.0"},"styles":{"line.runwayconcrete.555555":{"name":"Runways","layer":"Guidance lines","object_type":"Line","paint":{"stroke":"#111318","stroke-opacity":1,"stroke-width":1,"palette-overrides":{"light":{"stroke":"#555555"}}},"feature_count":1},"line.runwaygrass.008000":{"name":"Grass runways","layer":"Guidance lines","object_type":"Line","paint":{"stroke":"#859A77","stroke-opacity":1,"stroke-width":1,"palette-overrides":{"light":{"stroke":"#008000"}}},"feature_count":1}},"vsmr_groups":[],"features":[{"type":"Feature","id":"LFMZ-e1a15f305c43d99f5a00","properties":{"airport":"LFMZ","name":"LFMZ Groundlayout","layer":"Guidance lines","category":"Runways","object_type":"Line","style_id":"line.runwayconcrete.555555","source_group":"LFMZ Groundlayout","vsmr_group_ids":[],"geometry_role":"linework"},"geometry":{"type":"MultiLineString","coordinates":[[[2.727166667,43.172361111],[2.739166667,43.174166667]],[[2.72625,43.175638889],[2.727166667,43.172361111]],[[2.73825,43.177444444],[2.739166667,43.174166667]]]}},{"type":"Feature","id":"LFMZ-1d5b7c6b1912c05afbf4","properties":{"airport":"LFMZ","name":"LFMZ Groundlayout","layer":"Guidance lines","category":"Grass runways","object_type":"Line","style_id":"line.runwaygrass.008000","source_group":"LFMZ Groundlayout","vsmr_group_ids":[],"geometry_role":"linework"},"geometry":{"type":"MultiLineString","coordinates":[[[2.726138889,43.177027778],[2.738138889,43.178833333]],[[2.727055556,43.173777778],[2.739055556,43.175555556]],[[2.726138889,43.177027778],[2.727055556,43.173777778]],[[2.738138889,43.178833333],[2.739055556,43.175555556]]]}}]}
