{"type":"FeatureCollection","name":"LFNA AVISO","bbox":[6.031861111,44.448944444,6.040527778,44.45625],"metadata":{"schema":"vSMR AVISO","schema_version":2,"geometry_mode":"shared","airport":"LFNA","coordinate_reference_system":"WGS84","coordinate_order":"longitude, latitude","default_color_palette":"dark","color_palettes":["dark","light"],"background_colors":{"dark":"#434A4F","light":"#434A4F"},"runways":[{"ends":["02","20"],"headings":[23,203],"thresholds":[[6.033910833,44.449721944],[6.037868889,44.455516944]]}],"saved_active_runways":[],"saved_active_airport_modes":[],"airport_reference":[6.036666944,44.453888889],"feature_count":2,"style_count":2,"layer_counts":{"Guidance lines":2},"category_counts":{"Grass runways":1,"Runways":1},"geometry_source":"local GNG","geometry_source_url":"","geometry_license":"GPL-3.0"},"styles":{"line.runwayconcrete.555555":{"name":"Runways","layer":"Guidance lines","object_type":"Line","paint":{"stroke":"#111318","stroke-opacity":1,"stroke-width":1,"palette-overrides":{"light":{"stroke":"#555555"}}},"feature_count":1},"line.runwaygrass.008000":{"name":"Grass runways","layer":"Guidance lines","object_type":"Line","paint":{"stroke":"#859A77","stroke-opacity":1,"stroke-width":1,"palette-overrides":{"light":{"stroke":"#008000"}}},"feature_count":1}},"vsmr_groups":[],"features":[{"type":"Feature","id":"LFNA-511d08016b07ab891624","properties":{"airport":"LFNA","name":"LFNA Groundlayout","layer":"Guidance lines","category":"Runways","object_type":"Line","style_id":"line.runwayconcrete.555555","source_group":"LFNA Groundlayout","vsmr_group_ids":[],"geometry_role":"linework"},"geometry":{"type":"MultiLineString","coordinates":[[[6.037833333,44.450555556],[6.040527778,44.454555556]],[[6.03375,44.452027778],[6.037833333,44.450555556]],[[6.036472222,44.456027778],[6.040527778,44.454555556]]]}},{"type":"Feature","id":"LFNA-2b97192184e4c17c3164","properties":{"airport":"LFNA","name":"LFNA Groundlayout","layer":"Guidance lines","category":"Grass runways","object_type":"Line","style_id":"line.runwaygrass.008000","source_group":"LFNA Groundlayout","vsmr_group_ids":[],"geometry_role":"linework"},"geometry":{"type":"MultiLineString","coordinates":[[[6.031861111,44.450444444],[6.035861111,44.45625]],[[6.035916667,44.448944444],[6.039916667,44.45475]],[[6.031861111,44.450444444],[6.035916667,44.448944444]],[[6.035861111,44.45625],[6.039916667,44.45475]]]}}]}
