{"type":"FeatureCollection","name":"LFNB AVISO","bbox":[3.527305556,44.497833333,3.538583333,44.504972222],"metadata":{"schema":"vSMR AVISO","schema_version":2,"geometry_mode":"shared","airport":"LFNB","coordinate_reference_system":"WGS84","coordinate_order":"longitude, latitude","default_color_palette":"dark","color_palettes":["dark","light"],"background_colors":{"dark":"#434A4F","light":"#434A4F"},"runways":[{"ends":["12","30"],"headings":[124,304],"thresholds":[[3.528588889,44.503591944],[3.537246944,44.499168889]]}],"saved_active_runways":[],"saved_active_airport_modes":[],"airport_reference":[3.527499722,44.504166944],"feature_count":1,"style_count":1,"layer_counts":{"Guidance lines":1},"category_counts":{"Runways":1},"geometry_source":"local GNG","geometry_source_url":"","geometry_license":"GPL-3.0"},"styles":{"line.runwayconcrete.555555":{"name":"Runways","layer":"Guidance lines","object_type":"Line","paint":{"stroke":"#111318","stroke-opacity":1,"stroke-width":1,"palette-overrides":{"light":{"stroke":"#555555"}}},"feature_count":1}},"vsmr_groups":[],"features":[{"type":"Feature","id":"LFNB-de4d49058ce6f07c14da","properties":{"airport":"LFNB","name":"LFNB Groundlayout","layer":"Guidance lines","category":"Runways","object_type":"Line","style_id":"line.runwayconcrete.555555","source_group":"LFNB Groundlayout","vsmr_group_ids":[],"geometry_role":"linework"},"geometry":{"type":"MultiLineString","coordinates":[[[3.527305556,44.502222222],[3.536,44.497833333]],[[3.529888889,44.504972222],[3.527305556,44.502222222]],[[3.538583333,44.500583333],[3.536,44.497833333]]]}}]}
