{"type":"FeatureCollection","name":"LFOA AVISO","bbox":[2.605237222,47.0445425,2.658121944,47.066614722],"metadata":{"schema":"vSMR AVISO","schema_version":2,"geometry_mode":"shared","airport":"LFOA","coordinate_reference_system":"WGS84","coordinate_order":"longitude, latitude","default_color_palette":"dark","color_palettes":["dark","light"],"background_colors":{"dark":"#434A4F","light":"#434A4F"},"runways":[{"ends":["06","24"],"headings":[59,239],"thresholds":[[2.611777778,47.047946944],[2.651855833,47.063527778]]}],"saved_active_runways":[],"saved_active_airport_modes":[],"airport_reference":[2.638888889,47.056943889],"feature_count":84,"style_count":9,"layer_counts":{"Airfield surfaces":15,"Buildings and structures":32,"Labels":28,"Surface markings":8,"Terrain":1},"category_counts":{"Buildings":32,"Gates":6,"Grass":1,"Hard Surface 2":2,"Hard Surface 3":8,"Hard Surface 4":4,"Runways":1,"Stopbars":8,"Taxiways":22},"geometry_source":"local GNG","geometry_source_url":"","geometry_license":"GPL-3.0"},"styles":{"polygon.grassurface.00512f":{"name":"Grass","layer":"Terrain","object_type":"Area","paint":{"fill":"#010D19","fill-opacity":1,"palette-overrides":{"light":{"fill":"#00512F"}}},"feature_count":1},"polygon.hardsurface4.969393":{"name":"Hard Surface 4","layer":"Airfield surfaces","object_type":"Area","paint":{"fill":"#152841","fill-opacity":1,"palette-overrides":{"light":{"fill":"#969393"}}},"feature_count":4},"polygon.hardsurface2.595e5b":{"name":"Hard Surface 2","layer":"Airfield surfaces","object_type":"Area","paint":{"fill":"#2F3949","fill-opacity":1,"palette-overrides":{"light":{"fill":"#595E5B"}}},"feature_count":2},"polygon.runwayconcrete.555555":{"name":"Runways","layer":"Airfield surfaces","object_type":"Area","paint":{"fill":"#111318","fill-opacity":1,"palette-overrides":{"light":{"fill":"#555555"}}},"feature_count":1},"polygon.hardsurface3.8a807f":{"name":"Hard Surface 3","layer":"Airfield surfaces","object_type":"Area","paint":{"fill":"#222D3C","fill-opacity":1,"palette-overrides":{"light":{"fill":"#8A807F"}}},"feature_count":8},"polygon.building.394446":{"name":"Buildings","layer":"Buildings and structures","object_type":"Area","paint":{"fill":"#475570","fill-opacity":1,"palette-overrides":{"light":{"fill":"#394446"}}},"feature_count":32},"polygon.stopbar.7e0000":{"name":"Stopbars","layer":"Surface markings","object_type":"Area","paint":{"fill":"#7E0000","fill-opacity":1,"palette-overrides":{"light":{"fill":"#7E0000"}}},"feature_count":8},"label.gates":{"name":"Gates","layer":"Labels","object_type":"Label","paint":{"text-color":"#CCCCCC","text-font":"Arial","text-size":12,"text-halo-color":"#000000","text-halo-width":1,"text-anchor":"center","zoomLevel":9},"feature_count":6},"label.taxiways":{"name":"Taxiways","layer":"Labels","object_type":"Label","paint":{"text-color":"#CCCCCC","text-font":"Arial","text-size":12,"text-halo-color":"#000000","text-halo-width":1,"text-anchor":"center","zoomLevel":7},"feature_count":22}},"vsmr_groups":[],"features":[{"type":"Feature","id":"LFOA-f2fd03534eb3b9151891","properties":{"airport":"LFOA","name":"LFOA AVISO","layer":"Terrain","category":"Grass","object_type":"Area","style_id":"polygon.grassurface.00512f","source_group":"LFOA AVISO","vsmr_group_ids":[],"geometry_role":"filled_region"},"geometry":{"type":"Polygon","coordinates":[[[2.655975278,47.066566944],[2.655744444,47.066496389],[2.651820556,47.064984167],[2.615246111,47.050883889],[2.615045833,47.050853333],[2.614758056,47.050872778],[2.614512778,47.0509125],[2.612480833,47.051465556],[2.612246944,47.0514875],[2.612009444,47.051479722],[2.611728333,47.051448611],[2.611500556,47.0514],[2.608390278,47.050181667],[2.608198333,47.050092778],[2.6080225,47.050001667],[2.607879167,47.049916667],[2.607741667,47.049810833],[2.6076025,47.049669167],[2.607484722,47.049522222],[2.607391944,47.049338056],[2.606960556,47.048373333],[2.606926389,47.048208611],[2.606923889,47.048044167],[2.606940278,47.047750556],[2.606910833,47.047533889],[2.60687,47.047387222],[2.606792778,47.047229722],[2.6066925,47.0471025],[2.605589444,47.046024444],[2.605478889,47.045891389],[2.605358056,47.0457525],[2.605280278,47.045586389],[2.605237222,47.045422222],[2.605259444,47.045245556],[2.605330833,47.0450825],[2.605457778,47.044918056],[2.605647222,47.044775278],[2.6058825,47.044648889],[2.606215,47.044563056],[2.606482778,47.0445425],[2.606845556,47.044575278],[2.60736,47.044662222],[2.609231389,47.044974444],[2.609909722,47.045091667],[2.610546111,47.045207778],[2.611675556,47.045388056],[2.612694722,47.045556111],[2.613229167,47.045643056],[2.613646944,47.045677222],[2.613993056,47.045671944],[2.614455556,47.045626944],[2.615419167,47.045441111],[2.617505833,47.045043056],[2.618435556,47.044876389],[2.618943056,47.044779722],[2.619389722,47.044742222],[2.619811944,47.044735],[2.620183611,47.044759167],[2.620565556,47.044828611],[2.621006389,47.044942778],[2.621859722,47.045252222],[2.622850556,47.045636389],[2.624144167,47.0461525],[2.625426389,47.046635],[2.627312778,47.047358611],[2.628201111,47.047706667],[2.628576111,47.047839444],[2.628904722,47.047925833],[2.6292125,47.047977778],[2.629519722,47.048004167],[2.629898333,47.0480025],[2.630283333,47.047965],[2.630622778,47.047900833],[2.631059167,47.047779722],[2.631607222,47.047589444],[2.634591944,47.046620278],[2.6349575,47.046498611],[2.635148611,47.046447778],[2.635581389,47.046346944],[2.635903333,47.046284722],[2.636063611,47.046247778],[2.636348333,47.046155],[2.636935278,47.045953611],[2.637352222,47.045841667],[2.637871944,47.045741111],[2.63831,47.045665833],[2.639105278,47.045635556],[2.640336667,47.045705833],[2.644635,47.046251944],[2.645173056,47.046345556],[2.645652222,47.046508056],[2.646057778,47.046771389],[2.649542222,47.0504675],[2.649796667,47.050715278],[2.650129167,47.050920833],[2.650633889,47.051164444],[2.652139167,47.051900833],[2.652544167,47.052097778],[2.652937222,47.052342778],[2.653660833,47.052969167],[2.653968611,47.0532975],[2.654118611,47.053591111],[2.654173611,47.053895],[2.654844167,47.060214722],[2.654918333,47.060653333],[2.655034722,47.060986667],[2.6551825,47.061280833],[2.655344722,47.061655],[2.655440278,47.0620425],[2.655476944,47.062486389],[2.655510278,47.062971944],[2.655543333,47.063303889],[2.655576111,47.063435556],[2.655638056,47.063545833],[2.655750833,47.063632778],[2.657531944,47.064309444],[2.657831667,47.064443889],[2.657948333,47.064524722],[2.658066389,47.06464],[2.658108611,47.064752222],[2.658121944,47.064857222],[2.658108056,47.064933611],[2.6580675,47.065017778],[2.657089444,47.066231944],[2.656863889,47.066451944],[2.656704167,47.066568056],[2.656465833,47.066614722],[2.656169444,47.066610278],[2.655975278,47.066566944]]]}},{"type":"Feature","id":"LFOA-2e1dec575d6037ea80a6","properties":{"airport":"LFOA","name":"LFOA AVISO","layer":"Airfield surfaces","category":"Hard Surface 4","object_type":"Area","style_id":"polygon.hardsurface4.969393","source_group":"LFOA AVISO","vsmr_group_ids":[],"geometry_role":"filled_region"},"geometry":{"type":"Polygon","coordinates":[[[2.627969722,47.050539444],[2.628140278,47.050693611],[2.628414722,47.050874722],[2.647535278,47.061690833],[2.646879444,47.062284167],[2.627225,47.051196389],[2.627969722,47.050539444]]]}},{"type":"Feature","id":"LFOA-d6006742c9914c7f882e","properties":{"airport":"LFOA","name":"LFOA AVISO","layer":"Airfield surfaces","category":"Hard Surface 4","object_type":"Area","style_id":"polygon.hardsurface4.969393","source_group":"LFOA AVISO","vsmr_group_ids":[],"geometry_role":"filled_region"},"geometry":{"type":"Polygon","coordinates":[[[2.6074025,47.046046944],[2.611976944,47.047828611],[2.611703889,47.048187778],[2.607111667,47.046397222],[2.6074025,47.046046944]]]}},{"type":"Feature","id":"LFOA-1352f83e53eda7982670","properties":{"airport":"LFOA","name":"LFOA AVISO","layer":"Airfield surfaces","category":"Hard Surface 4","object_type":"Area","style_id":"polygon.hardsurface4.969393","source_group":"LFOA AVISO","vsmr_group_ids":[],"geometry_role":"filled_region"},"geometry":{"type":"Polygon","coordinates":[[[2.656611111,47.065194722],[2.656309722,47.065527778],[2.651729444,47.0637425],[2.651998056,47.063393611],[2.656611111,47.065194722]]]}},{"type":"Feature","id":"LFOA-117623b2a6033741dd3b","properties":{"airport":"LFOA","name":"LFOA AVISO","layer":"Airfield surfaces","category":"Hard Surface 4","object_type":"Area","style_id":"polygon.hardsurface4.969393","source_group":"LFOA AVISO","vsmr_group_ids":[],"geometry_role":"filled_region"},"geometry":{"type":"Polygon","coordinates":[[[2.6410875,47.055986667],[2.641463333,47.055996944],[2.643252778,47.054505833],[2.649416389,47.051198333],[2.650212222,47.051730556],[2.642072778,47.056158889],[2.641738333,47.056315278],[2.639691111,47.057413611],[2.639131111,47.057039444],[2.6410875,47.055986667]]]}},{"type":"Feature","id":"LFOA-bfa6026c80dd0d7ac1e2","properties":{"airport":"LFOA","name":"LFOA AVISO","layer":"Airfield surfaces","category":"Hard Surface 2","object_type":"Area","style_id":"polygon.hardsurface2.595e5b","source_group":"LFOA AVISO","vsmr_group_ids":[],"geometry_role":"filled_region"},"geometry":{"type":"Polygon","coordinates":[[[2.612605,47.047093889],[2.612761389,47.04707],[2.613013333,47.047051389],[2.6133125,47.047065556],[2.613311389,47.047065556],[2.615211667,47.047290278],[2.615318889,47.047290833],[2.615410556,47.047273611],[2.615489167,47.047231944],[2.615539444,47.047184167],[2.616068333,47.047246667],[2.616065833,47.04729],[2.616079167,47.047330833],[2.616124444,47.047368056],[2.616196111,47.047403333],[2.620996944,47.047965833],[2.621068056,47.047940556],[2.621111389,47.047896111],[2.621133056,47.047857222],[2.621145556,47.047826944],[2.621401667,47.047856944],[2.621386944,47.0478975],[2.621400556,47.047949722],[2.621447778,47.048003889],[2.621538611,47.048026667],[2.628957222,47.048894722],[2.629373056,47.0489425],[2.629750556,47.048991111],[2.629920833,47.048947778],[2.631344444,47.048483333],[2.631531667,47.048767222],[2.6304275,47.049137222],[2.630355833,47.049186111],[2.630315833,47.049240278],[2.630296944,47.049298333],[2.630303611,47.049363889],[2.630338889,47.049419722],[2.640853889,47.055325556],[2.641228611,47.055516389],[2.641293056,47.055531667],[2.641379722,47.0555325],[2.641469722,47.05552],[2.64156,47.05549],[2.641709444,47.055430278],[2.641913333,47.055257778],[2.641927222,47.055215556],[2.641928333,47.055172222],[2.641912778,47.055131667],[2.641874722,47.055068611],[2.642353056,47.055324444],[2.641864722,47.055718611],[2.641843889,47.055756111],[2.641846111,47.055795278],[2.641873333,47.055830556],[2.6424325,47.056241389],[2.646473611,47.058510278],[2.646603056,47.058554444],[2.646728056,47.058581389],[2.646853611,47.058584722],[2.646965278,47.058570556],[2.6470675,47.058540833],[2.647144167,47.058484167],[2.647178889,47.058430556],[2.6471925,47.05837],[2.647182222,47.0583],[2.647138056,47.058237222],[2.647086944,47.058199722],[2.646989167,47.058171389],[2.646928056,47.058139444],[2.646875833,47.058081389],[2.646856667,47.058009444],[2.646896389,47.057938333],[2.646990278,47.057865],[2.64711,47.057828889],[2.647252778,47.05784],[2.647341944,47.057887222],[2.647411944,47.057955833],[2.647419167,47.058034167],[2.647379167,47.058095833],[2.647333889,47.058128056],[2.647327222,47.0581625],[2.647380556,47.058233611],[2.647453611,47.058291389],[2.647523333,47.058318333],[2.647599722,47.058336944],[2.647706389,47.058338889],[2.647801667,47.058321389],[2.647884444,47.058278611],[2.64795,47.058209444],[2.647968889,47.058125556],[2.647962778,47.058064722],[2.647941944,47.058010833],[2.647894167,47.057974167],[2.647808889,47.057945833],[2.647725556,47.057909167],[2.647656944,47.057842778],[2.647661944,47.057758056],[2.647721111,47.057681389],[2.647798889,47.057629167],[2.647929722,47.057604167],[2.648075278,47.0576175],[2.64817,47.057670556],[2.648211667,47.057751667],[2.648206667,47.057804722],[2.648168889,47.057868889],[2.648139167,47.057905278],[2.648142778,47.057960556],[2.6481825,47.058028056],[2.648255556,47.058088611],[2.648320556,47.058123056],[2.648434444,47.058147222],[2.648548333,47.058145556],[2.648876944,47.058085833],[2.649176389,47.058041111],[2.649397222,47.058013889],[2.649535278,47.058006389],[2.649632778,47.057996389],[2.649723889,47.05797],[2.649795556,47.057925],[2.649861389,47.057866389],[2.649931389,47.057757222],[2.649953889,47.058309167],[2.649891667,47.058265833],[2.649803611,47.0582275],[2.6496725,47.058196111],[2.649574167,47.058188611],[2.649455833,47.0581925],[2.649159722,47.058230556],[2.648819722,47.058281389],[2.648427778,47.058363889],[2.648086944,47.058444167],[2.647739444,47.058532222],[2.647488889,47.058608056],[2.647384167,47.058660833],[2.6473275,47.058713611],[2.647298611,47.058781667],[2.6473,47.058848889],[2.647331667,47.058923056],[2.647388889,47.058971389],[2.648704722,47.059717222],[2.6488475,47.059720278],[2.648942778,47.059691667],[2.649018056,47.059643889],[2.649056111,47.059573611],[2.649027778,47.059498889],[2.648803333,47.059220556],[2.64935,47.058712778],[2.649637778,47.058757778],[2.649701667,47.058875833],[2.64974,47.058911944],[2.649808056,47.058927778],[2.649901389,47.058913056],[2.649963889,47.058888889],[2.650082778,47.058785556],[2.650136111,47.059232778],[2.65004,47.059148611],[2.649963333,47.059121111],[2.649863611,47.059106944],[2.649740556,47.059125833],[2.649611667,47.059236944],[2.649713611,47.059287222],[2.6494875,47.059473056],[2.649560556,47.059526111],[2.649285833,47.05975],[2.6492325,47.0598375],[2.649196111,47.059909722],[2.649201111,47.059971389],[2.649233889,47.060031389],[2.650743889,47.060856389],[2.650903611,47.060870278],[2.651086944,47.060831667],[2.651249444,47.060758889],[2.6513125,47.060716944],[2.651354444,47.06067],[2.651378333,47.060613889],[2.651375833,47.060549444],[2.65169,47.060515278],[2.65179,47.061245],[2.65182,47.061306944],[2.651878611,47.061367778],[2.651973333,47.061418889],[2.652050833,47.061443611],[2.652072778,47.061628056],[2.651941944,47.061657222],[2.651565833,47.061723056],[2.651286667,47.061780833],[2.6502025,47.061975833],[2.650160556,47.061828611],[2.650419722,47.061794444],[2.650649167,47.061759167],[2.650873333,47.061723611],[2.651089722,47.061683889],[2.651192778,47.061663611],[2.651268333,47.061636667],[2.651335,47.061593056],[2.651354167,47.061571389],[2.6513425,47.061556944],[2.651293056,47.061528333],[2.649155833,47.060356111],[2.649100278,47.060333333],[2.648987778,47.060336389],[2.648938333,47.060349722],[2.648593333,47.060619722],[2.648528056,47.0606525],[2.648101944,47.060693056],[2.647709167,47.060994167],[2.647552222,47.060915833],[2.6484975,47.060155278],[2.648559167,47.060085833],[2.648562778,47.060026389],[2.648526389,47.059954444],[2.641477222,47.056023333],[2.641359722,47.056003611],[2.641186111,47.056010556],[2.641073889,47.0560325],[2.640959722,47.05608],[2.639406389,47.056909167],[2.639301667,47.056977222],[2.639153333,47.057071667],[2.638945833,47.057203056],[2.638756111,47.05734],[2.638600278,47.057465833],[2.638324444,47.057326667],[2.63851,47.057179722],[2.638711667,47.057044444],[2.639008611,47.0568575],[2.640571667,47.056006111],[2.640744722,47.055920556],[2.640831944,47.055858056],[2.640866111,47.055773889],[2.640859167,47.055699722],[2.640775833,47.055631944],[2.639537222,47.054958889],[2.637473333,47.053772778],[2.629634722,47.049371111],[2.629548333,47.049316944],[2.629448056,47.049304722],[2.629319167,47.049311944],[2.629015,47.049390833],[2.628853056,47.049452778],[2.628776944,47.049509444],[2.628744722,47.049560278],[2.628748333,47.049619167],[2.6287875,47.049672222],[2.628903889,47.0497525],[2.628915833,47.049783333],[2.628919167,47.049821111],[2.628895833,47.049869444],[2.628217778,47.050346111],[2.628188056,47.050415556],[2.628158333,47.050504722],[2.628143889,47.050609167],[2.628173333,47.050746111],[2.627498056,47.0513375],[2.627316389,47.051321944],[2.627195,47.051320833],[2.627053889,47.051343889],[2.626947778,47.051376111],[2.626843333,47.051423333],[2.626269167,47.052002778],[2.625746944,47.052118333],[2.625675,47.05209],[2.625482778,47.052380556],[2.625304444,47.052328056],[2.625783056,47.051513056],[2.625870556,47.051378889],[2.6259725,47.051244444],[2.627255833,47.050220556],[2.627633889,47.049953611],[2.628640833,47.049262222],[2.628810833,47.049182778],[2.625993056,47.048831667],[2.625560556,47.048765278],[2.625273333,47.048726667],[2.623756111,47.048581389],[2.621323333,47.048291111],[2.618991389,47.048022778],[2.615487222,47.047610278],[2.613718889,47.047404167],[2.613510556,47.047384167],[2.6132525,47.047383333],[2.61307,47.047404444],[2.612952222,47.047436667],[2.612868611,47.047480278],[2.612451389,47.047132222],[2.612605,47.047093889]]]}},{"type":"Feature","id":"LFOA-65a4e7334a9f8b5f8f54","properties":{"airport":"LFOA","name":"LFOA AVISO","layer":"Airfield surfaces","category":"Hard Surface 2","object_type":"Area","style_id":"polygon.hardsurface2.595e5b","source_group":"LFOA AVISO","vsmr_group_ids":[],"geometry_role":"filled_region"},"geometry":{"type":"Polygon","coordinates":[[[2.651562778,47.061715833],[2.651826389,47.061665],[2.651939167,47.062544167],[2.651662778,47.062553611],[2.651562778,47.061715833]]]}},{"type":"Feature","id":"LFOA-bc6951df2022603c7b65","properties":{"airport":"LFOA","name":"LFOA AVISO","layer":"Airfield surfaces","category":"Runways","object_type":"Area","style_id":"polygon.runwayconcrete.555555","source_group":"LFOA AVISO","vsmr_group_ids":[],"geometry_role":"filled_region"},"geometry":{"type":"Polygon","coordinates":[[[2.612565833,47.048554722],[2.612441667,47.048561944],[2.612327778,47.048578056],[2.6122375,47.048592778],[2.612132222,47.048596389],[2.612023056,47.04858],[2.6116125,47.048423889],[2.611089444,47.048486111],[2.610541111,47.048585278],[2.610465556,47.048378611],[2.6108875,47.048305],[2.611147778,47.0482625],[2.6113825,47.048231667],[2.611543333,47.048218889],[2.611664444,47.048203056],[2.611958333,47.047824444],[2.611938333,47.047766389],[2.61188,47.047659167],[2.6120975,47.047426667],[2.612222222,47.0473],[2.612335278,47.047206944],[2.612397222,47.047164444],[2.612456944,47.047131111],[2.612868889,47.047478611],[2.612774444,47.047539444],[2.6127125,47.047609722],[2.612672778,47.047695833],[2.612649167,47.047780278],[2.612666944,47.047862222],[2.612716111,47.047935833],[2.612716111,47.047932222],[2.612717222,47.047930556],[2.613149722,47.048256111],[2.613249444,47.048316944],[2.6243575,47.052630833],[2.624487778,47.052657778],[2.624608333,47.052659444],[2.624745833,47.052641944],[2.6249,47.052604722],[2.625071944,47.052531667],[2.625196667,47.052465],[2.625266111,47.052402778],[2.625306667,47.052325833],[2.625484444,47.0523725],[2.625418056,47.052481667],[2.625400833,47.052568056],[2.625396944,47.052673056],[2.625414722,47.05279],[2.625457778,47.0528875],[2.625505556,47.052975278],[2.6255775,47.053063889],[2.625660556,47.053132222],[2.625747778,47.053177222],[2.6377375,47.057815278],[2.637817778,47.057815],[2.637875556,47.057795278],[2.637976944,47.057695833],[2.638138056,47.057501389],[2.638235556,47.057398056],[2.638326389,47.057324722],[2.638602778,47.057460556],[2.638459444,47.057595556],[2.638357222,47.057708333],[2.638268333,47.057808333],[2.63824,47.057871944],[2.638269722,47.057951111],[2.638337778,47.058031944],[2.638416944,47.058088056],[2.646491111,47.061250833],[2.646626389,47.061286667],[2.646791389,47.061297222],[2.646951944,47.061269444],[2.647118333,47.061226111],[2.647280833,47.061160556],[2.647409444,47.061066389],[2.647557222,47.060914444],[2.647709444,47.060992222],[2.647393889,47.06129],[2.64733,47.061361667],[2.647308889,47.061430556],[2.6473125,47.061496389],[2.647335556,47.061562222],[2.647411389,47.061617222],[2.647533611,47.061660833],[2.647773889,47.061718056],[2.648067222,47.061775],[2.648439444,47.061814167],[2.648838889,47.061840833],[2.649280278,47.0618575],[2.649658611,47.061853333],[2.649943333,47.061843056],[2.650161667,47.061826389],[2.650203611,47.061975833],[2.6489775,47.062187222],[2.650655,47.062856111],[2.650811111,47.062908056],[2.650963056,47.062941111],[2.651113889,47.062936389],[2.6512275,47.062920833],[2.651362778,47.062881111],[2.651452222,47.062835278],[2.651538611,47.062773889],[2.651613333,47.0626925],[2.651647222,47.062607222],[2.651660833,47.062548889],[2.651940833,47.062539444],[2.651987778,47.062594722],[2.652069167,47.062642778],[2.652168889,47.062683056],[2.652248611,47.062694167],[2.652346111,47.062698333],[2.652470556,47.062676944],[2.652584722,47.0626225],[2.652785,47.062489167],[2.652848611,47.062435],[2.652869167,47.062392222],[2.653351944,47.062591667],[2.653331389,47.062601389],[2.653289722,47.062591944],[2.653213611,47.062586389],[2.653131389,47.062590278],[2.653053611,47.0626075],[2.652331389,47.063088611],[2.652248333,47.0631525],[2.652039722,47.063415278],[2.651748611,47.063754167],[2.612653056,47.048555833],[2.612565833,47.048554722]]]}},{"type":"Feature","id":"LFOA-deb6a3367246c29edf04","properties":{"airport":"LFOA","name":"LFOA AVISO","layer":"Airfield surfaces","category":"Hard Surface 3","object_type":"Area","style_id":"polygon.hardsurface3.8a807f","source_group":"LFOA AVISO","vsmr_group_ids":[],"geometry_role":"filled_region"},"geometry":{"type":"Polygon","coordinates":[[[2.609621667,47.048759444],[2.609445556,47.048804167],[2.609361111,47.048848611],[2.609318889,47.048893056],[2.609309444,47.048953333],[2.608643889,47.049081389],[2.608584167,47.048949722],[2.608516389,47.048953889],[2.608410278,47.048948611],[2.608263889,47.048908056],[2.608143333,47.048828056],[2.608067778,47.048714444],[2.608040278,47.048581944],[2.608073889,47.048478611],[2.608163889,47.048384167],[2.608285556,47.048321111],[2.608453056,47.048278056],[2.608624722,47.048262778],[2.608767222,47.048275278],[2.608869167,47.048311667],[2.608976667,47.048372222],[2.609096944,47.048426111],[2.609226389,47.048476389],[2.609437778,47.048545556],[2.609574167,47.048538611],[2.609694722,47.048515278],[2.610471667,47.0483775],[2.610548056,47.048586667],[2.609621667,47.048759444]]]}},{"type":"Feature","id":"LFOA-e06c6bd3b9ee1e1cf659","properties":{"airport":"LFOA","name":"LFOA AVISO","layer":"Airfield surfaces","category":"Hard Surface 3","object_type":"Area","style_id":"polygon.hardsurface3.8a807f","source_group":"LFOA AVISO","vsmr_group_ids":[],"geometry_role":"filled_region"},"geometry":{"type":"Polygon","coordinates":[[[2.615547778,47.047145278],[2.615547778,47.047104444],[2.61553,47.047061389],[2.615491111,47.047013333],[2.614985278,47.046724444],[2.615078611,47.046495556],[2.615160833,47.046494444],[2.615241944,47.046482222],[2.615318889,47.046454722],[2.615359167,47.046419722],[2.615411667,47.046352778],[2.615488056,47.046285],[2.615593333,47.046227222],[2.615681667,47.0462],[2.615795556,47.046174444],[2.61593,47.0461675],[2.61608,47.046185],[2.616186111,47.04622],[2.616322222,47.046276667],[2.616535833,47.046390556],[2.616580833,47.046421944],[2.616637222,47.046446944],[2.616693611,47.046463333],[2.616740556,47.046464722],[2.616825,47.0464575],[2.616883889,47.046435833],[2.616929444,47.046395833],[2.616966944,47.046293333],[2.617059722,47.0460575],[2.617544722,47.046145],[2.617715278,47.046453611],[2.617423611,47.046492222],[2.6172975,47.046529167],[2.617218056,47.046550278],[2.617153333,47.046568889],[2.617110556,47.046580833],[2.617078611,47.046611944],[2.617070278,47.046650833],[2.617076111,47.046688333],[2.617130278,47.046729722],[2.617564444,47.046951389],[2.617692778,47.0470075],[2.617814167,47.047048333],[2.617923333,47.047088611],[2.6180325,47.047108611],[2.618196111,47.047106667],[2.618264722,47.047095278],[2.618269444,47.0470075],[2.618291944,47.046985556],[2.618341389,47.0469725],[2.619098889,47.046817778],[2.619184722,47.047077778],[2.619141111,47.047092778],[2.619123056,47.047115556],[2.619119722,47.047149167],[2.619140556,47.04718],[2.619179444,47.047199444],[2.619246944,47.047212778],[2.619317778,47.047215556],[2.619430833,47.0471975],[2.619507778,47.047319167],[2.619400833,47.047340278],[2.619300278,47.047351667],[2.619208889,47.047353056],[2.618633889,47.047302778],[2.618583611,47.047305556],[2.618547778,47.047313611],[2.618524444,47.047315278],[2.618235,47.047298611],[2.618213611,47.047278056],[2.618192222,47.047263333],[2.618164722,47.047253333],[2.618087778,47.047237778],[2.617990833,47.047227778],[2.617887222,47.04721],[2.617787222,47.047190556],[2.617690833,47.0471575],[2.617592222,47.047113056],[2.616761111,47.04667],[2.616456944,47.046517778],[2.616249444,47.046404444],[2.616146667,47.046349444],[2.616065556,47.046318889],[2.61597,47.046300833],[2.615876389,47.046299722],[2.615803056,47.046311111],[2.615718333,47.046338056],[2.615646389,47.046371944],[2.615606667,47.046406944],[2.615579444,47.046439722],[2.6155975,47.046489722],[2.6156175,47.046533611],[2.615919167,47.046569722],[2.6158875,47.046737222],[2.615959722,47.046784722],[2.616012222,47.046836389],[2.616051667,47.046891667],[2.616041111,47.046939167],[2.6161925,47.047085278],[2.616135556,47.047123056],[2.616104722,47.047169444],[2.616085,47.047212778],[2.6160725,47.04725],[2.615535556,47.047186111],[2.615547778,47.047145278]]]}},{"type":"Feature","id":"LFOA-a579e7c13707b90421b8","properties":{"airport":"LFOA","name":"LFOA AVISO","layer":"Airfield surfaces","category":"Hard Surface 3","object_type":"Area","style_id":"polygon.hardsurface3.8a807f","source_group":"LFOA AVISO","vsmr_group_ids":[],"geometry_role":"filled_region"},"geometry":{"type":"Polygon","coordinates":[[[2.621139167,47.047746111],[2.621119722,47.047705],[2.621063889,47.047655833],[2.620657778,47.047386389],[2.620844722,47.047199722],[2.620785833,47.047160833],[2.620688333,47.0471175],[2.620591111,47.047100833],[2.620505,47.047098056],[2.620401111,47.047106389],[2.620290833,47.047131389],[2.619506111,47.047319167],[2.619427778,47.047198889],[2.620245,47.047007222],[2.620373611,47.046958611],[2.620457222,47.046903889],[2.620533889,47.046833333],[2.620588333,47.04676],[2.620625556,47.046685],[2.620650278,47.046593611],[2.620653611,47.046514167],[2.620658056,47.046448056],[2.6206475,47.046377222],[2.620589722,47.046375833],[2.620528889,47.046102778],[2.620576389,47.046095],[2.621020278,47.046063333],[2.621085278,47.046065833],[2.62114,47.046075556],[2.621184167,47.046097778],[2.621411111,47.046265],[2.621193611,47.046389722],[2.621110556,47.046419444],[2.620996111,47.046477222],[2.6209275,47.046530833],[2.620875833,47.046589167],[2.620845833,47.046646389],[2.620804167,47.046719444],[2.620763889,47.046824167],[2.620748056,47.046888333],[2.620745833,47.0469525],[2.620759444,47.046994722],[2.620809167,47.04703],[2.620906944,47.047069722],[2.621006111,47.047125833],[2.621143333,47.047208889],[2.621178333,47.047229167],[2.621216389,47.047231389],[2.621261111,47.047217222],[2.621432222,47.047079722],[2.622065556,47.047500556],[2.621778611,47.047678056],[2.621751389,47.047663333],[2.621683333,47.0476675],[2.621593889,47.047683889],[2.621523333,47.047711667],[2.621470833,47.047755833],[2.6214275,47.047803333],[2.621403889,47.047859444],[2.6211425,47.047829722],[2.621147222,47.0477875],[2.621139167,47.047746111]]]}},{"type":"Feature","id":"LFOA-989622174a4c3d7fbb7f","properties":{"airport":"LFOA","name":"LFOA AVISO","layer":"Airfield surfaces","category":"Hard Surface 3","object_type":"Area","style_id":"polygon.hardsurface3.8a807f","source_group":"LFOA AVISO","vsmr_group_ids":[],"geometry_role":"filled_region"},"geometry":{"type":"Polygon","coordinates":[[[2.631740833,47.048363333],[2.631456667,47.047969167],[2.633751111,47.047213889],[2.633995556,47.047563333],[2.6363625,47.046770278],[2.636791111,47.047469722],[2.63231,47.048905833],[2.632126667,47.048633333],[2.632097778,47.048603889],[2.632055833,47.048596944],[2.631998611,47.048609167],[2.631525556,47.048768889],[2.631341944,47.048485278],[2.631740833,47.048363333]]]}},{"type":"Feature","id":"LFOA-2b77572b9b0ec48f27ae","properties":{"airport":"LFOA","name":"LFOA AVISO","layer":"Airfield surfaces","category":"Hard Surface 3","object_type":"Area","style_id":"polygon.hardsurface3.8a807f","source_group":"LFOA AVISO","vsmr_group_ids":[],"geometry_role":"filled_region"},"geometry":{"type":"Polygon","coordinates":[[[2.640927778,47.053113333],[2.643360833,47.054486944],[2.642332778,47.055338889],[2.639873889,47.053973333],[2.640927778,47.053113333]]]}},{"type":"Feature","id":"LFOA-0db472552a707dd1f4e6","properties":{"airport":"LFOA","name":"LFOA AVISO","layer":"Airfield surfaces","category":"Hard Surface 3","object_type":"Area","style_id":"polygon.hardsurface3.8a807f","source_group":"LFOA AVISO","vsmr_group_ids":[],"geometry_role":"filled_region"},"geometry":{"type":"Polygon","coordinates":[[[2.6513325,47.060501389],[2.651261111,47.060448333],[2.651165278,47.060396111],[2.651047778,47.060365556],[2.650914444,47.060358056],[2.650733611,47.060354722],[2.650628056,47.060351111],[2.650488333,47.060335278],[2.650369722,47.060284167],[2.650320556,47.060238889],[2.650255278,47.060172222],[2.650229722,47.060119167],[2.650034167,47.058430556],[2.650015556,47.058371944],[2.6499875,47.058336389],[2.649950833,47.058308889],[2.649921944,47.057765556],[2.6499625,47.057695556],[2.650009444,47.057624444],[2.650050278,47.057566944],[2.650103333,47.057521111],[2.650186389,47.057475278],[2.650296667,47.057445],[2.6504375,47.0574225],[2.651011111,47.057387778],[2.650921667,47.056692778],[2.650935833,47.056680278],[2.650977222,47.056674167],[2.651994722,47.056625556],[2.652231389,47.058709722],[2.652477222,47.0586925],[2.652658611,47.060236944],[2.652115556,47.060265556],[2.652045,47.060292222],[2.651734444,47.060498889],[2.651694722,47.060531944],[2.651375,47.060554167],[2.6513325,47.060501389]]]}},{"type":"Feature","id":"LFOA-b63206e563d83acced60","properties":{"airport":"LFOA","name":"LFOA AVISO","layer":"Airfield surfaces","category":"Hard Surface 3","object_type":"Area","style_id":"polygon.hardsurface3.8a807f","source_group":"LFOA AVISO","vsmr_group_ids":[],"geometry_role":"filled_region"},"geometry":{"type":"Polygon","coordinates":[[[2.652109722,47.061451944],[2.652187778,47.061451667],[2.6522875,47.061436667],[2.652828611,47.061330556],[2.652891667,47.061256944],[2.653281111,47.06119],[2.653442222,47.061579167],[2.653404167,47.061685833],[2.653001944,47.061656667],[2.652864444,47.061637222],[2.652565833,47.061585278],[2.652471944,47.0615675],[2.652378333,47.061566667],[2.652273056,47.061581111],[2.652068611,47.061627778],[2.652046667,47.061444167],[2.652109722,47.061451944]]]}},{"type":"Feature","id":"LFOA-565f79c1e4f13bdb8382","properties":{"airport":"LFOA","name":"LFOA AVISO","layer":"Airfield surfaces","category":"Hard Surface 3","object_type":"Area","style_id":"polygon.hardsurface3.8a807f","source_group":"LFOA AVISO","vsmr_group_ids":[],"geometry_role":"filled_region"},"geometry":{"type":"Polygon","coordinates":[[[2.6528725,47.062371111],[2.652870833,47.062345833],[2.652861667,47.062305556],[2.652847222,47.062272778],[2.653527778,47.061791667],[2.653688056,47.06191],[2.653813611,47.061827778],[2.654083333,47.061825],[2.654227222,47.061850833],[2.654438056,47.061983611],[2.654495278,47.062064722],[2.654502778,47.0621525],[2.654493333,47.062227222],[2.654456667,47.062299167],[2.654350278,47.062370556],[2.654218333,47.062444722],[2.654109722,47.062476111],[2.653948333,47.062490833],[2.653733889,47.062490278],[2.653586111,47.062467222],[2.653533333,47.0624775],[2.653481389,47.062507778],[2.653347222,47.062593056],[2.652870556,47.062395833],[2.6528725,47.062371111]]]}},{"type":"Feature","id":"LFOA-45982346d98f1cd136d0","properties":{"airport":"LFOA","name":"LFOA AVISO","layer":"Buildings and structures","category":"Buildings","object_type":"Area","style_id":"polygon.building.394446","source_group":"LFOA AVISO","vsmr_group_ids":[],"geometry_role":"filled_region"},"geometry":{"type":"Polygon","coordinates":[[[2.616354722,47.046840556],[2.616470278,47.046964444],[2.616175556,47.047106667],[2.616050556,47.046986389],[2.616354722,47.046840556]]]}},{"type":"Feature","id":"LFOA-6e6839398ff29f503117","properties":{"airport":"LFOA","name":"LFOA AVISO","layer":"Buildings and structures","category":"Buildings","object_type":"Area","style_id":"polygon.building.394446","source_group":"LFOA AVISO","vsmr_group_ids":[],"geometry_role":"filled_region"},"geometry":{"type":"Polygon","coordinates":[[[2.615104722,47.046496389],[2.615061944,47.046636944],[2.614695,47.046595833],[2.614730278,47.046449722],[2.615104722,47.046496389]]]}},{"type":"Feature","id":"LFOA-07e525cdb8f845c1e96f","properties":{"airport":"LFOA","name":"LFOA AVISO","layer":"Buildings and structures","category":"Buildings","object_type":"Area","style_id":"polygon.building.394446","source_group":"LFOA AVISO","vsmr_group_ids":[],"geometry_role":"filled_region"},"geometry":{"type":"Polygon","coordinates":[[[2.615969167,47.046489444],[2.615900278,47.046743333],[2.6156875,47.046718056],[2.6157525,47.046464722],[2.615969167,47.046489444]]]}},{"type":"Feature","id":"LFOA-a9ddde232413bf9b7b5b","properties":{"airport":"LFOA","name":"LFOA AVISO","layer":"Buildings and structures","category":"Buildings","object_type":"Area","style_id":"polygon.building.394446","source_group":"LFOA AVISO","vsmr_group_ids":[],"geometry_role":"filled_region"},"geometry":{"type":"Polygon","coordinates":[[[2.617068056,47.046099722],[2.617005556,47.0462375],[2.61664,47.046166389],[2.616700556,47.046026944],[2.617068056,47.046099722]]]}},{"type":"Feature","id":"LFOA-3add903aa36d98aca528","properties":{"airport":"LFOA","name":"LFOA AVISO","layer":"Buildings and structures","category":"Buildings","object_type":"Area","style_id":"polygon.building.394446","source_group":"LFOA AVISO","vsmr_group_ids":[],"geometry_role":"filled_region"},"geometry":{"type":"Polygon","coordinates":[[[2.617665278,47.046450556],[2.617756111,47.046709722],[2.617547778,47.046740278],[2.617452222,47.046482778],[2.617665278,47.046450556]]]}},{"type":"Feature","id":"LFOA-528b0b851c741aff378d","properties":{"airport":"LFOA","name":"LFOA AVISO","layer":"Buildings and structures","category":"Buildings","object_type":"Area","style_id":"polygon.building.394446","source_group":"LFOA AVISO","vsmr_group_ids":[],"geometry_role":"filled_region"},"geometry":{"type":"Polygon","coordinates":[[[2.618586944,47.046931667],[2.618386111,47.046973611],[2.618279722,47.046721944],[2.618487778,47.046685556],[2.618586944,47.046931667]]]}},{"type":"Feature","id":"LFOA-d3bfb7242953f5ecd9c8","properties":{"airport":"LFOA","name":"LFOA AVISO","layer":"Buildings and structures","category":"Buildings","object_type":"Area","style_id":"polygon.building.394446","source_group":"LFOA AVISO","vsmr_group_ids":[],"geometry_role":"filled_region"},"geometry":{"type":"Polygon","coordinates":[[[2.619433611,47.046760833],[2.619476389,47.046903333],[2.619123889,47.046970556],[2.619076389,47.046824722],[2.619433611,47.046760833]]]}},{"type":"Feature","id":"LFOA-2c1b4e9741a256c3c662","properties":{"airport":"LFOA","name":"LFOA AVISO","layer":"Buildings and structures","category":"Buildings","object_type":"Area","style_id":"polygon.building.394446","source_group":"LFOA AVISO","vsmr_group_ids":[],"geometry_role":"filled_region"},"geometry":{"type":"Polygon","coordinates":[[[2.620566667,47.046143889],[2.620577222,47.046284722],[2.620205278,47.046312222],[2.620180556,47.046166667],[2.620566667,47.046143889]]]}},{"type":"Feature","id":"LFOA-cd5a660d25e4fe558d6b","properties":{"airport":"LFOA","name":"LFOA AVISO","layer":"Buildings and structures","category":"Buildings","object_type":"Area","style_id":"polygon.building.394446","source_group":"LFOA AVISO","vsmr_group_ids":[],"geometry_role":"filled_region"},"geometry":{"type":"Polygon","coordinates":[[[2.621597222,47.046506389],[2.621415556,47.046589444],[2.621175278,47.046385278],[2.621344167,47.046290278],[2.621597222,47.046506389]]]}},{"type":"Feature","id":"LFOA-1282e38cdd8cb46fd98d","properties":{"airport":"LFOA","name":"LFOA AVISO","layer":"Buildings and structures","category":"Buildings","object_type":"Area","style_id":"polygon.building.394446","source_group":"LFOA AVISO","vsmr_group_ids":[],"geometry_role":"filled_region"},"geometry":{"type":"Polygon","coordinates":[[[2.620980833,47.047398611],[2.620816667,47.047513889],[2.6205825,47.047349167],[2.620736944,47.047235833],[2.620980833,47.047398611]]]}},{"type":"Feature","id":"LFOA-f4d0acceec3dc16891e6","properties":{"airport":"LFOA","name":"LFOA AVISO","layer":"Buildings and structures","category":"Buildings","object_type":"Area","style_id":"polygon.building.394446","source_group":"LFOA AVISO","vsmr_group_ids":[],"geometry_role":"filled_region"},"geometry":{"type":"Polygon","coordinates":[[[2.621846667,47.047014444],[2.621570278,47.047200278],[2.621426389,47.047103333],[2.621696111,47.046912222],[2.621846667,47.047014444]]]}},{"type":"Feature","id":"LFOA-5db951f6f39b03a161ad","properties":{"airport":"LFOA","name":"LFOA AVISO","layer":"Buildings and structures","category":"Buildings","object_type":"Area","style_id":"polygon.building.394446","source_group":"LFOA AVISO","vsmr_group_ids":[],"geometry_role":"filled_region"},"geometry":{"type":"Polygon","coordinates":[[[2.622332778,47.047694167],[2.622172778,47.047795833],[2.62189,47.047601389],[2.622045556,47.047497778],[2.622332778,47.047694167]]]}},{"type":"Feature","id":"LFOA-37cf498de2652ab9de07","properties":{"airport":"LFOA","name":"LFOA AVISO","layer":"Buildings and structures","category":"Buildings","object_type":"Area","style_id":"polygon.building.394446","source_group":"LFOA AVISO","vsmr_group_ids":[],"geometry_role":"filled_region"},"geometry":{"type":"Polygon","coordinates":[[[2.633876389,47.047037778],[2.634160833,47.047023889],[2.634368056,47.046886944],[2.634647778,47.0468625],[2.634918889,47.047287778],[2.6347825,47.047391111],[2.634593056,47.0474475],[2.634433611,47.047442222],[2.634305,47.047540833],[2.634139167,47.0475975],[2.633938889,47.047590278],[2.633660833,47.047168889],[2.633876389,47.047037778]]]}},{"type":"Feature","id":"LFOA-50d41ede970a6ed17dc4","properties":{"airport":"LFOA","name":"LFOA AVISO","layer":"Buildings and structures","category":"Buildings","object_type":"Area","style_id":"polygon.building.394446","source_group":"LFOA AVISO","vsmr_group_ids":[],"geometry_role":"filled_region"},"geometry":{"type":"Polygon","coordinates":[[[2.635019722,47.047118056],[2.635034167,47.0471125],[2.634877222,47.046890556],[2.635016111,47.046840556],[2.6351625,47.047065278],[2.635173056,47.047061667],[2.635293611,47.047229167],[2.635129444,47.047282778],[2.635019722,47.047118056]]]}},{"type":"Feature","id":"LFOA-b8e2665da6e2fbb91a7e","properties":{"airport":"LFOA","name":"LFOA AVISO","layer":"Buildings and structures","category":"Buildings","object_type":"Area","style_id":"polygon.building.394446","source_group":"LFOA AVISO","vsmr_group_ids":[],"geometry_role":"filled_region"},"geometry":{"type":"Polygon","coordinates":[[[2.634989722,47.046793611],[2.634827222,47.04685],[2.634693056,47.046651111],[2.634863333,47.046591389],[2.634989722,47.046793611]]]}},{"type":"Feature","id":"LFOA-53407ad3f8dd5ced8349","properties":{"airport":"LFOA","name":"LFOA AVISO","layer":"Buildings and structures","category":"Buildings","object_type":"Area","style_id":"polygon.building.394446","source_group":"LFOA AVISO","vsmr_group_ids":[],"geometry_role":"filled_region"},"geometry":{"type":"Polygon","coordinates":[[[2.635113056,47.046704722],[2.635124722,47.046686111],[2.635303333,47.046571111],[2.635596111,47.046548056],[2.635813611,47.046415278],[2.6361,47.046405278],[2.636344722,47.046799167],[2.636200556,47.046870278],[2.636056389,47.0469175],[2.6358675,47.046945278],[2.635746389,47.047049722],[2.635568889,47.047108056],[2.635374722,47.047112222],[2.635118611,47.046725833],[2.635113056,47.046704722]]]}},{"type":"Feature","id":"LFOA-da9f4108f195bd023e1f","properties":{"airport":"LFOA","name":"LFOA AVISO","layer":"Buildings and structures","category":"Buildings","object_type":"Area","style_id":"polygon.building.394446","source_group":"LFOA AVISO","vsmr_group_ids":[],"geometry_role":"filled_region"},"geometry":{"type":"Polygon","coordinates":[[[2.640275278,47.052553333],[2.640308333,47.052526667],[2.640646111,47.052721667],[2.640595833,47.052763056],[2.6408875,47.052927222],[2.640792222,47.053004167],[2.640208889,47.052671389],[2.640319722,47.0525825],[2.640275278,47.052553333]]]}},{"type":"Feature","id":"LFOA-6d8c1bcc0c804f96ba36","properties":{"airport":"LFOA","name":"LFOA AVISO","layer":"Buildings and structures","category":"Buildings","object_type":"Area","style_id":"polygon.building.394446","source_group":"LFOA AVISO","vsmr_group_ids":[],"geometry_role":"filled_region"},"geometry":{"type":"Polygon","coordinates":[[[2.642816944,47.054159444],[2.642486389,47.0539875],[2.642606111,47.053881667],[2.642928056,47.054053889],[2.642957222,47.054026944],[2.643562222,47.054365556],[2.643378333,47.054505556],[2.6427925,47.054178889],[2.642816944,47.054159444]]]}},{"type":"Feature","id":"LFOA-ae47743d132efdf9260d","properties":{"airport":"LFOA","name":"LFOA AVISO","layer":"Buildings and structures","category":"Buildings","object_type":"Area","style_id":"polygon.building.394446","source_group":"LFOA AVISO","vsmr_group_ids":[],"geometry_role":"filled_region"},"geometry":{"type":"Polygon","coordinates":[[[2.647035556,47.057839167],[2.646870278,47.057934167],[2.646625556,47.057719722],[2.646810278,47.057624722],[2.647035556,47.057839167]]]}},{"type":"Feature","id":"LFOA-59564d6ba3f16487e3ce","properties":{"airport":"LFOA","name":"LFOA AVISO","layer":"Buildings and structures","category":"Buildings","object_type":"Area","style_id":"polygon.building.394446","source_group":"LFOA AVISO","vsmr_group_ids":[],"geometry_role":"filled_region"},"geometry":{"type":"Polygon","coordinates":[[[2.647997778,47.057354167],[2.648018611,47.057625278],[2.6478075,47.057634167],[2.647778056,47.057358611],[2.647997778,47.057354167]]]}},{"type":"Feature","id":"LFOA-fbcd2aa3feecd216556b","properties":{"airport":"LFOA","name":"LFOA AVISO","layer":"Buildings and structures","category":"Buildings","object_type":"Area","style_id":"polygon.building.394446","source_group":"LFOA AVISO","vsmr_group_ids":[],"geometry_role":"filled_region"},"geometry":{"type":"Polygon","coordinates":[[[2.6489575,47.059121111],[2.648823889,47.059230556],[2.648506944,47.059058333],[2.648636111,47.058950556],[2.6489575,47.059121111]]]}},{"type":"Feature","id":"LFOA-1d9cee4116a9e7a10b16","properties":{"airport":"LFOA","name":"LFOA AVISO","layer":"Buildings and structures","category":"Buildings","object_type":"Area","style_id":"polygon.building.394446","source_group":"LFOA AVISO","vsmr_group_ids":[],"geometry_role":"filled_region"},"geometry":{"type":"Polygon","coordinates":[[[2.649663333,47.058520556],[2.649579167,47.058786111],[2.649371111,47.058753611],[2.649445278,47.05849],[2.649663333,47.058520556]]]}},{"type":"Feature","id":"LFOA-f20a4be6acbbcfb9013a","properties":{"airport":"LFOA","name":"LFOA AVISO","layer":"Buildings and structures","category":"Buildings","object_type":"Area","style_id":"polygon.building.394446","source_group":"LFOA AVISO","vsmr_group_ids":[],"geometry_role":"filled_region"},"geometry":{"type":"Polygon","coordinates":[[[2.649751389,47.059405833],[2.649505278,47.059601389],[2.649311944,47.059491111],[2.649568611,47.059293056],[2.649751389,47.059405833]]]}},{"type":"Feature","id":"LFOA-443be573ecf1faac5453","properties":{"airport":"LFOA","name":"LFOA AVISO","layer":"Buildings and structures","category":"Buildings","object_type":"Area","style_id":"polygon.building.394446","source_group":"LFOA AVISO","vsmr_group_ids":[],"geometry_role":"filled_region"},"geometry":{"type":"Polygon","coordinates":[[[2.652370556,47.0564675],[2.652416944,47.056940833],[2.652004167,47.056966111],[2.651949722,47.056490833],[2.652370556,47.0564675]]]}},{"type":"Feature","id":"LFOA-e41862bcd49b04ed6ae2","properties":{"airport":"LFOA","name":"LFOA AVISO","layer":"Buildings and structures","category":"Buildings","object_type":"Area","style_id":"polygon.building.394446","source_group":"LFOA AVISO","vsmr_group_ids":[],"geometry_role":"filled_region"},"geometry":{"type":"Polygon","coordinates":[[[2.65226,47.0569975],[2.652261389,47.057024167],[2.652393889,47.057021667],[2.652395556,47.057101944],[2.652259444,47.057105833],[2.652256667,47.057076667],[2.652014444,47.057080556],[2.652008056,47.056998889],[2.65226,47.0569975]]]}},{"type":"Feature","id":"LFOA-3ce99867fee5a74a72f4","properties":{"airport":"LFOA","name":"LFOA AVISO","layer":"Buildings and structures","category":"Buildings","object_type":"Area","style_id":"polygon.building.394446","source_group":"LFOA AVISO","vsmr_group_ids":[],"geometry_role":"filled_region"},"geometry":{"type":"Polygon","coordinates":[[[2.652865833,47.057115556],[2.652911111,47.057591389],[2.652078611,47.057643889],[2.652027222,47.057170833],[2.652865833,47.057115556]]]}},{"type":"Feature","id":"LFOA-8830ead3f04f27dda87e","properties":{"airport":"LFOA","name":"LFOA AVISO","layer":"Buildings and structures","category":"Buildings","object_type":"Area","style_id":"polygon.building.394446","source_group":"LFOA AVISO","vsmr_group_ids":[],"geometry_role":"filled_region"},"geometry":{"type":"Polygon","coordinates":[[[2.652586667,47.057948889],[2.652598056,47.058110833],[2.6521275,47.0581325],[2.652109444,47.057973333],[2.652586667,47.057948889]]]}},{"type":"Feature","id":"LFOA-ff3a30dca18f31e11ddc","properties":{"airport":"LFOA","name":"LFOA AVISO","layer":"Buildings and structures","category":"Buildings","object_type":"Area","style_id":"polygon.building.394446","source_group":"LFOA AVISO","vsmr_group_ids":[],"geometry_role":"filled_region"},"geometry":{"type":"Polygon","coordinates":[[[2.652640833,47.058418611],[2.6524275,47.058718333],[2.652249167,47.058654722],[2.6524525,47.058354722],[2.652640833,47.058418611]]]}},{"type":"Feature","id":"LFOA-966730a451528f5e021b","properties":{"airport":"LFOA","name":"LFOA AVISO","layer":"Buildings and structures","category":"Buildings","object_type":"Area","style_id":"polygon.building.394446","source_group":"LFOA AVISO","vsmr_group_ids":[],"geometry_role":"filled_region"},"geometry":{"type":"Polygon","coordinates":[[[2.653276111,47.058869722],[2.653368611,47.0595475],[2.653551944,47.059537222],[2.653616111,47.059993611],[2.653039444,47.060032222],[2.653024167,47.0598975],[2.652607222,47.059946111],[2.652491111,47.058949722],[2.653276111,47.058869722]]]}},{"type":"Feature","id":"LFOA-a92ef0a2193dbff96bb8","properties":{"airport":"LFOA","name":"LFOA AVISO","layer":"Buildings and structures","category":"Buildings","object_type":"Area","style_id":"polygon.building.394446","source_group":"LFOA AVISO","vsmr_group_ids":[],"geometry_role":"filled_region"},"geometry":{"type":"Polygon","coordinates":[[[2.652805833,47.059862778],[2.652808611,47.060043056],[2.652346111,47.060057778],[2.652341389,47.059875278],[2.652805833,47.059862778]]]}},{"type":"Feature","id":"LFOA-003d50dab2dd7e7cae1a","properties":{"airport":"LFOA","name":"LFOA AVISO","layer":"Buildings and structures","category":"Buildings","object_type":"Area","style_id":"polygon.building.394446","source_group":"LFOA AVISO","vsmr_group_ids":[],"geometry_role":"filled_region"},"geometry":{"type":"Polygon","coordinates":[[[2.653685556,47.061185278],[2.653741111,47.061326389],[2.653358611,47.061411667],[2.6532925,47.061277778],[2.653685556,47.061185278]]]}},{"type":"Feature","id":"LFOA-40c82f6601b9143ad658","properties":{"airport":"LFOA","name":"LFOA AVISO","layer":"Buildings and structures","category":"Buildings","object_type":"Area","style_id":"polygon.building.394446","source_group":"LFOA AVISO","vsmr_group_ids":[],"geometry_role":"filled_region"},"geometry":{"type":"Polygon","coordinates":[[[2.653715278,47.061734722],[2.653255,47.061685833],[2.653287778,47.061539167],[2.653753333,47.061587778],[2.653715278,47.061734722]]]}},{"type":"Feature","id":"LFOA-0bc7f6c0b367afe2cb33","properties":{"airport":"LFOA","name":"LFOA AVISO","layer":"Surface markings","category":"Stopbars","object_type":"Area","style_id":"polygon.stopbar.7e0000","source_group":"LFOA AVISO","vsmr_group_ids":[],"geometry_role":"filled_region"},"geometry":{"type":"Polygon","coordinates":[[[2.612470556,47.047120556],[2.612891111,47.047473889],[2.612850833,47.047496111],[2.612425833,47.0471425],[2.612470556,47.047120556]]]}},{"type":"Feature","id":"LFOA-1aa9e357599d525fe062","properties":{"airport":"LFOA","name":"LFOA AVISO","layer":"Surface markings","category":"Stopbars","object_type":"Area","style_id":"polygon.stopbar.7e0000","source_group":"LFOA AVISO","vsmr_group_ids":[],"geometry_role":"filled_region"},"geometry":{"type":"Polygon","coordinates":[[[2.610566111,47.048584444],[2.610537222,47.048589722],[2.610455556,47.048378889],[2.6104875,47.048373333],[2.610566111,47.048584444]]]}},{"type":"Feature","id":"LFOA-1e9636ea98bc117be719","properties":{"airport":"LFOA","name":"LFOA AVISO","layer":"Surface markings","category":"Stopbars","object_type":"Area","style_id":"polygon.stopbar.7e0000","source_group":"LFOA AVISO","vsmr_group_ids":[],"geometry_role":"filled_region"},"geometry":{"type":"Polygon","coordinates":[[[2.625305,47.052324444],[2.625488889,47.052372778],[2.625481389,47.052384167],[2.6253,47.052334444],[2.625305,47.052324444]]]}},{"type":"Feature","id":"LFOA-f4616824a20e3ea3f921","properties":{"airport":"LFOA","name":"LFOA AVISO","layer":"Surface markings","category":"Stopbars","object_type":"Area","style_id":"polygon.stopbar.7e0000","source_group":"LFOA AVISO","vsmr_group_ids":[],"geometry_role":"filled_region"},"geometry":{"type":"Polygon","coordinates":[[[2.638332778,47.057317778],[2.638613611,47.057457778],[2.638596389,47.057472778],[2.638316944,47.057330833],[2.638332778,47.057317778]]]}},{"type":"Feature","id":"LFOA-4dbcab8897813e9affa1","properties":{"airport":"LFOA","name":"LFOA AVISO","layer":"Surface markings","category":"Stopbars","object_type":"Area","style_id":"polygon.stopbar.7e0000","source_group":"LFOA AVISO","vsmr_group_ids":[],"geometry_role":"filled_region"},"geometry":{"type":"Polygon","coordinates":[[[2.647716667,47.06099],[2.647702778,47.061001111],[2.647545,47.0609225],[2.647556111,47.060911111],[2.647716667,47.06099]]]}},{"type":"Feature","id":"LFOA-719f857d11f3391a61aa","properties":{"airport":"LFOA","name":"LFOA AVISO","layer":"Surface markings","category":"Stopbars","object_type":"Area","style_id":"polygon.stopbar.7e0000","source_group":"LFOA AVISO","vsmr_group_ids":[],"geometry_role":"filled_region"},"geometry":{"type":"Polygon","coordinates":[[[2.650166389,47.061825278],[2.650211111,47.061975278],[2.650190833,47.061978611],[2.650145556,47.061826944],[2.650166389,47.061825278]]]}},{"type":"Feature","id":"LFOA-eb7513bebbc5cf6ebbb3","properties":{"airport":"LFOA","name":"LFOA AVISO","layer":"Surface markings","category":"Stopbars","object_type":"Area","style_id":"polygon.stopbar.7e0000","source_group":"LFOA AVISO","vsmr_group_ids":[],"geometry_role":"filled_region"},"geometry":{"type":"Polygon","coordinates":[[[2.651659722,47.062545278],[2.651942222,47.062535],[2.651951389,47.062548056],[2.651656667,47.062558056],[2.651659722,47.062545278]]]}},{"type":"Feature","id":"LFOA-c4ccb747b1c211743a55","properties":{"airport":"LFOA","name":"LFOA AVISO","layer":"Surface markings","category":"Stopbars","object_type":"Area","style_id":"polygon.stopbar.7e0000","source_group":"LFOA AVISO","vsmr_group_ids":[],"geometry_role":"filled_region"},"geometry":{"type":"Polygon","coordinates":[[[2.652868889,47.062385833],[2.653358889,47.062588889],[2.653338056,47.062600278],[2.652861111,47.062403889],[2.652868889,47.062385833]]]}},{"type":"Feature","id":"LFOA-e5a7296fc2ea8dc66a5e","properties":{"airport":"LFOA","name":"Parking 1","layer":"Labels","category":"Gates","object_type":"Label","style_id":"label.gates","source_group":"LFOA Gates","vsmr_group_ids":[],"geometry_role":"text_label","text-field":"Parking 1"},"geometry":{"type":"Point","coordinates":[2.651205,47.058650556]}},{"type":"Feature","id":"LFOA-d2a58d37b036a6b71df2","properties":{"airport":"LFOA","name":"Parking 3","layer":"Labels","category":"Gates","object_type":"Label","style_id":"label.gates","source_group":"LFOA Gates","vsmr_group_ids":[],"geometry_role":"text_label","text-field":"Parking 3"},"geometry":{"type":"Point","coordinates":[2.641613056,47.054223056]}},{"type":"Feature","id":"LFOA-880d8da059808d40b1af","properties":{"airport":"LFOA","name":"Parking 4","layer":"Labels","category":"Gates","object_type":"Label","style_id":"label.gates","source_group":"LFOA Gates","vsmr_group_ids":[],"geometry_role":"text_label","text-field":"Parking 4"},"geometry":{"type":"Point","coordinates":[2.633220278,47.048044167]}},{"type":"Feature","id":"LFOA-dadf4da041566b29a562","properties":{"airport":"LFOA","name":"ZA1","layer":"Labels","category":"Gates","object_type":"Label","style_id":"label.gates","source_group":"LFOA Gates","vsmr_group_ids":[],"geometry_role":"text_label","text-field":"ZA1"},"geometry":{"type":"Point","coordinates":[2.654044722,47.062136667]}},{"type":"Feature","id":"LFOA-3b9c5551b31ffeda865b","properties":{"airport":"LFOA","name":"ZA2","layer":"Labels","category":"Gates","object_type":"Label","style_id":"label.gates","source_group":"LFOA Gates","vsmr_group_ids":[],"geometry_role":"text_label","text-field":"ZA2"},"geometry":{"type":"Point","coordinates":[2.608641944,47.048638056]}},{"type":"Feature","id":"LFOA-8f9185fe7032ad4713f8","properties":{"airport":"LFOA","name":"ZA3","layer":"Labels","category":"Gates","object_type":"Label","style_id":"label.gates","source_group":"LFOA Gates","vsmr_group_ids":[],"geometry_role":"text_label","text-field":"ZA3"},"geometry":{"type":"Point","coordinates":[2.618841111,47.046161389]}},{"type":"Feature","id":"LFOA-0864cffc91b20fd9126f","properties":{"airport":"LFOA","name":"A1","layer":"Labels","category":"Taxiways","object_type":"Label","style_id":"label.taxiways","source_group":"LFOA Taxiways","vsmr_group_ids":[],"geometry_role":"text_label","text-field":"A1"},"geometry":{"type":"Point","coordinates":[2.653592222,47.062749167]}},{"type":"Feature","id":"LFOA-773e7dfa3c9b1ae151bf","properties":{"airport":"LFOA","name":"A2","layer":"Labels","category":"Taxiways","object_type":"Label","style_id":"label.taxiways","source_group":"LFOA Taxiways","vsmr_group_ids":[],"geometry_role":"text_label","text-field":"A2"},"geometry":{"type":"Point","coordinates":[2.610903056,47.048855]}},{"type":"Feature","id":"LFOA-acf574abbb7f7ce11143","properties":{"airport":"LFOA","name":"B1","layer":"Labels","category":"Taxiways","object_type":"Label","style_id":"label.taxiways","source_group":"LFOA Taxiways","vsmr_group_ids":[],"geometry_role":"text_label","text-field":"B1"},"geometry":{"type":"Point","coordinates":[2.651324722,47.062527778]}},{"type":"Feature","id":"LFOA-b82518a182cac11d187c","properties":{"airport":"LFOA","name":"B2","layer":"Labels","category":"Taxiways","object_type":"Label","style_id":"label.taxiways","source_group":"LFOA Taxiways","vsmr_group_ids":[],"geometry_role":"text_label","text-field":"B2"},"geometry":{"type":"Point","coordinates":[2.648008611,47.061135833]}},{"type":"Feature","id":"LFOA-19ef608a43d79c73ba7a","properties":{"airport":"LFOA","name":"B3","layer":"Labels","category":"Taxiways","object_type":"Label","style_id":"label.taxiways","source_group":"LFOA Taxiways","vsmr_group_ids":[],"geometry_role":"text_label","text-field":"B3"},"geometry":{"type":"Point","coordinates":[2.639563611,47.056659444]}},{"type":"Feature","id":"LFOA-921b30eabf22db5415d5","properties":{"airport":"LFOA","name":"B4","layer":"Labels","category":"Taxiways","object_type":"Label","style_id":"label.taxiways","source_group":"LFOA Taxiways","vsmr_group_ids":[],"geometry_role":"text_label","text-field":"B4"},"geometry":{"type":"Point","coordinates":[2.627108889,47.050698889]}},{"type":"Feature","id":"LFOA-11a84e5eee4450466aec","properties":{"airport":"LFOA","name":"B5","layer":"Labels","category":"Taxiways","object_type":"Label","style_id":"label.taxiways","source_group":"LFOA Taxiways","vsmr_group_ids":[],"geometry_role":"text_label","text-field":"B5"},"geometry":{"type":"Point","coordinates":[2.611921667,47.0467775]}},{"type":"Feature","id":"LFOA-73cb45e5ea87b600f7d3","properties":{"airport":"LFOA","name":"E","layer":"Labels","category":"Taxiways","object_type":"Label","style_id":"label.taxiways","source_group":"LFOA Taxiways","vsmr_group_ids":[],"geometry_role":"text_label","text-field":"E"},"geometry":{"type":"Point","coordinates":[2.645014167,47.057828333]}},{"type":"Feature","id":"LFOA-809a4b828e6f08175806","properties":{"airport":"LFOA","name":"C","layer":"Labels","category":"Taxiways","object_type":"Label","style_id":"label.taxiways","source_group":"LFOA Taxiways","vsmr_group_ids":[],"geometry_role":"text_label","text-field":"C"},"geometry":{"type":"Point","coordinates":[2.635348889,47.052431389]}},{"type":"Feature","id":"LFOA-4d766586346f7f7d2043","properties":{"airport":"LFOA","name":"W","layer":"Labels","category":"Taxiways","object_type":"Label","style_id":"label.taxiways","source_group":"LFOA Taxiways","vsmr_group_ids":[],"geometry_role":"text_label","text-field":"W"},"geometry":{"type":"Point","coordinates":[2.625685833,47.048668333]}},{"type":"Feature","id":"LFOA-43f979f7b880e5e7129f","properties":{"airport":"LFOA","name":"W","layer":"Labels","category":"Taxiways","object_type":"Label","style_id":"label.taxiways","source_group":"LFOA Taxiways","vsmr_group_ids":[],"geometry_role":"text_label","text-field":"W"},"geometry":{"type":"Point","coordinates":[2.618466667,47.047841389]}},{"type":"Feature","id":"LFOA-d38fde9a4358e57de33d","properties":{"airport":"LFOA","name":"X","layer":"Labels","category":"Taxiways","object_type":"Label","style_id":"label.taxiways","source_group":"LFOA Taxiways","vsmr_group_ids":[],"geometry_role":"text_label","text-field":"X"},"geometry":{"type":"Point","coordinates":[2.628731389,47.051506111]}},{"type":"Feature","id":"LFOA-bcd7f7bbe364a9b6a037","properties":{"airport":"LFOA","name":"X","layer":"Labels","category":"Taxiways","object_type":"Label","style_id":"label.taxiways","source_group":"LFOA Taxiways","vsmr_group_ids":[],"geometry_role":"text_label","text-field":"X"},"geometry":{"type":"Point","coordinates":[2.631115833,47.052833056]}},{"type":"Feature","id":"LFOA-db130a9be82eea8e0be4","properties":{"airport":"LFOA","name":"X","layer":"Labels","category":"Taxiways","object_type":"Label","style_id":"label.taxiways","source_group":"LFOA Taxiways","vsmr_group_ids":[],"geometry_role":"text_label","text-field":"X"},"geometry":{"type":"Point","coordinates":[2.633252222,47.054078611]}},{"type":"Feature","id":"LFOA-3927ec8b161be5b9902a","properties":{"airport":"LFOA","name":"X","layer":"Labels","category":"Taxiways","object_type":"Label","style_id":"label.taxiways","source_group":"LFOA Taxiways","vsmr_group_ids":[],"geometry_role":"text_label","text-field":"X"},"geometry":{"type":"Point","coordinates":[2.635093333,47.055111667]}},{"type":"Feature","id":"LFOA-970d6dd3e070a1d72670","properties":{"airport":"LFOA","name":"X","layer":"Labels","category":"Taxiways","object_type":"Label","style_id":"label.taxiways","source_group":"LFOA Taxiways","vsmr_group_ids":[],"geometry_role":"text_label","text-field":"X"},"geometry":{"type":"Point","coordinates":[2.637316111,47.056358611]}},{"type":"Feature","id":"LFOA-a468d42a8003bf81d342","properties":{"airport":"LFOA","name":"X","layer":"Labels","category":"Taxiways","object_type":"Label","style_id":"label.taxiways","source_group":"LFOA Taxiways","vsmr_group_ids":[],"geometry_role":"text_label","text-field":"X"},"geometry":{"type":"Point","coordinates":[2.640351944,47.058105556]}},{"type":"Feature","id":"LFOA-a5b22c0f374145231b41","properties":{"airport":"LFOA","name":"X","layer":"Labels","category":"Taxiways","object_type":"Label","style_id":"label.taxiways","source_group":"LFOA Taxiways","vsmr_group_ids":[],"geometry_role":"text_label","text-field":"X"},"geometry":{"type":"Point","coordinates":[2.642371111,47.0592425]}},{"type":"Feature","id":"LFOA-23e4e7e2f4161e96e51e","properties":{"airport":"LFOA","name":"X","layer":"Labels","category":"Taxiways","object_type":"Label","style_id":"label.taxiways","source_group":"LFOA Taxiways","vsmr_group_ids":[],"geometry_role":"text_label","text-field":"X"},"geometry":{"type":"Point","coordinates":[2.64069,47.056598889]}},{"type":"Feature","id":"LFOA-4d251d2d81f7b39e490a","properties":{"airport":"LFOA","name":"X","layer":"Labels","category":"Taxiways","object_type":"Label","style_id":"label.taxiways","source_group":"LFOA Taxiways","vsmr_group_ids":[],"geometry_role":"text_label","text-field":"X"},"geometry":{"type":"Point","coordinates":[2.643579722,47.05485]}},{"type":"Feature","id":"LFOA-6860fd4b5bc01ca5f77a","properties":{"airport":"LFOA","name":"X","layer":"Labels","category":"Taxiways","object_type":"Label","style_id":"label.taxiways","source_group":"LFOA Taxiways","vsmr_group_ids":[],"geometry_role":"text_label","text-field":"X"},"geometry":{"type":"Point","coordinates":[2.646056667,47.053436389]}},{"type":"Feature","id":"LFOA-8df4335755649a7aec64","properties":{"airport":"LFOA","name":"X","layer":"Labels","category":"Taxiways","object_type":"Label","style_id":"label.taxiways","source_group":"LFOA Taxiways","vsmr_group_ids":[],"geometry_role":"text_label","text-field":"X"},"geometry":{"type":"Point","coordinates":[2.648486944,47.052110278]}}]}
