{"type":"FeatureCollection","name":"LFOB AVISO","bbox":[2.099335833,49.442496389,2.140052222,49.465810556],"metadata":{"schema":"vSMR AVISO","schema_version":2,"geometry_mode":"shared","airport":"LFOB","coordinate_reference_system":"WGS84","coordinate_order":"longitude, latitude","default_color_palette":"dark","color_palettes":["dark","light"],"background_colors":{"dark":"#434A4F","light":"#434A4F"},"runways":[{"ends":["12","30"],"headings":[123,303],"thresholds":[[2.104357778,49.458093889],[2.131732778,49.446205833]]},{"ends":["04","22"],"headings":[41,221],"thresholds":[[2.116813889,49.457368889],[2.123282778,49.462138889]]}],"saved_active_runways":[],"saved_active_airport_modes":[],"airport_reference":[2.112777778,49.454443889],"feature_count":114,"style_count":12,"layer_counts":{"Airfield surfaces":13,"Buildings and structures":24,"Guidance lines":1,"Labels":63,"Surface markings":8,"Terrain":5},"category_counts":{"Buildings":24,"Gates":25,"Grass":1,"Grass runways":1,"Hard Surface 2":6,"Hard Surface 3":3,"Hard Surface 4":1,"Runways":2,"Stopbars":8,"Taxiways":39,"Terrain 1":4},"geometry_source":"local GNG","geometry_source_url":"","geometry_license":"GPL-3.0"},"styles":{"polygon.grassurface.00512f":{"name":"Grass","layer":"Terrain","object_type":"Area","paint":{"fill":"#010D19","fill-opacity":1,"palette-overrides":{"light":{"fill":"#00512F"}}},"feature_count":1},"polygon.terrain1.574242":{"name":"Terrain 1","layer":"Terrain","object_type":"Area","paint":{"fill":"#574242","fill-opacity":1,"palette-overrides":{"light":{"fill":"#574242"}}},"feature_count":4},"polygon.hardsurface4.969393":{"name":"Hard Surface 4","layer":"Airfield surfaces","object_type":"Area","paint":{"fill":"#152841","fill-opacity":1,"palette-overrides":{"light":{"fill":"#969393"}}},"feature_count":1},"polygon.hardsurface2.595e5b":{"name":"Hard Surface 2","layer":"Airfield surfaces","object_type":"Area","paint":{"fill":"#2F3949","fill-opacity":1,"palette-overrides":{"light":{"fill":"#595E5B"}}},"feature_count":6},"polygon.hardsurface3.8a807f":{"name":"Hard Surface 3","layer":"Airfield surfaces","object_type":"Area","paint":{"fill":"#222D3C","fill-opacity":1,"palette-overrides":{"light":{"fill":"#8A807F"}}},"feature_count":3},"polygon.runwayconcrete.555555":{"name":"Runways","layer":"Airfield surfaces","object_type":"Area","paint":{"fill":"#111318","fill-opacity":1,"palette-overrides":{"light":{"fill":"#555555"}}},"feature_count":2},"polygon.runwaygrass.008000":{"name":"Grass runways","layer":"Airfield surfaces","object_type":"Area","paint":{"fill":"#859A77","fill-opacity":1,"palette-overrides":{"light":{"fill":"#008000"}}},"feature_count":1},"polygon.building.394446":{"name":"Buildings","layer":"Buildings and structures","object_type":"Area","paint":{"fill":"#475570","fill-opacity":1,"palette-overrides":{"light":{"fill":"#394446"}}},"feature_count":24},"polygon.stopbar.7e0000":{"name":"Stopbars","layer":"Surface markings","object_type":"Area","paint":{"fill":"#7E0000","fill-opacity":1,"palette-overrides":{"light":{"fill":"#7E0000"}}},"feature_count":8},"line.taxiway.c0b631":{"name":"Taxiways","layer":"Guidance lines","object_type":"Line","paint":{"stroke":"#4E5A69","stroke-opacity":1,"stroke-width":1,"palette-overrides":{"light":{"stroke":"#C0B631"}}},"feature_count":1},"label.gates":{"name":"Gates","layer":"Labels","object_type":"Label","paint":{"text-color":"#CCCCCC","text-font":"Arial","text-size":12,"text-halo-color":"#000000","text-halo-width":1,"text-anchor":"center","zoomLevel":9},"feature_count":25},"label.taxiways":{"name":"Taxiways","layer":"Labels","object_type":"Label","paint":{"text-color":"#CCCCCC","text-font":"Arial","text-size":12,"text-halo-color":"#000000","text-halo-width":1,"text-anchor":"center","zoomLevel":7},"feature_count":38}},"vsmr_groups":[],"features":[{"type":"Feature","id":"LFOB-2465082614614f15a220","properties":{"airport":"LFOB","name":"LFOB AVISO","layer":"Terrain","category":"Grass","object_type":"Area","style_id":"polygon.grassurface.00512f","source_group":"LFOB AVISO","vsmr_group_ids":[],"geometry_role":"filled_region"},"geometry":{"type":"Polygon","coordinates":[[[2.139479444,49.444499167],[2.140052222,49.444758889],[2.13865,49.445936944],[2.138596111,49.445996389],[2.138563056,49.446086944],[2.138383889,49.446648056],[2.137947778,49.446997778],[2.135759167,49.447950278],[2.134040278,49.447792778],[2.126952222,49.450894444],[2.125650278,49.450951389],[2.116043889,49.455086667],[2.128990556,49.464646111],[2.128945833,49.464675],[2.128894444,49.464751111],[2.128821944,49.464815278],[2.128760556,49.464853333],[2.127108611,49.465810556],[2.124059167,49.463585556],[2.123273056,49.464022778],[2.122793889,49.464055556],[2.122460833,49.464244444],[2.120353889,49.462680278],[2.1188775,49.462621944],[2.118859722,49.462751389],[2.118464167,49.462739722],[2.118335556,49.462778056],[2.118180278,49.4628975],[2.118123611,49.462930833],[2.118059722,49.462944722],[2.117993333,49.462948056],[2.117924722,49.462939167],[2.1178475,49.462910278],[2.117729167,49.462858056],[2.117035,49.462562778],[2.117033333,49.4623325],[2.118506667,49.461288056],[2.116223056,49.459982778],[2.115138889,49.460755833],[2.114635833,49.460381389],[2.112648889,49.458911389],[2.112566667,49.458877778],[2.1124725,49.458850556],[2.112361389,49.458838611],[2.112264444,49.458833611],[2.112142778,49.458841944],[2.112051389,49.458857222],[2.111779722,49.458955833],[2.1108325,49.459295278],[2.108395556,49.459782222],[2.108271389,49.459772778],[2.108121667,49.459781111],[2.107949167,49.459806389],[2.107786667,49.459836111],[2.106765,49.460040833],[2.1063025,49.460281667],[2.105745556,49.460391111],[2.105690278,49.460399167],[2.105618611,49.460398333],[2.105551111,49.460407222],[2.105493056,49.460419722],[2.105436667,49.460445],[2.105406111,49.460466389],[2.105396667,49.460481667],[2.104198056,49.460718333],[2.103830556,49.460785],[2.102683889,49.460963056],[2.102014722,49.460796667],[2.101600833,49.460502778],[2.101438611,49.460376667],[2.101154167,49.460115833],[2.100857222,49.459835],[2.100624167,49.459618056],[2.100481667,49.459473611],[2.100299444,49.459296111],[2.100198333,49.459190278],[2.100044722,49.459010278],[2.099923333,49.458828056],[2.099805833,49.458664167],[2.099719167,49.458501944],[2.099609444,49.458292222],[2.099529167,49.458104167],[2.099458889,49.457951389],[2.099410278,49.457711389],[2.099366667,49.457511389],[2.099344444,49.457318611],[2.099335833,49.45713],[2.099344722,49.4568375],[2.1018775,49.455953611],[2.101775278,49.455821111],[2.102374444,49.455600278],[2.102608611,49.455588889],[2.103999722,49.454985278],[2.103969722,49.454950278],[2.104120833,49.454894167],[2.105233611,49.454408611],[2.1054625,49.454275278],[2.105553056,49.454264167],[2.105711389,49.454259444],[2.1070275,49.453691944],[2.108627222,49.452611389],[2.108903333,49.452893333],[2.1147625,49.45034],[2.116178333,49.451105556],[2.128458889,49.4458075],[2.128586111,49.445718333],[2.128833889,49.444760556],[2.130715,49.443949722],[2.130886389,49.442544722],[2.130937222,49.442496389],[2.131139167,49.442549167],[2.139479444,49.444499167]]]}},{"type":"Feature","id":"LFOB-a8f0cbe2499554019d3c","properties":{"airport":"LFOB","name":"LFOB AVISO","layer":"Terrain","category":"Terrain 1","object_type":"Area","style_id":"polygon.terrain1.574242","source_group":"LFOB AVISO","vsmr_group_ids":[],"geometry_role":"filled_region"},"geometry":{"type":"Polygon","coordinates":[[[2.124703889,49.4503675],[2.124693056,49.450374722],[2.124686667,49.450380556],[2.124685278,49.450393889],[2.124685278,49.450404444],[2.12469,49.450409722],[2.1247025,49.45042],[2.124720556,49.450443333],[2.124743889,49.450482778],[2.124756667,49.4505175],[2.124765,49.450545556],[2.124769167,49.450573889],[2.124768611,49.450595278],[2.125208889,49.450405278],[2.125244444,49.450387222],[2.125252778,49.4503775],[2.125252778,49.450364722],[2.125247778,49.450355],[2.125231111,49.450335278],[2.125853333,49.450308333],[2.125765833,49.450327778],[2.125673611,49.450347778],[2.12559,49.450368889],[2.125524444,49.450389722],[2.1254475,49.450423611],[2.125301111,49.450486667],[2.114566667,49.455138889],[2.114483611,49.455180278],[2.114446944,49.455211944],[2.114412222,49.455243889],[2.114405,49.455274167],[2.114405833,49.455315278],[2.114172778,49.455125556],[2.114220278,49.455106111],[2.114282778,49.455108333],[2.114363889,49.455107222],[2.114398333,49.455098889],[2.114449722,49.455075833],[2.114594722,49.455014444],[2.114719444,49.454958611],[2.114851389,49.454899722],[2.124470556,49.450727222],[2.124549444,49.450686667],[2.124588611,49.450648889],[2.124614167,49.450614167],[2.124624444,49.450580278],[2.124621667,49.450540833],[2.124611111,49.450501389],[2.124585833,49.450463333],[2.124553056,49.450433889],[2.124496667,49.450407222],[2.124443056,49.450389167],[2.124343056,49.450373333],[2.124723056,49.4503575],[2.124703889,49.4503675]]]}},{"type":"Feature","id":"LFOB-e6fe5a6c107c18d715db","properties":{"airport":"LFOB","name":"LFOB AVISO","layer":"Terrain","category":"Terrain 1","object_type":"Area","style_id":"polygon.terrain1.574242","source_group":"LFOB AVISO","vsmr_group_ids":[],"geometry_role":"filled_region"},"geometry":{"type":"Polygon","coordinates":[[[2.113632222,49.455546111],[2.113552778,49.455579444],[2.11311,49.455770833],[2.109861667,49.457179444],[2.109718056,49.457242778],[2.109675278,49.457268056],[2.109650278,49.457295],[2.109634444,49.457323056],[2.109628611,49.45735],[2.109628889,49.457375556],[2.109634444,49.457427222],[2.109378333,49.457107778],[2.109424167,49.457134444],[2.109455278,49.457151667],[2.109489167,49.457163611],[2.109523611,49.457168056],[2.109562222,49.457169722],[2.109588333,49.4571675],[2.109617222,49.457161111],[2.109650833,49.45715],[2.113547222,49.455466667],[2.113575278,49.455445278],[2.113591111,49.455424167],[2.1136,49.455401111],[2.113603889,49.455375],[2.113598611,49.455343056],[2.113782222,49.455498611],[2.113701389,49.455520556],[2.113632222,49.455546111]]]}},{"type":"Feature","id":"LFOB-96b0689e2016f3850d51","properties":{"airport":"LFOB","name":"LFOB AVISO","layer":"Terrain","category":"Terrain 1","object_type":"Area","style_id":"polygon.terrain1.574242","source_group":"LFOB AVISO","vsmr_group_ids":[],"geometry_role":"filled_region"},"geometry":{"type":"Polygon","coordinates":[[[2.104968333,49.458241944],[2.104972778,49.458255833],[2.104986389,49.458269167],[2.105001389,49.458276111],[2.105014722,49.458279167],[2.10504,49.458275833],[2.105078889,49.458265833],[2.105143056,49.458250556],[2.105287778,49.458225833],[2.105755556,49.458132222],[2.106167222,49.458046389],[2.106674167,49.457940556],[2.106850556,49.457901389],[2.107007222,49.457861944],[2.107343333,49.457775],[2.108908611,49.4573825],[2.109147778,49.457313333],[2.109176944,49.457300833],[2.109190278,49.457286111],[2.109198611,49.457266111],[2.109203333,49.457248611],[2.109204167,49.457225556],[2.109202778,49.457189722],[2.109411389,49.457455278],[2.109370833,49.457429167],[2.109341111,49.457413333],[2.109309444,49.457406111],[2.10928,49.4574025],[2.109250833,49.457401944],[2.109199444,49.457411389],[2.109135556,49.457424167],[2.108856111,49.457496389],[2.107061389,49.457955278],[2.106798333,49.458016389],[2.106478889,49.458081389],[2.105618056,49.4582625],[2.105255,49.458341389],[2.105142222,49.458363889],[2.105090833,49.4583775],[2.105051389,49.458388611],[2.105016111,49.458401944],[2.104851389,49.458473889],[2.10478,49.458498611],[2.104971111,49.4582],[2.104968333,49.458241944]]]}},{"type":"Feature","id":"LFOB-b89e1914eb16ae3c9d9e","properties":{"airport":"LFOB","name":"LFOB AVISO","layer":"Terrain","category":"Terrain 1","object_type":"Area","style_id":"polygon.terrain1.574242","source_group":"LFOB AVISO","vsmr_group_ids":[],"geometry_role":"filled_region"},"geometry":{"type":"Polygon","coordinates":[[[2.110691667,49.453720556],[2.111396111,49.454423889],[2.111513611,49.454516944],[2.111570278,49.454554444],[2.111631389,49.454586389],[2.111465556,49.454681389],[2.111420833,49.454583611],[2.111390556,49.454546389],[2.111233333,49.454383056],[2.110961111,49.454111667],[2.110604167,49.453760278],[2.110607222,49.453763056],[2.110546667,49.453707222],[2.110485833,49.4536675],[2.110418333,49.453631944],[2.110364722,49.453610278],[2.110283333,49.453583611],[2.110213333,49.453567778],[2.110126667,49.453554722],[2.110054722,49.453550278],[2.109939444,49.453552778],[2.109685556,49.453561389],[2.109351389,49.453583056],[2.10924,49.453592222],[2.109155278,49.453606111],[2.109072778,49.453625556],[2.1090075,49.453643333],[2.108935,49.453667778],[2.108588333,49.453820278],[2.108683056,49.453778611],[2.108507222,49.453890278],[2.108442222,49.453802778],[2.108624444,49.453723056],[2.108935556,49.4535875],[2.109004167,49.453562778],[2.109085,49.453541944],[2.109163611,49.453525],[2.1092625,49.453515278],[2.109799722,49.453488611],[2.110228889,49.453479722],[2.110296389,49.453485833],[2.110385278,49.453501667],[2.110440556,49.453518889],[2.110493611,49.453538056],[2.110531944,49.453565556],[2.110691667,49.453720556]]]}},{"type":"Feature","id":"LFOB-27b6c26d69f49fb430ff","properties":{"airport":"LFOB","name":"LFOB AVISO","layer":"Airfield surfaces","category":"Hard Surface 4","object_type":"Area","style_id":"polygon.hardsurface4.969393","source_group":"LFOB AVISO","vsmr_group_ids":[],"geometry_role":"filled_region"},"geometry":{"type":"Polygon","coordinates":[[[2.116907778,49.457278611],[2.116983889,49.457236944],[2.117106389,49.45732],[2.117198333,49.457317778],[2.123527222,49.462000556],[2.123083611,49.462251667],[2.123014167,49.462206111],[2.122967778,49.462225],[2.1165975,49.457554167],[2.116485,49.457491111],[2.116359722,49.457461389],[2.116239444,49.457456667],[2.116134167,49.4574775],[2.116000833,49.457523056],[2.116127778,49.456716944],[2.116907778,49.457278611]]]}},{"type":"Feature","id":"LFOB-d09d3d6258321bc12aa6","properties":{"airport":"LFOB","name":"LFOB AVISO","layer":"Airfield surfaces","category":"Hard Surface 2","object_type":"Area","style_id":"polygon.hardsurface2.595e5b","source_group":"LFOB AVISO","vsmr_group_ids":[],"geometry_role":"filled_region"},"geometry":{"type":"Polygon","coordinates":[[[2.108506389,49.453888611],[2.108188611,49.454024444],[2.108175833,49.454054167],[2.108168889,49.45408],[2.108166111,49.4541125],[2.108169722,49.454144722],[2.108182778,49.454175278],[2.108201944,49.454205556],[2.108245278,49.454264444],[2.108303889,49.454329444],[2.108406389,49.454431389],[2.108611389,49.454633333],[2.108498056,49.454678333],[2.1083175,49.454505556],[2.108173611,49.454364722],[2.108093333,49.454298333],[2.108024167,49.454249167],[2.107978889,49.454225833],[2.107926667,49.454209444],[2.1078575,49.454194167],[2.1077775,49.454184444],[2.107299444,49.454377222],[2.107144167,49.454448611],[2.106455556,49.4547475],[2.106199167,49.454851667],[2.106143056,49.454872778],[2.106083333,49.454885556],[2.106023889,49.454887778],[2.105965833,49.454885556],[2.1058825,49.454876389],[2.105818333,49.454871111],[2.105691111,49.454909722],[2.1056375,49.454856111],[2.105643889,49.4548425],[2.105592778,49.4547675],[2.105571111,49.454761111],[2.105537778,49.454759444],[2.105504722,49.454761944],[2.10548,49.454766944],[2.105376944,49.454803333],[2.105316111,49.454826111],[2.105229167,49.4548675],[2.105075556,49.454937778],[2.104960556,49.454836944],[2.105752778,49.454464167],[2.1059,49.454603889],[2.105923056,49.454631111],[2.105934444,49.454650833],[2.105935556,49.454665833],[2.105935556,49.454666667],[2.105930833,49.454686667],[2.105926389,49.454696667],[2.105993611,49.454721111],[2.106050833,49.454736667],[2.106099167,49.454750556],[2.106141389,49.454755833],[2.106182222,49.454757222],[2.106238056,49.454750556],[2.106325,49.454724167],[2.108418889,49.453815],[2.108506389,49.453888611]]]}},{"type":"Feature","id":"LFOB-8ab77f6d99fad322192e","properties":{"airport":"LFOB","name":"LFOB AVISO","layer":"Airfield surfaces","category":"Hard Surface 2","object_type":"Area","style_id":"polygon.hardsurface2.595e5b","source_group":"LFOB AVISO","vsmr_group_ids":[],"geometry_role":"filled_region"},"geometry":{"type":"Polygon","coordinates":[[[2.126775,49.450120278],[2.126896944,49.45011],[2.127026667,49.450088889],[2.1271825,49.450049444],[2.127345833,49.450004167],[2.127545833,49.449932778],[2.127722778,49.449858333],[2.129341111,49.449153889],[2.130899444,49.448479444],[2.1319025,49.4480375],[2.132369167,49.447825833],[2.132527778,49.447746389],[2.132615833,49.447692778],[2.132699444,49.447629167],[2.132765556,49.447560556],[2.132806944,49.447503333],[2.132847778,49.447413889],[2.132878333,49.447305833],[2.133125,49.447315833],[2.133124167,49.447326111],[2.13311,49.447390278],[2.133088611,49.447460833],[2.133066667,49.447521389],[2.133015556,49.447601389],[2.132954444,49.447677222],[2.132877778,49.447748056],[2.132800556,49.4478075],[2.132703333,49.447866111],[2.132582222,49.447931944],[2.127676389,49.450063889],[2.127461667,49.450140556],[2.127327222,49.4501825],[2.127216111,49.450211389],[2.127055556,49.450246111],[2.126948333,49.450265],[2.126859444,49.450272222],[2.126764167,49.450277222],[2.126475556,49.450288611],[2.126461389,49.450135556],[2.126775,49.450120278]]]}},{"type":"Feature","id":"LFOB-099c70c15eb0657aaeb2","properties":{"airport":"LFOB","name":"LFOB AVISO","layer":"Airfield surfaces","category":"Hard Surface 2","object_type":"Area","style_id":"polygon.hardsurface2.595e5b","source_group":"LFOB AVISO","vsmr_group_ids":[],"geometry_role":"filled_region"},"geometry":{"type":"Polygon","coordinates":[[[2.120427778,49.460565556],[2.119982778,49.460820556],[2.119936389,49.460849722],[2.119898056,49.460881944],[2.119822222,49.460828611],[2.120361111,49.460517778],[2.120427778,49.460565556]]]}},{"type":"Feature","id":"LFOB-f9283be21e05ac11e9e7","properties":{"airport":"LFOB","name":"LFOB AVISO","layer":"Airfield surfaces","category":"Hard Surface 2","object_type":"Area","style_id":"polygon.hardsurface2.595e5b","source_group":"LFOB AVISO","vsmr_group_ids":[],"geometry_role":"filled_region"},"geometry":{"type":"Polygon","coordinates":[[[2.122479722,49.4625575],[2.122413056,49.462507778],[2.122776111,49.462298611],[2.122846944,49.462348056],[2.122479722,49.4625575]]]}},{"type":"Feature","id":"LFOB-22f9f3410a46ded56c26","properties":{"airport":"LFOB","name":"LFOB AVISO","layer":"Airfield surfaces","category":"Hard Surface 2","object_type":"Area","style_id":"polygon.hardsurface2.595e5b","source_group":"LFOB AVISO","vsmr_group_ids":[],"geometry_role":"filled_region"},"geometry":{"type":"Polygon","coordinates":[[[2.109732222,49.45752],[2.109786111,49.457577222],[2.109836389,49.457622222],[2.109891111,49.457667222],[2.109934444,49.457700278],[2.109677222,49.457785833],[2.109456389,49.457513889],[2.109666667,49.457438889],[2.109732222,49.45752]]]}},{"type":"Feature","id":"LFOB-f9381f204c9be0f80412","properties":{"airport":"LFOB","name":"LFOB AVISO","layer":"Airfield surfaces","category":"Hard Surface 2","object_type":"Area","style_id":"polygon.hardsurface2.595e5b","source_group":"LFOB AVISO","vsmr_group_ids":[],"geometry_role":"filled_region"},"geometry":{"type":"Polygon","coordinates":[[[2.115043889,49.4577825],[2.115182222,49.457706667],[2.115541667,49.457448056],[2.115811667,49.457253333],[2.115882222,49.457198611],[2.115909167,49.457162778],[2.1159275,49.457120833],[2.115933889,49.4570775],[2.115925556,49.457029167],[2.115910556,49.456996389],[2.115878889,49.456953611],[2.115169167,49.456318333],[2.115105278,49.456267778],[2.114139722,49.455552222],[2.114376111,49.4554225],[2.116181667,49.456753333],[2.116241111,49.456805556],[2.116286111,49.456855833],[2.116318333,49.456900278],[2.1163425,49.456951667],[2.116360833,49.457016389],[2.116370556,49.457077778],[2.116366944,49.457131667],[2.116354167,49.457185],[2.116333333,49.457240556],[2.116300556,49.457292222],[2.116274722,49.457328611],[2.116246389,49.45736],[2.116208333,49.457393889],[2.1161625,49.457429167],[2.116108611,49.457463611],[2.115789444,49.457646944],[2.115634444,49.457738611],[2.115554167,49.457788889],[2.115443333,49.457873611],[2.115393333,49.457920278],[2.115346111,49.457976944],[2.115043889,49.4577825]]]}},{"type":"Feature","id":"LFOB-2bf4d9aeb5fa96ea92af","properties":{"airport":"LFOB","name":"LFOB AVISO","layer":"Airfield surfaces","category":"Hard Surface 3","object_type":"Area","style_id":"polygon.hardsurface3.8a807f","source_group":"LFOB AVISO","vsmr_group_ids":[],"geometry_role":"filled_region"},"geometry":{"type":"Polygon","coordinates":[[[2.119887778,49.460890833],[2.119881389,49.460904444],[2.119878333,49.460917778],[2.119878889,49.460936389],[2.119883889,49.460952778],[2.119893611,49.460967222],[2.119929722,49.461000833],[2.120094167,49.461126111],[2.120126667,49.461159722],[2.120690556,49.461760278],[2.1207325,49.461803889],[2.120801389,49.461856667],[2.121217778,49.462158333],[2.121231667,49.462167222],[2.121250833,49.462171389],[2.121348333,49.462169722],[2.121534444,49.462064167],[2.121705,49.46207],[2.122295278,49.462502778],[2.122412222,49.462507778],[2.122419722,49.462503889],[2.122495278,49.462561111],[2.122149444,49.462759722],[2.122145,49.462838611],[2.123065833,49.463521111],[2.122854722,49.463643333],[2.122998889,49.463750278],[2.122876944,49.463819722],[2.1224975,49.463540833],[2.122620278,49.46347],[2.122765,49.463577778],[2.122844722,49.463530833],[2.122850556,49.463517778],[2.1228525,49.463467222],[2.122627222,49.463298056],[2.122613056,49.463294167],[2.122528056,49.463290278],[2.1224425,49.463340278],[2.122504444,49.463388056],[2.122382778,49.463458056],[2.122128056,49.463273889],[2.1222475,49.463202778],[2.122356111,49.463273611],[2.122430833,49.4632275],[2.122443333,49.463164167],[2.122294722,49.463055278],[2.122197222,49.463049722],[2.122115556,49.463098056],[2.122176667,49.463145],[2.122057222,49.463215556],[2.12184,49.463056111],[2.121961944,49.462982222],[2.122025556,49.463032222],[2.122108889,49.462983889],[2.122114722,49.462923611],[2.121885,49.462749167],[2.121782778,49.462745556],[2.121705833,49.462790833],[2.121846111,49.462901667],[2.121719167,49.462973333],[2.121343889,49.462690278],[2.121469167,49.462617778],[2.121613611,49.462724722],[2.121694167,49.462682222],[2.121701944,49.462615278],[2.121469444,49.462445556],[2.121370278,49.462442222],[2.121291111,49.462490278],[2.121356111,49.462539722],[2.121226389,49.462611389],[2.121014444,49.462449722],[2.121137778,49.462377778],[2.121201667,49.462424444],[2.121289167,49.462375],[2.121293611,49.462315],[2.121143889,49.462203889],[2.121043611,49.462200278],[2.120963333,49.462245833],[2.121026944,49.462295833],[2.120900556,49.462368333],[2.120648889,49.4621725],[2.120764444,49.462102222],[2.120874167,49.4621825],[2.120955833,49.462133889],[2.12096,49.462068611],[2.120816389,49.461962778],[2.120718056,49.461958333],[2.120631944,49.462005],[2.120694722,49.462055833],[2.120516389,49.462151389],[2.1202625,49.461961111],[2.120436944,49.461864167],[2.120544444,49.461941111],[2.120628056,49.461892222],[2.120634722,49.461829722],[2.120493056,49.461676389],[2.120053611,49.461197222],[2.119997222,49.461143056],[2.119857222,49.461036111],[2.119815,49.461013611],[2.119774722,49.461000278],[2.119738889,49.460996667],[2.119693333,49.460998611],[2.119651389,49.461011111],[2.11958,49.461049722],[2.119408889,49.461151389],[2.119375833,49.461178333],[2.119345278,49.461219444],[2.119330556,49.461260556],[2.119320278,49.461308333],[2.119313056,49.461349444],[2.119298333,49.461382778],[2.119278889,49.461407222],[2.119251389,49.461428889],[2.119063889,49.461538333],[2.119059167,49.461605],[2.11913,49.461659722],[2.119206389,49.461614444],[2.119315278,49.461693333],[2.119169722,49.461774722],[2.119216111,49.461809167],[2.11906,49.461891667],[2.119022778,49.461864167],[2.119035,49.461816667],[2.1189575,49.461755833],[2.119034444,49.461715],[2.118957778,49.461659167],[2.118859722,49.4616575],[2.118640556,49.461785556],[2.118636667,49.461848333],[2.1187075,49.461901667],[2.118819167,49.461839722],[2.118923889,49.461919167],[2.118564167,49.462126111],[2.118455556,49.4620475],[2.118606944,49.461961111],[2.118535556,49.461906667],[2.118436944,49.461901111],[2.118163333,49.462058333],[2.118161944,49.4621275],[2.118230278,49.462176389],[2.1183425,49.462114167],[2.118454444,49.462195833],[2.118118611,49.462374167],[2.118016389,49.462300556],[2.118129444,49.462234722],[2.118058333,49.462180833],[2.117963056,49.462175],[2.117704722,49.462321944],[2.117637778,49.462273056],[2.118933056,49.461525278],[2.118942222,49.461441667],[2.118850556,49.461371389],[2.118825,49.461346389],[2.118810278,49.461319722],[2.118809167,49.461291667],[2.118826389,49.461239444],[2.1189025,49.461091944],[2.118927778,49.461063611],[2.118967778,49.461035833],[2.119015833,49.461019722],[2.119069722,49.461015833],[2.119123611,49.461016667],[2.119177778,49.461023333],[2.119229444,49.461035556],[2.119196389,49.461095556],[2.119146667,49.461086111],[2.119106389,49.461079444],[2.119071389,49.461078056],[2.119043056,49.461084722],[2.119018889,49.461097222],[2.118999722,49.461112778],[2.11898,49.461142778],[2.118924722,49.461245278],[2.118914167,49.461271667],[2.118909444,49.461300556],[2.118915,49.461318056],[2.118936111,49.461342778],[2.119018056,49.461399444],[2.1191375,49.461403056],[2.119173056,49.461383611],[2.119198333,49.461359444],[2.119214167,49.4613325],[2.119221667,49.46131],[2.119226944,49.461265],[2.119237778,49.461231667],[2.119250278,49.461197222],[2.119268333,49.461168889],[2.119289722,49.461145278],[2.119317778,49.461124167],[2.119196389,49.461095278],[2.119229444,49.461036111],[2.119318889,49.461055278],[2.119355833,49.461060833],[2.119386667,49.461060278],[2.119420278,49.461055556],[2.11945,49.461042778],[2.119827778,49.460825278],[2.119899444,49.460879444],[2.119887778,49.460890833]]]}},{"type":"Feature","id":"LFOB-6a10fcd35a9a0babd67f","properties":{"airport":"LFOB","name":"LFOB AVISO","layer":"Airfield surfaces","category":"Hard Surface 3","object_type":"Area","style_id":"polygon.hardsurface3.8a807f","source_group":"LFOB AVISO","vsmr_group_ids":[],"geometry_role":"filled_region"},"geometry":{"type":"Polygon","coordinates":[[[2.107289722,49.454383889],[2.107120556,49.454213056],[2.107183889,49.454185833],[2.107054722,49.454061944],[2.108199167,49.453554167],[2.108442222,49.453802778],[2.108507222,49.453890278],[2.107719722,49.4542325],[2.107579722,49.454293611],[2.107522778,49.454310833],[2.107447778,49.454322222],[2.107396111,49.454339722],[2.107289722,49.454383889]]]}},{"type":"Feature","id":"LFOB-7d2bce5b6ab3f398ca00","properties":{"airport":"LFOB","name":"LFOB AVISO","layer":"Airfield surfaces","category":"Hard Surface 3","object_type":"Area","style_id":"polygon.hardsurface3.8a807f","source_group":"LFOB AVISO","vsmr_group_ids":[],"geometry_role":"filled_region"},"geometry":{"type":"Polygon","coordinates":[[[2.109985556,49.457737778],[2.110035278,49.457768889],[2.110068056,49.457783333],[2.11012,49.457796389],[2.110165,49.457801389],[2.110214722,49.457801111],[2.110262222,49.457795278],[2.110305278,49.457780833],[2.111011389,49.457521389],[2.112866389,49.456716667],[2.113925,49.457505],[2.114363889,49.457775833],[2.114427778,49.457816111],[2.114475556,49.457838333],[2.114526944,49.457854722],[2.114593611,49.457868611],[2.114658333,49.457878333],[2.114726944,49.457880278],[2.114781667,49.457876667],[2.114820833,49.457871111],[2.114881389,49.4578575],[2.114935278,49.457836667],[2.115088056,49.457758056],[2.115361667,49.457958889],[2.115334444,49.457993333],[2.115307778,49.458034722],[2.115289167,49.458069722],[2.115276389,49.458099444],[2.115264444,49.458150278],[2.11526,49.458200278],[2.115266111,49.458249722],[2.11528,49.458296389],[2.115298056,49.458336111],[2.115333056,49.458387778],[2.115371111,49.458428889],[2.115538889,49.458586667],[2.115621111,49.458656389],[2.115713333,49.458726667],[2.11594,49.458893333],[2.1160725,49.458990556],[2.116228056,49.459090278],[2.116533611,49.459281667],[2.116594167,49.459314167],[2.116665833,49.4593475],[2.116719444,49.459367222],[2.116789444,49.459386111],[2.116899722,49.459405],[2.116979444,49.459409444],[2.1176675,49.459436667],[2.117655833,49.459648333],[2.117047222,49.459622778],[2.11694,49.459618333],[2.116868056,49.459618611],[2.1168125,49.459621944],[2.116768889,49.459629167],[2.116728889,49.459641389],[2.116681944,49.459660833],[2.116560278,49.459714167],[2.116408056,49.459783333],[2.116180556,49.459900833],[2.115946389,49.460047222],[2.115538056,49.460318056],[2.112520833,49.458090278],[2.112444722,49.458036111],[2.112423889,49.458033056],[2.110730278,49.458769167],[2.110326944,49.458751667],[2.11014,49.458576389],[2.109261389,49.458989722],[2.108979722,49.458728056],[2.109895,49.458299167],[2.109919167,49.458280833],[2.109911944,49.458108333],[2.109888333,49.458040833],[2.109665833,49.457771389],[2.109912778,49.457685278],[2.109985556,49.457737778]]]}},{"type":"Feature","id":"LFOB-6b3dc480feed64a0d69d","properties":{"airport":"LFOB","name":"LFOB AVISO","layer":"Airfield surfaces","category":"Runways","object_type":"Area","style_id":"polygon.runwayconcrete.555555","source_group":"LFOB AVISO","vsmr_group_ids":[],"geometry_role":"filled_region"},"geometry":{"type":"Polygon","coordinates":[[[2.111813333,49.454626944],[2.131563333,49.446045556],[2.131925556,49.44641],[2.132033333,49.446419722],[2.132118889,49.446430556],[2.1322,49.446443889],[2.132285556,49.446460556],[2.132369167,49.446480833],[2.132451389,49.446504722],[2.132546944,49.446539722],[2.132629167,49.446580833],[2.132711944,49.446629722],[2.132780278,49.446673611],[2.132841389,49.446720833],[2.1329175,49.446791944],[2.132970556,49.446849167],[2.133021389,49.446914167],[2.133062222,49.446978611],[2.133089167,49.447037222],[2.133108056,49.447100278],[2.133118889,49.447156667],[2.133125,49.447211111],[2.133126111,49.447266667],[2.133124444,49.447324167],[2.132875,49.447323056],[2.132884722,49.447269167],[2.132885278,49.447225556],[2.132878889,49.447168889],[2.132871389,49.447130556],[2.132858056,49.447087222],[2.132840278,49.447043889],[2.1328125,49.446993611],[2.132773333,49.4469425],[2.132731667,49.446894444],[2.132684444,49.446847222],[2.132635833,49.446803611],[2.132570556,49.446757222],[2.132505,49.446716667],[2.132453889,49.446687222],[2.132369167,49.446650833],[2.132270278,49.446618056],[2.132205278,49.446603889],[2.132129167,49.446589444],[2.132060556,49.446581111],[2.131973056,49.446576111],[2.131965556,49.446614167],[2.131956389,49.446647778],[2.131939722,49.446681667],[2.131918056,49.446715833],[2.131895278,49.446743611],[2.131858056,49.446779167],[2.131808889,49.446815],[2.130960833,49.446864722],[2.130860278,49.4468725],[2.13076,49.446891389],[2.130686389,49.446912778],[2.130611667,49.446938333],[2.12344,49.450053611],[2.123391111,49.450094722],[2.123370833,49.4501225],[2.123361667,49.450151111],[2.123366667,49.450181389],[2.123386667,49.450209722],[2.123418611,49.450233056],[2.12346,49.450251389],[2.123509167,49.450260278],[2.123645278,49.450255833],[2.126469722,49.450135],[2.126486944,49.450288333],[2.122785278,49.450443056],[2.122681667,49.450447778],[2.122626944,49.450453056],[2.122568889,49.450461944],[2.122455,49.450489722],[2.122365,49.450521111],[2.113588333,49.454333056],[2.113461944,49.454439167],[2.113439444,49.454465278],[2.113425556,49.454491111],[2.113419444,49.454527778],[2.113428056,49.454569444],[2.113443333,49.454598889],[2.1134725,49.454638056],[2.113532222,49.454706389],[2.113621667,49.454803611],[2.113698056,49.454889444],[2.113739722,49.454935278],[2.113773611,49.454968611],[2.113852222,49.455034444],[2.114382778,49.455426667],[2.114146111,49.4555575],[2.113491111,49.455076944],[2.113449444,49.455046944],[2.113410278,49.455025278],[2.113003611,49.454820833],[2.1129375,49.454789444],[2.1128825,49.454769722],[2.112826667,49.45476],[2.112769444,49.454756944],[2.112697778,49.454760556],[2.112638333,49.454765556],[2.112579167,49.454779167],[2.112513611,49.454800278],[2.109118333,49.456273333],[2.109085833,49.456312222],[2.109043889,49.4563675],[2.109014167,49.456408611],[2.108999167,49.456435],[2.108982222,49.456478889],[2.108976667,49.456513611],[2.108975556,49.456550556],[2.108984444,49.4565925],[2.109005556,49.456639444],[2.109038889,49.456685556],[2.109671389,49.457444722],[2.109458889,49.457517222],[2.1088375,49.456761667],[2.108809444,49.456731389],[2.108779722,49.456706111],[2.108741111,49.456681389],[2.108700556,49.456661389],[2.108654167,49.456644167],[2.108608611,49.456633056],[2.108562778,49.456623889],[2.108516389,49.456619167],[2.108442222,49.456619167],[2.108384722,49.456621111],[2.108309722,49.456624167],[2.1050925,49.458022222],[2.104783611,49.458498056],[2.104272222,49.458719167],[2.103689722,49.458148889],[2.109340833,49.455698333],[2.109362222,49.455685],[2.109383889,49.455666944],[2.109395,49.455649167],[2.109399444,49.455631667],[2.109398333,49.455608611],[2.109389722,49.455580833],[2.109375556,49.455557778],[2.109346667,49.455524167],[2.109228611,49.455399722],[2.109199444,49.455368889],[2.108491944,49.454673333],[2.108602778,49.454624722],[2.109370556,49.455375278],[2.109444444,49.455437778],[2.109528333,49.455496111],[2.109582222,49.455526111],[2.109619167,49.455539722],[2.109663056,49.455543333],[2.109695833,49.455540278],[2.109726667,49.455532222],[2.111452778,49.454783889],[2.111813333,49.454626944]]]}},{"type":"Feature","id":"LFOB-b9f3a46e33547fda9c1e","properties":{"airport":"LFOB","name":"LFOB AVISO","layer":"Airfield surfaces","category":"Runways","object_type":"Area","style_id":"polygon.runwayconcrete.555555","source_group":"LFOB AVISO","vsmr_group_ids":[],"geometry_role":"filled_region"},"geometry":{"type":"Polygon","coordinates":[[[2.116912778,49.457323611],[2.116944167,49.457348056],[2.117119722,49.457300278],[2.117143889,49.457290556],[2.117163333,49.457280278],[2.117265278,49.457354167],[2.117233889,49.457373611],[2.117206111,49.457396389],[2.117189722,49.457418889],[2.117178333,49.457441944],[2.117173611,49.457468333],[2.117178611,49.457497778],[2.117194722,49.457526667],[2.1172125,49.457547778],[2.1207075,49.460121111],[2.120735278,49.460139722],[2.120766111,49.460150556],[2.120798611,49.460158056],[2.120834444,49.460163333],[2.120873333,49.460164444],[2.120912222,49.460159722],[2.120946944,49.460150833],[2.120980556,49.460135556],[2.121011667,49.460118056],[2.121123889,49.460188889],[2.121086944,49.460210556],[2.121064722,49.460226667],[2.121047778,49.460244167],[2.121037778,49.4602625],[2.121029722,49.460281389],[2.121025278,49.460301389],[2.121025,49.460320833],[2.121033333,49.460346111],[2.121051111,49.460369444],[2.121076111,49.460395],[2.123372222,49.462084167],[2.123190556,49.462187222],[2.123160833,49.462167222],[2.122843333,49.462349722],[2.122773056,49.462300278],[2.122920556,49.462216389],[2.122944444,49.462198333],[2.122964444,49.462181667],[2.122983611,49.462163056],[2.122996667,49.462143333],[2.123004167,49.462121944],[2.123005556,49.462104167],[2.123003611,49.462083333],[2.122996944,49.462062222],[2.122980556,49.462040833],[2.122953056,49.4620125],[2.120878056,49.460483889],[2.1208575,49.460471944],[2.120835278,49.460461667],[2.120802222,49.460450278],[2.120771667,49.460443889],[2.120736389,49.460440556],[2.1206975,49.460441389],[2.120668611,49.460445278],[2.120642222,49.460450833],[2.120610556,49.460463056],[2.120424444,49.4605675],[2.120356111,49.460520556],[2.120456111,49.460461667],[2.120527778,49.46042],[2.120559722,49.460395278],[2.120575833,49.460376389],[2.120588056,49.460350833],[2.120591944,49.460321944],[2.1205875,49.460295],[2.120575556,49.460273333],[2.120560556,49.460254722],[2.12054,49.460235],[2.116729167,49.457428056],[2.116912778,49.457323611]]]}},{"type":"Feature","id":"LFOB-8ef83b5a4597f9142ae7","properties":{"airport":"LFOB","name":"LFOB AVISO","layer":"Airfield surfaces","category":"Grass runways","object_type":"Area","style_id":"polygon.runwaygrass.008000","source_group":"LFOB AVISO","vsmr_group_ids":[],"geometry_role":"filled_region"},"geometry":{"type":"Polygon","coordinates":[[[2.11744,49.457120556],[2.117483333,49.457114444],[2.117513889,49.457115],[2.11754,49.457123611],[2.121401667,49.459970556],[2.121410833,49.459993056],[2.1214075,49.460021111],[2.121393611,49.460040556],[2.121115278,49.460193889],[2.121007778,49.46012],[2.121135278,49.460048056],[2.121159167,49.460029722],[2.121172778,49.460009444],[2.121175833,49.459992222],[2.1211675,49.459972778],[2.121145,49.459948611],[2.117575833,49.457305833],[2.117538056,49.457278889],[2.117504722,49.457265],[2.117465833,49.457261111],[2.117436111,49.457263611],[2.117402778,49.457275278],[2.117263611,49.457355278],[2.117163056,49.457280278],[2.117312778,49.457193611],[2.117406389,49.457136667],[2.11744,49.457120556]]]}},{"type":"Feature","id":"LFOB-86615fe7f1652dab22c4","properties":{"airport":"LFOB","name":"LFOB AVISO","layer":"Buildings and structures","category":"Buildings","object_type":"Area","style_id":"polygon.building.394446","source_group":"LFOB AVISO","vsmr_group_ids":[],"geometry_role":"filled_region"},"geometry":{"type":"Polygon","coordinates":[[[2.108258889,49.453540278],[2.107229444,49.453988333],[2.10716,49.4539225],[2.106706111,49.454108056],[2.106575278,49.453985833],[2.107031944,49.453788611],[2.106991944,49.453757222],[2.108020833,49.4533125],[2.108258889,49.453540278]]]}},{"type":"Feature","id":"LFOB-3bd252c847f6defe87ae","properties":{"airport":"LFOB","name":"LFOB AVISO","layer":"Buildings and structures","category":"Buildings","object_type":"Area","style_id":"polygon.building.394446","source_group":"LFOB AVISO","vsmr_group_ids":[],"geometry_role":"filled_region"},"geometry":{"type":"Polygon","coordinates":[[[2.104970278,49.454573889],[2.105015,49.454604722],[2.105256389,49.454491389],[2.105293333,49.454526944],[2.105719722,49.454340278],[2.105836667,49.454452222],[2.104890278,49.454885278],[2.104695,49.454698611],[2.104970278,49.454573889]]]}},{"type":"Feature","id":"LFOB-50db008552d3ba9ee27d","properties":{"airport":"LFOB","name":"LFOB AVISO","layer":"Buildings and structures","category":"Buildings","object_type":"Area","style_id":"polygon.building.394446","source_group":"LFOB AVISO","vsmr_group_ids":[],"geometry_role":"filled_region"},"geometry":{"type":"Polygon","coordinates":[[[2.122609167,49.463639167],[2.12279,49.463773333],[2.122594167,49.463887222],[2.122410278,49.463748611],[2.122609167,49.463639167]]]}},{"type":"Feature","id":"LFOB-c63ae94c0c5fd633cedb","properties":{"airport":"LFOB","name":"LFOB AVISO","layer":"Buildings and structures","category":"Buildings","object_type":"Area","style_id":"polygon.building.394446","source_group":"LFOB AVISO","vsmr_group_ids":[],"geometry_role":"filled_region"},"geometry":{"type":"Polygon","coordinates":[[[2.122441111,49.463515],[2.122583056,49.463620556],[2.122387222,49.463729167],[2.122246944,49.463629722],[2.122441111,49.463515]]]}},{"type":"Feature","id":"LFOB-6718041f1fb23918a519","properties":{"airport":"LFOB","name":"LFOB AVISO","layer":"Buildings and structures","category":"Buildings","object_type":"Area","style_id":"polygon.building.394446","source_group":"LFOB AVISO","vsmr_group_ids":[],"geometry_role":"filled_region"},"geometry":{"type":"Polygon","coordinates":[[[2.122113333,49.463275],[2.122252222,49.463378333],[2.122055,49.463489167],[2.121916389,49.463387222],[2.122113333,49.463275]]]}},{"type":"Feature","id":"LFOB-c8d1ba390b21883ed3ab","properties":{"airport":"LFOB","name":"LFOB AVISO","layer":"Buildings and structures","category":"Buildings","object_type":"Area","style_id":"polygon.building.394446","source_group":"LFOB AVISO","vsmr_group_ids":[],"geometry_role":"filled_region"},"geometry":{"type":"Polygon","coordinates":[[[2.121946389,49.463154167],[2.122087222,49.463256389],[2.121895833,49.463366111],[2.121753333,49.463266389],[2.121946389,49.463154167]]]}},{"type":"Feature","id":"LFOB-165fe23c308d9f172c7d","properties":{"airport":"LFOB","name":"LFOB AVISO","layer":"Buildings and structures","category":"Buildings","object_type":"Area","style_id":"polygon.building.394446","source_group":"LFOB AVISO","vsmr_group_ids":[],"geometry_role":"filled_region"},"geometry":{"type":"Polygon","coordinates":[[[2.121783611,49.463033889],[2.121922222,49.463133333],[2.121727222,49.463245556],[2.121588889,49.463144722],[2.121783611,49.463033889]]]}},{"type":"Feature","id":"LFOB-367aa956f56ac4d4d0ef","properties":{"airport":"LFOB","name":"LFOB AVISO","layer":"Buildings and structures","category":"Buildings","object_type":"Area","style_id":"polygon.building.394446","source_group":"LFOB AVISO","vsmr_group_ids":[],"geometry_role":"filled_region"},"geometry":{"type":"Polygon","coordinates":[[[2.121620278,49.462916944],[2.121749722,49.463016389],[2.121558889,49.463123611],[2.12142,49.463022778],[2.121620278,49.462916944]]]}},{"type":"Feature","id":"LFOB-b9650dce475f5d20959f","properties":{"airport":"LFOB","name":"LFOB AVISO","layer":"Buildings and structures","category":"Buildings","object_type":"Area","style_id":"polygon.building.394446","source_group":"LFOB AVISO","vsmr_group_ids":[],"geometry_role":"filled_region"},"geometry":{"type":"Polygon","coordinates":[[[2.121298333,49.462661389],[2.121599722,49.462884722],[2.121391944,49.463005556],[2.121085,49.462782778],[2.121298333,49.462661389]]]}},{"type":"Feature","id":"LFOB-3aa50a7be6c5c949332e","properties":{"airport":"LFOB","name":"LFOB AVISO","layer":"Buildings and structures","category":"Buildings","object_type":"Area","style_id":"polygon.building.394446","source_group":"LFOB AVISO","vsmr_group_ids":[],"geometry_role":"filled_region"},"geometry":{"type":"Polygon","coordinates":[[[2.121124722,49.462546944],[2.121262222,49.462650833],[2.121069167,49.4627625],[2.120931667,49.462661111],[2.121124722,49.462546944]]]}},{"type":"Feature","id":"LFOB-8cefc1f4c0de91480d71","properties":{"airport":"LFOB","name":"LFOB AVISO","layer":"Buildings and structures","category":"Buildings","object_type":"Area","style_id":"polygon.building.394446","source_group":"LFOB AVISO","vsmr_group_ids":[],"geometry_role":"filled_region"},"geometry":{"type":"Polygon","coordinates":[[[2.120965556,49.462427222],[2.121101389,49.4625275],[2.120902778,49.462636944],[2.120762222,49.462539444],[2.120965556,49.462427222]]]}},{"type":"Feature","id":"LFOB-dfc9f649b4b419418124","properties":{"airport":"LFOB","name":"LFOB AVISO","layer":"Buildings and structures","category":"Buildings","object_type":"Area","style_id":"polygon.building.394446","source_group":"LFOB AVISO","vsmr_group_ids":[],"geometry_role":"filled_region"},"geometry":{"type":"Polygon","coordinates":[[[2.120798611,49.462305],[2.1209325,49.462406667],[2.120736944,49.462520278],[2.120598333,49.462417222],[2.120798611,49.462305]]]}},{"type":"Feature","id":"LFOB-f0fce702427e8769f7a1","properties":{"airport":"LFOB","name":"LFOB AVISO","layer":"Buildings and structures","category":"Buildings","object_type":"Area","style_id":"polygon.building.394446","source_group":"LFOB AVISO","vsmr_group_ids":[],"geometry_role":"filled_region"},"geometry":{"type":"Polygon","coordinates":[[[2.120633333,49.462180278],[2.120771389,49.462283333],[2.120575,49.462398056],[2.120433056,49.462293889],[2.120633333,49.462180278]]]}},{"type":"Feature","id":"LFOB-899b19b6e612435a8b58","properties":{"airport":"LFOB","name":"LFOB AVISO","layer":"Buildings and structures","category":"Buildings","object_type":"Area","style_id":"polygon.building.394446","source_group":"LFOB AVISO","vsmr_group_ids":[],"geometry_role":"filled_region"},"geometry":{"type":"Polygon","coordinates":[[[2.120252222,49.461965833],[2.12039,49.462069167],[2.120243056,49.4621525],[2.120103056,49.462050556],[2.120252222,49.461965833]]]}},{"type":"Feature","id":"LFOB-272479227973b664344f","properties":{"airport":"LFOB","name":"LFOB AVISO","layer":"Buildings and structures","category":"Buildings","object_type":"Area","style_id":"polygon.building.394446","source_group":"LFOB AVISO","vsmr_group_ids":[],"geometry_role":"filled_region"},"geometry":{"type":"Polygon","coordinates":[[[2.119365278,49.461668611],[2.119541667,49.461803611],[2.119381667,49.461896111],[2.119203056,49.461755833],[2.119365278,49.461668611]]]}},{"type":"Feature","id":"LFOB-ed9f8aeb2a3f7a79c3b1","properties":{"airport":"LFOB","name":"LFOB AVISO","layer":"Buildings and structures","category":"Buildings","object_type":"Area","style_id":"polygon.building.394446","source_group":"LFOB AVISO","vsmr_group_ids":[],"geometry_role":"filled_region"},"geometry":{"type":"Polygon","coordinates":[[[2.119204722,49.461813056],[2.119338889,49.461915],[2.119207222,49.461995556],[2.119068333,49.461893611],[2.119204722,49.461813056]]]}},{"type":"Feature","id":"LFOB-09451364dc32b0ddd5ab","properties":{"airport":"LFOB","name":"LFOB AVISO","layer":"Buildings and structures","category":"Buildings","object_type":"Area","style_id":"polygon.building.394446","source_group":"LFOB AVISO","vsmr_group_ids":[],"geometry_role":"filled_region"},"geometry":{"type":"Polygon","coordinates":[[[2.118771111,49.462008889],[2.118951944,49.462138889],[2.118741111,49.462263333],[2.118561944,49.462129722],[2.118771111,49.462008889]]]}},{"type":"Feature","id":"LFOB-24564e66775c7ca626fe","properties":{"airport":"LFOB","name":"LFOB AVISO","layer":"Buildings and structures","category":"Buildings","object_type":"Area","style_id":"polygon.building.394446","source_group":"LFOB AVISO","vsmr_group_ids":[],"geometry_role":"filled_region"},"geometry":{"type":"Polygon","coordinates":[[[2.118531667,49.462153889],[2.118706111,49.462288889],[2.118493056,49.462407222],[2.118315278,49.462275833],[2.118531667,49.462153889]]]}},{"type":"Feature","id":"LFOB-07279df9345b1b51825a","properties":{"airport":"LFOB","name":"LFOB AVISO","layer":"Buildings and structures","category":"Buildings","object_type":"Area","style_id":"polygon.building.394446","source_group":"LFOB AVISO","vsmr_group_ids":[],"geometry_role":"filled_region"},"geometry":{"type":"Polygon","coordinates":[[[2.11827,49.462293333],[2.118457778,49.462429722],[2.118291667,49.462521111],[2.118109167,49.462386389],[2.11827,49.462293333]]]}},{"type":"Feature","id":"LFOB-66595a2fafa93a6cce4d","properties":{"airport":"LFOB","name":"LFOB AVISO","layer":"Buildings and structures","category":"Buildings","object_type":"Area","style_id":"polygon.building.394446","source_group":"LFOB AVISO","vsmr_group_ids":[],"geometry_role":"filled_region"},"geometry":{"type":"Polygon","coordinates":[[[2.113662222,49.459674167],[2.112947778,49.45915],[2.113141111,49.459030556],[2.113914167,49.459598056],[2.1140025,49.459545278],[2.113693333,49.459326667],[2.113775556,49.459279444],[2.113744722,49.459259444],[2.113789722,49.459234722],[2.113705833,49.459175833],[2.113589167,49.459244722],[2.113429444,49.459128056],[2.113661667,49.458994722],[2.114234722,49.459420556],[2.115329444,49.460216667],[2.114784167,49.460541389],[2.113626944,49.459698889],[2.113662222,49.459674167]]]}},{"type":"Feature","id":"LFOB-22ccd81f7dc2f756ce2c","properties":{"airport":"LFOB","name":"LFOB AVISO","layer":"Buildings and structures","category":"Buildings","object_type":"Area","style_id":"polygon.building.394446","source_group":"LFOB AVISO","vsmr_group_ids":[],"geometry_role":"filled_region"},"geometry":{"type":"Polygon","coordinates":[[[2.113111944,49.458586111],[2.113469444,49.458853889],[2.113326944,49.458935],[2.112960833,49.458669444],[2.113111944,49.458586111]]]}},{"type":"Feature","id":"LFOB-062f5601f17bbb3ca0ef","properties":{"airport":"LFOB","name":"LFOB AVISO","layer":"Buildings and structures","category":"Buildings","object_type":"Area","style_id":"polygon.building.394446","source_group":"LFOB AVISO","vsmr_group_ids":[],"geometry_role":"filled_region"},"geometry":{"type":"Polygon","coordinates":[[[2.11242,49.458255278],[2.112401667,49.458234167],[2.112471111,49.458203889],[2.112478611,49.458210833],[2.112494722,49.458203056],[2.112498889,49.458207222],[2.112573889,49.458174444],[2.112665833,49.458263333],[2.112519722,49.458328611],[2.11254,49.458347222],[2.111788056,49.458673333],[2.111683333,49.458573333],[2.11242,49.458255278]]]}},{"type":"Feature","id":"LFOB-77719bde78a435e742a7","properties":{"airport":"LFOB","name":"LFOB AVISO","layer":"Buildings and structures","category":"Buildings","object_type":"Area","style_id":"polygon.building.394446","source_group":"LFOB AVISO","vsmr_group_ids":[],"geometry_role":"filled_region"},"geometry":{"type":"Polygon","coordinates":[[[2.112136667,49.458767222],[2.111893333,49.458876389],[2.1118775,49.458861667],[2.111793056,49.458898056],[2.111840833,49.458949722],[2.111682222,49.459054722],[2.11171,49.459081389],[2.111750833,49.459063333],[2.111813611,49.459126667],[2.111661389,49.459191944],[2.111596389,49.459127778],[2.111633333,49.459111944],[2.1116025,49.459080556],[2.111544722,49.459104444],[2.111535,49.459151667],[2.11143,49.459163611],[2.111439167,49.459204167],[2.111536111,49.459245833],[2.111513889,49.459266111],[2.111316944,49.459352222],[2.1112075,49.459366389],[2.111203333,49.459356667],[2.110495833,49.459462222],[2.110433056,49.459468056],[2.110372778,49.45947],[2.110305833,49.459468611],[2.110258889,49.459464167],[2.110205833,49.459455833],[2.110168333,49.459447778],[2.110135,49.459439167],[2.110102778,49.459429167],[2.1100625,49.459413889],[2.110021944,49.459390833],[2.109983889,49.459365833],[2.109945556,49.459339444],[2.1099075,49.459305833],[2.109863611,49.459260278],[2.110103056,49.459193611],[2.110119444,49.4590925],[2.110474722,49.458997222],[2.110493889,49.458958611],[2.1106025,49.458980556],[2.110696111,49.458990278],[2.110813889,49.458838056],[2.110837778,49.458807222],[2.11087,49.458780833],[2.110905556,49.458759167],[2.110953611,49.458735833],[2.110997222,49.458720833],[2.111053333,49.458707778],[2.111116111,49.458701667],[2.111335278,49.458691111],[2.111331944,49.458611111],[2.111351389,49.458630833],[2.111406389,49.458543056],[2.111874722,49.458343611],[2.111833333,49.458301389],[2.111868056,49.458287222],[2.111908333,49.458328333],[2.112234444,49.458186111],[2.112192222,49.458143889],[2.112233611,49.458126667],[2.112216944,49.45811],[2.112298889,49.458075833],[2.112287222,49.458063611],[2.112341667,49.458041389],[2.112420833,49.458046944],[2.112448611,49.458076667],[2.112391667,49.4581],[2.112446111,49.458154444],[2.111865,49.458406944],[2.111938889,49.458485],[2.111901944,49.458496944],[2.111828056,49.458423056],[2.111467778,49.458577222],[2.1114025,49.458680278],[2.111511111,49.458785278],[2.111629167,49.458734444],[2.111761667,49.458867222],[2.112015556,49.458752222],[2.111875278,49.458615833],[2.111949167,49.458583611],[2.112136667,49.458767222]]]}},{"type":"Feature","id":"LFOB-f48a5d1ca754b249af48","properties":{"airport":"LFOB","name":"LFOB AVISO","layer":"Buildings and structures","category":"Buildings","object_type":"Area","style_id":"polygon.building.394446","source_group":"LFOB AVISO","vsmr_group_ids":[],"geometry_role":"filled_region"},"geometry":{"type":"Polygon","coordinates":[[[2.110686944,49.4588875],[2.110136111,49.458868611],[2.110139444,49.458833056],[2.110148889,49.458829722],[2.110151111,49.458741111],[2.110743333,49.458762778],[2.110735833,49.458873333],[2.110786944,49.458889167],[2.110773056,49.458914722],[2.110686944,49.4588875]]]}},{"type":"Feature","id":"LFOB-9d62608f65cbd6d01344","properties":{"airport":"LFOB","name":"LFOB AVISO","layer":"Surface markings","category":"Stopbars","object_type":"Area","style_id":"polygon.stopbar.7e0000","source_group":"LFOB AVISO","vsmr_group_ids":[],"geometry_role":"filled_region"},"geometry":{"type":"Polygon","coordinates":[[[2.109451667,49.457509722],[2.109664444,49.457435556],[2.109678611,49.457453333],[2.109466389,49.457526944],[2.109451667,49.457509722]]]}},{"type":"Feature","id":"LFOB-0a55388715ac2b219bfe","properties":{"airport":"LFOB","name":"LFOB AVISO","layer":"Surface markings","category":"Stopbars","object_type":"Area","style_id":"polygon.stopbar.7e0000","source_group":"LFOB AVISO","vsmr_group_ids":[],"geometry_role":"filled_region"},"geometry":{"type":"Polygon","coordinates":[[[2.1143675,49.455414722],[2.114388611,49.455429722],[2.114154444,49.455564444],[2.114133056,49.455548889],[2.1143675,49.455414722]]]}},{"type":"Feature","id":"LFOB-81d7665965e931c10d04","properties":{"airport":"LFOB","name":"LFOB AVISO","layer":"Surface markings","category":"Stopbars","object_type":"Area","style_id":"polygon.stopbar.7e0000","source_group":"LFOB AVISO","vsmr_group_ids":[],"geometry_role":"filled_region"},"geometry":{"type":"Polygon","coordinates":[[[2.126473056,49.450134722],[2.1264925,49.450288333],[2.126474167,49.450289167],[2.126456667,49.450135],[2.126473056,49.450134722]]]}},{"type":"Feature","id":"LFOB-0a1fa9e7c2a5609e9240","properties":{"airport":"LFOB","name":"LFOB AVISO","layer":"Surface markings","category":"Stopbars","object_type":"Area","style_id":"polygon.stopbar.7e0000","source_group":"LFOB AVISO","vsmr_group_ids":[],"geometry_role":"filled_region"},"geometry":{"type":"Polygon","coordinates":[[[2.132874167,49.447313889],[2.133125833,49.447315556],[2.133124722,49.447326944],[2.132871944,49.447326944],[2.132874167,49.447313889]]]}},{"type":"Feature","id":"LFOB-639169524a127f2cd862","properties":{"airport":"LFOB","name":"LFOB AVISO","layer":"Surface markings","category":"Stopbars","object_type":"Area","style_id":"polygon.stopbar.7e0000","source_group":"LFOB AVISO","vsmr_group_ids":[],"geometry_role":"filled_region"},"geometry":{"type":"Polygon","coordinates":[[[2.108599167,49.454621111],[2.1086175,49.454638333],[2.108503889,49.454686389],[2.108488056,49.454669722],[2.108599167,49.454621111]]]}},{"type":"Feature","id":"LFOB-dd17e03aa79b04df2b05","properties":{"airport":"LFOB","name":"LFOB AVISO","layer":"Surface markings","category":"Stopbars","object_type":"Area","style_id":"polygon.stopbar.7e0000","source_group":"LFOB AVISO","vsmr_group_ids":[],"geometry_role":"filled_region"},"geometry":{"type":"Polygon","coordinates":[[[2.115538056,49.45745],[2.115804444,49.457638611],[2.115781111,49.457651944],[2.115516389,49.457465556],[2.115538056,49.45745]]]}},{"type":"Feature","id":"LFOB-5b84d5226b255598c69b","properties":{"airport":"LFOB","name":"LFOB AVISO","layer":"Surface markings","category":"Stopbars","object_type":"Area","style_id":"polygon.stopbar.7e0000","source_group":"LFOB AVISO","vsmr_group_ids":[],"geometry_role":"filled_region"},"geometry":{"type":"Polygon","coordinates":[[[2.120430278,49.460565],[2.120418056,49.460571667],[2.1203525,49.460522222],[2.120365278,49.460514722],[2.120430278,49.460565]]]}},{"type":"Feature","id":"LFOB-5d83486704813b5c3d30","properties":{"airport":"LFOB","name":"LFOB AVISO","layer":"Surface markings","category":"Stopbars","object_type":"Area","style_id":"polygon.stopbar.7e0000","source_group":"LFOB AVISO","vsmr_group_ids":[],"geometry_role":"filled_region"},"geometry":{"type":"Polygon","coordinates":[[[2.122851944,49.462345556],[2.122839444,49.462353056],[2.122768611,49.462302778],[2.122781667,49.462295],[2.122851944,49.462345556]]]}},{"type":"Feature","id":"LFOB-0d36d6d5bfdd3d518749","properties":{"airport":"LFOB","name":"IGN","layer":"Labels","category":"Gates","object_type":"Label","style_id":"label.gates","source_group":"LFOB Gates","vsmr_group_ids":[],"geometry_role":"text_label","text-field":"IGN"},"geometry":{"type":"Point","coordinates":[2.107564722,49.453655556]}},{"type":"Feature","id":"LFOB-db8d37092e682a259d10","properties":{"airport":"LFOB","name":"T1","layer":"Labels","category":"Gates","object_type":"Label","style_id":"label.gates","source_group":"LFOB Gates","vsmr_group_ids":[],"geometry_role":"text_label","text-field":"T1"},"geometry":{"type":"Point","coordinates":[2.110893889,49.459174167]}},{"type":"Feature","id":"LFOB-acc5180137cd001bab48","properties":{"airport":"LFOB","name":"T2","layer":"Labels","category":"Gates","object_type":"Label","style_id":"label.gates","source_group":"LFOB Gates","vsmr_group_ids":[],"geometry_role":"text_label","text-field":"T2"},"geometry":{"type":"Point","coordinates":[2.11449,49.459978611]}},{"type":"Feature","id":"LFOB-8ca64a5cb1b3295ba663","properties":{"airport":"LFOB","name":"Park. Nord","layer":"Labels","category":"Gates","object_type":"Label","style_id":"label.gates","source_group":"LFOB Gates","vsmr_group_ids":[],"geometry_role":"text_label","text-field":"Park. Nord"},"geometry":{"type":"Point","coordinates":[2.121770278,49.462409167]}},{"type":"Feature","id":"LFOB-8c72708a24a43e2481f5","properties":{"airport":"LFOB","name":"Hangars ACB","layer":"Labels","category":"Gates","object_type":"Label","style_id":"label.gates","source_group":"LFOB Gates","vsmr_group_ids":[],"geometry_role":"text_label","text-field":"Hangars ACB"},"geometry":{"type":"Point","coordinates":[2.119664722,49.462323333]}},{"type":"Feature","id":"LFOB-eba699279b97f6a43710","properties":{"airport":"LFOB","name":"L5","layer":"Labels","category":"Gates","object_type":"Label","style_id":"label.gates","source_group":"LFOB Gates","vsmr_group_ids":[],"geometry_role":"text_label","text-field":"L5"},"geometry":{"type":"Point","coordinates":[2.109173056,49.458816111]}},{"type":"Feature","id":"LFOB-b3c24d3c2a91877ef101","properties":{"airport":"LFOB","name":"L4","layer":"Labels","category":"Gates","object_type":"Label","style_id":"label.gates","source_group":"LFOB Gates","vsmr_group_ids":[],"geometry_role":"text_label","text-field":"L4"},"geometry":{"type":"Point","coordinates":[2.109486389,49.4587]}},{"type":"Feature","id":"LFOB-abd41fdd5bb623352f93","properties":{"airport":"LFOB","name":"L3","layer":"Labels","category":"Gates","object_type":"Label","style_id":"label.gates","source_group":"LFOB Gates","vsmr_group_ids":[],"geometry_role":"text_label","text-field":"L3"},"geometry":{"type":"Point","coordinates":[2.109683889,49.458615]}},{"type":"Feature","id":"LFOB-ff88ed8e8a96c3691251","properties":{"airport":"LFOB","name":"L1","layer":"Labels","category":"Gates","object_type":"Label","style_id":"label.gates","source_group":"LFOB Gates","vsmr_group_ids":[],"geometry_role":"text_label","text-field":"L1"},"geometry":{"type":"Point","coordinates":[2.109826944,49.4585525]}},{"type":"Feature","id":"LFOB-eeb77d25901a705f2821","properties":{"airport":"LFOB","name":"L2","layer":"Labels","category":"Gates","object_type":"Label","style_id":"label.gates","source_group":"LFOB Gates","vsmr_group_ids":[],"geometry_role":"text_label","text-field":"L2"},"geometry":{"type":"Point","coordinates":[2.110065556,49.458543611]}},{"type":"Feature","id":"LFOB-5f05409b383cb651e0aa","properties":{"airport":"LFOB","name":"1","layer":"Labels","category":"Gates","object_type":"Label","style_id":"label.gates","source_group":"LFOB Gates","vsmr_group_ids":[],"geometry_role":"text_label","text-field":"1"},"geometry":{"type":"Point","coordinates":[2.110985,49.458619444]}},{"type":"Feature","id":"LFOB-1b441cb64742ff32b5d5","properties":{"airport":"LFOB","name":"2","layer":"Labels","category":"Gates","object_type":"Label","style_id":"label.gates","source_group":"LFOB Gates","vsmr_group_ids":[],"geometry_role":"text_label","text-field":"2"},"geometry":{"type":"Point","coordinates":[2.111334444,49.458468611]}},{"type":"Feature","id":"LFOB-e787de0c4d5c6aeac22e","properties":{"airport":"LFOB","name":"3","layer":"Labels","category":"Gates","object_type":"Label","style_id":"label.gates","source_group":"LFOB Gates","vsmr_group_ids":[],"geometry_role":"text_label","text-field":"3"},"geometry":{"type":"Point","coordinates":[2.111890278,49.458225556]}},{"type":"Feature","id":"LFOB-61c3ab05153f69397f71","properties":{"airport":"LFOB","name":"4","layer":"Labels","category":"Gates","object_type":"Label","style_id":"label.gates","source_group":"LFOB Gates","vsmr_group_ids":[],"geometry_role":"text_label","text-field":"4"},"geometry":{"type":"Point","coordinates":[2.112375278,49.457993333]}},{"type":"Feature","id":"LFOB-9605d9dfc2cdb89b55fe","properties":{"airport":"LFOB","name":"5","layer":"Labels","category":"Gates","object_type":"Label","style_id":"label.gates","source_group":"LFOB Gates","vsmr_group_ids":[],"geometry_role":"text_label","text-field":"5"},"geometry":{"type":"Point","coordinates":[2.112544167,49.457903889]}},{"type":"Feature","id":"LFOB-691153d65377a17064eb","properties":{"airport":"LFOB","name":"6","layer":"Labels","category":"Gates","object_type":"Label","style_id":"label.gates","source_group":"LFOB Gates","vsmr_group_ids":[],"geometry_role":"text_label","text-field":"6"},"geometry":{"type":"Point","coordinates":[2.112631389,49.458125556]}},{"type":"Feature","id":"LFOB-d220b6ce5268d89d281e","properties":{"airport":"LFOB","name":"7","layer":"Labels","category":"Gates","object_type":"Label","style_id":"label.gates","source_group":"LFOB Gates","vsmr_group_ids":[],"geometry_role":"text_label","text-field":"7"},"geometry":{"type":"Point","coordinates":[2.113029167,49.458415]}},{"type":"Feature","id":"LFOB-2941035ade4c15033452","properties":{"airport":"LFOB","name":"8","layer":"Labels","category":"Gates","object_type":"Label","style_id":"label.gates","source_group":"LFOB Gates","vsmr_group_ids":[],"geometry_role":"text_label","text-field":"8"},"geometry":{"type":"Point","coordinates":[2.113443056,49.458722222]}},{"type":"Feature","id":"LFOB-65acf84f0d62569b7014","properties":{"airport":"LFOB","name":"9","layer":"Labels","category":"Gates","object_type":"Label","style_id":"label.gates","source_group":"LFOB Gates","vsmr_group_ids":[],"geometry_role":"text_label","text-field":"9"},"geometry":{"type":"Point","coordinates":[2.114129722,49.459215556]}},{"type":"Feature","id":"LFOB-f06e091a578b463d8154","properties":{"airport":"LFOB","name":"10","layer":"Labels","category":"Gates","object_type":"Label","style_id":"label.gates","source_group":"LFOB Gates","vsmr_group_ids":[],"geometry_role":"text_label","text-field":"10"},"geometry":{"type":"Point","coordinates":[2.114424722,49.459446111]}},{"type":"Feature","id":"LFOB-4260fed9d0ccfaba72f6","properties":{"airport":"LFOB","name":"11","layer":"Labels","category":"Gates","object_type":"Label","style_id":"label.gates","source_group":"LFOB Gates","vsmr_group_ids":[],"geometry_role":"text_label","text-field":"11"},"geometry":{"type":"Point","coordinates":[2.114853889,49.459758889]}},{"type":"Feature","id":"LFOB-3c3ce53a2edd8ead518e","properties":{"airport":"LFOB","name":"12","layer":"Labels","category":"Gates","object_type":"Label","style_id":"label.gates","source_group":"LFOB Gates","vsmr_group_ids":[],"geometry_role":"text_label","text-field":"12"},"geometry":{"type":"Point","coordinates":[2.1152625,49.460062778]}},{"type":"Feature","id":"LFOB-5970b746223f8487bb09","properties":{"airport":"LFOB","name":"G1","layer":"Labels","category":"Gates","object_type":"Label","style_id":"label.gates","source_group":"LFOB Gates","vsmr_group_ids":[],"geometry_role":"text_label","text-field":"G1"},"geometry":{"type":"Point","coordinates":[2.107575,49.454094444]}},{"type":"Feature","id":"LFOB-e3617e940c405e92716a","properties":{"airport":"LFOB","name":"G2","layer":"Labels","category":"Gates","object_type":"Label","style_id":"label.gates","source_group":"LFOB Gates","vsmr_group_ids":[],"geometry_role":"text_label","text-field":"G2"},"geometry":{"type":"Point","coordinates":[2.107836111,49.453977778]}},{"type":"Feature","id":"LFOB-0392d4392c59cb595022","properties":{"airport":"LFOB","name":"G3","layer":"Labels","category":"Gates","object_type":"Label","style_id":"label.gates","source_group":"LFOB Gates","vsmr_group_ids":[],"geometry_role":"text_label","text-field":"G3"},"geometry":{"type":"Point","coordinates":[2.10815,49.453852778]}},{"type":"Feature","id":"LFOB-fe169ae2753b4f53c59a","properties":{"airport":"LFOB","name":"LFOB Groundlayout AVISO","layer":"Guidance lines","category":"Taxiways","object_type":"Line","style_id":"line.taxiway.c0b631","source_group":"LFOB Groundlayout AVISO","vsmr_group_ids":[],"geometry_role":"linework"},"geometry":{"type":"MultiLineString","coordinates":[[[2.110925833,49.458582778],[2.110368333,49.458359167]],[[2.111306667,49.458415278],[2.110755833,49.457871667]],[[2.111860833,49.458176667],[2.111309167,49.457633056]],[[2.1123575,49.4579575],[2.1118075,49.457420556]],[[2.112572778,49.457835278],[2.112766667,49.457301389]],[[2.11269,49.458085278],[2.113588333,49.457566944]],[[2.113098611,49.458384167],[2.113999444,49.457865]],[[2.113503333,49.458685278],[2.114403056,49.458164722]],[[2.114183611,49.459167778],[2.114737222,49.458362222]],[[2.114483611,49.459408333],[2.115441111,49.458852778]],[[2.114901944,49.459718889],[2.115858333,49.459165278]],[[2.115321111,49.4600275],[2.116160278,49.459544722]],[[2.109945833,49.45836],[2.109874444,49.458697778]],[[2.1098125,49.458399444],[2.110055278,49.458611111]],[[2.109645833,49.458479167],[2.109889444,49.458690278]],[[2.109542222,49.458528056],[2.109592222,49.458828611]],[[2.109310556,49.458961111],[2.109259167,49.458657778]],[[2.108333333,49.453909444],[2.108084444,49.453666389]],[[2.108023333,49.454043611],[2.107776667,49.453800278]],[[2.107793611,49.454143333],[2.107545278,49.4539]]]}},{"type":"Feature","id":"LFOB-d498c117d74d8b3950a6","properties":{"airport":"LFOB","name":"X","layer":"Labels","category":"Taxiways","object_type":"Label","style_id":"label.taxiways","source_group":"LFOB Taxiways","vsmr_group_ids":[],"geometry_role":"text_label","text-field":"X"},"geometry":{"type":"Point","coordinates":[2.105158333,49.458295833]}},{"type":"Feature","id":"LFOB-89b606329748f9c55564","properties":{"airport":"LFOB","name":"X","layer":"Labels","category":"Taxiways","object_type":"Label","style_id":"label.taxiways","source_group":"LFOB Taxiways","vsmr_group_ids":[],"geometry_role":"text_label","text-field":"X"},"geometry":{"type":"Point","coordinates":[2.109022222,49.457398611]}},{"type":"Feature","id":"LFOB-6e2277dd0a76a4f4af65","properties":{"airport":"LFOB","name":"X","layer":"Labels","category":"Taxiways","object_type":"Label","style_id":"label.taxiways","source_group":"LFOB Taxiways","vsmr_group_ids":[],"geometry_role":"text_label","text-field":"X"},"geometry":{"type":"Point","coordinates":[2.109693889,49.457189167]}},{"type":"Feature","id":"LFOB-855965bb3467e368dcb4","properties":{"airport":"LFOB","name":"X","layer":"Labels","category":"Taxiways","object_type":"Label","style_id":"label.taxiways","source_group":"LFOB Taxiways","vsmr_group_ids":[],"geometry_role":"text_label","text-field":"X"},"geometry":{"type":"Point","coordinates":[2.113648889,49.455472222]}},{"type":"Feature","id":"LFOB-17750502fafd0044ee81","properties":{"airport":"LFOB","name":"X","layer":"Labels","category":"Taxiways","object_type":"Label","style_id":"label.taxiways","source_group":"LFOB Taxiways","vsmr_group_ids":[],"geometry_role":"text_label","text-field":"X"},"geometry":{"type":"Point","coordinates":[2.114499722,49.455107222]}},{"type":"Feature","id":"LFOB-dd75055dcfda6ad06eb8","properties":{"airport":"LFOB","name":"X","layer":"Labels","category":"Taxiways","object_type":"Label","style_id":"label.taxiways","source_group":"LFOB Taxiways","vsmr_group_ids":[],"geometry_role":"text_label","text-field":"X"},"geometry":{"type":"Point","coordinates":[2.124614167,49.450708333]}},{"type":"Feature","id":"LFOB-6ffb4b420342889b30e3","properties":{"airport":"LFOB","name":"X","layer":"Labels","category":"Taxiways","object_type":"Label","style_id":"label.taxiways","source_group":"LFOB Taxiways","vsmr_group_ids":[],"geometry_role":"text_label","text-field":"X"},"geometry":{"type":"Point","coordinates":[2.1053025,49.458271389]}},{"type":"Feature","id":"LFOB-417557d7a3d1f4e8be64","properties":{"airport":"LFOB","name":"X","layer":"Labels","category":"Taxiways","object_type":"Label","style_id":"label.taxiways","source_group":"LFOB Taxiways","vsmr_group_ids":[],"geometry_role":"text_label","text-field":"X"},"geometry":{"type":"Point","coordinates":[2.108744722,49.457458333]}},{"type":"Feature","id":"LFOB-948bb44ac9ed8e767c12","properties":{"airport":"LFOB","name":"X","layer":"Labels","category":"Taxiways","object_type":"Label","style_id":"label.taxiways","source_group":"LFOB Taxiways","vsmr_group_ids":[],"geometry_role":"text_label","text-field":"X"},"geometry":{"type":"Point","coordinates":[2.109834722,49.457129167]}},{"type":"Feature","id":"LFOB-ed6a3d05b3d11900c99f","properties":{"airport":"LFOB","name":"X","layer":"Labels","category":"Taxiways","object_type":"Label","style_id":"label.taxiways","source_group":"LFOB Taxiways","vsmr_group_ids":[],"geometry_role":"text_label","text-field":"X"},"geometry":{"type":"Point","coordinates":[2.113358611,49.455591111]}},{"type":"Feature","id":"LFOB-52d8bf26675364c450f7","properties":{"airport":"LFOB","name":"X","layer":"Labels","category":"Taxiways","object_type":"Label","style_id":"label.taxiways","source_group":"LFOB Taxiways","vsmr_group_ids":[],"geometry_role":"text_label","text-field":"X"},"geometry":{"type":"Point","coordinates":[2.114672222,49.455031389]}},{"type":"Feature","id":"LFOB-f0f81dd43812d9caa518","properties":{"airport":"LFOB","name":"X","layer":"Labels","category":"Taxiways","object_type":"Label","style_id":"label.taxiways","source_group":"LFOB Taxiways","vsmr_group_ids":[],"geometry_role":"text_label","text-field":"X"},"geometry":{"type":"Point","coordinates":[2.124213889,49.450881111]}},{"type":"Feature","id":"LFOB-b62d0a8ca2771482e5ee","properties":{"airport":"LFOB","name":"X","layer":"Labels","category":"Taxiways","object_type":"Label","style_id":"label.taxiways","source_group":"LFOB Taxiways","vsmr_group_ids":[],"geometry_role":"text_label","text-field":"X"},"geometry":{"type":"Point","coordinates":[2.105497778,49.458225556]}},{"type":"Feature","id":"LFOB-008555208e18dfdae362","properties":{"airport":"LFOB","name":"X","layer":"Labels","category":"Taxiways","object_type":"Label","style_id":"label.taxiways","source_group":"LFOB Taxiways","vsmr_group_ids":[],"geometry_role":"text_label","text-field":"X"},"geometry":{"type":"Point","coordinates":[2.108436667,49.457539722]}},{"type":"Feature","id":"LFOB-95296344c53667eb5ff4","properties":{"airport":"LFOB","name":"X","layer":"Labels","category":"Taxiways","object_type":"Label","style_id":"label.taxiways","source_group":"LFOB Taxiways","vsmr_group_ids":[],"geometry_role":"text_label","text-field":"X"},"geometry":{"type":"Point","coordinates":[2.109979444,49.457071389]}},{"type":"Feature","id":"LFOB-c6b5a155c2afcaf0e3f0","properties":{"airport":"LFOB","name":"X","layer":"Labels","category":"Taxiways","object_type":"Label","style_id":"label.taxiways","source_group":"LFOB Taxiways","vsmr_group_ids":[],"geometry_role":"text_label","text-field":"X"},"geometry":{"type":"Point","coordinates":[2.113040278,49.455725]}},{"type":"Feature","id":"LFOB-a38b9c5f8dbbe06ed1a6","properties":{"airport":"LFOB","name":"X","layer":"Labels","category":"Taxiways","object_type":"Label","style_id":"label.taxiways","source_group":"LFOB Taxiways","vsmr_group_ids":[],"geometry_role":"text_label","text-field":"X"},"geometry":{"type":"Point","coordinates":[2.114824444,49.454965556]}},{"type":"Feature","id":"LFOB-558f711a3e5f92181c13","properties":{"airport":"LFOB","name":"X","layer":"Labels","category":"Taxiways","object_type":"Label","style_id":"label.taxiways","source_group":"LFOB Taxiways","vsmr_group_ids":[],"geometry_role":"text_label","text-field":"X"},"geometry":{"type":"Point","coordinates":[2.123879167,49.451027778]}},{"type":"Feature","id":"LFOB-4ebe34fd18756263f398","properties":{"airport":"LFOB","name":"X","layer":"Labels","category":"Taxiways","object_type":"Label","style_id":"label.taxiways","source_group":"LFOB Taxiways","vsmr_group_ids":[],"geometry_role":"text_label","text-field":"X"},"geometry":{"type":"Point","coordinates":[2.108536111,49.453802778]}},{"type":"Feature","id":"LFOB-690fdd7252766d238c50","properties":{"airport":"LFOB","name":"X","layer":"Labels","category":"Taxiways","object_type":"Label","style_id":"label.taxiways","source_group":"LFOB Taxiways","vsmr_group_ids":[],"geometry_role":"text_label","text-field":"X"},"geometry":{"type":"Point","coordinates":[2.108702778,49.453730556]}},{"type":"Feature","id":"LFOB-2e0a4634dcafa0fa6082","properties":{"airport":"LFOB","name":"X","layer":"Labels","category":"Taxiways","object_type":"Label","style_id":"label.taxiways","source_group":"LFOB Taxiways","vsmr_group_ids":[],"geometry_role":"text_label","text-field":"X"},"geometry":{"type":"Point","coordinates":[2.108833333,49.453672222]}},{"type":"Feature","id":"LFOB-6929fde0586aea2996db","properties":{"airport":"LFOB","name":"X","layer":"Labels","category":"Taxiways","object_type":"Label","style_id":"label.taxiways","source_group":"LFOB Taxiways","vsmr_group_ids":[],"geometry_role":"text_label","text-field":"X"},"geometry":{"type":"Point","coordinates":[2.111502778,49.454566667]}},{"type":"Feature","id":"LFOB-92a67ff726dc3aaa95b5","properties":{"airport":"LFOB","name":"X","layer":"Labels","category":"Taxiways","object_type":"Label","style_id":"label.taxiways","source_group":"LFOB Taxiways","vsmr_group_ids":[],"geometry_role":"text_label","text-field":"X"},"geometry":{"type":"Point","coordinates":[2.111425,49.454491667]}},{"type":"Feature","id":"LFOB-7ff4dbaccf19f70bb6f0","properties":{"airport":"LFOB","name":"X","layer":"Labels","category":"Taxiways","object_type":"Label","style_id":"label.taxiways","source_group":"LFOB Taxiways","vsmr_group_ids":[],"geometry_role":"text_label","text-field":"X"},"geometry":{"type":"Point","coordinates":[2.111327778,49.454408333]}},{"type":"Feature","id":"LFOB-491cb384579f760c96d2","properties":{"airport":"LFOB","name":"W","layer":"Labels","category":"Taxiways","object_type":"Label","style_id":"label.taxiways","source_group":"LFOB Taxiways","vsmr_group_ids":[],"geometry_role":"text_label","text-field":"W"},"geometry":{"type":"Point","coordinates":[2.109873333,49.457419167]}},{"type":"Feature","id":"LFOB-b4e184cd199ac015edae","properties":{"airport":"LFOB","name":"N2","layer":"Labels","category":"Taxiways","object_type":"Label","style_id":"label.taxiways","source_group":"LFOB Taxiways","vsmr_group_ids":[],"geometry_role":"text_label","text-field":"N2"},"geometry":{"type":"Point","coordinates":[2.114810278,49.455544444]}},{"type":"Feature","id":"LFOB-aede518388466792047e","properties":{"airport":"LFOB","name":"R1","layer":"Labels","category":"Taxiways","object_type":"Label","style_id":"label.taxiways","source_group":"LFOB Taxiways","vsmr_group_ids":[],"geometry_role":"text_label","text-field":"R1"},"geometry":{"type":"Point","coordinates":[2.125012222,49.449989167]}},{"type":"Feature","id":"LFOB-fbc5e943189e0314b405","properties":{"airport":"LFOB","name":"R","layer":"Labels","category":"Taxiways","object_type":"Label","style_id":"label.taxiways","source_group":"LFOB Taxiways","vsmr_group_ids":[],"geometry_role":"text_label","text-field":"R"},"geometry":{"type":"Point","coordinates":[2.130144722,49.448904444]}},{"type":"Feature","id":"LFOB-6a647dd54f870aab070f","properties":{"airport":"LFOB","name":"R30","layer":"Labels","category":"Taxiways","object_type":"Label","style_id":"label.taxiways","source_group":"LFOB Taxiways","vsmr_group_ids":[],"geometry_role":"text_label","text-field":"R30"},"geometry":{"type":"Point","coordinates":[2.133395833,49.447338611]}},{"type":"Feature","id":"LFOB-334c2fb5fc7cf1057387","properties":{"airport":"LFOB","name":"R","layer":"Labels","category":"Taxiways","object_type":"Label","style_id":"label.taxiways","source_group":"LFOB Taxiways","vsmr_group_ids":[],"geometry_role":"text_label","text-field":"R"},"geometry":{"type":"Point","coordinates":[2.126380556,49.450534167]}},{"type":"Feature","id":"LFOB-3512282f3a820308af9d","properties":{"airport":"LFOB","name":"R2","layer":"Labels","category":"Taxiways","object_type":"Label","style_id":"label.taxiways","source_group":"LFOB Taxiways","vsmr_group_ids":[],"geometry_role":"text_label","text-field":"R2"},"geometry":{"type":"Point","coordinates":[2.133102222,49.446596944]}},{"type":"Feature","id":"LFOB-9fe83ce07d5c7c5e7676","properties":{"airport":"LFOB","name":"T","layer":"Labels","category":"Taxiways","object_type":"Label","style_id":"label.taxiways","source_group":"LFOB Taxiways","vsmr_group_ids":[],"geometry_role":"text_label","text-field":"T"},"geometry":{"type":"Point","coordinates":[2.1088275,49.454583889]}},{"type":"Feature","id":"LFOB-090d9f67408ef666dd7c","properties":{"airport":"LFOB","name":"N1","layer":"Labels","category":"Taxiways","object_type":"Label","style_id":"label.taxiways","source_group":"LFOB Taxiways","vsmr_group_ids":[],"geometry_role":"text_label","text-field":"N1"},"geometry":{"type":"Point","coordinates":[2.116000556,49.457790278]}},{"type":"Feature","id":"LFOB-ad45cede7e8d9c602e1b","properties":{"airport":"LFOB","name":"P","layer":"Labels","category":"Taxiways","object_type":"Label","style_id":"label.taxiways","source_group":"LFOB Taxiways","vsmr_group_ids":[],"geometry_role":"text_label","text-field":"P"},"geometry":{"type":"Point","coordinates":[2.120001111,49.460586389]}},{"type":"Feature","id":"LFOB-9a73ed0d777bdd26caaf","properties":{"airport":"LFOB","name":"A","layer":"Labels","category":"Taxiways","object_type":"Label","style_id":"label.taxiways","source_group":"LFOB Taxiways","vsmr_group_ids":[],"geometry_role":"text_label","text-field":"A"},"geometry":{"type":"Point","coordinates":[2.122478889,49.462298889]}},{"type":"Feature","id":"LFOB-234c70252f234934fd2c","properties":{"airport":"LFOB","name":"H","layer":"Labels","category":"Taxiways","object_type":"Label","style_id":"label.taxiways","source_group":"LFOB Taxiways","vsmr_group_ids":[],"geometry_role":"text_label","text-field":"H"},"geometry":{"type":"Point","coordinates":[2.1194025,49.4585575]}},{"type":"Feature","id":"LFOB-bf665a7aa7b187dbff3b","properties":{"airport":"LFOB","name":"H04","layer":"Labels","category":"Taxiways","object_type":"Label","style_id":"label.taxiways","source_group":"LFOB Taxiways","vsmr_group_ids":[],"geometry_role":"text_label","text-field":"H04"},"geometry":{"type":"Point","coordinates":[2.117074444,49.457150556]}},{"type":"Feature","id":"LFOB-23366037b7e88c6dead1","properties":{"airport":"LFOB","name":"H","layer":"Labels","category":"Taxiways","object_type":"Label","style_id":"label.taxiways","source_group":"LFOB Taxiways","vsmr_group_ids":[],"geometry_role":"text_label","text-field":"H"},"geometry":{"type":"Point","coordinates":[2.121381389,49.460215556]}}]}
