{"type":"FeatureCollection","name":"LFOC AVISO","bbox":[1.361305556,48.051416667,1.393611111,48.066111111],"metadata":{"schema":"vSMR AVISO","schema_version":2,"geometry_mode":"shared","airport":"LFOC","coordinate_reference_system":"WGS84","coordinate_order":"longitude, latitude","default_color_palette":"dark","color_palettes":["dark","light"],"background_colors":{"dark":"#434A4F","light":"#434A4F"},"runways":[{"ends":["10","28"],"headings":[96,276],"thresholds":[[1.362332778,48.059491944],[1.389530833,48.056921944]]}],"saved_active_runways":[],"saved_active_airport_modes":[],"airport_reference":[1.379721944,48.057777778],"feature_count":3,"style_count":4,"layer_counts":{"Guidance lines":3},"category_counts":{"Landmark 3":1,"Runways":1,"Taxiway Border":1},"geometry_source":"local GNG","geometry_source_url":"","geometry_license":"GPL-3.0"},"styles":{"line.taxiwayborder.0000ff":{"name":"Taxiway Border","layer":"Guidance lines","object_type":"Line","paint":{"stroke":"#0000FF","stroke-opacity":1,"stroke-width":1,"palette-overrides":{"light":{"stroke":"#0000FF"}}},"feature_count":1},"line.runwayconcrete.555555":{"name":"Runways","layer":"Guidance lines","object_type":"Line","paint":{"stroke":"#111318","stroke-opacity":1,"stroke-width":1,"palette-overrides":{"light":{"stroke":"#555555"}}},"feature_count":1},"line.landmark3.b4424b":{"name":"Landmark 3","layer":"Guidance lines","object_type":"Line","paint":{"stroke":"#B4424B","stroke-opacity":1,"stroke-width":1,"palette-overrides":{"light":{"stroke":"#B4424B"}}},"feature_count":0},"line.landmark3.7e7e7e":{"name":"Landmark 3","layer":"Guidance lines","object_type":"Line","paint":{"stroke":"#7E7E7E","stroke-opacity":1,"stroke-width":1,"palette-overrides":{"light":{"stroke":"#7E7E7E"}}},"feature_count":1}},"vsmr_groups":[],"features":[{"type":"Feature","id":"LFOC-0577fcd97b3440a72d92","properties":{"airport":"LFOC","name":"LFOC Groundlayout","layer":"Guidance lines","category":"Taxiway Border","object_type":"Line","style_id":"line.taxiwayborder.0000ff","source_group":"LFOC Groundlayout","vsmr_group_ids":[],"geometry_role":"linework"},"geometry":{"type":"MultiLineString","coordinates":[[[1.3715,48.051777778],[1.373194444,48.0515]],[[1.373194444,48.051694444],[1.382222222,48.053972222]],[[1.373194444,48.0515],[1.382166667,48.05375]],[[1.382194444,48.054],[1.383944444,48.054444444]],[[1.382583333,48.053805556],[1.383888889,48.054138889]],[[1.383944444,48.054444444],[1.390638889,48.056111111]],[[1.384277778,48.054222222],[1.390944444,48.055916667]],[[1.390638889,48.056111111],[1.390833333,48.056361111]],[[1.390944444,48.055916667],[1.391194444,48.05625]],[[1.390833333,48.056361111],[1.390972222,48.056583333]],[[1.391194444,48.05625],[1.391388889,48.056555556]],[[1.391305556,48.056972222],[1.391638889,48.057277778]],[[1.39175,48.056916667],[1.391972222,48.057111111]],[[1.391638889,48.057277778],[1.393194444,48.058694444]],[[1.391972222,48.057111111],[1.393611111,48.058611111]],[[1.393194444,48.058694444],[1.393194444,48.059555556]],[[1.393611111,48.058611111],[1.393611111,48.059722222]],[[1.393194444,48.059555556],[1.373166667,48.065805556]],[[1.393611111,48.059722222],[1.373138889,48.066111111]],[[1.373166667,48.065805556],[1.371944444,48.065277778]],[[1.373138889,48.066111111],[1.371555556,48.065416667]],[[1.371611111,48.065138889],[1.370861111,48.064805556]],[[1.371555556,48.065416667],[1.370472222,48.064972222]],[[1.370527778,48.064666667],[1.369,48.064]],[[1.370472222,48.064972222],[1.368388889,48.064055556]],[[1.368472222,48.063777778],[1.367277778,48.06325]],[[1.367861111,48.063833333],[1.367055556,48.0635]],[[1.367277778,48.06325],[1.367055556,48.0635]],[[1.376222222,48.063972222],[1.375527778,48.063111111]],[[1.375861111,48.064111111],[1.375305556,48.063416667]],[[1.376222222,48.063972222],[1.375861111,48.064111111]],[[1.375527778,48.063111111],[1.370138889,48.063638889]],[[1.375305556,48.063416667],[1.370722222,48.063833333]],[[1.370138889,48.063638889],[1.368472222,48.063777778]],[[1.370138889,48.063888889],[1.369,48.064]],[[1.367861111,48.063833333],[1.36625,48.064]],[[1.368388889,48.064055556],[1.36625,48.064277778]],[[1.36625,48.064],[1.364277778,48.063722222]],[[1.36625,48.064277778],[1.364,48.063972222]],[[1.364277778,48.063722222],[1.363277778,48.062666667]],[[1.364,48.063972222],[1.362888889,48.06275]],[[1.363277778,48.062666667],[1.362861111,48.059916667]],[[1.362888889,48.06275],[1.362472222,48.059944444]],[[1.362861111,48.059916667],[1.362833333,48.059638889]],[[1.362472222,48.059944444],[1.362416667,48.059666667]],[[1.362777778,48.05925],[1.362722222,48.058972222]],[[1.362361111,48.059277778],[1.362333333,48.059]],[[1.362722222,48.058972222],[1.362416667,48.056944444]],[[1.362333333,48.059],[1.362,48.056861111]],[[1.362416667,48.056944444],[1.36725,48.053861111]],[[1.362,48.056861111],[1.36725,48.053472222]],[[1.367611111,48.053611111],[1.370222222,48.052194444]],[[1.367277778,48.053444444],[1.370055556,48.051944444]],[[1.370222222,48.052194444],[1.371583333,48.052]],[[1.370055556,48.051944444],[1.3715,48.05175]],[[1.36725,48.053861111],[1.367833333,48.057638889]],[[1.367611111,48.053611111],[1.36825,48.057694444]],[[1.367833333,48.057638889],[1.367361111,48.058472222]],[[1.36825,48.057694444],[1.367722222,48.058555556]],[[1.367361111,48.058472222],[1.367138889,48.058833333]],[[1.367722222,48.058555556],[1.367611111,48.058777778]],[[1.384277778,48.054222222],[1.384583333,48.053694444]],[[1.383888889,48.054138889],[1.384055556,48.053861111]],[[1.384583333,48.053694444],[1.382666667,48.053194444]],[[1.384055556,48.053861111],[1.382833333,48.053527778]],[[1.382666667,48.053194444],[1.382166667,48.05375]],[[1.382833333,48.053527778],[1.382583333,48.053805556]],[[1.370138889,48.063888889],[1.370944444,48.064277778]],[[1.370722222,48.063833333],[1.371333333,48.064138889]],[[1.371277778,48.064416667],[1.372,48.064722222]],[[1.371333333,48.064111111],[1.372388889,48.064583333]],[[1.372333333,48.064888889],[1.373361111,48.065333333]],[[1.372388889,48.064583333],[1.373583333,48.065111111]],[[1.373361111,48.065333333],[1.373583333,48.065111111]],[[1.371944444,48.065277778],[1.372333333,48.064888889]],[[1.371611111,48.065138889],[1.372,48.064722222]],[[1.370861111,48.064805556],[1.371277778,48.064416667]],[[1.370527778,48.064666667],[1.370944444,48.064277778]]]}},{"type":"Feature","id":"LFOC-376fb0655a753bdf6163","properties":{"airport":"LFOC","name":"LFOC Groundlayout","layer":"Guidance lines","category":"Runways","object_type":"Line","style_id":"line.runwayconcrete.555555","source_group":"LFOC Groundlayout","vsmr_group_ids":[],"geometry_role":"linework"},"geometry":{"type":"MultiLineString","coordinates":[[[1.391861111,48.0565],[1.391388889,48.056555556]],[[1.391944444,48.056888889],[1.39175,48.056916667]],[[1.391861111,48.0565],[1.391944444,48.056888889]],[[1.390972222,48.056583333],[1.367611111,48.058777778]],[[1.391305556,48.056972222],[1.367305556,48.059222222]],[[1.367138889,48.058833333],[1.362777778,48.05925]],[[1.367305556,48.059222222],[1.362833333,48.059638889]],[[1.362361111,48.059277778],[1.361305556,48.059388889]],[[1.362416667,48.059666667],[1.361388889,48.059777778]],[[1.361305556,48.059388889],[1.361388889,48.059777778]]]}},{"type":"Feature","id":"LFOC-bdbc2d0d686d2d09a4e4","properties":{"airport":"LFOC","name":"LFOC Groundlayout","layer":"Guidance lines","category":"Landmark 3","object_type":"Line","style_id":"line.landmark3.7e7e7e","source_group":"LFOC Groundlayout","vsmr_group_ids":[],"geometry_role":"linework"},"geometry":{"type":"MultiLineString","coordinates":[[[1.3795,48.063972222],[1.378861111,48.063055556],[1.373111111,48.064805556],[1.373305556,48.065916667]],[[1.3795,48.063972222],[1.373305556,48.065916667]],[[1.367777778,48.064555556],[1.366722222,48.064111111],[1.367722222,48.063],[1.365944444,48.062222222],[1.365194444,48.063],[1.366138889,48.063444444],[1.366,48.064111111],[1.366027778,48.064611111],[1.367222222,48.065138889]],[[1.367777778,48.064555556],[1.367222222,48.065138889]],[[1.384472222,48.053861111],[1.385583333,48.051944444],[1.383722222,48.051416667],[1.382583333,48.053333333]],[[1.384472222,48.053861111],[1.382583333,48.053333333]],[[1.362944444,48.061388889],[1.363305556,48.060916667],[1.362861111,48.058222222],[1.362444444,48.058]],[[1.362944444,48.061388889],[1.362444444,48.058]],[[1.391972222,48.05775],[1.3915,48.057388889],[1.390472222,48.056305556],[1.389277778,48.055833333],[1.389333333,48.055472222],[1.390972222,48.055916667],[1.391694444,48.056944444],[1.39275,48.057888889]],[[1.391972222,48.05775],[1.39275,48.057888889]],[[1.367583333,48.054777778],[1.368361111,48.05475],[1.368277778,48.054277778],[1.367527778,48.054305556]],[[1.367583333,48.054777778],[1.367527778,48.054305556]],[[1.366666667,48.055666667],[1.368472222,48.055555556],[1.368361111,48.055111111],[1.366583333,48.055222222]],[[1.366666667,48.055666667],[1.366583333,48.055222222]],[[1.367833333,48.056277778],[1.368583333,48.056222222],[1.3685,48.055805556],[1.36775,48.055861111]],[[1.367833333,48.056277778],[1.36775,48.055861111]],[[1.368,48.057027778],[1.368694444,48.056972222],[1.368666667,48.056555556],[1.367916667,48.056611111]],[[1.368,48.057027778],[1.367916667,48.056611111]]]}}]}
