{"type":"FeatureCollection","name":"LFOE AVISO","bbox":[1.199972222,49.016638889,1.235527778,49.043222222],"metadata":{"schema":"vSMR AVISO","schema_version":2,"geometry_mode":"shared","airport":"LFOE","coordinate_reference_system":"WGS84","coordinate_order":"longitude, latitude","default_color_palette":"dark","color_palettes":["dark","light"],"background_colors":{"dark":"#434A4F","light":"#434A4F"},"runways":[{"ends":["04","22"],"headings":[39,219],"thresholds":[[1.206710833,49.018313889],[1.233018889,49.039025]]}],"saved_active_runways":[],"saved_active_airport_modes":[],"airport_reference":[1.219999722,49.028610833],"feature_count":6,"style_count":4,"layer_counts":{"Guidance lines":3,"Labels":3},"category_counts":{"Apron Surface":1,"Gates":3,"Runways":1,"Taxiways":1},"geometry_source":"local GNG","geometry_source_url":"","geometry_license":"GPL-3.0"},"styles":{"line.taxiway.c0b631":{"name":"Taxiways","layer":"Guidance lines","object_type":"Line","paint":{"stroke":"#4E5A69","stroke-opacity":1,"stroke-width":1,"palette-overrides":{"light":{"stroke":"#C0B631"}}},"feature_count":1},"line.runwayconcrete.555555":{"name":"Runways","layer":"Guidance lines","object_type":"Line","paint":{"stroke":"#111318","stroke-opacity":1,"stroke-width":1,"palette-overrides":{"light":{"stroke":"#555555"}}},"feature_count":1},"line.apronsurface.808080":{"name":"Apron Surface","layer":"Guidance lines","object_type":"Line","paint":{"stroke":"#808080","stroke-opacity":1,"stroke-width":1,"palette-overrides":{"light":{"stroke":"#808080"}}},"feature_count":1},"label.gates":{"name":"Gates","layer":"Labels","object_type":"Label","paint":{"text-color":"#CCCCCC","text-font":"Arial","text-size":12,"text-halo-color":"#000000","text-halo-width":1,"text-anchor":"center","zoomLevel":9},"feature_count":3}},"vsmr_groups":[],"features":[{"type":"Feature","id":"LFOE-ef85a36ef8aa081a7221","properties":{"airport":"LFOE","name":"2","layer":"Labels","category":"Gates","object_type":"Label","style_id":"label.gates","source_group":"LFOE Gates","vsmr_group_ids":[],"geometry_role":"text_label","text-field":"2"},"geometry":{"type":"Point","coordinates":[1.224,49.023916667]}},{"type":"Feature","id":"LFOE-fe0f72538be15e12e1b5","properties":{"airport":"LFOE","name":"1","layer":"Labels","category":"Gates","object_type":"Label","style_id":"label.gates","source_group":"LFOE Gates","vsmr_group_ids":[],"geometry_role":"text_label","text-field":"1"},"geometry":{"type":"Point","coordinates":[1.2235,49.023527778]}},{"type":"Feature","id":"LFOE-75102022dea50a9bb863","properties":{"airport":"LFOE","name":"10","layer":"Labels","category":"Gates","object_type":"Label","style_id":"label.gates","source_group":"LFOE Gates","vsmr_group_ids":[],"geometry_role":"text_label","text-field":"10"},"geometry":{"type":"Point","coordinates":[1.224555556,49.024527778]}},{"type":"Feature","id":"LFOE-1fdb87aebaa3df213c25","properties":{"airport":"LFOE","name":"LFOE Groundlayout","layer":"Guidance lines","category":"Taxiways","object_type":"Line","style_id":"line.taxiway.c0b631","source_group":"LFOE Groundlayout","vsmr_group_ids":[],"geometry_role":"linework"},"geometry":{"type":"MultiLineString","coordinates":[[[1.207,49.01825],[1.207361111,49.018027778]],[[1.207694444,49.018277778],[1.207805556,49.018222222]],[[1.207361111,49.018027778],[1.207472222,49.017972222]],[[1.207805556,49.018222222],[1.208777778,49.017638889]],[[1.207472222,49.017972222],[1.208527778,49.017361111]],[[1.208777778,49.017638889],[1.2095,49.0175]],[[1.208527778,49.017361111],[1.209666667,49.017111111]],[[1.2095,49.0175],[1.211638889,49.019222222]],[[1.209666667,49.017111111],[1.212027778,49.019027778]],[[1.211972222,49.019472222],[1.217472222,49.023944444]],[[1.212333333,49.019277778],[1.217722222,49.023638889]],[[1.217805556,49.024194444],[1.220388889,49.026305556]],[[1.218305556,49.024083333],[1.220638889,49.025972222]],[[1.220388889,49.026305556],[1.222861111,49.028305556]],[[1.220944444,49.026222222],[1.223083333,49.027972222]],[[1.222861111,49.028305556],[1.223416667,49.02875]],[[1.223416667,49.028222222],[1.223777778,49.028527778]],[[1.223722222,49.029],[1.227916667,49.032388889]],[[1.224111111,49.028777778],[1.228277778,49.032166667]],[[1.228222222,49.032638889],[1.232222222,49.035861111]],[[1.228583333,49.032416667],[1.23275,49.035777778]],[[1.232527778,49.036111111],[1.234277778,49.037555556]],[[1.23275,49.035777778],[1.234833333,49.037472222]],[[1.234277778,49.037555556],[1.234138889,49.037861111]],[[1.234833333,49.037472222],[1.234583333,49.038055556]],[[1.234138889,49.037861111],[1.233361111,49.038305556]],[[1.234583333,49.038055556],[1.233666667,49.038555556]],[[1.233361111,49.038305556],[1.23325,49.038361111]],[[1.233666667,49.038555556],[1.233583333,49.038611111]],[[1.23325,49.038361111],[1.232861111,49.038583333]],[[1.233583333,49.038611111],[1.233194444,49.038833333]],[[1.215055556,49.017583333],[1.214166667,49.017861111]],[[1.215361111,49.017833333],[1.214444444,49.018138889]],[[1.214166667,49.017861111],[1.212027778,49.019027778]],[[1.214444444,49.018138889],[1.212333333,49.019277778]],[[1.211638889,49.019222222],[1.210111111,49.020055556]],[[1.211972222,49.019472222],[1.210444444,49.020305556]],[[1.210111111,49.020055556],[1.210027778,49.020111111]],[[1.210444444,49.020305556],[1.210333333,49.020361111]],[[1.210027778,49.020111111],[1.209638889,49.020333333]],[[1.210333333,49.020361111],[1.209972222,49.020583333]],[[1.209166667,49.020583333],[1.208777778,49.020777778]],[[1.2095,49.020833333],[1.209111111,49.021027778]],[[1.208777778,49.020777778],[1.208694444,49.020833333]],[[1.209111111,49.021027778],[1.209,49.021083333]],[[1.208694444,49.020833333],[1.207166667,49.021666667]],[[1.209,49.021083333],[1.207638889,49.021833333]],[[1.207444444,49.022222222],[1.213083333,49.026638889]],[[1.207638889,49.021833333],[1.213444444,49.026416667]],[[1.213416667,49.026888889],[1.223555556,49.034861111]],[[1.213777778,49.026666667],[1.223916667,49.034611111]],[[1.223888889,49.035111111],[1.227944444,49.038277778]],[[1.22425,49.034861111],[1.228305556,49.038083333]],[[1.228444444,49.038444444],[1.229972222,49.037555556]],[[1.228305556,49.038083333],[1.229666667,49.037333333]],[[1.229972222,49.037555556],[1.230083333,49.037527778]],[[1.229666667,49.037333333],[1.22975,49.037277778]],[[1.230083333,49.037527778],[1.230444444,49.037305556]],[[1.22975,49.037277778],[1.230138889,49.037055556]],[[1.230916667,49.037027778],[1.231305556,49.036833333]],[[1.230611111,49.036777778],[1.230972222,49.036583333]],[[1.231305556,49.036833333],[1.231388889,49.036777778]],[[1.230972222,49.036583333],[1.231055556,49.036527778]],[[1.231388889,49.036777778],[1.232527778,49.036111111]],[[1.231055556,49.036527778],[1.232222222,49.035861111]],[[1.2105,49.028666667],[1.213416667,49.026888889]],[[1.210166667,49.028416667],[1.213083333,49.026638889]],[[1.213777778,49.026666667],[1.215083333,49.025861111]],[[1.213444444,49.026416667],[1.21475,49.025611111]],[[1.215083333,49.025861111],[1.215194444,49.025805556]],[[1.21475,49.025611111],[1.214833333,49.025555556]],[[1.215166667,49.025805556],[1.215527778,49.025583333]],[[1.214833333,49.025555556],[1.215222222,49.025333333]],[[1.215972222,49.025305556],[1.216361111,49.025083333]],[[1.215666667,49.025055556],[1.216027778,49.024833333]],[[1.216361111,49.025083333],[1.216444444,49.025027778]],[[1.216027778,49.024833333],[1.216111111,49.024777778]],[[1.216444444,49.025027778],[1.217805556,49.024194444]],[[1.216111111,49.024777778],[1.217472222,49.023944444]],[[1.218305556,49.024083333],[1.221527778,49.023888889]],[[1.218194444,49.023777778],[1.221916667,49.023527778]],[[1.221527778,49.023888889],[1.221361111,49.025555556]],[[1.222,49.024166667],[1.221888889,49.02525]],[[1.211083333,49.029083333],[1.2105,49.028666667]],[[1.210666667,49.02925],[1.209972222,49.02875]],[[1.210166667,49.028416667],[1.209444444,49.027916667]],[[1.209972222,49.02875],[1.209166667,49.028194444]],[[1.209444444,49.027916667],[1.209027778,49.027805556]],[[1.209166667,49.028194444],[1.20875,49.028111111]],[[1.208527778,49.027805556],[1.207416667,49.028055556]],[[1.20875,49.028111111],[1.207861111,49.028305556]],[[1.207416667,49.028055556],[1.207222222,49.028861111]],[[1.207861111,49.028305556],[1.20775,49.028805556]],[[1.207222222,49.028861111],[1.207555556,49.029333333]],[[1.20775,49.028805556],[1.207972222,49.029138889]],[[1.207555556,49.029333333],[1.209111111,49.030388889]],[[1.207972222,49.029138889],[1.209416667,49.030111111]],[[1.209111111,49.030388889],[1.209916667,49.030611111]],[[1.209416667,49.030111111],[1.209944444,49.030277778]],[[1.209916667,49.030611111],[1.211055556,49.030444444]],[[1.209944444,49.030277778],[1.210666667,49.030166667]],[[1.211055556,49.030444444],[1.211472222,49.029694444]],[[1.210666667,49.030166667],[1.210944444,49.029694444]],[[1.211472222,49.029694444],[1.211083333,49.029083333]],[[1.210944444,49.029694444],[1.210666667,49.02925]],[[1.22425,49.034861111],[1.225583333,49.034111111]],[[1.223916667,49.034611111],[1.225277778,49.033861111]],[[1.225583333,49.034111111],[1.225694444,49.034055556]],[[1.225277778,49.033861111],[1.225361111,49.033805556]],[[1.225694444,49.034055556],[1.226055556,49.033861111]],[[1.225361111,49.033805556],[1.22575,49.033611111]],[[1.226527778,49.033583333],[1.226916667,49.033361111]],[[1.226194444,49.033333333],[1.226583333,49.033138889]],[[1.226916667,49.033361111],[1.227,49.033305556]],[[1.226583333,49.033138889],[1.226666667,49.033083333]],[[1.227,49.033305556],[1.228222222,49.032638889]],[[1.226666667,49.033083333],[1.227916667,49.032388889]],[[1.228583333,49.032416667],[1.232944444,49.029972222]],[[1.228277778,49.032166667],[1.232611111,49.029722222]],[[1.232944444,49.029972222],[1.233444444,49.030361111]],[[1.233138889,49.029638889],[1.23375,49.030111111]],[[1.233444444,49.030361111],[1.234027778,49.030583333]],[[1.23375,49.030111111],[1.234166667,49.03025]],[[1.234027778,49.030583333],[1.23475,49.030583333]],[[1.234166667,49.03025],[1.234611111,49.030277778]],[[1.23475,49.030583333],[1.235472222,49.030222222]],[[1.234611111,49.030277778],[1.235,49.030055556]],[[1.235472222,49.030222222],[1.235527778,49.029583333]],[[1.235,49.030055556],[1.235,49.029638889]],[[1.235527778,49.029583333],[1.23525,49.02925]],[[1.235,49.029638889],[1.234833333,49.029444444]],[[1.23525,49.02925],[1.233833333,49.028166667]],[[1.234833333,49.029444444],[1.2335,49.028416667]],[[1.233833333,49.028166667],[1.233333333,49.027972222]],[[1.2335,49.028416667],[1.233222222,49.028305556]],[[1.233333333,49.027972222],[1.232388889,49.028027778]],[[1.233222222,49.028305556],[1.232611111,49.028333333]],[[1.232388889,49.028027778],[1.231638889,49.0285]],[[1.232611111,49.028333333],[1.232166667,49.028611111]],[[1.231638889,49.0285],[1.23175,49.029055556]],[[1.232166667,49.028611111],[1.232222222,49.028916667]],[[1.23175,49.029055556],[1.232611111,49.029722222]],[[1.232222222,49.028916667],[1.233138889,49.029638889]],[[1.223555556,49.034861111],[1.221611111,49.036222222]],[[1.223888889,49.035111111],[1.221944444,49.036444444]],[[1.221,49.036277778],[1.221416667,49.036555556]],[[1.221277778,49.036],[1.221611111,49.036222222]],[[1.221416667,49.036555556],[1.221972222,49.036944444]],[[1.221944444,49.036444444],[1.222361111,49.03675]],[[1.221972222,49.036944444],[1.222333333,49.037444444]],[[1.222361111,49.03675],[1.222777778,49.037305556]],[[1.222333333,49.037444444],[1.222055556,49.037916667]],[[1.22275,49.037638889],[1.222444444,49.038194444]],[[1.222055556,49.037916667],[1.221388889,49.038027778]],[[1.222444444,49.038194444],[1.221333333,49.038361111]],[[1.221388889,49.038027778],[1.220833333,49.037805556]],[[1.221333333,49.038361111],[1.2205,49.038055556]],[[1.220833333,49.037805556],[1.219722222,49.037027778]],[[1.2205,49.038055556],[1.219277778,49.037194444]],[[1.219722222,49.037027778],[1.219444444,49.036611111]],[[1.219277778,49.037194444],[1.218916667,49.036611111]],[[1.219444444,49.036611111],[1.219666667,49.03625]],[[1.218916667,49.036611111],[1.219277778,49.036]],[[1.219666667,49.03625],[1.220194444,49.036083333]],[[1.219277778,49.036],[1.220194444,49.035722222]],[[1.220194444,49.036083333],[1.221,49.036277778]],[[1.220194444,49.035722222],[1.221277778,49.036]],[[1.22275,49.037638889],[1.22725,49.038666667]],[[1.222777778,49.037305556],[1.227694444,49.038416667]],[[1.227888889,49.038722222],[1.228444444,49.038444444]],[[1.227694444,49.038416667],[1.227944444,49.038277778]],[[1.222722222,49.024777778],[1.221888889,49.02525]],[[1.223027778,49.025055556],[1.22175,49.02575]],[[1.221361111,49.025555556],[1.220638889,49.025972222]],[[1.22175,49.02575],[1.220944444,49.026222222]],[[1.223416667,49.028222222],[1.225416667,49.027111111]],[[1.223083333,49.027972222],[1.225138889,49.026861111]],[[1.207166667,49.021666667],[1.20275,49.022638889]],[[1.206972222,49.022055556],[1.202888889,49.022944444]],[[1.206972222,49.022055556],[1.206833333,49.022805556]],[[1.207444444,49.022222222],[1.207333333,49.02275]],[[1.206833333,49.022805556],[1.208666667,49.025361111]],[[1.207333333,49.02275],[1.209166667,49.025305556]],[[1.208666667,49.025361111],[1.208527778,49.027805556]],[[1.209166667,49.025305556],[1.209027778,49.027805556]],[[1.221944444,49.03],[1.222333333,49.029777778]],[[1.221638889,49.02975],[1.222,49.029527778]],[[1.222333333,49.029777778],[1.222416667,49.029722222]],[[1.222,49.029527778],[1.222111111,49.029472222]],[[1.222444444,49.029722222],[1.223722222,49.029]],[[1.222111111,49.029472222],[1.223416667,49.02875]],[[1.224111111,49.028777778],[1.226472222,49.027472222]],[[1.223777778,49.028527778],[1.225777778,49.027416667]],[[1.226472222,49.027472222],[1.225666667,49.026777778]],[[1.225777778,49.027416667],[1.225416667,49.027111111]],[[1.202361111,49.022888889],[1.202527778,49.023666667]],[[1.202888889,49.022944444],[1.203055556,49.023722222]],[[1.202527778,49.023666667],[1.202277778,49.024055556]],[[1.203055556,49.023722222],[1.202638889,49.024305556]],[[1.202277778,49.024055556],[1.201611111,49.024166667]],[[1.202638889,49.024305556],[1.2015,49.024527778]],[[1.201611111,49.024166667],[1.201083333,49.023861111]],[[1.2015,49.024527778],[1.200638889,49.024055556]],[[1.201083333,49.023861111],[1.2005,49.022472222]],[[1.200638889,49.024055556],[1.199972222,49.022416667]],[[1.2005,49.022472222],[1.200805556,49.022083333]],[[1.199972222,49.022416667],[1.200444444,49.021833333]],[[1.200805556,49.022083333],[1.201194444,49.022]],[[1.200444444,49.021833333],[1.20125,49.021638889]],[[1.201194444,49.022],[1.202,49.022305556]],[[1.20125,49.021638889],[1.202388889,49.022083333]],[[1.202,49.022305556],[1.202361111,49.022888889]],[[1.202388889,49.022083333],[1.20275,49.022638889]],[[1.218194444,49.023777778],[1.218583333,49.023027778]],[[1.217722222,49.023638889],[1.218083333,49.023]],[[1.218583333,49.023027778],[1.2175,49.01875]],[[1.218083333,49.023],[1.217027778,49.018805556]],[[1.2175,49.018777778],[1.2175,49.017944444]],[[1.217,49.018777778],[1.217,49.017944444]],[[1.2175,49.017944444],[1.218472222,49.017944444]],[[1.21725,49.017611111],[1.218416667,49.017611111]],[[1.218472222,49.017944444],[1.219222222,49.017861111]],[[1.218416667,49.017611111],[1.218972222,49.017555556]],[[1.219222222,49.017861111],[1.219777778,49.017527778]],[[1.218972222,49.017555556],[1.219277778,49.017388889]],[[1.219777778,49.017527778],[1.219805556,49.016972222]],[[1.219277778,49.017388889],[1.219305556,49.017166667]],[[1.219805556,49.016972222],[1.218888889,49.016638889]],[[1.219305556,49.017166667],[1.218777778,49.016972222]],[[1.218888889,49.016638889],[1.215388889,49.016722222]],[[1.218777778,49.016972222],[1.215666667,49.017055556]],[[1.215388889,49.016722222],[1.214888889,49.017222222]],[[1.215666667,49.017055556],[1.215444444,49.017277778]],[[1.214888889,49.017222222],[1.215055556,49.017583333]],[[1.215444444,49.017277778],[1.215555556,49.017527778]],[[1.215361111,49.017833333],[1.215944444,49.018]],[[1.215555556,49.017527778],[1.216027778,49.017666667]],[[1.215944444,49.018],[1.217,49.017944444]],[[1.216027778,49.017666667],[1.217222222,49.017611111]],[[1.22725,49.038666667],[1.226972222,49.038805556]],[[1.227916667,49.038722222],[1.227416667,49.039]],[[1.226972222,49.038805556],[1.225888889,49.041083333]],[[1.227416667,49.039],[1.226361111,49.041194444]],[[1.225972222,49.041444444],[1.226888889,49.041666667]],[[1.226361111,49.041194444],[1.227083333,49.041361111]],[[1.226888889,49.041666667],[1.227333333,49.041833333]],[[1.227083333,49.041361111],[1.227638889,49.041555556]],[[1.227333333,49.041833333],[1.227666667,49.042027778]],[[1.227638889,49.041555556],[1.228083333,49.041861111]],[[1.227666667,49.042027778],[1.22775,49.042222222]],[[1.228083333,49.041861111],[1.22825,49.042166667]],[[1.22775,49.042222222],[1.22775,49.042388889]],[[1.22825,49.042166667],[1.22825,49.042444444]],[[1.22775,49.042388889],[1.227638889,49.042583333]],[[1.22825,49.042444444],[1.228055556,49.04275]],[[1.227638889,49.042583333],[1.227416667,49.042805556]],[[1.228055556,49.04275],[1.22775,49.043055556]],[[1.227416667,49.042805556],[1.227166667,49.042888889]],[[1.22775,49.043055556],[1.227305556,49.043194444]],[[1.227166667,49.042888889],[1.226888889,49.042888889]],[[1.227305556,49.043194444],[1.226916667,49.043222222]],[[1.226888889,49.042888889],[1.226611111,49.042861111]],[[1.226916667,49.043222222],[1.2265,49.043194444]],[[1.226611111,49.042861111],[1.224166667,49.042305556]],[[1.2265,49.043194444],[1.223888889,49.042611111]],[[1.224166667,49.042305556],[1.223972222,49.042222222]],[[1.223888889,49.042611111],[1.223583333,49.042416667]],[[1.223972222,49.042222222],[1.223861111,49.042055556]],[[1.223583333,49.042416667],[1.223361111,49.042138889]],[[1.223861111,49.042055556],[1.223833333,49.041833333]],[[1.223361111,49.042138889],[1.223333333,49.041805556]],[[1.223833333,49.041833333],[1.223888889,49.041611111]],[[1.223333333,49.041805556],[1.223416667,49.0415]],[[1.223888889,49.041611111],[1.224027778,49.041416667]],[[1.223416667,49.0415],[1.223638889,49.041194444]],[[1.224027778,49.041416667],[1.224333333,49.04125]],[[1.223638889,49.041194444],[1.224111111,49.040944444]],[[1.224333333,49.04125],[1.224666667,49.041194444]],[[1.224111111,49.040944444],[1.224694444,49.040861111]],[[1.224666667,49.041194444],[1.225972222,49.041444444]],[[1.224694444,49.040861111],[1.225888889,49.041083333]],[[1.222555556,49.024638889],[1.222722222,49.024777778]],[[1.222944444,49.024444444],[1.22325,49.024694444]],[[1.222166667,49.024305556],[1.222555556,49.024638889]],[[1.222555556,49.024111111],[1.222944444,49.024444444]],[[1.222555556,49.024111111],[1.221916667,49.023527778]],[[1.222166667,49.024305556],[1.222,49.024166667]],[[1.22325,49.02525],[1.225138889,49.026861111]],[[1.223638889,49.025027778],[1.225666667,49.026777778]],[[1.223638889,49.025027778],[1.22325,49.024694444]],[[1.22325,49.02525],[1.223027778,49.025055556]]]}},{"type":"Feature","id":"LFOE-73cc69ab8578c4cb5f07","properties":{"airport":"LFOE","name":"LFOE Groundlayout","layer":"Guidance lines","category":"Runways","object_type":"Line","style_id":"line.runwayconcrete.555555","source_group":"LFOE Groundlayout","vsmr_group_ids":[],"geometry_role":"linework"},"geometry":{"type":"MultiLineString","coordinates":[[[1.233472222,49.039055556],[1.233194444,49.038833333]],[[1.233,49.039305556],[1.232555556,49.038944444]],[[1.233472222,49.039055556],[1.233,49.039305556]],[[1.232861111,49.038583333],[1.230916667,49.037027778]],[[1.232555556,49.038972222],[1.230444444,49.037305556]],[[1.230611111,49.036777778],[1.226527778,49.033583333]],[[1.230138889,49.037055556],[1.226055556,49.033861111]],[[1.226194444,49.033333333],[1.221944444,49.03]],[[1.22575,49.033611111],[1.221333333,49.030138889]],[[1.221638889,49.02975],[1.215972222,49.025305556]],[[1.221333333,49.030138889],[1.215527778,49.025583333]],[[1.215666667,49.025055556],[1.209972222,49.020583333]],[[1.215222222,49.025333333],[1.2095,49.020833333]],[[1.209638889,49.020333333],[1.207333333,49.0185]],[[1.209166667,49.020583333],[1.206694444,49.018638889]],[[1.207,49.01825],[1.206722222,49.018027778]],[[1.206694444,49.018638889],[1.20625,49.018277778]],[[1.206722222,49.018027778],[1.20625,49.018277778]]]}},{"type":"Feature","id":"LFOE-541ff73a04cd84f8549b","properties":{"airport":"LFOE","name":"LFOE Groundlayout","layer":"Guidance lines","category":"Apron Surface","object_type":"Line","style_id":"line.apronsurface.808080","source_group":"LFOE Groundlayout","vsmr_group_ids":[],"geometry_role":"linework"},"geometry":{"type":"MultiLineString","coordinates":[[[1.223416667,49.023111111],[1.223638889,49.023],[1.227944444,49.02675],[1.222361111,49.029916667],[1.222527778,49.030611111],[1.220833333,49.029277778],[1.221833333,49.0295],[1.225416667,49.027472222],[1.225444444,49.027055556],[1.224333333,49.026138889],[1.223944444,49.026083333],[1.221527778,49.024027778],[1.221805556,49.023888889],[1.2215,49.023611111],[1.221666667,49.023361111],[1.219555556,49.021527778],[1.220777778,49.020861111]],[[1.223416667,49.023111111],[1.220777778,49.020861111]],[[1.210277778,49.020027778],[1.210027778,49.019833333],[1.210861111,49.019333333],[1.211138889,49.019527778]],[[1.210277778,49.020027778],[1.211138889,49.019527778]],[[1.208555556,49.020944444],[1.208305556,49.02075],[1.207472222,49.021222222],[1.207722222,49.021444444]],[[1.208555556,49.020944444],[1.207722222,49.021444444]],[[1.225222222,49.041638889],[1.22525,49.041166667],[1.226861111,49.0415],[1.226388889,49.041888889]],[[1.225222222,49.041638889],[1.226388889,49.041888889]],[[1.209194444,49.028694444],[1.210083333,49.02925],[1.210861111,49.029111111],[1.209361111,49.028138889]],[[1.209194444,49.028694444],[1.209361111,49.028138889]],[[1.202555556,49.023194444],[1.202027778,49.02325],[1.201805556,49.022638889],[1.202361111,49.022527778]],[[1.202555556,49.023194444],[1.202361111,49.022527778]],[[1.216583333,49.017472222],[1.216583333,49.017777778],[1.21775,49.017777778],[1.21775,49.017472222],[1.218027778,49.017472222],[1.218027778,49.017194444],[1.217277778,49.017194444]],[[1.216583333,49.017472222],[1.217277778,49.017194444]],[[1.233361111,49.030055556],[1.232388889,49.029333333],[1.232944444,49.029027778],[1.233916667,49.02975]],[[1.233361111,49.030055556],[1.233916667,49.02975]],[[1.231833333,49.03625],[1.232138889,49.0365],[1.231638889,49.036777778],[1.2315,49.036666667],[1.229861111,49.037583333],[1.23,49.037694444],[1.229416667,49.038027778],[1.229111111,49.037777778]],[[1.231833333,49.03625],[1.229111111,49.037777778]],[[1.232138889,49.038166667],[1.232944444,49.037944444],[1.233694444,49.038583333],[1.233055556,49.038916667]],[[1.232138889,49.038166667],[1.233055556,49.038916667]],[[1.206583333,49.0185],[1.206111111,49.01875],[1.206777778,49.01925],[1.207444444,49.019111111]],[[1.206583333,49.0185],[1.207444444,49.019111111]]]}}]}
