{"type":"FeatureCollection","name":"LFOG AVISO","bbox":[-0.597583333,48.747972222,-0.588722222,48.753722222],"metadata":{"schema":"vSMR AVISO","schema_version":2,"geometry_mode":"shared","airport":"LFOG","coordinate_reference_system":"WGS84","coordinate_order":"longitude, latitude","default_color_palette":"dark","color_palettes":["dark","light"],"background_colors":{"dark":"#434A4F","light":"#434A4F"},"runways":[{"ends":["05","23"],"headings":[54,234],"thresholds":[[-0.597243889,48.748485833],[-0.590632778,48.751655833]]}],"saved_active_runways":[],"saved_active_airport_modes":[],"airport_reference":[-0.594721944,48.749721944],"feature_count":1,"style_count":1,"layer_counts":{"Guidance lines":1},"category_counts":{"Runways":1},"geometry_source":"local GNG","geometry_source_url":"","geometry_license":"GPL-3.0"},"styles":{"line.runwayconcrete.555555":{"name":"Runways","layer":"Guidance lines","object_type":"Line","paint":{"stroke":"#111318","stroke-opacity":1,"stroke-width":1,"palette-overrides":{"light":{"stroke":"#555555"}}},"feature_count":1}},"vsmr_groups":[],"features":[{"type":"Feature","id":"LFOG-a3ff73b828c29993ba43","properties":{"airport":"LFOG","name":"LFOG Groundlayout","layer":"Guidance lines","category":"Runways","object_type":"Line","style_id":"line.runwayconcrete.555555","source_group":"LFOG Groundlayout","vsmr_group_ids":[],"geometry_role":"linework"},"geometry":{"type":"MultiLineString","coordinates":[[[-0.595222222,48.747972222],[-0.588722222,48.750888889]],[[-0.597583333,48.750833333],[-0.595222222,48.747972222]],[[-0.591083333,48.753722222],[-0.588722222,48.750888889]]]}}]}
