{"type":"FeatureCollection","name":"LFOH AVISO","bbox":[0.089131389,49.5306475,0.097023333,49.538819722],"metadata":{"schema":"vSMR AVISO","schema_version":2,"geometry_mode":"shared","airport":"LFOH","coordinate_reference_system":"WGS84","coordinate_order":"longitude, latitude","default_color_palette":"dark","color_palettes":["dark","light"],"background_colors":{"dark":"#434A4F","light":"#434A4F"},"runways":[{"ends":["04","22"],"headings":[43,223],"thresholds":[[0.077585833,49.526530833],[0.099307778,49.541616944]]}],"saved_active_runways":[],"saved_active_airport_modes":[],"airport_reference":[0.088055833,49.533888889],"feature_count":24,"style_count":2,"layer_counts":{"Labels":24},"category_counts":{"Gates":19,"Taxiways":5},"geometry_source":"local GNG/KMZ","geometry_source_url":"","geometry_license":"GPL-3.0"},"styles":{"label.gates":{"name":"Gates","layer":"Labels","object_type":"Label","paint":{"text-color":"#CCCCCC","text-font":"Arial","text-size":12,"text-halo-color":"#000000","text-halo-width":1,"text-anchor":"center","zoomLevel":9},"feature_count":19},"label.taxiways":{"name":"Taxiways","layer":"Labels","object_type":"Label","paint":{"text-color":"#CCCCCC","text-font":"Arial","text-size":12,"text-halo-color":"#000000","text-halo-width":1,"text-anchor":"center","zoomLevel":7},"feature_count":5}},"vsmr_groups":[],"features":[{"type":"Feature","id":"LFOH-dc40bae018dd8749c2c6","properties":{"airport":"LFOH","name":"TWR","layer":"Labels","category":"Gates","object_type":"Label","style_id":"label.gates","source_group":"LFOH Gates","vsmr_group_ids":[],"geometry_role":"text_label","text-field":"TWR"},"geometry":{"type":"Point","coordinates":[0.094900556,49.533511944]}},{"type":"Feature","id":"LFOH-f74d259ce7a4ea4e407c","properties":{"airport":"LFOH","name":"ACB","layer":"Labels","category":"Gates","object_type":"Label","style_id":"label.gates","source_group":"LFOH Gates","vsmr_group_ids":[],"geometry_role":"text_label","text-field":"ACB"},"geometry":{"type":"Point","coordinates":[0.094973889,49.532479722]}},{"type":"Feature","id":"LFOH-0fde39d9a5f21c3b16db","properties":{"airport":"LFOH","name":"Terminal","layer":"Labels","category":"Gates","object_type":"Label","style_id":"label.gates","source_group":"LFOH Gates","vsmr_group_ids":[],"geometry_role":"text_label","text-field":"Terminal"},"geometry":{"type":"Point","coordinates":[0.092310556,49.531471111]}},{"type":"Feature","id":"LFOH-3ad3b8af317ce986e5bc","properties":{"airport":"LFOH","name":"Hangars","layer":"Labels","category":"Gates","object_type":"Label","style_id":"label.gates","source_group":"LFOH Gates","vsmr_group_ids":[],"geometry_role":"text_label","text-field":"Hangars"},"geometry":{"type":"Point","coordinates":[0.091680556,49.5306475]}},{"type":"Feature","id":"LFOH-064392f357582ef7ca2a","properties":{"airport":"LFOH","name":"H","layer":"Labels","category":"Gates","object_type":"Label","style_id":"label.gates","source_group":"LFOH Gates","vsmr_group_ids":[],"geometry_role":"text_label","text-field":"H"},"geometry":{"type":"Point","coordinates":[0.096891667,49.535931667]}},{"type":"Feature","id":"LFOH-8788a419650e93869146","properties":{"airport":"LFOH","name":"Douanes","layer":"Labels","category":"Gates","object_type":"Label","style_id":"label.gates","source_group":"LFOH Gates","vsmr_group_ids":[],"geometry_role":"text_label","text-field":"Douanes"},"geometry":{"type":"Point","coordinates":[0.097023333,49.536156389]}},{"type":"Feature","id":"LFOH-635e9cbc1947c8ccd69c","properties":{"airport":"LFOH","name":"H","layer":"Labels","category":"Gates","object_type":"Label","style_id":"label.gates","source_group":"LFOH Gates","vsmr_group_ids":[],"geometry_role":"text_label","text-field":"H"},"geometry":{"type":"Point","coordinates":[0.096454167,49.534944444]}},{"type":"Feature","id":"LFOH-e7bbdb58e97daa205337","properties":{"airport":"LFOH","name":"Protection Civile","layer":"Labels","category":"Gates","object_type":"Label","style_id":"label.gates","source_group":"LFOH Gates","vsmr_group_ids":[],"geometry_role":"text_label","text-field":"Protection Civile"},"geometry":{"type":"Point","coordinates":[0.096475278,49.535111944]}},{"type":"Feature","id":"LFOH-e877a406bd2bc7317056","properties":{"airport":"LFOH","name":"D1","layer":"Labels","category":"Gates","object_type":"Label","style_id":"label.gates","source_group":"LFOH Gates","vsmr_group_ids":[],"geometry_role":"text_label","text-field":"D1"},"geometry":{"type":"Point","coordinates":[0.093472222,49.532713056]}},{"type":"Feature","id":"LFOH-f79b41b10de5be2a1381","properties":{"airport":"LFOH","name":"D2","layer":"Labels","category":"Gates","object_type":"Label","style_id":"label.gates","source_group":"LFOH Gates","vsmr_group_ids":[],"geometry_role":"text_label","text-field":"D2"},"geometry":{"type":"Point","coordinates":[0.0936225,49.532546944]}},{"type":"Feature","id":"LFOH-53b3eef548a608470715","properties":{"airport":"LFOH","name":"D3","layer":"Labels","category":"Gates","object_type":"Label","style_id":"label.gates","source_group":"LFOH Gates","vsmr_group_ids":[],"geometry_role":"text_label","text-field":"D3"},"geometry":{"type":"Point","coordinates":[0.093755556,49.532391111]}},{"type":"Feature","id":"LFOH-409e254278df7b509e25","properties":{"airport":"LFOH","name":"C1","layer":"Labels","category":"Gates","object_type":"Label","style_id":"label.gates","source_group":"LFOH Gates","vsmr_group_ids":[],"geometry_role":"text_label","text-field":"C1"},"geometry":{"type":"Point","coordinates":[0.092615833,49.532397778]}},{"type":"Feature","id":"LFOH-bd420be264845e30720d","properties":{"airport":"LFOH","name":"C2","layer":"Labels","category":"Gates","object_type":"Label","style_id":"label.gates","source_group":"LFOH Gates","vsmr_group_ids":[],"geometry_role":"text_label","text-field":"C2"},"geometry":{"type":"Point","coordinates":[0.092765833,49.532243889]}},{"type":"Feature","id":"LFOH-ed0eef13d1aa1126a9c3","properties":{"airport":"LFOH","name":"C3","layer":"Labels","category":"Gates","object_type":"Label","style_id":"label.gates","source_group":"LFOH Gates","vsmr_group_ids":[],"geometry_role":"text_label","text-field":"C3"},"geometry":{"type":"Point","coordinates":[0.092905833,49.532091389]}},{"type":"Feature","id":"LFOH-59f48d91cbfe67c412be","properties":{"airport":"LFOH","name":"B2","layer":"Labels","category":"Gates","object_type":"Label","style_id":"label.gates","source_group":"LFOH Gates","vsmr_group_ids":[],"geometry_role":"text_label","text-field":"B2"},"geometry":{"type":"Point","coordinates":[0.092479167,49.532568056]}},{"type":"Feature","id":"LFOH-679bc8898ca1f3804719","properties":{"airport":"LFOH","name":"B1","layer":"Labels","category":"Gates","object_type":"Label","style_id":"label.gates","source_group":"LFOH Gates","vsmr_group_ids":[],"geometry_role":"text_label","text-field":"B1"},"geometry":{"type":"Point","coordinates":[0.092023889,49.532402222]}},{"type":"Feature","id":"LFOH-95d79670e7b0b2e2ab76","properties":{"airport":"LFOH","name":"B","layer":"Labels","category":"Gates","object_type":"Label","style_id":"label.gates","source_group":"LFOH Gates","vsmr_group_ids":[],"geometry_role":"text_label","text-field":"B"},"geometry":{"type":"Point","coordinates":[0.091302222,49.531940833]}},{"type":"Feature","id":"LFOH-ed67598f207fde2da650","properties":{"airport":"LFOH","name":"H","layer":"Labels","category":"Gates","object_type":"Label","style_id":"label.gates","source_group":"LFOH Gates","vsmr_group_ids":[],"geometry_role":"text_label","text-field":"H"},"geometry":{"type":"Point","coordinates":[0.091157222,49.531483056]}},{"type":"Feature","id":"LFOH-50437149df46ec04e6de","properties":{"airport":"LFOH","name":"A","layer":"Labels","category":"Gates","object_type":"Label","style_id":"label.gates","source_group":"LFOH Gates","vsmr_group_ids":[],"geometry_role":"text_label","text-field":"A"},"geometry":{"type":"Point","coordinates":[0.090673333,49.531846944]}},{"type":"Feature","id":"LFOH-691d1e17b4864a35612b","properties":{"airport":"LFOH","name":"A","layer":"Labels","category":"Taxiways","object_type":"Label","style_id":"label.taxiways","source_group":"LFOH Taxiways","vsmr_group_ids":[],"geometry_role":"text_label","text-field":"A"},"geometry":{"type":"Point","coordinates":[0.089131389,49.532896944]}},{"type":"Feature","id":"LFOH-7531dd79a5af02e94cc3","properties":{"airport":"LFOH","name":"A1","layer":"Labels","category":"Taxiways","object_type":"Label","style_id":"label.taxiways","source_group":"LFOH Taxiways","vsmr_group_ids":[],"geometry_role":"text_label","text-field":"A1"},"geometry":{"type":"Point","coordinates":[0.090951667,49.532491667]}},{"type":"Feature","id":"LFOH-c85d40b63161a108508f","properties":{"airport":"LFOH","name":"B1","layer":"Labels","category":"Taxiways","object_type":"Label","style_id":"label.taxiways","source_group":"LFOH Taxiways","vsmr_group_ids":[],"geometry_role":"text_label","text-field":"B1"},"geometry":{"type":"Point","coordinates":[0.091344167,49.532567778]}},{"type":"Feature","id":"LFOH-aceae36c87f432ac21b7","properties":{"airport":"LFOH","name":"B2","layer":"Labels","category":"Taxiways","object_type":"Label","style_id":"label.taxiways","source_group":"LFOH Taxiways","vsmr_group_ids":[],"geometry_role":"text_label","text-field":"B2"},"geometry":{"type":"Point","coordinates":[0.093350833,49.532910833]}},{"type":"Feature","id":"LFOH-5bcc2dcd7fcd66d2fce2","properties":{"airport":"LFOH","name":"B","layer":"Labels","category":"Taxiways","object_type":"Label","style_id":"label.taxiways","source_group":"LFOH Taxiways","vsmr_group_ids":[],"geometry_role":"text_label","text-field":"B"},"geometry":{"type":"Point","coordinates":[0.096674167,49.538819722]}}]}
