{"type":"FeatureCollection","name":"LFOJ AVISO","bbox":[1.74475,47.979694444,1.779888889,47.996055556],"metadata":{"schema":"vSMR AVISO","schema_version":2,"geometry_mode":"shared","airport":"LFOJ","coordinate_reference_system":"WGS84","coordinate_order":"longitude, latitude","default_color_palette":"dark","color_palettes":["dark","light"],"background_colors":{"dark":"#434A4F","light":"#434A4F"},"runways":[{"ends":["07","25"],"headings":[68,248],"thresholds":[[1.745560833,47.983910833],[1.775688889,47.991543889]]}],"saved_active_runways":[],"saved_active_airport_modes":[],"airport_reference":[1.760555833,47.987777778],"feature_count":3,"style_count":3,"layer_counts":{"Guidance lines":3},"category_counts":{"Apron Surface":1,"Runways":1,"Taxiways":1},"geometry_source":"local GNG","geometry_source_url":"","geometry_license":"GPL-3.0"},"styles":{"line.taxiway.c0b631":{"name":"Taxiways","layer":"Guidance lines","object_type":"Line","paint":{"stroke":"#4E5A69","stroke-opacity":1,"stroke-width":1,"palette-overrides":{"light":{"stroke":"#C0B631"}}},"feature_count":1},"line.runwayconcrete.555555":{"name":"Runways","layer":"Guidance lines","object_type":"Line","paint":{"stroke":"#111318","stroke-opacity":1,"stroke-width":1,"palette-overrides":{"light":{"stroke":"#555555"}}},"feature_count":1},"line.apronsurface.808080":{"name":"Apron Surface","layer":"Guidance lines","object_type":"Line","paint":{"stroke":"#808080","stroke-opacity":1,"stroke-width":1,"palette-overrides":{"light":{"stroke":"#808080"}}},"feature_count":1}},"vsmr_groups":[],"features":[{"type":"Feature","id":"LFOJ-e6870c24625cc001552f","properties":{"airport":"LFOJ","name":"LFOJ Groundlayout","layer":"Guidance lines","category":"Taxiways","object_type":"Line","style_id":"line.taxiway.c0b631","source_group":"LFOJ Groundlayout","vsmr_group_ids":[],"geometry_role":"linework"},"geometry":{"type":"MultiLineString","coordinates":[[[1.745666667,47.983722222],[1.745805556,47.983472222]],[[1.746166667,47.983555556],[1.746722222,47.982555556]],[[1.745805556,47.983472222],[1.746472222,47.982194444]],[[1.746722222,47.982555556],[1.751222222,47.983694444]],[[1.746472222,47.982194444],[1.751361111,47.983444444]],[[1.751611111,47.983805556],[1.760388889,47.986055556]],[[1.752,47.983611111],[1.760722222,47.985833333]],[[1.76075,47.986138889],[1.76125,47.986277778]],[[1.760722222,47.985833333],[1.761583333,47.986055556]],[[1.761638889,47.986361111],[1.769694444,47.988444444]],[[1.761583333,47.986055556],[1.770027778,47.988222222]],[[1.770083333,47.988527778],[1.77525,47.989861111]],[[1.770027778,47.988222222],[1.775388889,47.989611111]],[[1.77525,47.989861111],[1.775388889,47.989611111]],[[1.764388889,47.994666667],[1.764722222,47.994555556]],[[1.764111111,47.994472222],[1.764527778,47.994305556]],[[1.764722222,47.994555556],[1.769611111,47.992861111]],[[1.764527778,47.994305556],[1.769333333,47.992666667]],[[1.745472222,47.984111111],[1.745333333,47.984388889]],[[1.745861111,47.984194444],[1.745722222,47.984472222]],[[1.745333333,47.984388889],[1.744944444,47.985222222]],[[1.745722222,47.984472222],[1.745388889,47.985166667]],[[1.744944444,47.985222222],[1.746444444,47.986888889]],[[1.745388889,47.985166667],[1.746722222,47.986666667]],[[1.746444444,47.986888889],[1.747666667,47.987166667]],[[1.746722222,47.986666667],[1.747638889,47.986861111]],[[1.747666667,47.987166667],[1.750277778,47.986416667]],[[1.747638889,47.986861111],[1.749944444,47.986194444]],[[1.750277778,47.986416667],[1.750638889,47.985722222]],[[1.749944444,47.986194444],[1.75025,47.985611111]],[[1.750638889,47.985722222],[1.75075,47.985444444]],[[1.75025,47.985611111],[1.750388889,47.985361111]],[[1.750944444,47.985083333],[1.751083333,47.984805556]],[[1.750583333,47.984972222],[1.750694444,47.984722222]],[[1.751083333,47.984805556],[1.751611111,47.983805556]],[[1.750694444,47.984722222],[1.751222222,47.983694444]],[[1.751833333,47.983388889],[1.752666667,47.98175]],[[1.751361111,47.983444444],[1.752138889,47.981888889]],[[1.769694444,47.988444444],[1.769194444,47.989388889]],[[1.770083333,47.988527778],[1.769583333,47.989472222]],[[1.769194444,47.989388889],[1.769083333,47.989638889]],[[1.769583333,47.989472222],[1.769444444,47.98975]],[[1.768916667,47.990027778],[1.768833333,47.990333333]],[[1.769305556,47.990138889],[1.769222222,47.990388889]],[[1.768833333,47.990333333],[1.768555556,47.991222222]],[[1.769222222,47.990388889],[1.768972222,47.991222222]],[[1.768555556,47.991222222],[1.769111111,47.9925]],[[1.768972222,47.991222222],[1.769472222,47.992361111]],[[1.769111111,47.9925],[1.769333333,47.992666667]],[[1.769472222,47.992361111],[1.769805556,47.992611111]],[[1.769611111,47.992861111],[1.769888889,47.993083333]],[[1.769805556,47.992611111],[1.770138889,47.992833333]],[[1.769888889,47.993083333],[1.771555556,47.993527778]],[[1.770138889,47.992833333],[1.771611111,47.99325]],[[1.771555556,47.993527778],[1.773777778,47.993305556]],[[1.771611111,47.99325],[1.773611111,47.993055556]],[[1.773777778,47.993305556],[1.774777778,47.992777778]],[[1.773611111,47.993055556],[1.774444444,47.992611111]],[[1.774777778,47.992777778],[1.775305556,47.991944444]],[[1.774444444,47.992611111],[1.774944444,47.991861111]],[[1.775305556,47.991944444],[1.775472222,47.991694444]],[[1.774944444,47.991861111],[1.775083333,47.991611111]],[[1.75975,47.987722222],[1.759611111,47.987972222]],[[1.760111111,47.987805556],[1.76,47.988083333]],[[1.759611111,47.987972222],[1.759333333,47.9885]],[[1.76,47.988083333],[1.759722222,47.988583333]],[[1.759333333,47.9885],[1.759722222,47.988583333]],[[1.752,47.983611111],[1.758166667,47.98175]],[[1.751833333,47.983388889],[1.758166667,47.981444444]],[[1.758166667,47.98175],[1.768777778,47.984416667]],[[1.758166667,47.981444444],[1.768916667,47.984138889]],[[1.768777778,47.984416667],[1.768916667,47.984138889]],[[1.750111111,47.9825],[1.752138889,47.981888889]],[[1.749972222,47.98225],[1.752416667,47.981527778]],[[1.750111111,47.9825],[1.749972222,47.98225]],[[1.752666667,47.98175],[1.758555556,47.98]],[[1.752416667,47.981527778],[1.758555556,47.979694444]],[[1.758555556,47.98],[1.770666667,47.983]],[[1.758555556,47.979694444],[1.77075,47.982722222]],[[1.770666667,47.983],[1.774777778,47.983444444]],[[1.77075,47.982722222],[1.774972222,47.983194444]],[[1.774777778,47.983444444],[1.775972222,47.984416667]],[[1.774972222,47.983194444],[1.776277778,47.98425]],[[1.775972222,47.984416667],[1.776277778,47.98425]],[[1.760388889,47.986055556],[1.759972222,47.986833333]],[[1.76075,47.986138889],[1.760388889,47.986861111]],[[1.759972222,47.986833333],[1.760111111,47.987194444]],[[1.760388889,47.986861111],[1.760444444,47.987]],[[1.760111111,47.987194444],[1.76075,47.987361111]],[[1.760444444,47.987],[1.760722222,47.987055556]],[[1.76075,47.987361111],[1.761194444,47.987166667]],[[1.760722222,47.987055556],[1.760861111,47.987]],[[1.761194444,47.987166667],[1.761638889,47.986361111]],[[1.760861111,47.987],[1.76125,47.986277778]]]}},{"type":"Feature","id":"LFOJ-a05b85ec4e671989f4c2","properties":{"airport":"LFOJ","name":"LFOJ Groundlayout","layer":"Guidance lines","category":"Runways","object_type":"Line","style_id":"line.runwayconcrete.555555","source_group":"LFOJ Groundlayout","vsmr_group_ids":[],"geometry_role":"linework"},"geometry":{"type":"MultiLineString","coordinates":[[[1.775805556,47.991361111],[1.775527778,47.991277778]],[[1.775583333,47.991722222],[1.775472222,47.991694444]],[[1.775805556,47.991361111],[1.775583333,47.991722222]],[[1.7755,47.991277778],[1.769444444,47.98975]],[[1.775083333,47.991611111],[1.769305556,47.990138889]],[[1.769083333,47.989638889],[1.760138889,47.987388889]],[[1.768916667,47.990027778],[1.760111111,47.987805556]],[[1.760138889,47.987388889],[1.750944444,47.985083333]],[[1.75975,47.987722222],[1.75075,47.985444444]],[[1.750583333,47.984972222],[1.746027778,47.983833333]],[[1.750388889,47.985361111],[1.745861111,47.984194444]],[[1.745472222,47.984111111],[1.745444444,47.984111111]],[[1.745666667,47.983722222],[1.745444444,47.984111111]],[[1.765638889,47.995555556],[1.764388889,47.994666667]],[[1.764861111,47.996055556],[1.763388889,47.994972222]],[[1.765638889,47.995555556],[1.764861111,47.996055556]],[[1.764111111,47.994472222],[1.756472222,47.989]],[[1.763388889,47.994972222],[1.755694444,47.989472222]],[[1.756472222,47.989],[1.755694444,47.989472222]]]}},{"type":"Feature","id":"LFOJ-6a0b4ea4ba41bad8c9f0","properties":{"airport":"LFOJ","name":"LFOJ Groundlayout","layer":"Guidance lines","category":"Apron Surface","object_type":"Line","style_id":"line.apronsurface.808080","source_group":"LFOJ Groundlayout","vsmr_group_ids":[],"geometry_role":"linework"},"geometry":{"type":"MultiLineString","coordinates":[[[1.775666667,47.991416667],[1.776055556,47.987055556],[1.776472222,47.986583333],[1.776833333,47.98675],[1.777027778,47.987277778],[1.7785,47.98725],[1.778666667,47.986777778],[1.779888889,47.986694444],[1.779888889,47.985527778],[1.778805556,47.985527778],[1.778944444,47.98425],[1.775888889,47.984138889],[1.775472222,47.984638889],[1.774666667,47.98475],[1.768972222,47.9835],[1.768944444,47.983583333],[1.768333333,47.983444444],[1.768194444,47.983694444],[1.768805556,47.983833333],[1.768444444,47.984638889],[1.767833333,47.9845],[1.767722222,47.98475],[1.768305556,47.984888889],[1.768055556,47.985444444],[1.768444444,47.9855],[1.768611111,47.985111111],[1.769055556,47.98525],[1.768888889,47.985638889],[1.769277778,47.985722222],[1.769444444,47.985333333],[1.769888889,47.985444444],[1.769694444,47.985833333],[1.770083333,47.985916667],[1.770277778,47.985555556],[1.770694444,47.985666667],[1.7705,47.986027778],[1.770861111,47.986111111],[1.771055556,47.98575],[1.771444444,47.985861111],[1.77125,47.986222222],[1.771611111,47.986305556],[1.771833333,47.985944444],[1.77225,47.986055556],[1.772055556,47.986416667],[1.772444444,47.9865],[1.772638889,47.986166667],[1.773,47.986277778],[1.772833333,47.986611111],[1.773194444,47.986694444],[1.773361111,47.986361111],[1.773722222,47.986444444],[1.773555556,47.986777778],[1.773916667,47.986861111],[1.774083333,47.986555556],[1.775305556,47.986861111],[1.774972222,47.991222222]],[[1.775666667,47.991416667],[1.774972222,47.991222222]],[[1.772888889,47.983111111],[1.773277778,47.981361111],[1.774777778,47.981527778],[1.774638889,47.982416667],[1.774805556,47.982611111],[1.77525,47.982666667],[1.775083333,47.983555556],[1.774583333,47.983277778]],[[1.772888889,47.983111111],[1.774583333,47.983277778]],[[1.775166667,47.991972222],[1.775638889,47.992083333],[1.775194444,47.99275],[1.774555556,47.99275]],[[1.775166667,47.991972222],[1.774555556,47.99275]],[[1.745888889,47.9835],[1.7455,47.983194444],[1.745722222,47.982694444],[1.746277778,47.982694444]],[[1.745888889,47.9835],[1.746277778,47.982694444]],[[1.745472222,47.984333333],[1.744944444,47.984361111],[1.74475,47.98475],[1.745222222,47.985277778]],[[1.745472222,47.984333333],[1.745222222,47.985277778]]]}}]}
