{"type":"FeatureCollection","name":"LFOK AVISO","bbox":[4.145355833,48.767918333,4.216517222,48.784487778],"metadata":{"schema":"vSMR AVISO","schema_version":2,"geometry_mode":"shared","airport":"LFOK","coordinate_reference_system":"WGS84","coordinate_order":"longitude, latitude","default_color_palette":"dark","color_palettes":["dark","light"],"background_colors":{"dark":"#434A4F","light":"#434A4F"},"runways":[{"ends":["10","28"],"headings":[99,279],"thresholds":[[4.159882778,48.779391944],[4.20845,48.773021944]]}],"saved_active_runways":[],"saved_active_airport_modes":[],"airport_reference":[4.206110833,48.773332778],"feature_count":70,"style_count":12,"layer_counts":{"Airfield surfaces":8,"Buildings and structures":8,"Guidance lines":2,"Labels":47,"Surface markings":4,"Terrain":1},"category_counts":{"Buildings":8,"Gates":29,"Grass":1,"Hard Surface 2":1,"Hard Surface 3":4,"Hard Surface 4":1,"Runway Border":1,"Runways":1,"Stopbars":4,"Taxiway Orange":1,"Taxiways":19},"geometry_source":"local GNG","geometry_source_url":"","geometry_license":"GPL-3.0"},"styles":{"polygon.grassurface.00512f":{"name":"Grass","layer":"Terrain","object_type":"Area","paint":{"fill":"#010D19","fill-opacity":1,"palette-overrides":{"light":{"fill":"#00512F"}}},"feature_count":1},"polygon.hardsurface4.969393":{"name":"Hard Surface 4","layer":"Airfield surfaces","object_type":"Area","paint":{"fill":"#152841","fill-opacity":1,"palette-overrides":{"light":{"fill":"#969393"}}},"feature_count":1},"polygon.hardsurface3.8a807f":{"name":"Hard Surface 3","layer":"Airfield surfaces","object_type":"Area","paint":{"fill":"#222D3C","fill-opacity":1,"palette-overrides":{"light":{"fill":"#8A807F"}}},"feature_count":4},"polygon.hardsurface2.595e5b":{"name":"Hard Surface 2","layer":"Airfield surfaces","object_type":"Area","paint":{"fill":"#2F3949","fill-opacity":1,"palette-overrides":{"light":{"fill":"#595E5B"}}},"feature_count":1},"polygon.runwayconcrete.555555":{"name":"Runways","layer":"Airfield surfaces","object_type":"Area","paint":{"fill":"#111318","fill-opacity":1,"palette-overrides":{"light":{"fill":"#555555"}}},"feature_count":1},"polygon.building.394446":{"name":"Buildings","layer":"Buildings and structures","object_type":"Area","paint":{"fill":"#475570","fill-opacity":1,"palette-overrides":{"light":{"fill":"#394446"}}},"feature_count":8},"polygon.stopbar.7e0000":{"name":"Stopbars","layer":"Surface markings","object_type":"Area","paint":{"fill":"#7E0000","fill-opacity":1,"palette-overrides":{"light":{"fill":"#7E0000"}}},"feature_count":4},"polygon.taxiwayorange.cc6d00":{"name":"Taxiway Orange","layer":"Airfield surfaces","object_type":"Area","paint":{"fill":"#CC8B00","fill-opacity":1,"palette-overrides":{"light":{"fill":"#CC6D00"}}},"feature_count":1},"line.runwayborder.808080":{"name":"Runway Border","layer":"Guidance lines","object_type":"Line","paint":{"stroke":"#808080","stroke-opacity":1,"stroke-width":1,"palette-overrides":{"light":{"stroke":"#808080"}}},"feature_count":1},"line.taxiway.c0b631":{"name":"Taxiways","layer":"Guidance lines","object_type":"Line","paint":{"stroke":"#4E5A69","stroke-opacity":1,"stroke-width":1,"palette-overrides":{"light":{"stroke":"#C0B631"}}},"feature_count":1},"label.gates":{"name":"Gates","layer":"Labels","object_type":"Label","paint":{"text-color":"#CCCCCC","text-font":"Arial","text-size":12,"text-halo-color":"#000000","text-halo-width":1,"text-anchor":"center","zoomLevel":9},"feature_count":29},"label.taxiways":{"name":"Taxiways","layer":"Labels","object_type":"Label","paint":{"text-color":"#CCCCCC","text-font":"Arial","text-size":12,"text-halo-color":"#000000","text-halo-width":1,"text-anchor":"center","zoomLevel":7},"feature_count":18}},"vsmr_groups":[],"features":[{"type":"Feature","id":"LFOK-9be299658bc5bcb214bb","properties":{"airport":"LFOK","name":"LFOK AVISO","layer":"Terrain","category":"Grass","object_type":"Area","style_id":"polygon.grassurface.00512f","source_group":"LFOK AVISO","vsmr_group_ids":[],"geometry_role":"filled_region"},"geometry":{"type":"Polygon","coordinates":[[[4.1557775,48.784487778],[4.153315,48.780721944],[4.1532525,48.780698333],[4.153127778,48.780710833],[4.145613056,48.781683889],[4.145355833,48.780889722],[4.152969167,48.779898056],[4.153050833,48.779811111],[4.1531675,48.775743611],[4.164642222,48.774240556],[4.165991389,48.775435556],[4.166733889,48.776315556],[4.167069444,48.776801667],[4.167205,48.776835278],[4.200353611,48.772445833],[4.200398333,48.772409167],[4.200451667,48.771105278],[4.201077778,48.769410556],[4.203308333,48.769126389],[4.203853333,48.768296944],[4.206883889,48.769290556],[4.207368333,48.769279722],[4.207820833,48.769054722],[4.207987222,48.768876667],[4.208050556,48.7686725],[4.208002778,48.768494722],[4.210311667,48.7682625],[4.212594444,48.767918333],[4.215169167,48.771820833],[4.216227778,48.771685833],[4.216343611,48.771900278],[4.216517222,48.772401944],[4.2153625,48.772558056],[4.215245556,48.776784722],[4.211796667,48.777216667],[4.211976667,48.777643056],[4.212184167,48.778073056],[4.212238611,48.778556389],[4.212121944,48.778989444],[4.211850278,48.779446667],[4.211467778,48.779790278],[4.210879722,48.780747778],[4.210603611,48.780920278],[4.210146111,48.781030556],[4.209702778,48.78105],[4.207904444,48.781051944],[4.207446944,48.780996389],[4.206968333,48.780885278],[4.206524722,48.780853056],[4.206060278,48.780927222],[4.2058,48.780973889],[4.204841111,48.780461667],[4.201995833,48.779020833],[4.201737222,48.779650556],[4.201153889,48.779705833],[4.200008056,48.780345278],[4.199532778,48.780636389],[4.199340833,48.780715556],[4.190990278,48.781828056],[4.188249167,48.782295556],[4.187457778,48.782114444],[4.186184444,48.781105833],[4.185685556,48.780471389],[4.179740833,48.780595556],[4.177804444,48.779844167],[4.177619167,48.779808056],[4.177352778,48.779814444],[4.170946944,48.780676389],[4.168031389,48.781066389],[4.167927778,48.781124167],[4.167273611,48.782992778],[4.1557775,48.784487778]]]}},{"type":"Feature","id":"LFOK-b98742af242542439bb5","properties":{"airport":"LFOK","name":"LFOK AVISO","layer":"Airfield surfaces","category":"Hard Surface 4","object_type":"Area","style_id":"polygon.hardsurface4.969393","source_group":"LFOK AVISO","vsmr_group_ids":[],"geometry_role":"filled_region"},"geometry":{"type":"Polygon","coordinates":[[[4.189761667,48.779028889],[4.189967778,48.778999167],[4.189987222,48.779054167],[4.191715,48.778835556],[4.192001667,48.779622778],[4.198251389,48.778833611],[4.198292778,48.778976667],[4.196155278,48.779249167],[4.195904722,48.779370833],[4.194751944,48.779528611],[4.193705278,48.7797525],[4.193023889,48.779845833],[4.192468611,48.780321111],[4.190118333,48.7806275],[4.190026667,48.780324722],[4.1887125,48.780463333],[4.188650556,48.7802475],[4.186663889,48.7804975],[4.18662,48.780354444],[4.190006111,48.779925556],[4.189761667,48.779028889]]]}},{"type":"Feature","id":"LFOK-dca120c446b82882ef94","properties":{"airport":"LFOK","name":"LFOK AVISO","layer":"Airfield surfaces","category":"Hard Surface 3","object_type":"Area","style_id":"polygon.hardsurface3.8a807f","source_group":"LFOK AVISO","vsmr_group_ids":[],"geometry_role":"filled_region"},"geometry":{"type":"Polygon","coordinates":[[[4.187903889,48.778465],[4.187965,48.778512222],[4.188059167,48.778560278],[4.1881725,48.778595833],[4.188292778,48.7786175],[4.188451111,48.778629722],[4.188651667,48.778629722],[4.188812778,48.778628056],[4.188979167,48.7786125],[4.189296111,48.778579444],[4.18956,48.778549722],[4.190288333,48.778449444],[4.190356111,48.778673889],[4.189588333,48.778773889],[4.189668611,48.779039722],[4.189815278,48.779019444],[4.1901,48.779938056],[4.186628889,48.780385278],[4.186337222,48.779473056],[4.186469722,48.779458889],[4.186389167,48.779189167],[4.185768889,48.779272222],[4.185702778,48.7790475],[4.186395833,48.778939722],[4.186503889,48.778918056],[4.186868056,48.778823889],[4.186964444,48.778793056],[4.187046389,48.778757778],[4.187143611,48.778697222],[4.187210556,48.778629722],[4.187251667,48.778563889],[4.187274167,48.778495],[4.187863333,48.778418056],[4.187903889,48.778465]]]}},{"type":"Feature","id":"LFOK-d2d133e477a249a8e1da","properties":{"airport":"LFOK","name":"LFOK AVISO","layer":"Airfield surfaces","category":"Hard Surface 3","object_type":"Area","style_id":"polygon.hardsurface3.8a807f","source_group":"LFOK AVISO","vsmr_group_ids":[],"geometry_role":"filled_region"},"geometry":{"type":"Polygon","coordinates":[[[4.192418611,48.777948889],[4.192530278,48.777993889],[4.192678611,48.778024167],[4.192856111,48.778041944],[4.1930675,48.778046667],[4.193356667,48.778030556],[4.193728611,48.777995556],[4.194402778,48.777924722],[4.1954175,48.777786389],[4.195571111,48.777761944],[4.195693333,48.777724444],[4.195801389,48.777692222],[4.1978375,48.777422222],[4.198260556,48.778857778],[4.191953889,48.779701667],[4.191502222,48.778204167],[4.191556111,48.7781825],[4.191604167,48.778145278],[4.191649722,48.778088333],[4.191723611,48.777985556],[4.192364722,48.77791],[4.192418611,48.777948889]]]}},{"type":"Feature","id":"LFOK-9f3a01ad6267ee589a4f","properties":{"airport":"LFOK","name":"LFOK AVISO","layer":"Airfield surfaces","category":"Hard Surface 3","object_type":"Area","style_id":"polygon.hardsurface3.8a807f","source_group":"LFOK AVISO","vsmr_group_ids":[],"geometry_role":"filled_region"},"geometry":{"type":"Polygon","coordinates":[[[4.1790575,48.779554167],[4.179563333,48.7797525],[4.1796825,48.7797875],[4.179775556,48.779800278],[4.179863333,48.779805556],[4.179938889,48.779801111],[4.179862222,48.779559722],[4.181336944,48.779365556],[4.181354167,48.77926],[4.181839444,48.779200278],[4.182089444,48.779986944],[4.180075833,48.780245556],[4.179993889,48.7800025],[4.179911944,48.780005833],[4.179806389,48.780005556],[4.179667778,48.7799925],[4.179512778,48.779959167],[4.1793725,48.779913056],[4.1789025,48.779730278],[4.1790575,48.779554167]]]}},{"type":"Feature","id":"LFOK-507f82eab0ec682a3398","properties":{"airport":"LFOK","name":"LFOK AVISO","layer":"Airfield surfaces","category":"Hard Surface 3","object_type":"Area","style_id":"polygon.hardsurface3.8a807f","source_group":"LFOK AVISO","vsmr_group_ids":[],"geometry_role":"filled_region"},"geometry":{"type":"Polygon","coordinates":[[[4.208183611,48.777766944],[4.208329167,48.778240833],[4.207374722,48.778357778],[4.207237222,48.777892778],[4.207324444,48.777878611],[4.207371944,48.777858056],[4.207398333,48.777831667],[4.207407778,48.777796944],[4.207397222,48.777748333],[4.206846667,48.775905278],[4.206726667,48.775694444],[4.207039722,48.775653056],[4.207050278,48.775878889],[4.2075475,48.7775275],[4.207674722,48.777759444],[4.207699444,48.777788333],[4.207738333,48.777805833],[4.207780556,48.777814722],[4.20784,48.777810833],[4.208183611,48.777766944]]]}},{"type":"Feature","id":"LFOK-5800934e78626fcb6746","properties":{"airport":"LFOK","name":"LFOK AVISO","layer":"Airfield surfaces","category":"Hard Surface 2","object_type":"Area","style_id":"polygon.hardsurface2.595e5b","source_group":"LFOK AVISO","vsmr_group_ids":[],"geometry_role":"filled_region"},"geometry":{"type":"Polygon","coordinates":[[[4.174823611,48.778273611],[4.174854167,48.778438611],[4.174896667,48.778550556],[4.174983889,48.778727778],[4.175033333,48.778814722],[4.175090278,48.778886389],[4.175177778,48.778986389],[4.17527,48.779053333],[4.1753625,48.779087778],[4.175495,48.779115833],[4.175651389,48.779136111],[4.175819444,48.779137778],[4.176013611,48.779133056],[4.176251111,48.779116389],[4.176665278,48.779073611],[4.177076389,48.779022778],[4.177570556,48.778956667],[4.177985556,48.778901667],[4.190826389,48.777224167],[4.190862222,48.777209444],[4.190881111,48.777183333],[4.190874167,48.777151944],[4.190838333,48.777132778],[4.190791389,48.777123056],[4.188721944,48.776785278],[4.188799444,48.776590556],[4.191146944,48.776969722],[4.191484722,48.777023611],[4.1916825,48.777044167],[4.191881944,48.777045278],[4.192046389,48.777040278],[4.192245833,48.7770225],[4.192578056,48.776988333],[4.194026667,48.776796389],[4.204363611,48.775441111],[4.2050525,48.775345556],[4.205291944,48.775305556],[4.2055975,48.775248889],[4.205792222,48.775206667],[4.205961111,48.775154444],[4.206065278,48.775116667],[4.206173889,48.775063333],[4.20624,48.775015],[4.206291389,48.774949167],[4.206318889,48.774887778],[4.206338611,48.774805833],[4.206346667,48.774693889],[4.206341667,48.774573333],[4.206316111,48.774406389],[4.206288056,48.774289167],[4.206234444,48.774151667],[4.206586389,48.774105],[4.206610556,48.774261944],[4.206791389,48.774854444],[4.206823611,48.774913611],[4.206878056,48.774965278],[4.206956111,48.775014444],[4.207066667,48.775050278],[4.207171944,48.775061389],[4.207261667,48.7750575],[4.208621944,48.774883056],[4.208818889,48.774856944],[4.209031667,48.774821389],[4.209220556,48.774776944],[4.209376111,48.774733333],[4.209542222,48.774686944],[4.209661389,48.774643333],[4.209765556,48.774593889],[4.209841944,48.7745475],[4.209883889,48.774493889],[4.209920833,48.774419722],[4.209946111,48.774328056],[4.209956389,48.774221944],[4.210345278,48.774169167],[4.210355833,48.774212222],[4.210369167,48.7742725],[4.210366111,48.774362222],[4.21035,48.774446944],[4.210312778,48.774538611],[4.210246667,48.774638056],[4.210141111,48.774739167],[4.210047778,48.774804722],[4.209927778,48.774863333],[4.209818056,48.774909722],[4.2097,48.774941389],[4.209553056,48.774967222],[4.207197778,48.775274167],[4.207121667,48.775298611],[4.207069167,48.775332222],[4.207038889,48.775368611],[4.207028889,48.775417222],[4.207041111,48.775655833],[4.2067275,48.775695833],[4.206651667,48.775560278],[4.206588611,48.775454722],[4.206536667,48.775415556],[4.2064675,48.775390278],[4.206394722,48.775383056],[4.206319444,48.775388611],[4.206218056,48.775401389],[4.1938675,48.777026944],[4.193303333,48.777112778],[4.193021111,48.777162778],[4.192778611,48.777217222],[4.192601667,48.777271667],[4.192473333,48.777323056],[4.192373333,48.777376667],[4.192295,48.777444167],[4.192231944,48.777530833],[4.192207222,48.777615278],[4.192208611,48.777695833],[4.192246389,48.777776389],[4.192294444,48.777848333],[4.192363889,48.777910833],[4.191723056,48.777986389],[4.191741667,48.7779225],[4.191746111,48.777847222],[4.191735,48.777788611],[4.191701389,48.777735556],[4.191607222,48.77764],[4.191529722,48.7775725],[4.191462222,48.777528056],[4.191372222,48.777490278],[4.191239444,48.777464722],[4.191043056,48.777449167],[4.190780833,48.7774525],[4.1903625,48.777487778],[4.189590833,48.777591389],[4.189003056,48.777683333],[4.188627778,48.777746667],[4.188436944,48.777783056],[4.188261944,48.777829444],[4.188132778,48.777878889],[4.188023889,48.777925833],[4.187931944,48.777981389],[4.187866667,48.778035556],[4.187829444,48.77809],[4.187798333,48.778161944],[4.187789722,48.778236389],[4.187799444,48.778299444],[4.187830556,48.778363889],[4.187867778,48.778421111],[4.187269167,48.778503056],[4.187277222,48.778441111],[4.187268611,48.778381389],[4.187240556,48.778315],[4.1872025,48.778260833],[4.187136667,48.778198056],[4.187050833,48.778148056],[4.186945556,48.778098333],[4.186840556,48.778071111],[4.186718056,48.778058889],[4.186481389,48.7780575],[4.186246944,48.778064444],[4.186059167,48.778074167],[4.185835556,48.778095278],[4.185621111,48.778121111],[4.184345556,48.7782775],[4.183358611,48.7784075],[4.182738889,48.778493056],[4.182565833,48.778530278],[4.182179722,48.778621667],[4.182058611,48.778665556],[4.181952778,48.778734167],[4.181874167,48.778807778],[4.181827222,48.778884167],[4.181803611,48.7789475],[4.181797778,48.779009444],[4.181811389,48.779075556],[4.181842778,48.779202222],[4.181351389,48.7792675],[4.181356111,48.779157222],[4.181338889,48.779098611],[4.181295833,48.779030556],[4.181232778,48.778962222],[4.181144444,48.778907222],[4.181050833,48.778865556],[4.180939722,48.778830556],[4.180826111,48.778813889],[4.180623889,48.778812222],[4.180373889,48.778815556],[4.180093611,48.778836389],[4.179809722,48.7788725],[4.179489167,48.778938333],[4.178785,48.779101111],[4.178616389,48.779149167],[4.178558056,48.779195],[4.178536111,48.779238889],[4.178544167,48.77929],[4.178574722,48.779335833],[4.178669167,48.779394167],[4.178835556,48.779465556],[4.179071389,48.779556944],[4.178911944,48.779734722],[4.178378611,48.779536111],[4.177794722,48.779344167],[4.177546111,48.779280556],[4.177383056,48.779259444],[4.177158333,48.779259444],[4.1769125,48.779271667],[4.176501667,48.779316111],[4.175828611,48.779396944],[4.1756725,48.779408611],[4.175519722,48.779405],[4.17539,48.77939],[4.175265833,48.779363056],[4.175134444,48.779320833],[4.175028889,48.779273611],[4.174913889,48.779203056],[4.174821944,48.779129444],[4.174743056,48.779047222],[4.1746775,48.77894],[4.174638056,48.778825278],[4.174598056,48.778694167],[4.174504444,48.77844],[4.174452222,48.778309444],[4.174823611,48.778273611]]]}},{"type":"Feature","id":"LFOK-3e236149f8e87b918e59","properties":{"airport":"LFOK","name":"LFOK AVISO","layer":"Airfield surfaces","category":"Runways","object_type":"Area","style_id":"polygon.runwayconcrete.555555","source_group":"LFOK AVISO","vsmr_group_ids":[],"geometry_role":"filled_region"},"geometry":{"type":"Polygon","coordinates":[[[4.209893611,48.772643056],[4.210346111,48.774174167],[4.209958611,48.774226667],[4.209952222,48.774129722],[4.209936389,48.774011944],[4.209915556,48.773888889],[4.2098925,48.773799722],[4.209826111,48.773636667],[4.209721944,48.773440556],[4.209625,48.773310556],[4.209540556,48.773246111],[4.209428889,48.773195833],[4.209302778,48.773168611],[4.209187778,48.773157222],[4.209083889,48.773159167],[4.207053056,48.773426944],[4.206987222,48.773436111],[4.206869722,48.773474722],[4.206762778,48.773528333],[4.206655278,48.773618889],[4.206587778,48.773708889],[4.206564167,48.773781944],[4.2065625,48.773869722],[4.206586111,48.774109722],[4.206236667,48.774153889],[4.206103889,48.773906667],[4.206012222,48.773790278],[4.205918333,48.773719444],[4.205794722,48.773669722],[4.205664444,48.773644167],[4.205545278,48.773635],[4.205396111,48.773641111],[4.186726389,48.776089722],[4.186685556,48.776102222],[4.186656389,48.776124722],[4.186658056,48.776158333],[4.186690556,48.776179722],[4.186764167,48.776198889],[4.188363611,48.776520278],[4.188801389,48.776593056],[4.18873,48.776785],[4.187473333,48.776583611],[4.186570556,48.776444444],[4.186164167,48.776400278],[4.185789722,48.776377222],[4.18545,48.776368611],[4.185129722,48.776369444],[4.184874722,48.776375556],[4.184636111,48.776387778],[4.184418611,48.776404722],[4.184008056,48.776451389],[4.175275833,48.7775975],[4.175207222,48.777608611],[4.175058611,48.777649444],[4.174935833,48.777716389],[4.174874167,48.777773889],[4.1748375,48.777848889],[4.174814444,48.777935833],[4.174805,48.778046111],[4.174808056,48.778163611],[4.174823889,48.778276111],[4.174460278,48.778321111],[4.174313611,48.778056389],[4.1742175,48.777948611],[4.174123333,48.777878333],[4.174016389,48.777831389],[4.173884722,48.777806389],[4.173781944,48.777798056],[4.1736475,48.777808056],[4.1599675,48.779604444],[4.159876944,48.779620833],[4.159798056,48.779644722],[4.159728611,48.779677222],[4.158978611,48.780056111],[4.158886944,48.780046944],[4.15879,48.780027222],[4.158688889,48.779989167],[4.158613611,48.779945],[4.158551667,48.779891944],[4.158483889,48.779800556],[4.158362778,48.779397778],[4.209893611,48.772643056]]]}},{"type":"Feature","id":"LFOK-bfdb1ad0fed526c99a74","properties":{"airport":"LFOK","name":"LFOK AVISO","layer":"Buildings and structures","category":"Buildings","object_type":"Area","style_id":"polygon.building.394446","source_group":"LFOK AVISO","vsmr_group_ids":[],"geometry_role":"filled_region"},"geometry":{"type":"Polygon","coordinates":[[[4.189565278,48.780275],[4.189740556,48.780851944],[4.188855,48.780968889],[4.188680278,48.780393889],[4.189565278,48.780275]]]}},{"type":"Feature","id":"LFOK-b29bf15b287517eb27af","properties":{"airport":"LFOK","name":"LFOK AVISO","layer":"Buildings and structures","category":"Buildings","object_type":"Area","style_id":"polygon.building.394446","source_group":"LFOK AVISO","vsmr_group_ids":[],"geometry_role":"filled_region"},"geometry":{"type":"Polygon","coordinates":[[[4.190887222,48.780088333],[4.190869167,48.780305556],[4.190388889,48.780342222],[4.190349444,48.780150278],[4.190887222,48.780088333]]]}},{"type":"Feature","id":"LFOK-60a8aca0d4a6a267f8e6","properties":{"airport":"LFOK","name":"LFOK AVISO","layer":"Buildings and structures","category":"Buildings","object_type":"Area","style_id":"polygon.building.394446","source_group":"LFOK AVISO","vsmr_group_ids":[],"geometry_role":"filled_region"},"geometry":{"type":"Polygon","coordinates":[[[4.191074167,48.780095],[4.191145833,48.780085278],[4.191283056,48.780040833],[4.191663333,48.780498611],[4.191384722,48.780536111],[4.191209167,48.780221667],[4.191101667,48.780235556],[4.191118611,48.780564167],[4.190837778,48.780603056],[4.190928333,48.780088056],[4.191074167,48.780095]]]}},{"type":"Feature","id":"LFOK-7a5f0aa0ab0bccb70d56","properties":{"airport":"LFOK","name":"LFOK AVISO","layer":"Buildings and structures","category":"Buildings","object_type":"Area","style_id":"polygon.building.394446","source_group":"LFOK AVISO","vsmr_group_ids":[],"geometry_role":"filled_region"},"geometry":{"type":"Polygon","coordinates":[[[4.191118611,48.780499167],[4.191123889,48.780485],[4.191098889,48.780402222],[4.191304167,48.780378611],[4.1913125,48.780457222],[4.191333889,48.780462778],[4.191346944,48.780487778],[4.191353333,48.780514167],[4.1913375,48.780527222],[4.191296944,48.780550278],[4.191241944,48.780561944],[4.191185833,48.780559722],[4.191144167,48.780549444],[4.191128333,48.780538056],[4.191118611,48.780499167]]]}},{"type":"Feature","id":"LFOK-65881aa0e4aeb1b35f62","properties":{"airport":"LFOK","name":"LFOK AVISO","layer":"Buildings and structures","category":"Buildings","object_type":"Area","style_id":"polygon.building.394446","source_group":"LFOK AVISO","vsmr_group_ids":[],"geometry_role":"filled_region"},"geometry":{"type":"Polygon","coordinates":[[[4.191694722,48.779992222],[4.191767778,48.780173056],[4.191458889,48.780228056],[4.191318611,48.780036667],[4.191694722,48.779992222]]]}},{"type":"Feature","id":"LFOK-edeffce12daf57125444","properties":{"airport":"LFOK","name":"LFOK AVISO","layer":"Buildings and structures","category":"Buildings","object_type":"Area","style_id":"polygon.building.394446","source_group":"LFOK AVISO","vsmr_group_ids":[],"geometry_role":"filled_region"},"geometry":{"type":"Polygon","coordinates":[[[4.193155556,48.779769167],[4.19334,48.780378056],[4.192436667,48.780497222],[4.192393889,48.780364722],[4.1924325,48.780356667],[4.192288056,48.779883889],[4.193155556,48.779769167]]]}},{"type":"Feature","id":"LFOK-9650811d199bab4a6e7a","properties":{"airport":"LFOK","name":"LFOK AVISO","layer":"Buildings and structures","category":"Buildings","object_type":"Area","style_id":"polygon.building.394446","source_group":"LFOK AVISO","vsmr_group_ids":[],"geometry_role":"filled_region"},"geometry":{"type":"Polygon","coordinates":[[[4.194815833,48.779508333],[4.195073889,48.7803525],[4.193868611,48.780509444],[4.193677778,48.779876667],[4.193550278,48.7798925],[4.193509167,48.779752778],[4.193634444,48.779736944],[4.193612778,48.779671944],[4.194815833,48.779508333]]]}},{"type":"Feature","id":"LFOK-82e7b06efeacc5425dc3","properties":{"airport":"LFOK","name":"LFOK AVISO","layer":"Buildings and structures","category":"Buildings","object_type":"Area","style_id":"polygon.building.394446","source_group":"LFOK AVISO","vsmr_group_ids":[],"geometry_role":"filled_region"},"geometry":{"type":"Polygon","coordinates":[[[4.207998611,48.778269444],[4.2081425,48.778748333],[4.2075,48.778825556],[4.207354167,48.778351944],[4.207998611,48.778269444]]]}},{"type":"Feature","id":"LFOK-4aa920d67348da473021","properties":{"airport":"LFOK","name":"LFOK AVISO","layer":"Surface markings","category":"Stopbars","object_type":"Area","style_id":"polygon.stopbar.7e0000","source_group":"LFOK AVISO","vsmr_group_ids":[],"geometry_role":"filled_region"},"geometry":{"type":"Polygon","coordinates":[[[4.174458333,48.7783275],[4.174449167,48.778305556],[4.174823333,48.778261667],[4.174827222,48.7782825],[4.174458333,48.7783275]]]}},{"type":"Feature","id":"LFOK-516ebe53e9073f999ac9","properties":{"airport":"LFOK","name":"LFOK AVISO","layer":"Surface markings","category":"Stopbars","object_type":"Area","style_id":"polygon.stopbar.7e0000","source_group":"LFOK AVISO","vsmr_group_ids":[],"geometry_role":"filled_region"},"geometry":{"type":"Polygon","coordinates":[[[4.188776667,48.776586944],[4.188808889,48.776591667],[4.188734444,48.776786944],[4.188702222,48.776783056],[4.188776667,48.776586944]]]}},{"type":"Feature","id":"LFOK-188e078dd563c4ca5759","properties":{"airport":"LFOK","name":"LFOK AVISO","layer":"Surface markings","category":"Stopbars","object_type":"Area","style_id":"polygon.stopbar.7e0000","source_group":"LFOK AVISO","vsmr_group_ids":[],"geometry_role":"filled_region"},"geometry":{"type":"Polygon","coordinates":[[[4.206225278,48.774136944],[4.206587778,48.774086944],[4.206588889,48.774109722],[4.206236111,48.774158333],[4.206225278,48.774136944]]]}},{"type":"Feature","id":"LFOK-00d7035f9b32d7871e3e","properties":{"airport":"LFOK","name":"LFOK AVISO","layer":"Surface markings","category":"Stopbars","object_type":"Area","style_id":"polygon.stopbar.7e0000","source_group":"LFOK AVISO","vsmr_group_ids":[],"geometry_role":"filled_region"},"geometry":{"type":"Polygon","coordinates":[[[4.209954167,48.774202222],[4.2103425,48.774153611],[4.2103475,48.774175556],[4.209954167,48.774229167],[4.209954167,48.774202222]]]}},{"type":"Feature","id":"LFOK-747d4919cd722d52d572","properties":{"airport":"LFOK","name":"LFOK AVISO","layer":"Airfield surfaces","category":"Taxiway Orange","object_type":"Area","style_id":"polygon.taxiwayorange.cc6d00","source_group":"LFOK AVISO","vsmr_group_ids":[],"geometry_role":"filled_region"},"geometry":{"type":"Polygon","coordinates":[[[4.174638333,48.778833056],[4.175018056,48.778787778],[4.175030833,48.778808611],[4.174646667,48.7788575],[4.174638333,48.778833056]]]}},{"type":"Feature","id":"LFOK-2b43e5c2a985e56022e6","properties":{"airport":"LFOK","name":"W1","layer":"Labels","category":"Gates","object_type":"Label","style_id":"label.gates","source_group":"LFOK Gates","vsmr_group_ids":[],"geometry_role":"text_label","text-field":"W1"},"geometry":{"type":"Point","coordinates":[4.189526389,48.779951944]}},{"type":"Feature","id":"LFOK-c08dfa83e5c6c85ae010","properties":{"airport":"LFOK","name":"W2","layer":"Labels","category":"Gates","object_type":"Label","style_id":"label.gates","source_group":"LFOK Gates","vsmr_group_ids":[],"geometry_role":"text_label","text-field":"W2"},"geometry":{"type":"Point","coordinates":[4.187922222,48.779220556]}},{"type":"Feature","id":"LFOK-c7a3cfb16f58fadbcd68","properties":{"airport":"LFOK","name":"W3","layer":"Labels","category":"Gates","object_type":"Label","style_id":"label.gates","source_group":"LFOK Gates","vsmr_group_ids":[],"geometry_role":"text_label","text-field":"W3"},"geometry":{"type":"Point","coordinates":[4.188611389,48.780055278]}},{"type":"Feature","id":"LFOK-dc0f31f353c17ba16ba0","properties":{"airport":"LFOK","name":"W4","layer":"Labels","category":"Gates","object_type":"Label","style_id":"label.gates","source_group":"LFOK Gates","vsmr_group_ids":[],"geometry_role":"text_label","text-field":"W4"},"geometry":{"type":"Point","coordinates":[4.187803333,48.7801425]}},{"type":"Feature","id":"LFOK-8a8d04b95b9645b43efd","properties":{"airport":"LFOK","name":"W5","layer":"Labels","category":"Gates","object_type":"Label","style_id":"label.gates","source_group":"LFOK Gates","vsmr_group_ids":[],"geometry_role":"text_label","text-field":"W5"},"geometry":{"type":"Point","coordinates":[4.187007222,48.780261944]}},{"type":"Feature","id":"LFOK-ca118a1f4c8d5befe545","properties":{"airport":"LFOK","name":"E1E","layer":"Labels","category":"Gates","object_type":"Label","style_id":"label.gates","source_group":"LFOK Gates","vsmr_group_ids":[],"geometry_role":"text_label","text-field":"E1E"},"geometry":{"type":"Point","coordinates":[4.192687222,48.779435278]}},{"type":"Feature","id":"LFOK-449cca1d26bb36834f2c","properties":{"airport":"LFOK","name":"E1W","layer":"Labels","category":"Gates","object_type":"Label","style_id":"label.gates","source_group":"LFOK Gates","vsmr_group_ids":[],"geometry_role":"text_label","text-field":"E1W"},"geometry":{"type":"Point","coordinates":[4.192093056,48.779530556]}},{"type":"Feature","id":"LFOK-3ba09c21ab03952e1dd7","properties":{"airport":"LFOK","name":"E2E","layer":"Labels","category":"Gates","object_type":"Label","style_id":"label.gates","source_group":"LFOK Gates","vsmr_group_ids":[],"geometry_role":"text_label","text-field":"E2E"},"geometry":{"type":"Point","coordinates":[4.192604167,48.779133056]}},{"type":"Feature","id":"LFOK-33841409abde9f35a23c","properties":{"airport":"LFOK","name":"E2W","layer":"Labels","category":"Gates","object_type":"Label","style_id":"label.gates","source_group":"LFOK Gates","vsmr_group_ids":[],"geometry_role":"text_label","text-field":"E2W"},"geometry":{"type":"Point","coordinates":[4.19201,48.779236389]}},{"type":"Feature","id":"LFOK-c5e09f7ca8701063285a","properties":{"airport":"LFOK","name":"E3E","layer":"Labels","category":"Gates","object_type":"Label","style_id":"label.gates","source_group":"LFOK Gates","vsmr_group_ids":[],"geometry_role":"text_label","text-field":"E3E"},"geometry":{"type":"Point","coordinates":[4.192520833,48.778862778]}},{"type":"Feature","id":"LFOK-847aceb364d76b034d96","properties":{"airport":"LFOK","name":"E3W","layer":"Labels","category":"Gates","object_type":"Label","style_id":"label.gates","source_group":"LFOK Gates","vsmr_group_ids":[],"geometry_role":"text_label","text-field":"E3W"},"geometry":{"type":"Point","coordinates":[4.191938611,48.778958333]}},{"type":"Feature","id":"LFOK-f0411ceb7f81eb601707","properties":{"airport":"LFOK","name":"E4E","layer":"Labels","category":"Gates","object_type":"Label","style_id":"label.gates","source_group":"LFOK Gates","vsmr_group_ids":[],"geometry_role":"text_label","text-field":"E4E"},"geometry":{"type":"Point","coordinates":[4.192437778,48.778576667]}},{"type":"Feature","id":"LFOK-8c2b458d71da49a9057c","properties":{"airport":"LFOK","name":"E4W","layer":"Labels","category":"Gates","object_type":"Label","style_id":"label.gates","source_group":"LFOK Gates","vsmr_group_ids":[],"geometry_role":"text_label","text-field":"E4W"},"geometry":{"type":"Point","coordinates":[4.191831667,48.778671944]}},{"type":"Feature","id":"LFOK-7ba515ee63627b09de84","properties":{"airport":"LFOK","name":"E5A","layer":"Labels","category":"Gates","object_type":"Label","style_id":"label.gates","source_group":"LFOK Gates","vsmr_group_ids":[],"geometry_role":"text_label","text-field":"E5A"},"geometry":{"type":"Point","coordinates":[4.193709167,48.778815]}},{"type":"Feature","id":"LFOK-8df56dc72916f7b2d3d0","properties":{"airport":"LFOK","name":"E5","layer":"Labels","category":"Gates","object_type":"Label","style_id":"label.gates","source_group":"LFOK Gates","vsmr_group_ids":[],"geometry_role":"text_label","text-field":"E5"},"geometry":{"type":"Point","coordinates":[4.193673611,48.779411389]}},{"type":"Feature","id":"LFOK-ce40e55f36faca5fba41","properties":{"airport":"LFOK","name":"E6A","layer":"Labels","category":"Gates","object_type":"Label","style_id":"label.gates","source_group":"LFOK Gates","vsmr_group_ids":[],"geometry_role":"text_label","text-field":"E6A"},"geometry":{"type":"Point","coordinates":[4.194267778,48.779323889]}},{"type":"Feature","id":"LFOK-cb00e062f3630369e91c","properties":{"airport":"LFOK","name":"E6","layer":"Labels","category":"Gates","object_type":"Label","style_id":"label.gates","source_group":"LFOK Gates","vsmr_group_ids":[],"geometry_role":"text_label","text-field":"E6"},"geometry":{"type":"Point","coordinates":[4.194621944,48.779278611]}},{"type":"Feature","id":"LFOK-4f23204c090697180217","properties":{"airport":"LFOK","name":"E6B","layer":"Labels","category":"Gates","object_type":"Label","style_id":"label.gates","source_group":"LFOK Gates","vsmr_group_ids":[],"geometry_role":"text_label","text-field":"E6B"},"geometry":{"type":"Point","coordinates":[4.194935556,48.779234167]}},{"type":"Feature","id":"LFOK-d1b1fbe5f33c2c07dfad","properties":{"airport":"LFOK","name":"E7A","layer":"Labels","category":"Gates","object_type":"Label","style_id":"label.gates","source_group":"LFOK Gates","vsmr_group_ids":[],"geometry_role":"text_label","text-field":"E7A"},"geometry":{"type":"Point","coordinates":[4.195372778,48.779176944]}},{"type":"Feature","id":"LFOK-f59e2798bb8f22d0f7ad","properties":{"airport":"LFOK","name":"E7","layer":"Labels","category":"Gates","object_type":"Label","style_id":"label.gates","source_group":"LFOK Gates","vsmr_group_ids":[],"geometry_role":"text_label","text-field":"E7"},"geometry":{"type":"Point","coordinates":[4.1957625,48.779125833]}},{"type":"Feature","id":"LFOK-0ad799c5c12524bce179","properties":{"airport":"LFOK","name":"E7B","layer":"Labels","category":"Gates","object_type":"Label","style_id":"label.gates","source_group":"LFOK Gates","vsmr_group_ids":[],"geometry_role":"text_label","text-field":"E7B"},"geometry":{"type":"Point","coordinates":[4.196161944,48.779068611]}},{"type":"Feature","id":"LFOK-92004fdc699b3c008240","properties":{"airport":"LFOK","name":"E8","layer":"Labels","category":"Gates","object_type":"Label","style_id":"label.gates","source_group":"LFOK Gates","vsmr_group_ids":[],"geometry_role":"text_label","text-field":"E8"},"geometry":{"type":"Point","coordinates":[4.196789167,48.7789925]}},{"type":"Feature","id":"LFOK-c8be5131b164f8817a65","properties":{"airport":"LFOK","name":"E9","layer":"Labels","category":"Gates","object_type":"Label","style_id":"label.gates","source_group":"LFOK Gates","vsmr_group_ids":[],"geometry_role":"text_label","text-field":"E9"},"geometry":{"type":"Point","coordinates":[4.197773333,48.778862778]}},{"type":"Feature","id":"LFOK-dbc9e0e0b01770f5dabf","properties":{"airport":"LFOK","name":"E10","layer":"Labels","category":"Gates","object_type":"Label","style_id":"label.gates","source_group":"LFOK Gates","vsmr_group_ids":[],"geometry_role":"text_label","text-field":"E10"},"geometry":{"type":"Point","coordinates":[4.196264167,48.778211111]}},{"type":"Feature","id":"LFOK-15789497e1e9881e43c1","properties":{"airport":"LFOK","name":"M1","layer":"Labels","category":"Gates","object_type":"Label","style_id":"label.gates","source_group":"LFOK Gates","vsmr_group_ids":[],"geometry_role":"text_label","text-field":"M1"},"geometry":{"type":"Point","coordinates":[4.207784444,48.778076389]}},{"type":"Feature","id":"LFOK-14ae713bb436b4a8f171","properties":{"airport":"LFOK","name":"S","layer":"Labels","category":"Gates","object_type":"Label","style_id":"label.gates","source_group":"LFOK Gates","vsmr_group_ids":[],"geometry_role":"text_label","text-field":"S"},"geometry":{"type":"Point","coordinates":[4.180913611,48.779749722]}},{"type":"Feature","id":"LFOK-8c112ffc3a8e3e04ee1b","properties":{"airport":"LFOK","name":"TERMINAL","layer":"Labels","category":"Gates","object_type":"Label","style_id":"label.gates","source_group":"LFOK Gates","vsmr_group_ids":[],"geometry_role":"text_label","text-field":"TERMINAL"},"geometry":{"type":"Point","coordinates":[4.1891925,48.780631944]}},{"type":"Feature","id":"LFOK-8bafd063c2c3fe8a82bc","properties":{"airport":"LFOK","name":"FRET 1","layer":"Labels","category":"Gates","object_type":"Label","style_id":"label.gates","source_group":"LFOK Gates","vsmr_group_ids":[],"geometry_role":"text_label","text-field":"FRET 1"},"geometry":{"type":"Point","coordinates":[4.192781111,48.780131111]}},{"type":"Feature","id":"LFOK-8c965c8b512df0932e64","properties":{"airport":"LFOK","name":"FRET 2","layer":"Labels","category":"Gates","object_type":"Label","style_id":"label.gates","source_group":"LFOK Gates","vsmr_group_ids":[],"geometry_role":"text_label","text-field":"FRET 2"},"geometry":{"type":"Point","coordinates":[4.194373611,48.779956389]}},{"type":"Feature","id":"LFOK-72f973d9943517389d5b","properties":{"airport":"LFOK","name":"LFOK Groundlayout AVISO","layer":"Guidance lines","category":"Runway Border","object_type":"Line","style_id":"line.runwayborder.808080","source_group":"LFOK Groundlayout AVISO","vsmr_group_ids":[],"geometry_role":"linework"},"geometry":{"type":"MultiLineString","coordinates":[[[4.158651667,48.779570556],[4.158921111,48.779535833]],[[4.158923611,48.7795525],[4.159053611,48.779515278],[4.158913333,48.779516667]],[[4.159320278,48.779481389],[4.159589444,48.779446389]],[[4.159591389,48.779464167],[4.159722778,48.779429444],[4.1595825,48.779428333]],[[4.159960556,48.779608611],[4.159839722,48.779203889]],[[4.208410278,48.772836111],[4.208531944,48.773233611]],[[4.208803056,48.773009722],[4.208660556,48.773010556],[4.208790278,48.772972778]],[[4.208794444,48.772991944],[4.209064444,48.772958611]],[[4.209468333,48.772924167],[4.209323611,48.772924167],[4.209454167,48.772886389]],[[4.209459444,48.772906389],[4.209729444,48.772870833]]]}},{"type":"Feature","id":"LFOK-4d43b77b62d913706c70","properties":{"airport":"LFOK","name":"LFOK Groundlayout AVISO","layer":"Guidance lines","category":"Taxiways","object_type":"Line","style_id":"line.taxiway.c0b631","source_group":"LFOK Groundlayout AVISO","vsmr_group_ids":[],"geometry_role":"linework"},"geometry":{"type":"MultiLineString","coordinates":[[[4.1867625,48.779423056],[4.186989444,48.780170278]],[[4.187563056,48.779316389],[4.187786944,48.780062778]],[[4.187431389,48.779879444],[4.187489722,48.779816389]],[[4.187539722,48.779766944],[4.187597778,48.779705278]],[[4.187647778,48.779653056],[4.187706111,48.779594167]],[[4.187764444,48.779533889],[4.187820556,48.779480278]],[[4.187891111,48.779415],[4.187959722,48.779345278]],[[4.188362778,48.779214722],[4.188584722,48.779965]],[[4.189273889,48.779095],[4.189500556,48.779845556]],[[4.191987222,48.778645556],[4.192313056,48.778605833]],[[4.192068889,48.778926944],[4.192401944,48.778882222]],[[4.192155556,48.779206667],[4.192484167,48.779163611]],[[4.192236667,48.779491111],[4.192567222,48.779445556]],[[4.193416944,48.778583611],[4.193641389,48.779330833]],[[4.193170278,48.779343889],[4.193225278,48.779290278]],[[4.1932725,48.779240278],[4.193323611,48.779189167]],[[4.193380556,48.779134167],[4.193429722,48.779085556]],[[4.193486389,48.779028056],[4.193537778,48.778974444]],[[4.193586667,48.77893],[4.193641944,48.778876389]],[[4.194108611,48.778496389],[4.194131944,48.778576944]],[[4.194156667,48.778648889],[4.194179722,48.778733611]],[[4.1941975,48.778789444],[4.194218333,48.778862222]],[[4.194240556,48.778929444],[4.194256389,48.778989722]],[[4.194295,48.779103889],[4.194275833,48.779042778]],[[4.194310833,48.779166111],[4.194331944,48.779236667]],[[4.194395,48.778463333],[4.194613611,48.779200833]],[[4.194646111,48.778426389],[4.194667778,48.778501667]],[[4.194693056,48.778576667],[4.194716667,48.778660278]],[[4.194734722,48.778721111],[4.194756389,48.778798611]],[[4.19478,48.778861667],[4.194798056,48.778923889]],[[4.194812778,48.778978611],[4.194828889,48.779043056]],[[4.194843333,48.779096667],[4.194865278,48.779167222]],[[4.195243889,48.778345833],[4.195270833,48.778428611]],[[4.195290833,48.778501111],[4.195315556,48.778588333]],[[4.195338056,48.7786475],[4.195358333,48.778725833]],[[4.195376389,48.778790833],[4.195391944,48.778844167]],[[4.19541,48.778906389],[4.195425833,48.778965556]],[[4.195443889,48.779028611],[4.195463889,48.7790925]],[[4.195531667,48.778309722],[4.195758333,48.779055556]],[[4.195790833,48.778273889],[4.195811389,48.778351944]],[[4.195831667,48.77843],[4.195858333,48.778525556]],[[4.195876667,48.778584722],[4.195901389,48.778666667]],[[4.1959175,48.778721111],[4.195934167,48.778776667]],[[4.1959525,48.778832222],[4.195968889,48.778895]],[[4.195989167,48.778957778],[4.196005556,48.779020556]],[[4.196566944,48.778175833],[4.196778333,48.7789175]],[[4.197526944,48.778052778],[4.197757222,48.778796667]],[[4.196460833,48.778182778],[4.196557222,48.778221389]],[[4.196640556,48.778251111],[4.196746389,48.778293611]],[[4.196827778,48.778325833],[4.196956389,48.778376944]],[[4.197041389,48.778408333],[4.197155,48.778454444]],[[4.197243889,48.778485556],[4.197363056,48.778531667]],[[4.207883333,48.7780575],[4.208144167,48.778023889]]]}},{"type":"Feature","id":"LFOK-9a7c0ee4ead4e2b36491","properties":{"airport":"LFOK","name":"10","layer":"Labels","category":"Taxiways","object_type":"Label","style_id":"label.taxiways","source_group":"LFOK Taxiways","vsmr_group_ids":[],"geometry_role":"text_label","text-field":"10"},"geometry":{"type":"Point","coordinates":[4.160491111,48.779258333]}},{"type":"Feature","id":"LFOK-8b180004bb66ffb83842","properties":{"airport":"LFOK","name":"28","layer":"Labels","category":"Taxiways","object_type":"Label","style_id":"label.taxiways","source_group":"LFOK Taxiways","vsmr_group_ids":[],"geometry_role":"text_label","text-field":"28"},"geometry":{"type":"Point","coordinates":[4.207654167,48.773160833]}},{"type":"Feature","id":"LFOK-4261b7c30a0a9ff3aac5","properties":{"airport":"LFOK","name":"A2","layer":"Labels","category":"Taxiways","object_type":"Label","style_id":"label.taxiways","source_group":"LFOK Taxiways","vsmr_group_ids":[],"geometry_role":"text_label","text-field":"A2"},"geometry":{"type":"Point","coordinates":[4.175485556,48.778171944]}},{"type":"Feature","id":"LFOK-ef0dc79ed5d5342978c7","properties":{"airport":"LFOK","name":"A3","layer":"Labels","category":"Taxiways","object_type":"Label","style_id":"label.taxiways","source_group":"LFOK Taxiways","vsmr_group_ids":[],"geometry_role":"text_label","text-field":"A3"},"geometry":{"type":"Point","coordinates":[4.190001389,48.776384722]}},{"type":"Feature","id":"LFOK-795852a5f7a331fab382","properties":{"airport":"LFOK","name":"A4","layer":"Labels","category":"Taxiways","object_type":"Label","style_id":"label.taxiways","source_group":"LFOK Taxiways","vsmr_group_ids":[],"geometry_role":"text_label","text-field":"A4"},"geometry":{"type":"Point","coordinates":[4.205261389,48.7743875]}},{"type":"Feature","id":"LFOK-3ce86e54d06a21637508","properties":{"airport":"LFOK","name":"A5","layer":"Labels","category":"Taxiways","object_type":"Label","style_id":"label.taxiways","source_group":"LFOK Taxiways","vsmr_group_ids":[],"geometry_role":"text_label","text-field":"A5"},"geometry":{"type":"Point","coordinates":[4.208930278,48.774317222]}},{"type":"Feature","id":"LFOK-350df80082c2c1f8e8da","properties":{"airport":"LFOK","name":"B1","layer":"Labels","category":"Taxiways","object_type":"Label","style_id":"label.taxiways","source_group":"LFOK Taxiways","vsmr_group_ids":[],"geometry_role":"text_label","text-field":"B1"},"geometry":{"type":"Point","coordinates":[4.1786225,48.779468611]}},{"type":"Feature","id":"LFOK-131becbc4d7e55231a63","properties":{"airport":"LFOK","name":"B2","layer":"Labels","category":"Taxiways","object_type":"Label","style_id":"label.taxiways","source_group":"LFOK Taxiways","vsmr_group_ids":[],"geometry_role":"text_label","text-field":"B2"},"geometry":{"type":"Point","coordinates":[4.181493889,48.778977778]}},{"type":"Feature","id":"LFOK-6e9f9c1fb8688f9cd1d1","properties":{"airport":"LFOK","name":"B3","layer":"Labels","category":"Taxiways","object_type":"Label","style_id":"label.taxiways","source_group":"LFOK Taxiways","vsmr_group_ids":[],"geometry_role":"text_label","text-field":"B3"},"geometry":{"type":"Point","coordinates":[4.187449167,48.778171944]}},{"type":"Feature","id":"LFOK-755bf1126293a1bdf760","properties":{"airport":"LFOK","name":"B4","layer":"Labels","category":"Taxiways","object_type":"Label","style_id":"label.taxiways","source_group":"LFOK Taxiways","vsmr_group_ids":[],"geometry_role":"text_label","text-field":"B4"},"geometry":{"type":"Point","coordinates":[4.191862222,48.777646389]}},{"type":"Feature","id":"LFOK-b749eee2d792b221a48f","properties":{"airport":"LFOK","name":"T2","layer":"Labels","category":"Taxiways","object_type":"Label","style_id":"label.taxiways","source_group":"LFOK Taxiways","vsmr_group_ids":[],"geometry_role":"text_label","text-field":"T2"},"geometry":{"type":"Point","coordinates":[4.184365,48.778171944]}},{"type":"Feature","id":"LFOK-d2fd8eabd6f7f5e45279","properties":{"airport":"LFOK","name":"T3","layer":"Labels","category":"Taxiways","object_type":"Label","style_id":"label.taxiways","source_group":"LFOK Taxiways","vsmr_group_ids":[],"geometry_role":"text_label","text-field":"T3"},"geometry":{"type":"Point","coordinates":[4.1999975,48.776069444]}},{"type":"Feature","id":"LFOK-8e3377993b5086e9606d","properties":{"airport":"LFOK","name":"T4","layer":"Labels","category":"Taxiways","object_type":"Label","style_id":"label.taxiways","source_group":"LFOK Taxiways","vsmr_group_ids":[],"geometry_role":"text_label","text-field":"T4"},"geometry":{"type":"Point","coordinates":[4.208823889,48.774948056]}},{"type":"Feature","id":"LFOK-098d2d6aa5a4b2a7e90d","properties":{"airport":"LFOK","name":"M","layer":"Labels","category":"Taxiways","object_type":"Label","style_id":"label.taxiways","source_group":"LFOK Taxiways","vsmr_group_ids":[],"geometry_role":"text_label","text-field":"M"},"geometry":{"type":"Point","coordinates":[4.207707222,48.776700278]}},{"type":"Feature","id":"LFOK-0a6c2d1c049df30555ae","properties":{"airport":"LFOK","name":"E","layer":"Labels","category":"Taxiways","object_type":"Label","style_id":"label.taxiways","source_group":"LFOK Taxiways","vsmr_group_ids":[],"geometry_role":"text_label","text-field":"E"},"geometry":{"type":"Point","coordinates":[4.194814444,48.778012222]}},{"type":"Feature","id":"LFOK-3e4e4c54cbad1d98e48e","properties":{"airport":"LFOK","name":"EA","layer":"Labels","category":"Taxiways","object_type":"Label","style_id":"label.taxiways","source_group":"LFOK Taxiways","vsmr_group_ids":[],"geometry_role":"text_label","text-field":"EA"},"geometry":{"type":"Point","coordinates":[4.191736667,48.778425556]}},{"type":"Feature","id":"LFOK-f98ee24e0f8b1c567816","properties":{"airport":"LFOK","name":"EB","layer":"Labels","category":"Taxiways","object_type":"Label","style_id":"label.taxiways","source_group":"LFOK Taxiways","vsmr_group_ids":[],"geometry_role":"text_label","text-field":"EB"},"geometry":{"type":"Point","coordinates":[4.192818056,48.778695833]}},{"type":"Feature","id":"LFOK-3bd3e6bb84732ee39655","properties":{"airport":"LFOK","name":"W","layer":"Labels","category":"Taxiways","object_type":"Label","style_id":"label.taxiways","source_group":"LFOK Taxiways","vsmr_group_ids":[],"geometry_role":"text_label","text-field":"W"},"geometry":{"type":"Point","coordinates":[4.18777,48.778865556]}}]}
