{"type":"FeatureCollection","name":"LFOP AVISO","bbox":[1.165237210968506,49.37712818758597,1.197670964921391,49.39396493021602],"metadata":{"schema":"vSMR AVISO","schema_version":2,"geometry_mode":"shared","airport":"LFOP","coordinate_reference_system":"WGS84","coordinate_order":"longitude, latitude","default_color_palette":"dark","color_palettes":["dark","light"],"background_colors":{"dark":"#434A4F","light":"#434A4F"},"runways":[{"ends":["05","23"],"headings":[42,222],"thresholds":[[1.186413889,49.384782778],[1.193410833,49.389541944]]},{"ends":["04","22"],"headings":[40,220],"thresholds":[[1.168449722,49.379468889],[1.183935833,49.390952778]]}],"saved_active_runways":[],"saved_active_airport_modes":[],"airport_reference":[1.183888889,49.390832778],"feature_count":55,"style_count":13,"layer_counts":{"Airfield surfaces":11,"Buildings and structures":12,"Guidance lines":4,"Labels":23,"Operational restrictions":1,"Surface markings":3,"Terrain":1},"category_counts":{"Buildings":12,"Danger Area":1,"Gates":9,"Grass":1,"Grass runways":1,"Hard Surface 2":3,"Hard Surface 3":5,"Hard Surface 4":1,"Runways":1,"Stopbars":3,"Taxiways":18},"geometry_source":"local GNG/KMZ","geometry_source_url":"","geometry_license":"GPL-3.0"},"styles":{"polygon.grassurface.00512f":{"name":"Grass","layer":"Terrain","object_type":"Area","paint":{"fill":"#010D19","fill-opacity":1,"palette-overrides":{"light":{"fill":"#00512F"}}},"feature_count":1},"polygon.terrain1.574242":{"name":"Terrain 1","layer":"Terrain","object_type":"Area","paint":{"fill":"#574242","fill-opacity":1,"palette-overrides":{"light":{"fill":"#574242"}}},"feature_count":0},"polygon.hardsurface3.8a807f":{"name":"Hard Surface 3","layer":"Airfield surfaces","object_type":"Area","paint":{"fill":"#222D3C","fill-opacity":1,"palette-overrides":{"light":{"fill":"#8A807F"}}},"feature_count":5},"polygon.hardsurface2.595e5b":{"name":"Hard Surface 2","layer":"Airfield surfaces","object_type":"Area","paint":{"fill":"#2F3949","fill-opacity":1,"palette-overrides":{"light":{"fill":"#595E5B"}}},"feature_count":3},"polygon.runwayconcrete.555555":{"name":"Runways","layer":"Airfield surfaces","object_type":"Area","paint":{"fill":"#111318","fill-opacity":1,"palette-overrides":{"light":{"fill":"#555555"}}},"feature_count":1},"polygon.runwaygrass.008000":{"name":"Grass runways","layer":"Airfield surfaces","object_type":"Area","paint":{"fill":"#859A77","fill-opacity":1,"palette-overrides":{"light":{"fill":"#008000"}}},"feature_count":1},"polygon.hardsurface4.969393":{"name":"Hard Surface 4","layer":"Airfield surfaces","object_type":"Area","paint":{"fill":"#152841","fill-opacity":1,"palette-overrides":{"light":{"fill":"#969393"}}},"feature_count":1},"polygon.building.394446":{"name":"Buildings","layer":"Buildings and structures","object_type":"Area","paint":{"fill":"#475570","fill-opacity":1,"palette-overrides":{"light":{"fill":"#394446"}}},"feature_count":12},"polygon.stopbar.7e0000":{"name":"Stopbars","layer":"Surface markings","object_type":"Area","paint":{"fill":"#7E0000","fill-opacity":1,"palette-overrides":{"light":{"fill":"#7E0000"}}},"feature_count":3},"line.taxiway.c0b631":{"name":"Taxiways","layer":"Guidance lines","object_type":"Line","paint":{"stroke":"#4E5A69","stroke-opacity":1,"stroke-width":1,"palette-overrides":{"light":{"stroke":"#C0B631"}}},"feature_count":4},"label.gates":{"name":"Gates","layer":"Labels","object_type":"Label","paint":{"text-color":"#CCCCCC","text-font":"Arial","text-size":12,"text-halo-color":"#000000","text-halo-width":1,"text-anchor":"center","zoomLevel":9},"feature_count":9},"label.taxiways":{"name":"Taxiways","layer":"Labels","object_type":"Label","paint":{"text-color":"#CCCCCC","text-font":"Arial","text-size":12,"text-halo-color":"#000000","text-halo-width":1,"text-anchor":"center","zoomLevel":7},"feature_count":14},"polygon.dangerarea.280908":{"name":"Danger Area","layer":"Operational restrictions","object_type":"Area","paint":{"fill":"#280908","fill-opacity":1,"palette-overrides":{"light":{"fill":"#280908"}}},"feature_count":1}},"vsmr_groups":[],"features":[{"type":"Feature","id":"LFOP-433b72028bfa4305ca59","properties":{"airport":"LFOP","name":"COLOR_GrasSurface","layer":"Terrain","category":"Grass","object_type":"Area","style_id":"polygon.grassurface.00512f","source_group":"COLOR_GrasSurface","vsmr_group_ids":[],"geometry_role":"filled_region"},"geometry":{"type":"Polygon","coordinates":[[[1.180983428466917,49.3938645005762],[1.178162093055402,49.39156792935223],[1.17879756634705,49.39047131665913],[1.177663048063731,49.38965032671859],[1.178278146656351,49.38925435443434],[1.173237062466168,49.38563213819852],[1.172488981290523,49.38560122581118],[1.172063854841359,49.38533593692669],[1.171754622159598,49.38509372974292],[1.171600190575157,49.38468007253246],[1.171690633278324,49.38443193764463],[1.172775873179308,49.38374099103787],[1.165389814290685,49.378304456514],[1.165237210968506,49.37802665869105],[1.165305904254785,49.37767551580073],[1.165563409278869,49.37736476458873],[1.165933854123409,49.37718858983742],[1.166432448961305,49.37712818758597],[1.166753797448026,49.37713217150185],[1.17263701444166,49.38134335508278],[1.173819657133397,49.38189082568562],[1.175386296800032,49.383469346197],[1.176283016328143,49.38292510323878],[1.176822538234614,49.38286532625038],[1.177126809203755,49.38292340681461],[1.177314217190224,49.38285323835323],[1.18025404044084,49.3849765681949],[1.180466336627171,49.38479425854968],[1.180555928399192,49.38419090291926],[1.180857567910081,49.38404789789084],[1.180929984410117,49.38372602262025],[1.182396740670866,49.38288130646735],[1.183542979732992,49.38376975514061],[1.184799613468042,49.3830221678347],[1.184958262861964,49.38314735610039],[1.185232514134036,49.38301572235176],[1.187266715896831,49.38434232710406],[1.189063259282248,49.3834166006544],[1.19638587784352,49.3873418830999],[1.196555522668727,49.38723457272628],[1.196700956038494,49.38728504198175],[1.196899756285799,49.38749011998171],[1.196812587816436,49.38777097362244],[1.19720048231218,49.38793817469983],[1.197355847945898,49.38833169148164],[1.197670964921391,49.38883244336024],[1.196038398712371,49.38945329666922],[1.196922496681025,49.3905048505594],[1.191307256391179,49.39260406868204],[1.190823896011777,49.39220958471548],[1.189999879798094,49.39268808545516],[1.19035837943579,49.39297558218173],[1.187711251737089,49.39396493021602],[1.186125188651641,49.39276852631907],[1.180983428466917,49.3938645005762]]]}},{"type":"Feature","id":"LFOP-da267d4879b21f20495a","properties":{"airport":"LFOP","name":"COLOR_DangerArea","layer":"Operational restrictions","category":"Danger Area","object_type":"Area","style_id":"polygon.dangerarea.280908","source_group":"COLOR_DangerArea","vsmr_group_ids":[],"geometry_role":"filled_region"},"geometry":{"type":"Polygon","coordinates":[[[1.17780936502188,49.38668364819973],[1.178251685072627,49.3870196173453],[1.178176182195556,49.3870250868527],[1.178097774775659,49.38701772582482],[1.178012384138618,49.38702520586169],[1.177916797501593,49.38704535553244],[1.177827387989638,49.38707837646404],[1.17662405304543,49.38779283407816],[1.176293280226255,49.38756551936462],[1.176544063704819,49.38742630026105],[1.176898937591895,49.38743847326171],[1.177686470955097,49.38698565651774],[1.17775152394739,49.38694488467888],[1.177797302743804,49.38688049082205],[1.177819064573862,49.38681839763281],[1.177824940657042,49.3867535123508],[1.17780936502188,49.38668364819973]]]}},{"type":"Feature","id":"LFOP-41ae0c23c86d4d9b2be4","properties":{"airport":"LFOP","name":"COLOR_HardSurface3","layer":"Airfield surfaces","category":"Hard Surface 3","object_type":"Area","style_id":"polygon.hardsurface3.8a807f","source_group":"COLOR_HardSurface3","vsmr_group_ids":[],"geometry_role":"filled_region"},"geometry":{"type":"Polygon","coordinates":[[[1.185984032653971,49.38878138482589],[1.18592726880379,49.38870048894164],[1.185863783178793,49.38864969813954],[1.185687510394504,49.38851731861834],[1.185703803621672,49.3881943262041],[1.18568428857893,49.38814613966489],[1.185336790375857,49.38835254309603],[1.18362447692101,49.3870818223365],[1.183992213587548,49.38687447416983],[1.185150421657659,49.38765877367859],[1.185562448606738,49.38740353056565],[1.186254102879694,49.38782372017307],[1.185998023013042,49.38797902291152],[1.186445930188511,49.38830682278094],[1.186552076671714,49.38839212733176],[1.186769506936227,49.3889786168363],[1.187138610411611,49.38925196393058],[1.187997920565864,49.38945092839948],[1.188126515085517,49.38955266998583],[1.187783378362162,49.389761107374],[1.187653762187009,49.38981729576651],[1.187545939638719,49.38982014158878],[1.187426762482635,49.38980124736534],[1.186226800316843,49.38952522667891],[1.185984032653971,49.38878138482589]]]}},{"type":"Feature","id":"LFOP-d2acd708c408e0a8e8a9","properties":{"airport":"LFOP","name":"COLOR_HardSurface3","layer":"Airfield surfaces","category":"Hard Surface 3","object_type":"Area","style_id":"polygon.hardsurface3.8a807f","source_group":"COLOR_HardSurface3","vsmr_group_ids":[],"geometry_role":"filled_region"},"geometry":{"type":"Polygon","coordinates":[[[1.183722717240689,49.3866651452891],[1.18327843805349,49.38637019452946],[1.183006289937107,49.3862062228055],[1.18301438558494,49.38615797564547],[1.183093710939924,49.38611130348581],[1.183148149372466,49.38614446896003],[1.183221802602441,49.38609033727542],[1.183201669899356,49.38605359151315],[1.183156028830912,49.38601142087081],[1.183053353254111,49.38591976405265],[1.183964817295253,49.38538405599062],[1.18430959641143,49.38565705494349],[1.184171330152128,49.385747375355],[1.184695732528691,49.38611952161495],[1.183722717240689,49.3866651452891]]]}},{"type":"Feature","id":"LFOP-19376ee0fb6f4f82f9b5","properties":{"airport":"LFOP","name":"COLOR_HardSurface3","layer":"Airfield surfaces","category":"Hard Surface 3","object_type":"Area","style_id":"polygon.hardsurface3.8a807f","source_group":"COLOR_HardSurface3","vsmr_group_ids":[],"geometry_role":"filled_region"},"geometry":{"type":"Polygon","coordinates":[[[1.182111609868117,49.38403041464472],[1.182769428039612,49.38451109487183],[1.182492308839544,49.38467835051459],[1.182567767699585,49.38473446082748],[1.181910569570288,49.38508157495211],[1.181651320276196,49.38490422781376],[1.181567253158788,49.3849304744176],[1.181439874737478,49.38483187944222],[1.181455692192244,49.38476931097229],[1.18142014348023,49.38472371420774],[1.181167592211931,49.38455780028145],[1.182111609868117,49.38403041464472]]]}},{"type":"Feature","id":"LFOP-dee960106083473178c5","properties":{"airport":"LFOP","name":"COLOR_HardSurface3","layer":"Airfield surfaces","category":"Hard Surface 3","object_type":"Area","style_id":"polygon.hardsurface3.8a807f","source_group":"COLOR_HardSurface3","vsmr_group_ids":[],"geometry_role":"filled_region"},"geometry":{"type":"Polygon","coordinates":[[[1.194719183655677,49.38930591156059],[1.194877179481999,49.3892325835013],[1.194926438470068,49.3892602653617],[1.194966739905037,49.38928066250653],[1.195022707620779,49.38928940085214],[1.19521520443151,49.38920486520787],[1.195582467072009,49.38964780703479],[1.195640676491114,49.38966819965412],[1.195685443978971,49.3896579950754],[1.195810825177634,49.38980077615673],[1.195345261430301,49.38996565216184],[1.194719183655677,49.38930591156059]]]}},{"type":"Feature","id":"LFOP-a6cb8dbba9eeae82100a","properties":{"airport":"LFOP","name":"COLOR_HardSurface3","layer":"Airfield surfaces","category":"Hard Surface 3","object_type":"Area","style_id":"polygon.hardsurface3.8a807f","source_group":"COLOR_HardSurface3","vsmr_group_ids":[],"geometry_role":"filled_region"},"geometry":{"type":"Polygon","coordinates":[[[1.195932054122817,49.38859104161241],[1.195762080782934,49.38838976267348],[1.196570328021291,49.38807528905159],[1.196052154878497,49.38759388431131],[1.196404532859712,49.38745311315341],[1.196534865432686,49.38757457358221],[1.196324676012177,49.38770375752349],[1.197013577404249,49.38842123058773],[1.196903755683851,49.38846285396746],[1.196742059700369,49.38829640526873],[1.196132069382592,49.38854686626552],[1.196256847497892,49.38869921599858],[1.196102561202372,49.38875402574905],[1.195932054122817,49.38859104161241]]]}},{"type":"Feature","id":"LFOP-d1876842da0241c80d26","properties":{"airport":"LFOP","name":"COLOR_HardSurface2","layer":"Airfield surfaces","category":"Hard Surface 2","object_type":"Area","style_id":"polygon.hardsurface2.595e5b","source_group":"COLOR_HardSurface2","vsmr_group_ids":[],"geometry_role":"filled_region"},"geometry":{"type":"Polygon","coordinates":[[[1.184164752658918,49.39079345774206],[1.183703449693712,49.39045298359366],[1.184174719505606,49.39051206451916],[1.184284421987885,49.39051685636182],[1.184342253058777,49.39050418925348],[1.185330987344722,49.38994337893844],[1.185823803768971,49.38964233706105],[1.185864823592089,49.38961193038903],[1.185892890619411,49.38957653398534],[1.185673058585255,49.38887596210664],[1.185579556581855,49.38880182334961],[1.182792354540589,49.38674562174054],[1.180991288072304,49.38539553023891],[1.180931570085868,49.38538179664541],[1.180862302549921,49.38536654753592],[1.180809850482252,49.38536519968717],[1.180668228981065,49.3852586848184],[1.18143004366668,49.38482972348797],[1.181570379967101,49.38492948513711],[1.181110687075209,49.3852083220248],[1.181103706111442,49.38524656296101],[1.181111561936372,49.38530225862246],[1.182644015215886,49.3864059838643],[1.182697682570126,49.38640717414395],[1.182742532059229,49.38638325096464],[1.182968741646651,49.38624264701892],[1.18300488958883,49.38620617622675],[1.183013020201233,49.38615724232146],[1.183308816033362,49.38634609071441],[1.183259596176272,49.38636165399569],[1.183190840956794,49.38635354356225],[1.183124256632959,49.38634821880413],[1.182904382652517,49.38647761860541],[1.182864005256989,49.38652108384882],[1.182879572357018,49.38657969573498],[1.182985563970085,49.38667084117168],[1.183593657324316,49.3870969184771],[1.183633069278016,49.38707577025851],[1.18534542709112,49.38834623903072],[1.185318801346831,49.38837890034336],[1.185338386950929,49.38841638796494],[1.185680234814326,49.38863584754696],[1.18568598051648,49.38850970220679],[1.185954264207922,49.3887090904655],[1.186000043896522,49.3887944943637],[1.186245569730067,49.38951872713066],[1.187504222576314,49.38980651135842],[1.187608146236212,49.38981961284455],[1.187704854996072,49.38980121294108],[1.188121166750942,49.38955407515663],[1.188288541888092,49.38969304170886],[1.187648544599287,49.39006719850022],[1.186296427822344,49.38977751956212],[1.186119603692786,49.38973768156071],[1.185940086886446,49.38977892191609],[1.184164752658918,49.39079345774206]]]}},{"type":"Feature","id":"LFOP-d649c8a8b42cbffa7239","properties":{"airport":"LFOP","name":"COLOR_HardSurface2","layer":"Airfield surfaces","category":"Hard Surface 2","object_type":"Area","style_id":"polygon.hardsurface2.595e5b","source_group":"COLOR_HardSurface2","vsmr_group_ids":[],"geometry_role":"filled_region"},"geometry":{"type":"Polygon","coordinates":[[[1.181903515678957,49.3870673488169],[1.180386877376751,49.38593869776184],[1.180227210509284,49.38588617866757],[1.180071888048291,49.38586285938738],[1.179917000162614,49.38588736184757],[1.179795107601249,49.38594893852252],[1.178808441678585,49.38650545774901],[1.178755967833196,49.38656677414834],[1.178756752017434,49.38664913676408],[1.178757232401126,49.38669961339328],[1.178796574188934,49.38676426454336],[1.178820761527166,49.3868237129569],[1.178209798326695,49.38637871038149],[1.17833008284544,49.38641168280661],[1.17849757368292,49.38642962085299],[1.178660683108266,49.38641570060754],[1.178766313976438,49.38636480107771],[1.179769007645572,49.38577368286435],[1.179806329984332,49.38572139801258],[1.179834623333536,49.38566262993263],[1.179837579681362,49.38559223138803],[1.179797137045882,49.38550558233653],[1.177033387153599,49.38345366038416],[1.1768835892216,49.38338545237032],[1.176767558791776,49.3833588088713],[1.176650715134706,49.38336306711571],[1.176542778137866,49.38338250940383],[1.176408977447718,49.38344960625265],[1.175391687506133,49.38404132609304],[1.175363031376844,49.38410230561758],[1.175360621310257,49.38415747557022],[1.175407645383832,49.38427263115829],[1.175425606298688,49.38430874080212],[1.174861573919206,49.38389587799228],[1.174938987830227,49.38391415609388],[1.175081072906852,49.3839436111455],[1.175221278369072,49.38393926551922],[1.175323210251666,49.38390273173241],[1.176250251171136,49.38334749881076],[1.176407409764675,49.38327840854625],[1.176529802208675,49.38324179278072],[1.17665530616736,49.38322608670367],[1.176795577681984,49.38322744601254],[1.176974075706485,49.38325529145833],[1.177167723250045,49.38334204241799],[1.179936653544575,49.38540914531611],[1.180038326607664,49.38543980858464],[1.180145822051291,49.38545492056096],[1.180239261647351,49.38545455954163],[1.180407889617419,49.38541379035137],[1.180593783699007,49.38530435274586],[1.180678287193169,49.38525274625889],[1.180819275873179,49.38536041192341],[1.180514487605075,49.38554539262054],[1.180481227255121,49.38560504836469],[1.180465775549526,49.38565557138434],[1.180450372893675,49.38571126881408],[1.180478862470493,49.38578361728616],[1.181795573482316,49.38678597175691],[1.181939069439633,49.38680347277921],[1.182038338789433,49.38678803977759],[1.182215499625834,49.38669555184008],[1.182381097847829,49.38660160306295],[1.182440888508252,49.38656675692424],[1.182458837263174,49.38650799408558],[1.182435353813649,49.3864689574077],[1.182703560366456,49.38667377883154],[1.182631440672739,49.38666070515037],[1.182563271413741,49.38668582859879],[1.182245992264908,49.38685019769981],[1.182169634724397,49.38691562389833],[1.18214949999953,49.38695744830466],[1.182155189706235,49.38701753642521],[1.182217376656425,49.38708408408228],[1.18563513309099,49.3896391800229],[1.185689179596241,49.38966279076248],[1.185749489149712,49.38966535549137],[1.185805829199378,49.38965248956615],[1.185351480025714,49.3899264925706],[1.185407247183146,49.38981705038825],[1.185424344581443,49.38971280686153],[1.1853251594182,49.38959558179185],[1.181903515678957,49.3870673488169]]]}},{"type":"Feature","id":"LFOP-dc8c62245bb8cbc6b789","properties":{"airport":"LFOP","name":"COLOR_HardSurface2","layer":"Airfield surfaces","category":"Hard Surface 2","object_type":"Area","style_id":"polygon.hardsurface2.595e5b","source_group":"COLOR_HardSurface2","vsmr_group_ids":[],"geometry_role":"filled_region"},"geometry":{"type":"Polygon","coordinates":[[[1.194200880182696,49.38907630478182],[1.194246152145875,49.38903318142014],[1.194223009573816,49.38896329078906],[1.194120531641736,49.38891391526762],[1.193952976346018,49.38888753200369],[1.193648297750625,49.38884578963674],[1.193441571343932,49.38881891981318],[1.193313125341937,49.38879078994416],[1.193162584625445,49.38870260628783],[1.187287793264542,49.38478922533208],[1.186878857065199,49.38449871290427],[1.186839668646769,49.38452872651697],[1.186712235002532,49.38444400846115],[1.186769051518404,49.38439342016996],[1.186823321983126,49.38437483877586],[1.19332897072906,49.38867593322924],[1.193399866456468,49.3887112842086],[1.193478962879879,49.38872456389257],[1.194213392341625,49.3888492796785],[1.194428262970455,49.38887898966183],[1.194553179988505,49.38887804449971],[1.195755750797998,49.38838270948856],[1.195817310443299,49.38847953278525],[1.194754397603994,49.38890439939374],[1.194712961452264,49.38899251533713],[1.19472068715698,49.38906223550585],[1.19488592072301,49.38923516087706],[1.194718389401714,49.38931225695746],[1.194558564059913,49.38912040621501],[1.194447214003098,49.38910322808177],[1.19432046249371,49.38911434874634],[1.193932356511658,49.38934499492815],[1.19385170758646,49.38928801789165],[1.194200880182696,49.38907630478182]]]}},{"type":"Feature","id":"LFOP-b17277439b7de6d04c70","properties":{"airport":"LFOP","name":"COLOR_RunwayConcrete","layer":"Airfield surfaces","category":"Runways","object_type":"Area","style_id":"polygon.runwayconcrete.555555","source_group":"COLOR_RunwayConcrete","vsmr_group_ids":[],"geometry_role":"filled_region"},"geometry":{"type":"Polygon","coordinates":[[[1.18420415562287,49.39081287806656],[1.183699413108086,49.39110392612852],[1.168797036882392,49.37998274005076],[1.168160161551219,49.37984132106644],[1.168143738151479,49.3797451338253],[1.168158379477711,49.37968271679056],[1.168224891590668,49.37960007719644],[1.168700926326018,49.37932218556201],[1.18420415562287,49.39081287806656]]]}},{"type":"Feature","id":"LFOP-de83279050692dd0ca50","properties":{"airport":"LFOP","name":"COLOR_RunwayGrass","layer":"Airfield surfaces","category":"Grass runways","object_type":"Area","style_id":"polygon.runwaygrass.008000","source_group":"COLOR_RunwayGrass","vsmr_group_ids":[],"geometry_role":"filled_region"},"geometry":{"type":"Polygon","coordinates":[[[1.193835845133928,49.39031556487047],[1.185279177526486,49.38447793638709],[1.18604705996612,49.38397994371172],[1.194631976716207,49.38981899371282],[1.193835845133928,49.39031556487047]]]}},{"type":"Feature","id":"LFOP-f557ca6f79c5a6d67a1c","properties":{"airport":"LFOP","name":"COLOR_HardSurface4","layer":"Airfield surfaces","category":"Hard Surface 4","object_type":"Area","style_id":"polygon.hardsurface4.969393","source_group":"COLOR_HardSurface4","vsmr_group_ids":[],"geometry_role":"filled_region"},"geometry":{"type":"Polygon","coordinates":[[[1.186005094781792,49.38797770511241],[1.186078424208743,49.38793042833633],[1.186642018649919,49.38834817919249],[1.186679636995698,49.38839815467291],[1.186692747677298,49.38844247627086],[1.186854441175609,49.38889406861951],[1.186869759987568,49.3889330588437],[1.186903843946303,49.38896291074418],[1.18717912381846,49.38916309249864],[1.187228576997112,49.38918744106443],[1.187314528170511,49.38921074964615],[1.188027644677796,49.38938269099916],[1.18808191206494,49.38939819443874],[1.188120096366061,49.38941795171111],[1.188402762011491,49.38963275333171],[1.188298947897306,49.38969400504292],[1.187999589105031,49.38945850310405],[1.187961961237709,49.38944501856471],[1.18721065992123,49.38926911241188],[1.187147061909053,49.3892540067994],[1.187109468542733,49.38923921903709],[1.186817697170071,49.38901812800376],[1.186780552671813,49.38898771271998],[1.186759263158961,49.3889627039352],[1.186569671621631,49.3884330828133],[1.18655973940738,49.38839408774458],[1.18650358377018,49.38834732731598],[1.186005094781792,49.38797770511241]]]}},{"type":"Feature","id":"LFOP-6d9ef8df5a3b9dd17cca","properties":{"airport":"LFOP","name":"COLOR_Building","layer":"Buildings and structures","category":"Buildings","object_type":"Area","style_id":"polygon.building.394446","source_group":"COLOR_Building","vsmr_group_ids":[],"geometry_role":"filled_region"},"geometry":{"type":"Polygon","coordinates":[[[1.181150542046532,49.38456642490898],[1.180843008378161,49.38435877469671],[1.181651812782392,49.38388920760121],[1.181974513191546,49.38413146422279],[1.181651761857847,49.38431929307239],[1.181617593187134,49.38429704637214],[1.181150542046532,49.38456642490898]]]}},{"type":"Feature","id":"LFOP-0123c13234a4c1e5e8c2","properties":{"airport":"LFOP","name":"COLOR_Building","layer":"Buildings and structures","category":"Buildings","object_type":"Area","style_id":"polygon.building.394446","source_group":"COLOR_Building","vsmr_group_ids":[],"geometry_role":"filled_region"},"geometry":{"type":"Polygon","coordinates":[[[1.18217049904819,49.38531578122413],[1.181880708902949,49.38510599704415],[1.182509012787729,49.38475244933255],[1.18278663846102,49.38495828122795],[1.18217049904819,49.38531578122413]]]}},{"type":"Feature","id":"LFOP-73ba0e4c1765618d9eb7","properties":{"airport":"LFOP","name":"COLOR_Building","layer":"Buildings and structures","category":"Buildings","object_type":"Area","style_id":"polygon.building.394446","source_group":"COLOR_Building","vsmr_group_ids":[],"geometry_role":"filled_region"},"geometry":{"type":"Polygon","coordinates":[[[1.182691302407048,49.38568256032716],[1.182506893595767,49.38554666836519],[1.182437984455313,49.3855836036623],[1.182360979943526,49.38552687278975],[1.182427861680295,49.38549389476056],[1.182243455460381,49.38534876703157],[1.182296151334006,49.38531578774342],[1.182354920617465,49.38534349557847],[1.182383294728246,49.38533030403281],[1.182474485758673,49.38538967535975],[1.182610269661275,49.38538704320504],[1.182671063366445,49.38543322032978],[1.182656865574883,49.38552820617754],[1.1827541368463,49.38559021507499],[1.182715629120072,49.38560736382662],[1.182758184788841,49.38564826305366],[1.182691302407048,49.38568256032716]]]}},{"type":"Feature","id":"LFOP-8f06719b703d7a5f7200","properties":{"airport":"LFOP","name":"COLOR_Building","layer":"Buildings and structures","category":"Buildings","object_type":"Area","style_id":"polygon.building.394446","source_group":"COLOR_Building","vsmr_group_ids":[],"geometry_role":"filled_region"},"geometry":{"type":"Polygon","coordinates":[[[1.18480359544459,49.3860378788851],[1.184819940078516,49.38605003482753],[1.184733556626445,49.38608802712474],[1.184385716344127,49.38582509912694],[1.184626194242302,49.3856837653091],[1.184985697657619,49.38593910126233],[1.18480359544459,49.3860378788851]]]}},{"type":"Feature","id":"LFOP-6985b0848857af43c27b","properties":{"airport":"LFOP","name":"COLOR_Building","layer":"Buildings and structures","category":"Buildings","object_type":"Area","style_id":"polygon.building.394446","source_group":"COLOR_Building","vsmr_group_ids":[],"geometry_role":"filled_region"},"geometry":{"type":"Polygon","coordinates":[[[1.184175585469667,49.38603481582723],[1.184444051503371,49.38623999405653],[1.184257275018352,49.38634636998883],[1.184000479687592,49.38614271717186],[1.184175585469667,49.38603481582723]]]}},{"type":"Feature","id":"LFOP-19053b40b715bf11c4ef","properties":{"airport":"LFOP","name":"COLOR_Building","layer":"Buildings and structures","category":"Buildings","object_type":"Area","style_id":"polygon.building.394446","source_group":"COLOR_Building","vsmr_group_ids":[],"geometry_role":"filled_region"},"geometry":{"type":"Polygon","coordinates":[[[1.183778697887468,49.38626096905729],[1.184057451143965,49.38646585994186],[1.183873096800294,49.38656829412685],[1.183598837353361,49.38636340206427],[1.183778697887468,49.38626096905729]]]}},{"type":"Feature","id":"LFOP-af0b35b3a2553808e8d3","properties":{"airport":"LFOP","name":"COLOR_Building","layer":"Buildings and structures","category":"Buildings","object_type":"Area","style_id":"polygon.building.394446","source_group":"COLOR_Building","vsmr_group_ids":[],"geometry_role":"filled_region"},"geometry":{"type":"Polygon","coordinates":[[[1.18575417683815,49.38729283934422],[1.186291381546527,49.38769647881916],[1.186084748095797,49.3878089139963],[1.185551233173197,49.3874127155152],[1.18575417683815,49.38729283934422]]]}},{"type":"Feature","id":"LFOP-d820305860d63e12e6f6","properties":{"airport":"LFOP","name":"COLOR_Building","layer":"Buildings and structures","category":"Buildings","object_type":"Area","style_id":"polygon.building.394446","source_group":"COLOR_Building","vsmr_group_ids":[],"geometry_role":"filled_region"},"geometry":{"type":"Polygon","coordinates":[[[1.186855331411474,49.3875540563465],[1.187144987432462,49.387743652392],[1.186624387300219,49.38804203162772],[1.186361450256981,49.38784272750964],[1.186855331411474,49.3875540563465]]]}},{"type":"Feature","id":"LFOP-688e5d967d80744ae155","properties":{"airport":"LFOP","name":"COLOR_Building","layer":"Buildings and structures","category":"Buildings","object_type":"Area","style_id":"polygon.building.394446","source_group":"COLOR_Building","vsmr_group_ids":[],"geometry_role":"filled_region"},"geometry":{"type":"Polygon","coordinates":[[[1.186984554839372,49.38889966511811],[1.186901673206835,49.388639647498],[1.187229338009246,49.38865528364184],[1.187636890585873,49.38895481427073],[1.187641385506968,49.38919216808381],[1.187242778274507,49.3890895864073],[1.18706440268125,49.38900258778782],[1.186984554839372,49.38889966511811]]]}},{"type":"Feature","id":"LFOP-39535a0479e5845ff3bf","properties":{"airport":"LFOP","name":"COLOR_Building","layer":"Buildings and structures","category":"Buildings","object_type":"Area","style_id":"polygon.building.394446","source_group":"COLOR_Building","vsmr_group_ids":[],"geometry_role":"filled_region"},"geometry":{"type":"Polygon","coordinates":[[[1.196744082431351,49.38749479804574],[1.196523733730586,49.3875757615779],[1.196412868117636,49.38745425474903],[1.196633293271765,49.38736814799268],[1.196744082431351,49.38749479804574]]]}},{"type":"Feature","id":"LFOP-e6571551f59f32be212e","properties":{"airport":"LFOP","name":"COLOR_Building","layer":"Buildings and structures","category":"Buildings","object_type":"Area","style_id":"polygon.building.394446","source_group":"COLOR_Building","vsmr_group_ids":[],"geometry_role":"filled_region"},"geometry":{"type":"Polygon","coordinates":[[[1.196762435566003,49.38771463326036],[1.196494463040174,49.38779986197157],[1.196378533469471,49.38767403571142],[1.196654458042901,49.38758120442204],[1.196762435566003,49.38771463326036]]]}},{"type":"Feature","id":"LFOP-75bbe753993e436592be","properties":{"airport":"LFOP","name":"COLOR_Building","layer":"Buildings and structures","category":"Buildings","object_type":"Area","style_id":"polygon.building.394446","source_group":"COLOR_Building","vsmr_group_ids":[],"geometry_role":"filled_region"},"geometry":{"type":"Polygon","coordinates":[[[1.197323304242746,49.38876912236741],[1.196347649651388,49.3891292053251],[1.196037537957424,49.38877368230723],[1.197003622867854,49.38841269211675],[1.197323304242746,49.38876912236741]]]}},{"type":"Feature","id":"LFOP-d55fd9dceea4c9290f11","properties":{"airport":"LFOP","name":"COLOR_Stopbar","layer":"Surface markings","category":"Stopbars","object_type":"Area","style_id":"polygon.stopbar.7e0000","source_group":"COLOR_Stopbar","vsmr_group_ids":[],"geometry_role":"filled_region"},"geometry":{"type":"Polygon","coordinates":[[[1.176131666859106,49.38361055517133],[1.17611472898826,49.38362057716267],[1.175966932856567,49.38351633010347],[1.175983870538264,49.38350430322081],[1.176131666859106,49.38361055517133]]]}},{"type":"Feature","id":"LFOP-1295fd17fd3a298fe6ba","properties":{"airport":"LFOP","name":"COLOR_Stopbar","layer":"Surface markings","category":"Stopbars","object_type":"Area","style_id":"polygon.stopbar.7e0000","source_group":"COLOR_Stopbar","vsmr_group_ids":[],"geometry_role":"filled_region"},"geometry":{"type":"Polygon","coordinates":[[[1.17947424021323,49.38613302579945],[1.179330671153769,49.38602810133324],[1.179358374728443,49.38601498417353],[1.17949816600124,49.3861182693166],[1.17947424021323,49.38613302579945]]]}},{"type":"Feature","id":"LFOP-975d4704c84d0d5177eb","properties":{"airport":"LFOP","name":"COLOR_Stopbar","layer":"Surface markings","category":"Stopbars","object_type":"Area","style_id":"polygon.stopbar.7e0000","source_group":"COLOR_Stopbar","vsmr_group_ids":[],"geometry_role":"filled_region"},"geometry":{"type":"Polygon","coordinates":[[[1.18491891638163,49.39017950323173],[1.184943753642558,49.39016527335898],[1.185087842211534,49.39026291810173],[1.185059031718223,49.39027973555715],[1.18491891638163,49.39017950323173]]]}},{"type":"Feature","id":"LFOP-8ae9903be390c0356ea7","properties":{"airport":"LFOP","name":"COLOR_Taxiway","layer":"Guidance lines","category":"Taxiways","object_type":"Line","style_id":"line.taxiway.c0b631","source_group":"COLOR_Taxiway","vsmr_group_ids":[],"geometry_role":"linework"},"geometry":{"type":"LineString","coordinates":[[1.185778696841018,49.38867604579475],[1.185793999279714,49.38839570005585],[1.185820561890565,49.38835359320365],[1.185882646469163,49.38833549121515],[1.185937085080562,49.3883314407165],[1.185998291470338,49.38834397495026],[1.186080952037769,49.38836619915948],[1.186152614005189,49.38839300094264],[1.18623895987866,49.38841290964383],[1.186347840270083,49.38840480479473]]}},{"type":"Feature","id":"LFOP-885f3e9d6338bd2c77be","properties":{"airport":"LFOP","name":"COLOR_Taxiway","layer":"Guidance lines","category":"Taxiways","object_type":"Line","style_id":"line.taxiway.c0b631","source_group":"COLOR_Taxiway","vsmr_group_ids":[],"geometry_role":"linework"},"geometry":{"type":"LineString","coordinates":[[1.186139900452698,49.3894802284824],[1.186580944557936,49.38904560473963]]}},{"type":"Feature","id":"LFOP-598e79eb996cd4ec1008","properties":{"airport":"LFOP","name":"COLOR_Taxiway","layer":"Guidance lines","category":"Taxiways","object_type":"Line","style_id":"line.taxiway.c0b631","source_group":"COLOR_Taxiway","vsmr_group_ids":[],"geometry_role":"linework"},"geometry":{"type":"LineString","coordinates":[[1.186934545244847,49.38953737794362],[1.186975686932483,49.3895209366875],[1.186987981849208,49.38948932011825],[1.186990428586441,49.38946075919426],[1.18698618813583,49.38943847104952],[1.186954909812259,49.38939467593438],[1.186918297685808,49.38936669941552],[1.186878159093678,49.38934821000714],[1.186826515509329,49.38933381608895],[1.186577119750425,49.38929477770661]]}},{"type":"Feature","id":"LFOP-88d990540b263600f9d4","properties":{"airport":"LFOP","name":"COLOR_Taxiway","layer":"Guidance lines","category":"Taxiways","object_type":"Line","style_id":"line.taxiway.c0b631","source_group":"COLOR_Taxiway","vsmr_group_ids":[],"geometry_role":"linework"},"geometry":{"type":"LineString","coordinates":[[1.186388808347114,49.38962073908093],[1.187292408106591,49.38948137492982]]}},{"type":"Feature","id":"LFOP-9739752e5ccbf08147ff","properties":{"airport":"LFOP","name":"B1","layer":"Labels","category":"Gates","object_type":"Label","style_id":"label.gates","source_group":"LFOP Gates","vsmr_group_ids":[],"geometry_role":"text_label","text-field":"B1"},"geometry":{"type":"Point","coordinates":[1.187227778,49.389519444]}},{"type":"Feature","id":"LFOP-a87d8c1ae022ac98b525","properties":{"airport":"LFOP","name":"B2","layer":"Labels","category":"Gates","object_type":"Label","style_id":"label.gates","source_group":"LFOP Gates","vsmr_group_ids":[],"geometry_role":"text_label","text-field":"B2"},"geometry":{"type":"Point","coordinates":[1.186319444,49.389169444]}},{"type":"Feature","id":"LFOP-30cae5243941cc10852e","properties":{"airport":"LFOP","name":"B3","layer":"Labels","category":"Gates","object_type":"Label","style_id":"label.gates","source_group":"LFOP Gates","vsmr_group_ids":[],"geometry_role":"text_label","text-field":"B3"},"geometry":{"type":"Point","coordinates":[1.185966667,49.388383333]}},{"type":"Feature","id":"LFOP-f33d242d568aa53a8eb9","properties":{"airport":"LFOP","name":"B4","layer":"Labels","category":"Gates","object_type":"Label","style_id":"label.gates","source_group":"LFOP Gates","vsmr_group_ids":[],"geometry_role":"text_label","text-field":"B4"},"geometry":{"type":"Point","coordinates":[1.186688889,49.389330556]}},{"type":"Feature","id":"LFOP-5a8aaf018f28b40a2e8d","properties":{"airport":"LFOP","name":"P A","layer":"Labels","category":"Gates","object_type":"Label","style_id":"label.gates","source_group":"LFOP Gates","vsmr_group_ids":[],"geometry_role":"text_label","text-field":"P A"},"geometry":{"type":"Point","coordinates":[1.184594444,49.3875]}},{"type":"Feature","id":"LFOP-94b99452f3b5c3f8544b","properties":{"airport":"LFOP","name":"P C","layer":"Labels","category":"Gates","object_type":"Label","style_id":"label.gates","source_group":"LFOP Gates","vsmr_group_ids":[],"geometry_role":"text_label","text-field":"P C"},"geometry":{"type":"Point","coordinates":[1.183719444,49.385838889]}},{"type":"Feature","id":"LFOP-e13dd64e03a9442d8cc1","properties":{"airport":"LFOP","name":"P M","layer":"Labels","category":"Gates","object_type":"Label","style_id":"label.gates","source_group":"LFOP Gates","vsmr_group_ids":[],"geometry_role":"text_label","text-field":"P M"},"geometry":{"type":"Point","coordinates":[1.181930556,49.384488889]}},{"type":"Feature","id":"LFOP-80e80d79250075690d25","properties":{"airport":"LFOP","name":"P U","layer":"Labels","category":"Gates","object_type":"Label","style_id":"label.gates","source_group":"LFOP Gates","vsmr_group_ids":[],"geometry_role":"text_label","text-field":"P U"},"geometry":{"type":"Point","coordinates":[1.196344444,49.388316667]}},{"type":"Feature","id":"LFOP-bf7379eee6a7fa13b39a","properties":{"airport":"LFOP","name":"P V","layer":"Labels","category":"Gates","object_type":"Label","style_id":"label.gates","source_group":"LFOP Gates","vsmr_group_ids":[],"geometry_role":"text_label","text-field":"P V"},"geometry":{"type":"Point","coordinates":[1.195277778,49.389544444]}},{"type":"Feature","id":"LFOP-92d7634cd9e0a774ed35","properties":{"airport":"LFOP","name":"P","layer":"Labels","category":"Taxiways","object_type":"Label","style_id":"label.taxiways","source_group":"LFOP Taxiways","vsmr_group_ids":[],"geometry_role":"text_label","text-field":"P"},"geometry":{"type":"Point","coordinates":[1.183441667,49.388397222]}},{"type":"Feature","id":"LFOP-b0052806acf4698d7db1","properties":{"airport":"LFOP","name":"P","layer":"Labels","category":"Taxiways","object_type":"Label","style_id":"label.taxiways","source_group":"LFOP Taxiways","vsmr_group_ids":[],"geometry_role":"text_label","text-field":"P"},"geometry":{"type":"Point","coordinates":[1.181,49.386533333]}},{"type":"Feature","id":"LFOP-3386b75d30bbbe4bfa82","properties":{"airport":"LFOP","name":"P","layer":"Labels","category":"Taxiways","object_type":"Label","style_id":"label.taxiways","source_group":"LFOP Taxiways","vsmr_group_ids":[],"geometry_role":"text_label","text-field":"P"},"geometry":{"type":"Point","coordinates":[1.177955556,49.384380556]}},{"type":"Feature","id":"LFOP-6f25119539ab11e4bd70","properties":{"airport":"LFOP","name":"R1","layer":"Labels","category":"Taxiways","object_type":"Label","style_id":"label.taxiways","source_group":"LFOP Taxiways","vsmr_group_ids":[],"geometry_role":"text_label","text-field":"R1"},"geometry":{"type":"Point","coordinates":[1.183441667,49.386711111]}},{"type":"Feature","id":"LFOP-e01d2eb2d501d08724a1","properties":{"airport":"LFOP","name":"R2","layer":"Labels","category":"Taxiways","object_type":"Label","style_id":"label.taxiways","source_group":"LFOP Taxiways","vsmr_group_ids":[],"geometry_role":"text_label","text-field":"R2"},"geometry":{"type":"Point","coordinates":[1.182797222,49.386247222]}},{"type":"Feature","id":"LFOP-4b8cc21a8bd80403b9b5","properties":{"airport":"LFOP","name":"S1","layer":"Labels","category":"Taxiways","object_type":"Label","style_id":"label.taxiways","source_group":"LFOP Taxiways","vsmr_group_ids":[],"geometry_role":"text_label","text-field":"S1"},"geometry":{"type":"Point","coordinates":[1.186011111,49.389852778]}},{"type":"Feature","id":"LFOP-b0036c2877f0a99a6ca2","properties":{"airport":"LFOP","name":"S2","layer":"Labels","category":"Taxiways","object_type":"Label","style_id":"label.taxiways","source_group":"LFOP Taxiways","vsmr_group_ids":[],"geometry_role":"text_label","text-field":"S2"},"geometry":{"type":"Point","coordinates":[1.182488889,49.386872222]}},{"type":"Feature","id":"LFOP-c3962c348b711a9f77c8","properties":{"airport":"LFOP","name":"S3","layer":"Labels","category":"Taxiways","object_type":"Label","style_id":"label.taxiways","source_group":"LFOP Taxiways","vsmr_group_ids":[],"geometry_role":"text_label","text-field":"S3"},"geometry":{"type":"Point","coordinates":[1.18075,49.385525]}},{"type":"Feature","id":"LFOP-8ec6860b80fb99e591c3","properties":{"airport":"LFOP","name":"T1","layer":"Labels","category":"Taxiways","object_type":"Label","style_id":"label.taxiways","source_group":"LFOP Taxiways","vsmr_group_ids":[],"geometry_role":"text_label","text-field":"T1"},"geometry":{"type":"Point","coordinates":[1.185152778,49.390316667]}},{"type":"Feature","id":"LFOP-2b49c23e3e3cdd72de33","properties":{"airport":"LFOP","name":"T2","layer":"Labels","category":"Taxiways","object_type":"Label","style_id":"label.taxiways","source_group":"LFOP Taxiways","vsmr_group_ids":[],"geometry_role":"text_label","text-field":"T2"},"geometry":{"type":"Point","coordinates":[1.179563889,49.386166667]}},{"type":"Feature","id":"LFOP-336569deb2f3c43baca5","properties":{"airport":"LFOP","name":"T3","layer":"Labels","category":"Taxiways","object_type":"Label","style_id":"label.taxiways","source_group":"LFOP Taxiways","vsmr_group_ids":[],"geometry_role":"text_label","text-field":"T3"},"geometry":{"type":"Point","coordinates":[1.176211111,49.383677778]}},{"type":"Feature","id":"LFOP-8511e3c44f9a3c0422f3","properties":{"airport":"LFOP","name":"Y","layer":"Labels","category":"Taxiways","object_type":"Label","style_id":"label.taxiways","source_group":"LFOP Taxiways","vsmr_group_ids":[],"geometry_role":"text_label","text-field":"Y"},"geometry":{"type":"Point","coordinates":[1.190816667,49.386716667]}},{"type":"Feature","id":"LFOP-2554d5d6ba7351e5d3d6","properties":{"airport":"LFOP","name":"Z2","layer":"Labels","category":"Taxiways","object_type":"Label","style_id":"label.taxiways","source_group":"LFOP Taxiways","vsmr_group_ids":[],"geometry_role":"text_label","text-field":"Z2"},"geometry":{"type":"Point","coordinates":[1.194275,49.389258333]}},{"type":"Feature","id":"LFOP-f8bb94538fac17ac5607","properties":{"airport":"LFOP","name":"Z3","layer":"Labels","category":"Taxiways","object_type":"Label","style_id":"label.taxiways","source_group":"LFOP Taxiways","vsmr_group_ids":[],"geometry_role":"text_label","text-field":"Z3"},"geometry":{"type":"Point","coordinates":[1.186711111,49.384255556]}}]}
