{"type":"FeatureCollection","name":"LFOQ AVISO","bbox":[1.134264034751278,47.61660363009992,1.294216309349816,47.72203319568759],"metadata":{"schema":"vSMR AVISO","schema_version":2,"geometry_mode":"shared","airport":"LFOQ","coordinate_reference_system":"WGS84","coordinate_order":"longitude, latitude","default_color_palette":"dark","color_palettes":["dark","light"],"background_colors":{"dark":"#434A4F","light":"#434A4F"},"runways":[{"ends":["12R","30L"],"headings":[120,300],"thresholds":[[1.200671944,47.680477778],[1.20785,47.677521944]]},{"ends":["12L","30R"],"headings":[121,301],"thresholds":[[1.201916944,47.680810833],[1.210052778,47.6775]]},{"ends":["12","30"],"headings":[121,301],"thresholds":[[1.201977778,47.681405833],[1.215591944,47.675775]]},{"ends":["02R","20L"],"headings":[22,202],"thresholds":[[1.205052778,47.670327778],[1.209396944,47.677302778]]},{"ends":["02L","20R"],"headings":[21,201],"thresholds":[[1.204338889,47.670532778],[1.208546944,47.677605833]]},{"ends":["02","20"],"headings":[21,201],"thresholds":[[1.2027,47.670902778],[1.203966944,47.673002778]]}],"saved_active_runways":[],"saved_active_airport_modes":[],"airport_reference":[1.205832778,47.679721944],"feature_count":32,"style_count":4,"layer_counts":{"Airfield surfaces":21,"Guidance lines":11},"category_counts":{"":32},"geometry_source":"local GNG/KMZ","geometry_source_url":"","geometry_license":"GPL-3.0"},"styles":{"line.runwayconcrete.555555":{"name":"Runways","layer":"Guidance lines","object_type":"Line","paint":{"stroke":"#111318","stroke-opacity":1,"stroke-width":1,"palette-overrides":{"light":{"stroke":"#555555"}}},"feature_count":0},"line.runwaygrass.008000":{"name":"Grass runways","layer":"Guidance lines","object_type":"Line","paint":{"stroke":"#859A77","stroke-opacity":1,"stroke-width":1,"palette-overrides":{"light":{"stroke":"#008000"}}},"feature_count":0},"polygon":{"name":"","layer":"Airfield surfaces","object_type":"Area","paint":{"fill":"#1d2b2b","fill-opacity":1},"feature_count":21},"line":{"name":"","layer":"Guidance lines","object_type":"Line","paint":{"stroke":"#CCCCCC","stroke-width":1,"stroke-opacity":1},"feature_count":11}},"vsmr_groups":[],"features":[{"type":"Feature","id":"LFOQ-351950ba6e9a21023f87","properties":{"airport":"LFOQ","name":"LFOQ_Background","layer":"Airfield surfaces","category":"","object_type":"Area","style_id":"polygon","source_group":"LFOQ_Background","vsmr_group_ids":[],"geometry_role":"filled_region"},"geometry":{"type":"Polygon","coordinates":[[[1.134264034751278,47.66357850110136],[1.243880217016744,47.61660363009992],[1.294216309349816,47.67831983209176],[1.185456185665792,47.72203319568759],[1.134264034751278,47.66357850110136]]]}},{"type":"Feature","id":"LFOQ-636abf0cc0b9e6b8f212","properties":{"airport":"LFOQ","name":"LFOQ_Base","layer":"Airfield surfaces","category":"","object_type":"Area","style_id":"polygon","source_group":"LFOQ_Base","vsmr_group_ids":[],"geometry_role":"filled_region"},"geometry":{"type":"Polygon","coordinates":[[[1.215490595310262,47.67566376081631],[1.215696482671422,47.67589248985991],[1.211200178114964,47.67775105225014],[1.211132440532721,47.67781620041619],[1.211093732525221,47.67786614768194],[1.210467877344521,47.67962429255047],[1.210467873903793,47.67967206893727],[1.210451742907854,47.6797198448199],[1.210387228682632,47.67977413407023],[1.210309813928885,47.67980587504385],[1.210229174531945,47.67982541714037],[1.20899504065751,47.68034013669454],[1.20894665433632,47.68037053762248],[1.20892729815816,47.68039876821834],[1.209807793965805,47.68136844219758],[1.209585218742213,47.68144878455799],[1.209404600331825,47.68126418591186],[1.204752939894167,47.68319279649336],[1.204514284472922,47.682932177548],[1.207121826679798,47.68183849479904],[1.207196024937116,47.68177552140153],[1.207250875606443,47.68166477042635],[1.207247661903339,47.68157573244788],[1.20718961473163,47.68147148954932],[1.206999321607811,47.68133900687833],[1.206892880732757,47.68130859697104],[1.206789661862346,47.68130424703224],[1.206692891710335,47.68131727065212],[1.204121997373158,47.68238597873544],[1.204012319343359,47.68240985716924],[1.20388329098702,47.68241418882456],[1.203792972215878,47.68241200886679],[1.202144011652524,47.68216310024578],[1.201989185913914,47.68213702401404],[1.201860171299283,47.68208706214027],[1.201718271040979,47.68196760572634],[1.201311946329862,47.68153322991415],[1.215490595310262,47.67566376081631]]]}},{"type":"Feature","id":"LFOQ-729ef408175b4d92d616","properties":{"airport":"LFOQ","name":"LFOQ_Grass","layer":"Airfield surfaces","category":"","object_type":"Area","style_id":"polygon","source_group":"LFOQ_Grass","vsmr_group_ids":[],"geometry_role":"filled_region"},"geometry":{"type":"Polygon","coordinates":[[[1.205569446668799,47.68008623404344],[1.205617378580399,47.680074848293],[1.205730155115909,47.68007485665832],[1.205831652507201,47.68008435520954],[1.205938784271141,47.68012232746042],[1.20605155151988,47.68018307873422],[1.206884198270068,47.68112383450841],[1.204023986947063,47.68231422373589],[1.203956314247858,47.68233319995171],[1.203868907755195,47.68233698847882],[1.203733571372914,47.68232938317253],[1.202138831199737,47.68206688386551],[1.202026056102397,47.68204219505929],[1.201921740535912,47.68201371060663],[1.201865362332306,47.68196245245557],[1.201823081386262,47.68191309403649],[1.201800543894789,47.68183526432375],[1.201789285386423,47.68175363939724],[1.201797758844898,47.68169099886469],[1.205569446668799,47.68008623404344]]]}},{"type":"Feature","id":"LFOQ-4b2987c6045389464922","properties":{"airport":"LFOQ","name":"LFOQ_Grass","layer":"Airfield surfaces","category":"","object_type":"Area","style_id":"polygon","source_group":"LFOQ_Grass","vsmr_group_ids":[],"geometry_role":"filled_region"},"geometry":{"type":"Polygon","coordinates":[[[1.206102784927416,47.67992485949522],[1.206117520224879,47.67990105653202],[1.206155830718236,47.67984750029603],[1.20625601402143,47.67978998098362],[1.210191953749928,47.67816147233393],[1.210259717557773,47.67814560540295],[1.210351050332057,47.67813767384546],[1.210457112214254,47.67815553030218],[1.210586742288209,47.67819520765322],[1.210686908187004,47.67826860620361],[1.210757608983302,47.67839159529303],[1.210763495605411,47.67847887652629],[1.210336142016135,47.67961715422361],[1.210309621757766,47.67966674481274],[1.210241853274421,47.6797183176387],[1.210147857480792,47.67976485804255],[1.206997026901606,47.68107799860982],[1.206139272228697,47.68013827519715],[1.206111151287781,47.68009661117729],[1.206097096179624,47.6800416920383],[1.206094289605171,47.6800019235279],[1.206102784927416,47.67992485949522]]]}},{"type":"Feature","id":"LFOQ-332e683e6657dbf0ce50","properties":{"airport":"LFOQ","name":"LFOQ_Grass","layer":"Airfield surfaces","category":"","object_type":"Area","style_id":"polygon","source_group":"LFOQ_Grass","vsmr_group_ids":[],"geometry_role":"filled_region"},"geometry":{"type":"Polygon","coordinates":[[[1.207196432505175,47.68121737454379],[1.207207515610429,47.68118567516852],[1.207224138081069,47.68115397613371],[1.207254610767903,47.68110922498044],[1.207332171983613,47.68103464133382],[1.20758145670304,47.68093023243346],[1.207850128288579,47.68082209472063],[1.207985844200767,47.68080345512856],[1.208143713839529,47.68081465182729],[1.208260034055668,47.68086500498891],[1.208345884113471,47.68095078589015],[1.208379109739961,47.68104402288685],[1.208365248147927,47.68116149868558],[1.208279377272856,47.68125472960892],[1.207584148551744,47.68153626276863],[1.20754537260455,47.68153626055349],[1.207456741840283,47.68153625545124],[1.207398578657972,47.68153065793094],[1.207213040011426,47.68129569335886],[1.207196432505175,47.68121737454379]]]}},{"type":"Feature","id":"LFOQ-2563e8707b54a83ab542","properties":{"airport":"LFOQ","name":"LFOQ_Grass","layer":"Airfield surfaces","category":"","object_type":"Area","style_id":"polygon","source_group":"LFOQ_Grass","vsmr_group_ids":[],"geometry_role":"filled_region"},"geometry":{"type":"Polygon","coordinates":[[[1.202135571600866,47.68112344361187],[1.201672518559616,47.68060691398181],[1.209837102058338,47.6772218996826],[1.210285733513903,47.67774326669254],[1.202135571600866,47.68112344361187]]]}},{"type":"Feature","id":"LFOQ-25e1422f2013114287d2","properties":{"airport":"LFOQ","name":"LFOQ_Grass","layer":"Airfield surfaces","category":"","object_type":"Area","style_id":"polygon","source_group":"LFOQ_Grass","vsmr_group_ids":[],"geometry_role":"filled_region"},"geometry":{"type":"Polygon","coordinates":[[[1.207689380954096,47.67730733808115],[1.208041884899509,47.67788315008507],[1.200863768991141,47.68080704359614],[1.200386266539582,47.6802661438654],[1.207689380954096,47.67730733808115]]]}},{"type":"Feature","id":"LFOQ-b46751eb8a52a08db429","properties":{"airport":"LFOQ","name":"LFOQ_Grass","layer":"Airfield surfaces","category":"","object_type":"Area","style_id":"polygon","source_group":"LFOQ_Grass","vsmr_group_ids":[],"geometry_role":"filled_region"},"geometry":{"type":"Polygon","coordinates":[[[1.203469812816118,47.66992212323409],[1.204338123219977,47.66969319764873],[1.20892929353942,47.6775255157045],[1.20811875297995,47.67786654663507],[1.203469812816118,47.66992212323409]]]}},{"type":"Feature","id":"LFOQ-44d1cafff1f3a4efc04c","properties":{"airport":"LFOQ","name":"LFOQ_Grass","layer":"Airfield surfaces","category":"","object_type":"Area","style_id":"polygon","source_group":"LFOQ_Grass","vsmr_group_ids":[],"geometry_role":"filled_region"},"geometry":{"type":"Polygon","coordinates":[[[1.204461134267385,47.66965422882996],[1.20517024778545,47.6694593900626],[1.209715645211058,47.67720213209498],[1.209049854202273,47.67747983273367],[1.204461134267385,47.66965422882996]]]}},{"type":"Feature","id":"LFOQ-b60a5ffad0d7c90136da","properties":{"airport":"LFOQ","name":"LFOQ_Grass","layer":"Airfield surfaces","category":"","object_type":"Area","style_id":"polygon","source_group":"LFOQ_Grass","vsmr_group_ids":[],"geometry_role":"filled_region"},"geometry":{"type":"Polygon","coordinates":[[[1.207259757365671,47.67249387457027],[1.207271457586563,47.6723797857424],[1.207312363910811,47.67230897415662],[1.207429224232031,47.67221456232726],[1.207809002348006,47.67202574710122],[1.208025182222448,47.67191953834904],[1.208112842102123,47.67170710187492],[1.208107015349642,47.67157334244617],[1.206927767721375,47.66960016979382],[1.20677588490697,47.66952147832249],[1.206489630972094,47.6694703162567],[1.206326053063196,47.66947030508691],[1.206068995186391,47.66951356201066],[1.205438022803689,47.6696748128996],[1.205356257158694,47.66953317929916],[1.20614497131506,47.66932473112735],[1.206378656464811,47.66930507701698],[1.206536389511934,47.66932082405892],[1.206939479413711,47.66940346624057],[1.207103041964854,47.66951363090984],[1.208320093379862,47.67157980063951],[1.208314240278219,47.67167421866192],[1.208261646742133,47.67178437055169],[1.208162309718885,47.6719338608164],[1.207928596052765,47.67209907992574],[1.207490386991588,47.6723469024134],[1.207437796764375,47.67241377876373],[1.207449471830888,47.67248852707437],[1.208274290562164,47.67391787080518],[1.210576679449846,47.67770262073038],[1.210438085351469,47.67775593790442],[1.207259757365671,47.67249387457027]]]}},{"type":"Feature","id":"LFOQ-743067d669dd42d7fce0","properties":{"airport":"LFOQ","name":"LFOQ_Buildings","layer":"Airfield surfaces","category":"","object_type":"Area","style_id":"polygon","source_group":"LFOQ_Buildings","vsmr_group_ids":[],"geometry_role":"filled_region"},"geometry":{"type":"Polygon","coordinates":[[[1.204945281077328,47.68335223714463],[1.204796379829216,47.68317515947744],[1.205480885579358,47.6828872155065],[1.205572765191736,47.68297468847654],[1.205636125798937,47.68306429256727],[1.204945281077328,47.68335223714463]]]}},{"type":"Feature","id":"LFOQ-30209ff5b0c4234a367a","properties":{"airport":"LFOQ","name":"LFOQ_Buildings","layer":"Airfield surfaces","category":"","object_type":"Area","style_id":"polygon","source_group":"LFOQ_Buildings","vsmr_group_ids":[],"geometry_role":"filled_region"},"geometry":{"type":"Polygon","coordinates":[[[1.205857953513434,47.6829661776024],[1.205766075806791,47.68286163790081],[1.205699543412577,47.68278909996843],[1.207312533814622,47.68213001163174],[1.207417083361422,47.68226868353154],[1.20610197451436,47.68281472840592],[1.206130488385564,47.68284673024515],[1.205857953513434,47.6829661776024]]]}},{"type":"Feature","id":"LFOQ-8881271b4f9103e3d415","properties":{"airport":"LFOQ","name":"LFOQ_Buildings","layer":"Airfield surfaces","category":"","object_type":"Area","style_id":"polygon","source_group":"LFOQ_Buildings","vsmr_group_ids":[],"geometry_role":"filled_region"},"geometry":{"type":"Polygon","coordinates":[[[1.208751167685773,47.68186768866],[1.208529385148078,47.68162447955646],[1.208960345278121,47.68144103479509],[1.208992027315055,47.68148796923003],[1.209036391155596,47.68146450475317],[1.209277186737809,47.68171624689266],[1.208925448970657,47.6818420969618],[1.208893764805925,47.68181436235076],[1.208751167685773,47.68186768866]]]}},{"type":"Feature","id":"LFOQ-6fe8c6ba7a544fb6add5","properties":{"airport":"LFOQ","name":"LFOQ_Buildings","layer":"Airfield surfaces","category":"","object_type":"Area","style_id":"polygon","source_group":"LFOQ_Buildings","vsmr_group_ids":[],"geometry_role":"filled_region"},"geometry":{"type":"Polygon","coordinates":[[[1.209299382004574,47.68157758200771],[1.209115617992067,47.68137704203956],[1.209397641601873,47.68125118848703],[1.209584573572036,47.68146666127782],[1.209299382004574,47.68157758200771]]]}},{"type":"Feature","id":"LFOQ-1d456c6e0a4e93ab1041","properties":{"airport":"LFOQ","name":"LFOQ_Buildings","layer":"Airfield surfaces","category":"","object_type":"Area","style_id":"polygon","source_group":"LFOQ_Buildings","vsmr_group_ids":[],"geometry_role":"filled_region"},"geometry":{"type":"Polygon","coordinates":[[[1.20745511586315,47.68223241864778],[1.207353731654122,47.6821172132078],[1.207553373251615,47.68202975850615],[1.207664263336969,47.68214923088163],[1.20745511586315,47.68223241864778]]]}},{"type":"Feature","id":"LFOQ-11a8586798c51c99491e","properties":{"airport":"LFOQ","name":"LFOQ_Buildings","layer":"Airfield surfaces","category":"","object_type":"Area","style_id":"polygon","source_group":"LFOQ_Buildings","vsmr_group_ids":[],"geometry_role":"filled_region"},"geometry":{"type":"Polygon","coordinates":[[[1.207602269974726,47.66876459642058],[1.207701100527228,47.66893246957711],[1.207778466568701,47.66890063707191],[1.207851515959397,47.66902220022425],[1.20779564145953,47.66903666839531],[1.207830019024705,47.66908297855075],[1.207950364906945,47.6690453597871],[1.208036305781761,47.66919007750834],[1.207894469022663,47.66923637790366],[1.207920251979573,47.66927400468352],[1.208010494144873,47.66939267419513],[1.207799887737919,47.66945633626366],[1.207395963905977,47.6688224694853],[1.207602269974726,47.66876459642058]]]}},{"type":"Feature","id":"LFOQ-0d9828a6f0315656a6c0","properties":{"airport":"LFOQ","name":"LFOQ_Buildings","layer":"Airfield surfaces","category":"","object_type":"Area","style_id":"polygon","source_group":"LFOQ_Buildings","vsmr_group_ids":[],"geometry_role":"filled_region"},"geometry":{"type":"Polygon","coordinates":[[[1.208062062916426,47.66947082216557],[1.208135113566315,47.66959527936917],[1.207920210286004,47.66964157584089],[1.207855754098637,47.6695315902697],[1.208062062916426,47.66947082216557]]]}},{"type":"Feature","id":"LFOQ-b48584ba95c142cf74c6","properties":{"airport":"LFOQ","name":"LFOQ_Buildings","layer":"Airfield surfaces","category":"","object_type":"Area","style_id":"polygon","source_group":"LFOQ_Buildings","vsmr_group_ids":[],"geometry_role":"filled_region"},"geometry":{"type":"Polygon","coordinates":[[[1.208225363279838,47.66965895789281],[1.208294116782989,47.66978052036624],[1.208053421381838,47.66985865264785],[1.207984668968896,47.6697313014886],[1.208225363279838,47.66965895789281]]]}},{"type":"Feature","id":"LFOQ-9f0e2d04a31d286baac9","properties":{"airport":"LFOQ","name":"LFOQ_Buildings","layer":"Airfield surfaces","category":"","object_type":"Area","style_id":"polygon","source_group":"LFOQ_Buildings","vsmr_group_ids":[],"geometry_role":"filled_region"},"geometry":{"type":"Polygon","coordinates":[[[1.208294066214779,47.67022334199691],[1.208096398411613,47.66988180902807],[1.208242534227202,47.66984129712012],[1.208465991734979,47.67017414826934],[1.208294066214779,47.67022334199691]]]}},{"type":"Feature","id":"LFOQ-5c1667728d6e117202c5","properties":{"airport":"LFOQ","name":"Untitled Polygon","layer":"Airfield surfaces","category":"","object_type":"Area","style_id":"polygon","source_group":"Untitled Polygon","vsmr_group_ids":[],"geometry_role":"filled_region"},"geometry":{"type":"Polygon","coordinates":[[[1.208728166050137,47.67020599794143],[1.208994596008532,47.67066330397006],[1.208646445783563,47.67074722150753],[1.208371420413446,47.67031017375082],[1.208728166050137,47.67020599794143]]]}},{"type":"Feature","id":"LFOQ-0c12cee0683f3cacf1f7","properties":{"airport":"LFOQ","name":"LFOQ_Buildings","layer":"Airfield surfaces","category":"","object_type":"Area","style_id":"polygon","source_group":"LFOQ_Buildings","vsmr_group_ids":[],"geometry_role":"filled_region"},"geometry":{"type":"Polygon","coordinates":[[[1.209325441068501,47.67178050414798],[1.208826938938965,47.67100481944569],[1.209157901455698,47.67088616994968],[1.209235252799148,47.67102799196859],[1.209175078211775,47.67104535489029],[1.209480191232284,47.67158948892048],[1.209583347246894,47.67157502183042],[1.209652106686157,47.67169368951362],[1.209325441068501,47.67178050414798]]]}},{"type":"Feature","id":"LFOQ-9dc268764beb12369d6e","properties":{"airport":"LFOQ","name":"LFOQ_Center","layer":"Guidance lines","category":"","object_type":"Line","style_id":"line","source_group":"LFOQ_Center","vsmr_group_ids":[],"geometry_role":"linework"},"geometry":{"type":"LineString","coordinates":[[1.201983861886435,47.68141870917999],[1.201785991818605,47.68150222199979],[1.201732323898317,47.6815586581325],[1.201682003839837,47.68163767140282],[1.201685328885755,47.68175507106876],[1.201732239749829,47.68190859838111],[1.201809349628511,47.68198762552803],[1.201940113631037,47.68207117372742],[1.202087654224899,47.68211634299776],[1.203765440255507,47.68237613281186],[1.203896223990209,47.68238066000913],[1.20400353713418,47.68236712357771],[1.204107500723277,47.6823332675986],[1.210179401753027,47.67979784310555],[1.210345466217486,47.67969627098056],[1.21038372078554,47.67963072007991],[1.210467190102518,47.67941533731946],[1.21108335055296,47.67771939966655],[1.21109030632226,47.67769364736015],[1.211121602792915,47.67765150776178]]}},{"type":"Feature","id":"LFOQ-0077941a4d13147bd3fb","properties":{"airport":"LFOQ","name":"LFOQ_Center","layer":"Guidance lines","category":"","object_type":"Line","style_id":"line","source_group":"LFOQ_Center","vsmr_group_ids":[],"geometry_role":"linework"},"geometry":{"type":"LineString","coordinates":[[1.210099302155592,47.67805415123323],[1.210207095020346,47.67803308473818],[1.210297500291615,47.67803542898122],[1.210453968278182,47.67807523350718],[1.210714743968104,47.67821102782325],[1.210780804203646,47.67829296975773],[1.210805139601003,47.67836320473651],[1.210815564591714,47.67846153311353]]}},{"type":"Feature","id":"LFOQ-55fb47030e42c0b84e63","properties":{"airport":"LFOQ","name":"LFOQ_Center","layer":"Guidance lines","category":"","object_type":"Line","style_id":"line","source_group":"LFOQ_Center","vsmr_group_ids":[],"geometry_role":"linework"},"geometry":{"type":"LineString","coordinates":[[1.205169806790669,47.68009414403125],[1.205395833765965,47.68000323311256],[1.205478525639134,47.67997354852336],[1.205594290218457,47.67995500049439],[1.205701782601412,47.67995686423906],[1.205839588319568,47.67999027671434],[1.206015970406704,47.68009235198322],[1.205974651375807,47.67993832741561],[1.206016008924993,47.67984740191086],[1.206087683458381,47.67976390127493],[1.206142816236624,47.67970823464422],[1.206225510366508,47.67965628125333],[1.206283394586845,47.67963030569731]]}},{"type":"Feature","id":"LFOQ-566ebdbed85c2332dff2","properties":{"airport":"LFOQ","name":"LFOQ_Center","layer":"Guidance lines","category":"","object_type":"Line","style_id":"line","source_group":"LFOQ_Center","vsmr_group_ids":[],"geometry_role":"linework"},"geometry":{"type":"LineString","coordinates":[[1.206010458540821,47.6800886402257],[1.207295220852938,47.68149252813581],[1.207317264341612,47.681544488556],[1.207320007594317,47.68164283988408],[1.207295191442463,47.68171335434872],[1.207253836826392,47.68178757920369]]}},{"type":"Feature","id":"LFOQ-f9dbc6057070a98ef590","properties":{"airport":"LFOQ","name":"LFOQ_Center","layer":"Guidance lines","category":"","object_type":"Line","style_id":"line","source_group":"LFOQ_Center","vsmr_group_ids":[],"geometry_role":"linework"},"geometry":{"type":"LineString","coordinates":[[1.206625830379406,47.68128170042576],[1.206791213219649,47.68125016453563],[1.206909733800499,47.68125202780476],[1.207017225725959,47.68127801414916],[1.207188103151748,47.68137266454907],[1.207138505511933,47.68125760914701],[1.207144030227139,47.68116853670043],[1.207193652163039,47.68110359085141],[1.207284622594507,47.68100524520421]]}},{"type":"Feature","id":"LFOQ-6d3ab4d11d054671a924","properties":{"airport":"LFOQ","name":"LFOQ_Center","layer":"Guidance lines","category":"","object_type":"Line","style_id":"line","source_group":"LFOQ_Center","vsmr_group_ids":[],"geometry_role":"linework"},"geometry":{"type":"LineString","coordinates":[[1.207926865987914,47.68073806362639],[1.208028849527607,47.68072693512184],[1.208136342452209,47.68074178642414],[1.208221782879662,47.68077704897932],[1.208298952811586,47.68082715648733],[1.208265885336648,47.68075849445965],[1.20826037973925,47.68069725657238],[1.208274167948504,47.68063601969659],[1.208312761240467,47.6805859182131],[1.208348595130602,47.68056365184371]]}},{"type":"Feature","id":"LFOQ-e54ea3751a7bca64dec1","properties":{"airport":"LFOQ","name":"LFOQ_Center","layer":"Guidance lines","category":"","object_type":"Line","style_id":"line","source_group":"LFOQ_Center","vsmr_group_ids":[],"geometry_role":"linework"},"geometry":{"type":"LineString","coordinates":[[1.208293440896522,47.68082158915333],[1.208469816979541,47.68104984717877],[1.208676499537669,47.68140614868035]]}},{"type":"Feature","id":"LFOQ-08fa911ae132d9a938ef","properties":{"airport":"LFOQ","name":"LFOQ_Center","layer":"Guidance lines","category":"","object_type":"Line","style_id":"line","source_group":"LFOQ_Center","vsmr_group_ids":[],"geometry_role":"linework"},"geometry":{"type":"LineString","coordinates":[[1.208398163661262,47.68096077078283],[1.208489115232316,47.68101087879295],[1.20860763199524,47.68104057555764],[1.208723393658095,47.6810591379561],[1.208806082178227,47.68105728619483],[1.208908066311045,47.68103873412362],[1.20913408917489,47.68095338301029]]}},{"type":"Feature","id":"LFOQ-2586935e53343b12a49f","properties":{"airport":"LFOQ","name":"LFOQ_Holding","layer":"Guidance lines","category":"","object_type":"Line","style_id":"line","source_group":"LFOQ_Holding","vsmr_group_ids":[],"geometry_role":"linework"},"geometry":{"type":"LineString","coordinates":[[1.201580938551559,47.68182153545623],[1.201791757357831,47.68180486078175]]}},{"type":"Feature","id":"LFOQ-dfbf19cee1c983fd119d","properties":{"airport":"LFOQ","name":"LFOQ_Holding","layer":"Guidance lines","category":"","object_type":"Line","style_id":"line","source_group":"LFOQ_Holding","vsmr_group_ids":[],"geometry_role":"linework"},"geometry":{"type":"LineString","coordinates":[[1.206431723471939,47.68060726634138],[1.206526801028687,47.68056552838338]]}},{"type":"Feature","id":"LFOQ-127fd43cc62b039f0d48","properties":{"airport":"LFOQ","name":"LFOQ_Holding","layer":"Guidance lines","category":"","object_type":"Line","style_id":"line","source_group":"LFOQ_Holding","vsmr_group_ids":[],"geometry_role":"linework"},"geometry":{"type":"LineString","coordinates":[[1.210764472959309,47.67848674144322],[1.210876072408091,47.67850065947626]]}}]}
