{"type":"FeatureCollection","name":"LFOU AVISO","bbox":[-0.881243056,47.076481389,-0.872940833,47.087821944],"metadata":{"schema":"vSMR AVISO","schema_version":2,"geometry_mode":"shared","airport":"LFOU","coordinate_reference_system":"WGS84","coordinate_order":"longitude, latitude","default_color_palette":"dark","color_palettes":["dark","light"],"background_colors":{"dark":"#434A4F","light":"#434A4F"},"runways":[{"ends":["03R","21L"],"headings":[25,205],"thresholds":[[-0.879155833,47.077874722],[-0.873416944,47.086266944]]},{"ends":["03","21"],"headings":[25,205],"thresholds":[[-0.8799,47.077980833],[-0.873216944,47.087760833]]}],"saved_active_runways":[],"saved_active_airport_modes":[],"airport_reference":[-0.877221944,47.081943889],"feature_count":11,"style_count":9,"layer_counts":{"Guidance lines":7,"Labels":4},"category_counts":{"Apron Surface":1,"Gates":1,"Grass runways":1,"Labels":1,"Runways":1,"Stopbars":1,"TWR-CTR":1,"Taxiways":4},"geometry_source":"local GNG/KMZ","geometry_source_url":"","geometry_license":"GPL-3.0"},"styles":{"line.runwayconcrete.555555":{"name":"Runways","layer":"Guidance lines","object_type":"Line","paint":{"stroke":"#111318","stroke-opacity":1,"stroke-width":1,"palette-overrides":{"light":{"stroke":"#555555"}}},"feature_count":1},"line.runwaygrass.008000":{"name":"Grass runways","layer":"Guidance lines","object_type":"Line","paint":{"stroke":"#859A77","stroke-opacity":1,"stroke-width":1,"palette-overrides":{"light":{"stroke":"#008000"}}},"feature_count":1},"line.taxiway.c0b631":{"name":"Taxiways","layer":"Guidance lines","object_type":"Line","paint":{"stroke":"#4E5A69","stroke-opacity":1,"stroke-width":1,"palette-overrides":{"light":{"stroke":"#C0B631"}}},"feature_count":1},"line.apronsurface.808080":{"name":"Apron Surface","layer":"Guidance lines","object_type":"Line","paint":{"stroke":"#808080","stroke-opacity":1,"stroke-width":1,"palette-overrides":{"light":{"stroke":"#808080"}}},"feature_count":1},"line.stopbar.7e0000":{"name":"Stopbars","layer":"Guidance lines","object_type":"Line","paint":{"stroke":"#7E0000","stroke-opacity":1,"stroke-width":1,"palette-overrides":{"light":{"stroke":"#7E0000"}}},"feature_count":1},"line.twr-ctr.000000":{"name":"TWR-CTR","layer":"Guidance lines","object_type":"Line","paint":{"stroke":"#000000","stroke-opacity":1,"stroke-width":1,"palette-overrides":{"light":{"stroke":"#000000"}}},"feature_count":1},"line.labels.808080":{"name":"Labels","layer":"Guidance lines","object_type":"Line","paint":{"stroke":"#808080","stroke-opacity":1,"stroke-width":1,"palette-overrides":{"light":{"stroke":"#808080"}}},"feature_count":1},"label.gates":{"name":"Gates","layer":"Labels","object_type":"Label","paint":{"text-color":"#CCCCCC","text-font":"Arial","text-size":12,"text-halo-color":"#000000","text-halo-width":1,"text-anchor":"center","zoomLevel":9},"feature_count":1},"label.taxiways":{"name":"Taxiways","layer":"Labels","object_type":"Label","paint":{"text-color":"#CCCCCC","text-font":"Arial","text-size":12,"text-halo-color":"#000000","text-halo-width":1,"text-anchor":"center","zoomLevel":7},"feature_count":3}},"vsmr_groups":[],"features":[{"type":"Feature","id":"LFOU-c8d1ceff22a7da20ba4c","properties":{"airport":"LFOU","name":"TWR","layer":"Labels","category":"Gates","object_type":"Label","style_id":"label.gates","source_group":"LFOU Gates","vsmr_group_ids":[],"geometry_role":"text_label","text-field":"TWR"},"geometry":{"type":"Point","coordinates":[-0.880416944,47.080696111]}},{"type":"Feature","id":"LFOU-8cab45de4d6461083e46","properties":{"airport":"LFOU","name":"LFOU Groundlayout","layer":"Guidance lines","category":"Runways","object_type":"Line","style_id":"line.runwayconcrete.555555","source_group":"LFOU Groundlayout","vsmr_group_ids":[],"geometry_role":"linework"},"geometry":{"type":"MultiLineString","coordinates":[[[-0.877235278,47.082201944],[-0.873395833,47.087821944],[-0.873034722,47.087704167],[-0.877058889,47.0818225]],[[-0.877105278,47.081752222],[-0.880708611,47.076481389],[-0.881068056,47.076593056],[-0.878673611,47.080095833]]]}},{"type":"Feature","id":"LFOU-0b2a1da737e47cb15b06","properties":{"airport":"LFOU","name":"LFOU Groundlayout","layer":"Guidance lines","category":"Grass runways","object_type":"Line","style_id":"line.runwaygrass.008000","source_group":"LFOU Groundlayout","vsmr_group_ids":[],"geometry_role":"linework"},"geometry":{"type":"MultiLineString","coordinates":[[[-0.876084444,47.081522778],[-0.872940833,47.086115],[-0.873894167,47.086419722],[-0.877055278,47.081815]],[[-0.876123056,47.081457222],[-0.878671389,47.077727222],[-0.879623056,47.078031389],[-0.8770975,47.081751389]]]}},{"type":"Feature","id":"LFOU-4d18abdb69a9d245a21b","properties":{"airport":"LFOU","name":"LFOU Groundlayout","layer":"Guidance lines","category":"Taxiways","object_type":"Line","style_id":"line.taxiway.c0b631","source_group":"LFOU Groundlayout","vsmr_group_ids":[],"geometry_role":"linework"},"geometry":{"type":"MultiLineString","coordinates":[[[-0.877058056,47.081822222],[-0.877060278,47.081818611],[-0.877055556,47.081814167],[-0.877042222,47.081809722],[-0.876646944,47.081687222],[-0.876328056,47.081588056],[-0.876069444,47.081511944],[-0.875458889,47.081689722],[-0.875367222,47.081721389],[-0.875303333,47.081749722],[-0.875190278,47.081800833]],[[-0.879578889,47.080208889],[-0.879701389,47.080031111],[-0.879711667,47.080020556],[-0.879721111,47.080010556],[-0.879730556,47.0800025],[-0.879739444,47.079995],[-0.879747778,47.079988889],[-0.879758333,47.079983056],[-0.879769167,47.079977778],[-0.879784444,47.079970833],[-0.879798889,47.079966111],[-0.879815556,47.079960833],[-0.879836667,47.079955],[-0.879856944,47.07995],[-0.880596944,47.079768056]],[[-0.879672222,47.080239167],[-0.87978,47.080068333],[-0.879789167,47.080055833],[-0.879799167,47.080047778],[-0.87981,47.080038333],[-0.879825556,47.080030833],[-0.879841667,47.080023611],[-0.8805975,47.079835278]],[[-0.879385,47.080348611],[-0.879354167,47.080356111],[-0.879331944,47.080358611],[-0.879308889,47.080358611],[-0.879285556,47.080358611],[-0.879260278,47.080355833],[-0.879231944,47.080348889],[-0.878759722,47.080200833],[-0.878739722,47.080194167],[-0.878719444,47.080182222],[-0.878704167,47.080170556],[-0.878693056,47.080160278],[-0.878685,47.080143056],[-0.878675833,47.080124444],[-0.878671944,47.080109444],[-0.878673889,47.080095]],[[-0.879269167,47.080517778],[-0.8792525,47.080481944],[-0.879234444,47.080466667],[-0.879214722,47.080455278],[-0.879196667,47.080441944],[-0.879160556,47.080429722],[-0.878710833,47.0802875],[-0.878683333,47.080279444],[-0.878661111,47.080276389],[-0.878636111,47.080276389],[-0.878616667,47.080280556],[-0.8785925,47.080286111],[-0.878565833,47.080295],[-0.878544444,47.080303611],[-0.878528611,47.080313889],[-0.878500833,47.080332222]],[[-0.878397222,47.081835833],[-0.878373056,47.081847778],[-0.878342222,47.081854444],[-0.877805,47.081952778],[-0.877736944,47.081965],[-0.877694722,47.081971667],[-0.877651389,47.081977222],[-0.877615556,47.081979167],[-0.877585,47.081979167],[-0.877558056,47.081975556],[-0.877530278,47.0819675],[-0.877511389,47.081958333],[-0.877489167,47.081944722],[-0.877474722,47.081931389],[-0.877463889,47.081917222],[-0.877456667,47.081900833],[-0.877453889,47.081883611],[-0.877455833,47.081873333],[-0.877460278,47.081866667]],[[-0.8784275,47.0819425],[-0.877633611,47.082072778],[-0.877481944,47.082099444],[-0.877403889,47.082115278],[-0.877333611,47.082130278],[-0.877302222,47.082143056],[-0.877281944,47.0821525],[-0.877260278,47.082172778],[-0.877235278,47.0822025]],[[-0.877104444,47.081752222],[-0.877096111,47.081752222],[-0.877078611,47.081747778],[-0.876061667,47.081441111],[-0.875991389,47.081463056],[-0.875128333,47.081722222]]]}},{"type":"Feature","id":"LFOU-968fa94407b2b78faa41","properties":{"airport":"LFOU","name":"LFOU Groundlayout","layer":"Guidance lines","category":"Apron Surface","object_type":"Line","style_id":"line.apronsurface.808080","source_group":"LFOU Groundlayout","vsmr_group_ids":[],"geometry_role":"linework"},"geometry":{"type":"MultiLineString","coordinates":[[[-0.880596944,47.079835278],[-0.880611389,47.079846667],[-0.880615833,47.07986],[-0.880618056,47.079875278],[-0.880619167,47.079891667],[-0.880615833,47.079911389],[-0.880610278,47.079958611],[-0.880805833,47.080012778],[-0.8808125,47.080001667],[-0.880821111,47.0799925],[-0.880831111,47.079988056],[-0.880846667,47.079985],[-0.880958333,47.080013611],[-0.881243056,47.079526944],[-0.880989167,47.079453056],[-0.8809875,47.079438611],[-0.880805278,47.079394444],[-0.880772222,47.079432778],[-0.880752778,47.079474444],[-0.880695,47.079660556],[-0.880672778,47.079713333],[-0.880655833,47.079730556],[-0.880645556,47.079744722],[-0.880631667,47.079756389],[-0.880611667,47.079764167],[-0.880590556,47.079769167]],[[-0.875189444,47.081801111],[-0.875184444,47.081806667],[-0.875253889,47.0818275],[-0.875048611,47.082128333],[-0.875033333,47.082138056],[-0.87502,47.082144722],[-0.875005278,47.082148056],[-0.874990278,47.082151389],[-0.874974722,47.082155],[-0.874958056,47.082158333],[-0.874940833,47.082161111],[-0.874803889,47.08212],[-0.875068611,47.081718611],[-0.875075833,47.081720278],[-0.875083056,47.081720278],[-0.8750925,47.081719722],[-0.875101111,47.081719444],[-0.875111111,47.081718889],[-0.875119722,47.081719722],[-0.875125833,47.081721667],[-0.875131389,47.081721389]],[[-0.8784275,47.081942222],[-0.878440556,47.081943056],[-0.878453333,47.081946111],[-0.878463889,47.08195],[-0.878471944,47.081954167],[-0.878479444,47.08196],[-0.878483056,47.081965833],[-0.878485,47.081998611],[-0.878483333,47.082016111],[-0.8781275,47.082541389],[-0.878368889,47.082615833],[-0.877907778,47.083211667],[-0.877948889,47.083228333],[-0.877961111,47.083224167],[-0.877974722,47.083223611],[-0.877986111,47.083225833],[-0.878218333,47.083305278],[-0.878310833,47.083337222],[-0.878356111,47.083351667],[-0.878393333,47.0833625],[-0.878425556,47.083369444],[-0.878459722,47.083378333],[-0.878492778,47.083383056],[-0.878520833,47.083383889],[-0.878554167,47.083383889],[-0.878590278,47.083383889],[-0.878658611,47.083301111],[-0.878167222,47.083118889],[-0.878291667,47.082956111],[-0.878316944,47.082952778],[-0.878787222,47.08313],[-0.878809444,47.083103889],[-0.878608333,47.083014167],[-0.879002222,47.082602222],[-0.878894722,47.082548333],[-0.878956111,47.082495556],[-0.879049444,47.082543611],[-0.879085833,47.082518611],[-0.879238611,47.082580833],[-0.87929,47.082576111],[-0.879339722,47.082568333],[-0.879376111,47.082552778],[-0.879423611,47.082530833],[-0.8794675,47.082506111],[-0.879511389,47.082473611],[-0.879778889,47.0822175],[-0.879805556,47.082212222],[-0.879845556,47.082225278],[-0.8798875,47.082244722],[-0.880292222,47.081807778],[-0.879507778,47.081471111],[-0.879477222,47.081498611],[-0.879183056,47.0813775],[-0.879045556,47.081528333],[-0.879016944,47.081497222],[-0.879036111,47.081451667],[-0.879667222,47.080511944],[-0.879821667,47.080283889],[-0.879673056,47.080238889]],[[-0.8783975,47.081836389],[-0.878415278,47.081819444],[-0.878438333,47.081796944],[-0.878458056,47.081771944],[-0.878509167,47.081696944],[-0.878561944,47.081614722],[-0.879233333,47.080622778],[-0.879247778,47.080600833],[-0.879255833,47.080584722],[-0.879263056,47.08057],[-0.879266667,47.080555278],[-0.879269444,47.08054],[-0.879268611,47.080528889],[-0.879266667,47.080513056]],[[-0.8793875,47.080347778],[-0.879418056,47.080331111],[-0.879433889,47.080318889],[-0.879449722,47.080305556],[-0.879459722,47.080290556],[-0.879524722,47.0801925],[-0.879577778,47.080209167]]]}},{"type":"Feature","id":"LFOU-9c67f176fbf69800b900","properties":{"airport":"LFOU","name":"LFOU Groundlayout","layer":"Guidance lines","category":"Stopbars","object_type":"Line","style_id":"line.stopbar.7e0000","source_group":"LFOU Groundlayout","vsmr_group_ids":[],"geometry_role":"linework"},"geometry":{"type":"MultiLineString","coordinates":[[[-0.879364722,47.080353611],[-0.879262778,47.080501389]],[[-0.878357778,47.081953889],[-0.878324167,47.081858056]],[[-0.875508611,47.081608333],[-0.875543889,47.081665]]]}},{"type":"Feature","id":"LFOU-ba270b2a48b67d111df9","properties":{"airport":"LFOU","name":"LFOU Groundlayout","layer":"Guidance lines","category":"TWR-CTR","object_type":"Line","style_id":"line.twr-ctr.000000","source_group":"LFOU Groundlayout","vsmr_group_ids":[],"geometry_role":"linework"},"geometry":{"type":"LineString","coordinates":[[-0.880023056,47.080762778],[-0.880116667,47.080610556],[-0.880143056,47.080555278],[-0.880039444,47.080524722],[-0.880031389,47.080508333],[-0.880061667,47.080450278],[-0.880043611,47.080435],[-0.880015,47.080423889],[-0.879968333,47.080437778],[-0.879941944,47.080428056],[-0.879933889,47.0804475],[-0.879912222,47.080449444],[-0.8798425,47.080568333],[-0.879868333,47.080593611],[-0.879853889,47.080617778],[-0.879810278,47.080628889],[-0.8797425,47.080746667],[-0.879759722,47.080772778],[-0.879781667,47.080795556],[-0.8798025,47.080793611],[-0.879832222,47.080801667],[-0.879863889,47.080793611],[-0.879896667,47.080738333],[-0.880023056,47.080762778]]}},{"type":"Feature","id":"LFOU-6d19ddbca2774fea1504","properties":{"airport":"LFOU","name":"LFOU Groundlayout","layer":"Guidance lines","category":"Labels","object_type":"Line","style_id":"line.labels.808080","source_group":"LFOU Groundlayout","vsmr_group_ids":[],"geometry_role":"linework"},"geometry":{"type":"MultiLineString","coordinates":[[[-0.873556944,47.087397222],[-0.873537778,47.087390833],[-0.873619444,47.087270556],[-0.873610833,47.087267778],[-0.873625833,47.087249444],[-0.873638611,47.087243889],[-0.873659722,47.087251111],[-0.873556944,47.087397222]],[[-0.879716389,47.078423056],[-0.879613333,47.078569722],[-0.879543056,47.078545556],[-0.879642778,47.078398056],[-0.879716389,47.078423056]],[[-0.879675,47.078443333],[-0.87961,47.078536667],[-0.879578889,47.078526944],[-0.879644167,47.078433056],[-0.879675,47.078443333]],[[-0.879505,47.078503333],[-0.879486111,47.078530556],[-0.879413611,47.078506111],[-0.879441944,47.078465],[-0.879487778,47.078456944],[-0.879464722,47.078429444],[-0.879516944,47.078356944],[-0.879592778,47.078381944],[-0.879572778,47.078409444],[-0.879520278,47.078391944],[-0.879489444,47.078435],[-0.879512778,47.078465556],[-0.879463333,47.078473333],[-0.879453333,47.078486944],[-0.879505,47.078503333]],[[-0.873475833,47.0873725],[-0.873401944,47.087349444],[-0.873430833,47.087305833],[-0.873521667,47.087265556],[-0.873536389,47.087244444],[-0.873508333,47.087234722],[-0.873496944,47.087248056],[-0.873475833,47.087240556],[-0.873503333,47.087199167],[-0.873577222,47.087224722],[-0.873541389,47.087276944],[-0.873449722,47.087317778],[-0.873442222,47.087329722],[-0.873495,47.087346389],[-0.873475833,47.0873725]]]}},{"type":"Feature","id":"LFOU-dd25618cd0e9c0f40fa1","properties":{"airport":"LFOU","name":"A","layer":"Labels","category":"Taxiways","object_type":"Label","style_id":"label.taxiways","source_group":"LFOU Taxiways","vsmr_group_ids":[],"geometry_role":"text_label","text-field":"A"},"geometry":{"type":"Point","coordinates":[-0.879104167,47.080461944]}},{"type":"Feature","id":"LFOU-5d7ca2445ebc50d839f9","properties":{"airport":"LFOU","name":"B","layer":"Labels","category":"Taxiways","object_type":"Label","style_id":"label.taxiways","source_group":"LFOU Taxiways","vsmr_group_ids":[],"geometry_role":"text_label","text-field":"B"},"geometry":{"type":"Point","coordinates":[-0.878192778,47.082061389]}},{"type":"Feature","id":"LFOU-fa7cc11bd7ca181872d3","properties":{"airport":"LFOU","name":"C","layer":"Labels","category":"Taxiways","object_type":"Label","style_id":"label.taxiways","source_group":"LFOU Taxiways","vsmr_group_ids":[],"geometry_role":"text_label","text-field":"C"},"geometry":{"type":"Point","coordinates":[-0.875706111,47.081701111]}}]}
