{"type":"FeatureCollection","name":"LFOV AVISO","bbox":[-0.751380556,48.025553611,-0.736119722,48.038985556],"metadata":{"schema":"vSMR AVISO","schema_version":2,"geometry_mode":"shared","airport":"LFOV","coordinate_reference_system":"WGS84","coordinate_order":"longitude, latitude","default_color_palette":"dark","color_palettes":["dark","light"],"background_colors":{"dark":"#434A4F","light":"#434A4F"},"runways":[{"ends":["14L","32R"],"headings":[142,322],"thresholds":[[-0.749960833,48.038530833],[-0.738152778,48.028280833]]},{"ends":["14","32"],"headings":[142,322],"thresholds":[[-0.750938889,48.038355833],[-0.738021944,48.027146944]]}],"saved_active_runways":[],"saved_active_airport_modes":[],"airport_reference":[-0.742777778,48.032221944],"feature_count":30,"style_count":10,"layer_counts":{"Guidance lines":8,"Labels":22},"category_counts":{"Apron Surface":1,"Centerlines":1,"Gates":19,"Grass runways":1,"Labels":1,"Runways":1,"Stopbars":1,"TWR-CTR":1,"Taxiways":4},"geometry_source":"local GNG/KMZ","geometry_source_url":"","geometry_license":"GPL-3.0"},"styles":{"line.runwayconcrete.555555":{"name":"Runways","layer":"Guidance lines","object_type":"Line","paint":{"stroke":"#111318","stroke-opacity":1,"stroke-width":1,"palette-overrides":{"light":{"stroke":"#555555"}}},"feature_count":1},"line.runwaygrass.008000":{"name":"Grass runways","layer":"Guidance lines","object_type":"Line","paint":{"stroke":"#859A77","stroke-opacity":1,"stroke-width":1,"palette-overrides":{"light":{"stroke":"#008000"}}},"feature_count":1},"line.taxiway.c0b631":{"name":"Taxiways","layer":"Guidance lines","object_type":"Line","paint":{"stroke":"#4E5A69","stroke-opacity":1,"stroke-width":1,"palette-overrides":{"light":{"stroke":"#C0B631"}}},"feature_count":1},"line.apronsurface.808080":{"name":"Apron Surface","layer":"Guidance lines","object_type":"Line","paint":{"stroke":"#808080","stroke-opacity":1,"stroke-width":1,"palette-overrides":{"light":{"stroke":"#808080"}}},"feature_count":1},"line.stopbar.7e0000":{"name":"Stopbars","layer":"Guidance lines","object_type":"Line","paint":{"stroke":"#7E0000","stroke-opacity":1,"stroke-width":1,"palette-overrides":{"light":{"stroke":"#7E0000"}}},"feature_count":1},"line.centerlines.ffff00":{"name":"Centerlines","layer":"Guidance lines","object_type":"Line","paint":{"stroke":"#FFFF00","stroke-opacity":1,"stroke-width":1,"palette-overrides":{"light":{"stroke":"#FFFF00"}}},"feature_count":1},"line.labels.808080":{"name":"Labels","layer":"Guidance lines","object_type":"Line","paint":{"stroke":"#808080","stroke-opacity":1,"stroke-width":1,"palette-overrides":{"light":{"stroke":"#808080"}}},"feature_count":1},"line.twr-ctr.000000":{"name":"TWR-CTR","layer":"Guidance lines","object_type":"Line","paint":{"stroke":"#000000","stroke-opacity":1,"stroke-width":1,"palette-overrides":{"light":{"stroke":"#000000"}}},"feature_count":1},"label.gates":{"name":"Gates","layer":"Labels","object_type":"Label","paint":{"text-color":"#CCCCCC","text-font":"Arial","text-size":12,"text-halo-color":"#000000","text-halo-width":1,"text-anchor":"center","zoomLevel":9},"feature_count":19},"label.taxiways":{"name":"Taxiways","layer":"Labels","object_type":"Label","paint":{"text-color":"#CCCCCC","text-font":"Arial","text-size":12,"text-halo-color":"#000000","text-halo-width":1,"text-anchor":"center","zoomLevel":7},"feature_count":3}},"vsmr_groups":[],"features":[{"type":"Feature","id":"LFOV-f65fadf145901e216c63","properties":{"airport":"LFOV","name":"ACB","layer":"Labels","category":"Gates","object_type":"Label","style_id":"label.gates","source_group":"LFOV Gates","vsmr_group_ids":[],"geometry_role":"text_label","text-field":"ACB"},"geometry":{"type":"Point","coordinates":[-0.740952778,48.036043333]}},{"type":"Feature","id":"LFOV-c27958e2d080efeb9dcf","properties":{"airport":"LFOV","name":"P-ACB","layer":"Labels","category":"Gates","object_type":"Label","style_id":"label.gates","source_group":"LFOV Gates","vsmr_group_ids":[],"geometry_role":"text_label","text-field":"P-ACB"},"geometry":{"type":"Point","coordinates":[-0.739976389,48.03556]}},{"type":"Feature","id":"LFOV-bc8114bf54f96e6996de","properties":{"airport":"LFOV","name":"Hangars","layer":"Labels","category":"Gates","object_type":"Label","style_id":"label.gates","source_group":"LFOV Gates","vsmr_group_ids":[],"geometry_role":"text_label","text-field":"Hangars"},"geometry":{"type":"Point","coordinates":[-0.738631389,48.033880278]}},{"type":"Feature","id":"LFOV-81fd142488ab87928038","properties":{"airport":"LFOV","name":"Terminal","layer":"Labels","category":"Gates","object_type":"Label","style_id":"label.gates","source_group":"LFOV Gates","vsmr_group_ids":[],"geometry_role":"text_label","text-field":"Terminal"},"geometry":{"type":"Point","coordinates":[-0.740097222,48.032423056]}},{"type":"Feature","id":"LFOV-df4370fc58c3aff785d7","properties":{"airport":"LFOV","name":"TWR","layer":"Labels","category":"Gates","object_type":"Label","style_id":"label.gates","source_group":"LFOV Gates","vsmr_group_ids":[],"geometry_role":"text_label","text-field":"TWR"},"geometry":{"type":"Point","coordinates":[-0.739976667,48.0319775]}},{"type":"Feature","id":"LFOV-761d01c8f38a0fd4b0f3","properties":{"airport":"LFOV","name":"Parking","layer":"Labels","category":"Gates","object_type":"Label","style_id":"label.gates","source_group":"LFOV Gates","vsmr_group_ids":[],"geometry_role":"text_label","text-field":"Parking"},"geometry":{"type":"Point","coordinates":[-0.739750278,48.031675556]}},{"type":"Feature","id":"LFOV-2de23f897b7fa8b192aa","properties":{"airport":"LFOV","name":"Hangars","layer":"Labels","category":"Gates","object_type":"Label","style_id":"label.gates","source_group":"LFOV Gates","vsmr_group_ids":[],"geometry_role":"text_label","text-field":"Hangars"},"geometry":{"type":"Point","coordinates":[-0.738633333,48.031175556]}},{"type":"Feature","id":"LFOV-f4b3f667abebb8aa3847","properties":{"airport":"LFOV","name":"X","layer":"Labels","category":"Gates","object_type":"Label","style_id":"label.gates","source_group":"LFOV Gates","vsmr_group_ids":[],"geometry_role":"text_label","text-field":"X"},"geometry":{"type":"Point","coordinates":[-0.737413611,48.026534167]}},{"type":"Feature","id":"LFOV-d2300926f79a67ee7fe2","properties":{"airport":"LFOV","name":"X","layer":"Labels","category":"Gates","object_type":"Label","style_id":"label.gates","source_group":"LFOV Gates","vsmr_group_ids":[],"geometry_role":"text_label","text-field":"X"},"geometry":{"type":"Point","coordinates":[-0.736703611,48.025913333]}},{"type":"Feature","id":"LFOV-3ef3c554adbfbfea0ac4","properties":{"airport":"LFOV","name":"2C","layer":"Labels","category":"Gates","object_type":"Label","style_id":"label.gates","source_group":"LFOV Gates","vsmr_group_ids":[],"geometry_role":"text_label","text-field":"2C"},"geometry":{"type":"Point","coordinates":[-0.740269167,48.033002222]}},{"type":"Feature","id":"LFOV-470b6491f05bc72eac1a","properties":{"airport":"LFOV","name":"2D","layer":"Labels","category":"Gates","object_type":"Label","style_id":"label.gates","source_group":"LFOV Gates","vsmr_group_ids":[],"geometry_role":"text_label","text-field":"2D"},"geometry":{"type":"Point","coordinates":[-0.740120556,48.032895278]}},{"type":"Feature","id":"LFOV-c061423e214aed41a1b3","properties":{"airport":"LFOV","name":"2E","layer":"Labels","category":"Gates","object_type":"Label","style_id":"label.gates","source_group":"LFOV Gates","vsmr_group_ids":[],"geometry_role":"text_label","text-field":"2E"},"geometry":{"type":"Point","coordinates":[-0.740031944,48.032800833]}},{"type":"Feature","id":"LFOV-9cd3af0c5ce7f481b8d8","properties":{"airport":"LFOV","name":"1A","layer":"Labels","category":"Gates","object_type":"Label","style_id":"label.gates","source_group":"LFOV Gates","vsmr_group_ids":[],"geometry_role":"text_label","text-field":"1A"},"geometry":{"type":"Point","coordinates":[-0.740713889,48.032743889]}},{"type":"Feature","id":"LFOV-471505a80680a50026c5","properties":{"airport":"LFOV","name":"1B","layer":"Labels","category":"Gates","object_type":"Label","style_id":"label.gates","source_group":"LFOV Gates","vsmr_group_ids":[],"geometry_role":"text_label","text-field":"1B"},"geometry":{"type":"Point","coordinates":[-0.740500278,48.032581944]}},{"type":"Feature","id":"LFOV-3a5d1371055079aac2e9","properties":{"airport":"LFOV","name":"3A","layer":"Labels","category":"Gates","object_type":"Label","style_id":"label.gates","source_group":"LFOV Gates","vsmr_group_ids":[],"geometry_role":"text_label","text-field":"3A"},"geometry":{"type":"Point","coordinates":[-0.740285556,48.031373889]}},{"type":"Feature","id":"LFOV-90a63c4f6ddca00aae22","properties":{"airport":"LFOV","name":"3B","layer":"Labels","category":"Gates","object_type":"Label","style_id":"label.gates","source_group":"LFOV Gates","vsmr_group_ids":[],"geometry_role":"text_label","text-field":"3B"},"geometry":{"type":"Point","coordinates":[-0.740055833,48.031513333]}},{"type":"Feature","id":"LFOV-5d8b9f2526f966c98eeb","properties":{"airport":"LFOV","name":"3C","layer":"Labels","category":"Gates","object_type":"Label","style_id":"label.gates","source_group":"LFOV Gates","vsmr_group_ids":[],"geometry_role":"text_label","text-field":"3C"},"geometry":{"type":"Point","coordinates":[-0.739865278,48.030898611]}},{"type":"Feature","id":"LFOV-123be856329e7c06ea36","properties":{"airport":"LFOV","name":"3D","layer":"Labels","category":"Gates","object_type":"Label","style_id":"label.gates","source_group":"LFOV Gates","vsmr_group_ids":[],"geometry_role":"text_label","text-field":"3D"},"geometry":{"type":"Point","coordinates":[-0.73966,48.0309975]}},{"type":"Feature","id":"LFOV-8bcc799c0e3f79c33cbc","properties":{"airport":"LFOV","name":"3E","layer":"Labels","category":"Gates","object_type":"Label","style_id":"label.gates","source_group":"LFOV Gates","vsmr_group_ids":[],"geometry_role":"text_label","text-field":"3E"},"geometry":{"type":"Point","coordinates":[-0.739521667,48.031083333]}},{"type":"Feature","id":"LFOV-6829f64795901ef8eb71","properties":{"airport":"LFOV","name":"LFOV Groundlayout","layer":"Guidance lines","category":"Runways","object_type":"Line","style_id":"line.runwayconcrete.555555","source_group":"LFOV Groundlayout","vsmr_group_ids":[],"geometry_role":"linework"},"geometry":{"type":"MultiLineString","coordinates":[[[-0.750871667,48.038526667],[-0.750943889,48.038584167],[-0.751380556,48.038355278],[-0.751221944,48.038219167],[-0.751000833,48.038202222],[-0.737949444,48.026874722],[-0.737891111,48.026689722],[-0.737691389,48.026509167],[-0.737631667,48.026530278],[-0.737449444,48.026385],[-0.737400278,48.026385],[-0.737361944,48.026363889],[-0.737292778,48.026304444],[-0.737250833,48.026259444],[-0.7372275,48.026229722],[-0.737213611,48.0261925],[-0.737206667,48.026147222],[-0.7371975,48.026100556],[-0.737181111,48.026064722],[-0.737157778,48.026035278],[-0.737125278,48.026010278],[-0.737085556,48.02599],[-0.737034444,48.025973056],[-0.736976389,48.025963611],[-0.736459722,48.025553611],[-0.736119722,48.0257475],[-0.741570278,48.030452222]],[[-0.743428889,48.032066111],[-0.750664167,48.038342222]]]}},{"type":"Feature","id":"LFOV-39d7751e3084c32d4c49","properties":{"airport":"LFOV","name":"LFOV Groundlayout","layer":"Guidance lines","category":"Grass runways","object_type":"Line","style_id":"line.runwaygrass.008000","source_group":"LFOV Groundlayout","vsmr_group_ids":[],"geometry_role":"linework"},"geometry":{"type":"MultiLineString","coordinates":[[[-0.7427525,48.031780278],[-0.7417825,48.030949722]],[[-0.741524444,48.030670833],[-0.7385375,48.028074167],[-0.7377575,48.028495556],[-0.740747222,48.031087778]],[[-0.743068611,48.032026389],[-0.750204722,48.038091389],[-0.749398611,48.038456667],[-0.742279444,48.032386111]],[[-0.742011111,48.032176667],[-0.740991667,48.0313175]]]}},{"type":"Feature","id":"LFOV-e7388bc3220542759128","properties":{"airport":"LFOV","name":"LFOV Groundlayout","layer":"Guidance lines","category":"Taxiways","object_type":"Line","style_id":"line.taxiway.c0b631","source_group":"LFOV Groundlayout","vsmr_group_ids":[],"geometry_role":"linework"},"geometry":{"type":"MultiLineString","coordinates":[[[-0.740871667,48.031408889],[-0.740868889,48.031375833],[-0.740868889,48.031358333],[-0.7408775,48.031338611],[-0.740887778,48.031316389],[-0.740908056,48.031298889],[-0.740935833,48.031278333],[-0.741679722,48.030886389],[-0.7417325,48.030869722],[-0.741782222,48.030865556],[-0.741863056,48.030865556],[-0.7419375,48.030871944],[-0.741999444,48.030884167],[-0.742064722,48.030900833],[-0.742120556,48.030934167]],[[-0.742853889,48.031568056],[-0.742875556,48.031603889],[-0.742889722,48.031645278],[-0.742889722,48.031691389],[-0.742875556,48.031740556],[-0.742870833,48.031783333],[-0.742846944,48.031818333],[-0.742816111,48.031843889],[-0.742756667,48.031888333],[-0.7420325,48.032261389],[-0.741833056,48.032363611],[-0.741771667,48.032383889],[-0.741725833,48.032392778],[-0.741688889,48.0324],[-0.741640833,48.032403056],[-0.7415775,48.0324],[-0.741522778,48.032394167],[-0.741472222,48.032372778],[-0.741415833,48.032342778]],[[-0.743423611,48.032058889],[-0.743347778,48.032010833],[-0.743288889,48.031988333],[-0.743223611,48.031964444],[-0.743168611,48.031951389],[-0.743106667,48.031951389],[-0.743058056,48.031949167],[-0.743002778,48.03196],[-0.7429475,48.031971111],[-0.742788056,48.032038333],[-0.741860278,48.032518611],[-0.741666944,48.032625278],[-0.741673333,48.032650556],[-0.749156944,48.038806389],[-0.749250556,48.038856667],[-0.749353611,48.038875278],[-0.749521944,48.038856667],[-0.749671944,48.038818889],[-0.750589444,48.038518333],[-0.750637222,48.038502222],[-0.750666389,48.038471667],[-0.750691389,48.038440833],[-0.750703889,48.038396389],[-0.750662222,48.038343611]],[[-0.741559444,48.032713611],[-0.749010556,48.038905278],[-0.749098611,48.038933056],[-0.749154722,48.038959444],[-0.749283611,48.038978056],[-0.749373056,48.038985556],[-0.749462778,48.038963056],[-0.749591389,48.038940556],[-0.749725833,48.038910556],[-0.750869722,48.038521944]],[[-0.740582778,48.031156111],[-0.740619444,48.031165833],[-0.740679444,48.031173333],[-0.740717778,48.031168333],[-0.740750278,48.031164444],[-0.740776944,48.031155556],[-0.740803889,48.031142778],[-0.7414975,48.03078],[-0.741556389,48.030744167],[-0.741597778,48.030709722],[-0.741615833,48.030673611],[-0.741628889,48.03062],[-0.741626111,48.030583611],[-0.741610833,48.030519722],[-0.741605278,48.030499167],[-0.741589722,48.030474722],[-0.741576389,48.030459444],[-0.741567778,48.030449722]]]}},{"type":"Feature","id":"LFOV-9f4dc6ad94fb4bfb994f","properties":{"airport":"LFOV","name":"LFOV Groundlayout","layer":"Guidance lines","category":"Apron Surface","object_type":"Line","style_id":"line.apronsurface.808080","source_group":"LFOV Groundlayout","vsmr_group_ids":[],"geometry_role":"linework"},"geometry":{"type":"MultiLineString","coordinates":[[[-0.741165556,48.032445],[-0.7407175,48.032049722],[-0.74063,48.032093889],[-0.741085,48.032486111],[-0.741165556,48.032445]],[[-0.741555833,48.032710833],[-0.740316667,48.033361111],[-0.740293889,48.033374444],[-0.740275,48.033390556],[-0.740260556,48.033406389],[-0.740246389,48.033422222],[-0.74024,48.033436111],[-0.740231944,48.033454167],[-0.740225556,48.033471111],[-0.740227222,48.033488333],[-0.740227222,48.033501944],[-0.740230278,48.033515833],[-0.740238333,48.033532778],[-0.740246389,48.033558333],[-0.740290833,48.033648611],[-0.74054,48.034213889],[-0.740590278,48.034836111],[-0.7406825,48.034635833],[-0.740772778,48.034656944],[-0.740609167,48.035012778],[-0.740618611,48.035079167],[-0.740611667,48.035203889],[-0.740861944,48.035718056],[-0.740347222,48.035826389],[-0.7402625,48.035609444],[-0.740170833,48.035241944],[-0.740468056,48.035156389],[-0.740426111,48.034816389],[-0.740403611,48.034566111],[-0.740385556,48.034536944],[-0.740345556,48.034515278],[-0.740313056,48.034500556],[-0.740273056,48.034488611],[-0.740225833,48.034478889],[-0.740171389,48.034478889],[-0.73995,48.03452],[-0.739240833,48.032966389],[-0.739337222,48.032915833],[-0.739268333,48.032819167],[-0.739563889,48.032718056],[-0.7396325,48.0327825],[-0.740585833,48.032266944],[-0.7396125,48.031410278],[-0.739261389,48.031594722],[-0.737939722,48.030466111],[-0.737705556,48.030580278],[-0.737617778,48.030501944],[-0.737593611,48.030423611],[-0.737593611,48.030384444],[-0.737735,48.030303056],[-0.737788611,48.0303225],[-0.737842778,48.030325556],[-0.737961944,48.030336111],[-0.738033889,48.0303425],[-0.738080833,48.030353056],[-0.738788611,48.030972778],[-0.738820278,48.030988889],[-0.738853333,48.030995278],[-0.738886111,48.030992778],[-0.738913333,48.030990278],[-0.738944167,48.0309825],[-0.739221111,48.030845278],[-0.739254167,48.030859444],[-0.7392675,48.030875],[-0.739275278,48.030891667],[-0.739296667,48.030903333],[-0.739321944,48.0309125],[-0.739349167,48.030917222],[-0.739372778,48.030918333],[-0.739400833,48.030905278],[-0.739433333,48.030888611],[-0.739789444,48.030714722],[-0.739825,48.030705833],[-0.739856111,48.030697778],[-0.739894444,48.030693889],[-0.739928333,48.030693889],[-0.73996,48.030695833],[-0.739984167,48.030699444],[-0.740008333,48.030703889],[-0.740038056,48.030715556],[-0.740063611,48.030727222],[-0.740087778,48.030740833],[-0.740575556,48.0311525],[-0.740583333,48.031155556]],[[-0.7408725,48.031411111],[-0.740916667,48.031451389],[-0.740974722,48.031499722],[-0.740996389,48.031514167],[-0.741012222,48.031520556],[-0.741029167,48.031524167],[-0.741051667,48.031529167],[-0.741063889,48.0315375],[-0.741069444,48.03155],[-0.741077222,48.031561944],[-0.741069444,48.0315725],[-0.7410575,48.031581944],[-0.7410425,48.031591389],[-0.741025556,48.0316],[-0.740724167,48.031756111],[-0.741075833,48.032054167],[-0.7414175,48.032344444]]]}},{"type":"Feature","id":"LFOV-7d264475032b0639945d","properties":{"airport":"LFOV","name":"LFOV Groundlayout","layer":"Guidance lines","category":"Stopbars","object_type":"Line","style_id":"line.stopbar.7e0000","source_group":"LFOV Groundlayout","vsmr_group_ids":[],"geometry_role":"linework"},"geometry":{"type":"MultiLineString","coordinates":[[[-0.740870278,48.031410556],[-0.740581944,48.031155833]],[[-0.741843333,48.0325275],[-0.741696944,48.032398333]]]}},{"type":"Feature","id":"LFOV-b6b1a1f534c7562c6fa3","properties":{"airport":"LFOV","name":"LFOV Groundlayout","layer":"Guidance lines","category":"Centerlines","object_type":"Line","style_id":"line.centerlines.ffff00","source_group":"LFOV Groundlayout","vsmr_group_ids":[],"geometry_role":"linework"},"geometry":{"type":"MultiLineString","coordinates":[[[-0.73963,48.031215556],[-0.739498333,48.031102778]],[[-0.740208889,48.034334167],[-0.739918333,48.034393889]],[[-0.740103333,48.034121667],[-0.739816389,48.034180833]],[[-0.739998611,48.033908056],[-0.739715,48.033965278]],[[-0.739919444,48.033689722],[-0.739618611,48.03375]],[[-0.739935278,48.033413333],[-0.739548056,48.033492778]],[[-0.739675556,48.033157222],[-0.739410556,48.033209722]],[[-0.740450833,48.032863889],[-0.740248333,48.032971944]],[[-0.740333611,48.032766389],[-0.740132778,48.0328725]],[[-0.740211944,48.032669167],[-0.740018333,48.032773056]],[[-0.740971389,48.032545556],[-0.740664444,48.032713611]],[[-0.7407775,48.032385833],[-0.740467222,48.032555556]],[[-0.740090278,48.031186667],[-0.740264444,48.031338889]],[[-0.739861389,48.031307222],[-0.740065,48.031483056]],[[-0.739826667,48.0309275],[-0.739958889,48.03104]],[[-0.739788056,48.031130556],[-0.739655278,48.031016667]]]}},{"type":"Feature","id":"LFOV-f76998c55036ebce7679","properties":{"airport":"LFOV","name":"LFOV Groundlayout","layer":"Guidance lines","category":"Labels","object_type":"Line","style_id":"line.labels.808080","source_group":"LFOV Groundlayout","vsmr_group_ids":[],"geometry_role":"linework"},"geometry":{"type":"MultiLineString","coordinates":[[[-0.738575,48.027606389],[-0.7385325,48.027570833],[-0.738537222,48.027541389],[-0.738496111,48.027539167],[-0.738426389,48.027478611],[-0.738491389,48.027441944],[-0.738519444,48.027465],[-0.738471389,48.027489167],[-0.738513889,48.027523611],[-0.738568611,48.0275275],[-0.738559722,48.027563333],[-0.738569167,48.027571944],[-0.738615,48.02755],[-0.738643056,48.027571389],[-0.738575,48.027606389]],[[-0.738463333,48.027664722],[-0.738413333,48.027620556],[-0.738401389,48.027546667],[-0.738386944,48.027534444],[-0.738342222,48.027556389],[-0.738315833,48.027535278],[-0.738380278,48.027501667],[-0.738423889,48.027536944],[-0.738435556,48.027614444],[-0.738456667,48.027629444],[-0.738483056,48.027615278],[-0.738465833,48.027603889],[-0.738485556,48.027595],[-0.738530278,48.027630278],[-0.738463333,48.027664722]],[[-0.750485556,48.038040278],[-0.750463611,48.038051944],[-0.750341944,48.037945],[-0.750334167,48.037948611],[-0.750313611,48.037930556],[-0.750315556,48.037922222],[-0.750336389,48.037912222],[-0.750485556,48.038040278]],[[-0.750413056,48.037872222],[-0.750434167,48.037861389],[-0.750495833,48.037955278],[-0.750518333,48.037942778],[-0.750471944,48.037904167],[-0.750490833,48.0378925],[-0.750537222,48.0379325],[-0.750552222,48.037925833],[-0.750579722,48.037947778],[-0.750566111,48.037958611],[-0.750594722,48.037981111],[-0.750577222,48.037993889],[-0.750545833,48.037969444],[-0.750491944,48.037993889],[-0.750413056,48.037872222]]]}},{"type":"Feature","id":"LFOV-01a71980fb1cc4b14654","properties":{"airport":"LFOV","name":"LFOV Groundlayout","layer":"Guidance lines","category":"TWR-CTR","object_type":"Line","style_id":"line.twr-ctr.000000","source_group":"LFOV Groundlayout","vsmr_group_ids":[],"geometry_role":"linework"},"geometry":{"type":"LineString","coordinates":[[-0.740163889,48.031929167],[-0.7401025,48.031875278],[-0.740015833,48.031921111],[-0.740078889,48.031971944],[-0.740163889,48.031929167]]}},{"type":"Feature","id":"LFOV-acc8cacdcd40bd6198d5","properties":{"airport":"LFOV","name":"A","layer":"Labels","category":"Taxiways","object_type":"Label","style_id":"label.taxiways","source_group":"LFOV Taxiways","vsmr_group_ids":[],"geometry_role":"text_label","text-field":"A"},"geometry":{"type":"Point","coordinates":[-0.741347222,48.031225278]}},{"type":"Feature","id":"LFOV-1d21be558817462cd3a9","properties":{"airport":"LFOV","name":"B","layer":"Labels","category":"Taxiways","object_type":"Label","style_id":"label.taxiways","source_group":"LFOV Taxiways","vsmr_group_ids":[],"geometry_role":"text_label","text-field":"B"},"geometry":{"type":"Point","coordinates":[-0.741920833,48.032225]}},{"type":"Feature","id":"LFOV-8fef7ce7f5939de5b114","properties":{"airport":"LFOV","name":"C","layer":"Labels","category":"Taxiways","object_type":"Label","style_id":"label.taxiways","source_group":"LFOV Taxiways","vsmr_group_ids":[],"geometry_role":"text_label","text-field":"C"},"geometry":{"type":"Point","coordinates":[-0.7496575,48.038713333]}}]}
