{"type":"FeatureCollection","name":"LFOX AVISO","bbox":[2.067535833,48.375835556,2.082361667,48.38373],"metadata":{"schema":"vSMR AVISO","schema_version":2,"geometry_mode":"shared","airport":"LFOX","coordinate_reference_system":"WGS84","coordinate_order":"longitude, latitude","default_color_palette":"dark","color_palettes":["dark","light"],"background_colors":{"dark":"#434A4F","light":"#434A4F"},"runways":[{"ends":["06L","24R"],"headings":[56,236],"thresholds":[[2.068768889,48.378805833],[2.078568889,48.383099722]]},{"ends":["06","24"],"headings":[56,236],"thresholds":[[2.072596944,48.379007778],[2.080507778,48.382474722]]}],"saved_active_runways":[],"saved_active_airport_modes":[],"airport_reference":[2.073888889,48.381110833],"feature_count":22,"style_count":2,"layer_counts":{"Labels":22},"category_counts":{"Gates":7,"Taxiways":15},"geometry_source":"local GNG","geometry_source_url":"","geometry_license":"GPL-3.0"},"styles":{"label.gates":{"name":"Gates","layer":"Labels","object_type":"Label","paint":{"text-color":"#CCCCCC","text-font":"Arial","text-size":12,"text-halo-color":"#000000","text-halo-width":1,"text-anchor":"center","zoomLevel":9},"feature_count":7},"label.taxiways":{"name":"Taxiways","layer":"Labels","object_type":"Label","paint":{"text-color":"#CCCCCC","text-font":"Arial","text-size":12,"text-halo-color":"#000000","text-halo-width":1,"text-anchor":"center","zoomLevel":7},"feature_count":15}},"vsmr_groups":[],"features":[{"type":"Feature","id":"LFOX-0aff0d6f2db405bd0086","properties":{"airport":"LFOX","name":"Aire attente","layer":"Labels","category":"Gates","object_type":"Label","style_id":"label.gates","source_group":"LFOX Gates","vsmr_group_ids":[],"geometry_role":"text_label","text-field":"Aire attente"},"geometry":{"type":"Point","coordinates":[2.080948611,48.381851667]}},{"type":"Feature","id":"LFOX-e0e7d1c617f5991242f0","properties":{"airport":"LFOX","name":"AVT","layer":"Labels","category":"Gates","object_type":"Label","style_id":"label.gates","source_group":"LFOX Gates","vsmr_group_ids":[],"geometry_role":"text_label","text-field":"AVT"},"geometry":{"type":"Point","coordinates":[2.079855833,48.380598611]}},{"type":"Feature","id":"LFOX-70cdd9d139014dd34e1c","properties":{"airport":"LFOX","name":"TWR","layer":"Labels","category":"Gates","object_type":"Label","style_id":"label.gates","source_group":"LFOX Gates","vsmr_group_ids":[],"geometry_role":"text_label","text-field":"TWR"},"geometry":{"type":"Point","coordinates":[2.080490278,48.380817778]}},{"type":"Feature","id":"LFOX-b0da14cb5ed0e1bd85c9","properties":{"airport":"LFOX","name":"Axe de Translation helicoptere","layer":"Labels","category":"Gates","object_type":"Label","style_id":"label.gates","source_group":"LFOX Gates","vsmr_group_ids":[],"geometry_role":"text_label","text-field":"Axe de Translation helicoptere"},"geometry":{"type":"Point","coordinates":[2.078081111,48.381056944]}},{"type":"Feature","id":"LFOX-45543f22285ac9b7a628","properties":{"airport":"LFOX","name":"Aire attente","layer":"Labels","category":"Gates","object_type":"Label","style_id":"label.gates","source_group":"LFOX Gates","vsmr_group_ids":[],"geometry_role":"text_label","text-field":"Aire attente"},"geometry":{"type":"Point","coordinates":[2.073754444,48.378638889]}},{"type":"Feature","id":"LFOX-e1751c4c3307c0c67692","properties":{"airport":"LFOX","name":"Parking","layer":"Labels","category":"Gates","object_type":"Label","style_id":"label.gates","source_group":"LFOX Gates","vsmr_group_ids":[],"geometry_role":"text_label","text-field":"Parking"},"geometry":{"type":"Point","coordinates":[2.0786325,48.379952778]}},{"type":"Feature","id":"LFOX-60b979a4c75aa37c76f1","properties":{"airport":"LFOX","name":"Zone Militaire","layer":"Labels","category":"Gates","object_type":"Label","style_id":"label.gates","source_group":"LFOX Gates","vsmr_group_ids":[],"geometry_role":"text_label","text-field":"Zone Militaire"},"geometry":{"type":"Point","coordinates":[2.074125833,48.375835556]}},{"type":"Feature","id":"LFOX-a873b1b7689381d5fd89","properties":{"airport":"LFOX","name":"G1","layer":"Labels","category":"Taxiways","object_type":"Label","style_id":"label.taxiways","source_group":"LFOX Taxiways","vsmr_group_ids":[],"geometry_role":"text_label","text-field":"G1"},"geometry":{"type":"Point","coordinates":[2.067535833,48.377898611]}},{"type":"Feature","id":"LFOX-8a1c28929d1c9f0cadd6","properties":{"airport":"LFOX","name":"G2","layer":"Labels","category":"Taxiways","object_type":"Label","style_id":"label.taxiways","source_group":"LFOX Taxiways","vsmr_group_ids":[],"geometry_role":"text_label","text-field":"G2"},"geometry":{"type":"Point","coordinates":[2.070028333,48.379004722]}},{"type":"Feature","id":"LFOX-9e3945638d1d052dd1ec","properties":{"airport":"LFOX","name":"G3","layer":"Labels","category":"Taxiways","object_type":"Label","style_id":"label.taxiways","source_group":"LFOX Taxiways","vsmr_group_ids":[],"geometry_role":"text_label","text-field":"G3"},"geometry":{"type":"Point","coordinates":[2.072592778,48.380117778]}},{"type":"Feature","id":"LFOX-bce98d8ced12b89abaae","properties":{"airport":"LFOX","name":"G4","layer":"Labels","category":"Taxiways","object_type":"Label","style_id":"label.taxiways","source_group":"LFOX Taxiways","vsmr_group_ids":[],"geometry_role":"text_label","text-field":"G4"},"geometry":{"type":"Point","coordinates":[2.074057778,48.380755]}},{"type":"Feature","id":"LFOX-3ea0faf5375244645a38","properties":{"airport":"LFOX","name":"G5","layer":"Labels","category":"Taxiways","object_type":"Label","style_id":"label.taxiways","source_group":"LFOX Taxiways","vsmr_group_ids":[],"geometry_role":"text_label","text-field":"G5"},"geometry":{"type":"Point","coordinates":[2.075678889,48.381465278]}},{"type":"Feature","id":"LFOX-d396c4a1cd8df505ed60","properties":{"airport":"LFOX","name":"G6","layer":"Labels","category":"Taxiways","object_type":"Label","style_id":"label.taxiways","source_group":"LFOX Taxiways","vsmr_group_ids":[],"geometry_role":"text_label","text-field":"G6"},"geometry":{"type":"Point","coordinates":[2.078398333,48.382660278]}},{"type":"Feature","id":"LFOX-101936ba75ab2eb013e3","properties":{"airport":"LFOX","name":"G7","layer":"Labels","category":"Taxiways","object_type":"Label","style_id":"label.taxiways","source_group":"LFOX Taxiways","vsmr_group_ids":[],"geometry_role":"text_label","text-field":"G7"},"geometry":{"type":"Point","coordinates":[2.080798333,48.38373]}},{"type":"Feature","id":"LFOX-5c83177fccb5a067e34d","properties":{"airport":"LFOX","name":"G","layer":"Labels","category":"Taxiways","object_type":"Label","style_id":"label.taxiways","source_group":"LFOX Taxiways","vsmr_group_ids":[],"geometry_role":"text_label","text-field":"G"},"geometry":{"type":"Point","coordinates":[2.073913333,48.380129444]}},{"type":"Feature","id":"LFOX-8115475c8232d1926bd7","properties":{"airport":"LFOX","name":"W","layer":"Labels","category":"Taxiways","object_type":"Label","style_id":"label.taxiways","source_group":"LFOX Taxiways","vsmr_group_ids":[],"geometry_role":"text_label","text-field":"W"},"geometry":{"type":"Point","coordinates":[2.071004444,48.377760556]}},{"type":"Feature","id":"LFOX-7d8cc58fd15494a980cb","properties":{"airport":"LFOX","name":"A","layer":"Labels","category":"Taxiways","object_type":"Label","style_id":"label.taxiways","source_group":"LFOX Taxiways","vsmr_group_ids":[],"geometry_role":"text_label","text-field":"A"},"geometry":{"type":"Point","coordinates":[2.0726725,48.378760556]}},{"type":"Feature","id":"LFOX-0609eca3b07c351a8ea9","properties":{"airport":"LFOX","name":"D","layer":"Labels","category":"Taxiways","object_type":"Label","style_id":"label.taxiways","source_group":"LFOX Taxiways","vsmr_group_ids":[],"geometry_role":"text_label","text-field":"D"},"geometry":{"type":"Point","coordinates":[2.0755975,48.379386944]}},{"type":"Feature","id":"LFOX-a6af4a4d77c11e647dde","properties":{"airport":"LFOX","name":"B","layer":"Labels","category":"Taxiways","object_type":"Label","style_id":"label.taxiways","source_group":"LFOX Taxiways","vsmr_group_ids":[],"geometry_role":"text_label","text-field":"B"},"geometry":{"type":"Point","coordinates":[2.08083,48.382316667]}},{"type":"Feature","id":"LFOX-12e57c54d40039b2ec13","properties":{"airport":"LFOX","name":"E","layer":"Labels","category":"Taxiways","object_type":"Label","style_id":"label.taxiways","source_group":"LFOX Taxiways","vsmr_group_ids":[],"geometry_role":"text_label","text-field":"E"},"geometry":{"type":"Point","coordinates":[2.081811667,48.382949167]}},{"type":"Feature","id":"LFOX-cf09f4bc9764f01394dd","properties":{"airport":"LFOX","name":"S","layer":"Labels","category":"Taxiways","object_type":"Label","style_id":"label.taxiways","source_group":"LFOX Taxiways","vsmr_group_ids":[],"geometry_role":"text_label","text-field":"S"},"geometry":{"type":"Point","coordinates":[2.082361667,48.380028889]}},{"type":"Feature","id":"LFOX-86833aa2981081f12254","properties":{"airport":"LFOX","name":"T","layer":"Labels","category":"Taxiways","object_type":"Label","style_id":"label.taxiways","source_group":"LFOX Taxiways","vsmr_group_ids":[],"geometry_role":"text_label","text-field":"T"},"geometry":{"type":"Point","coordinates":[2.079375556,48.381442222]}}]}
