{"type":"FeatureCollection","name":"LFOZ AVISO","bbox":[2.156,47.892722222,2.1735,47.903055556],"metadata":{"schema":"vSMR AVISO","schema_version":2,"geometry_mode":"shared","airport":"LFOZ","coordinate_reference_system":"WGS84","coordinate_order":"longitude, latitude","default_color_palette":"dark","color_palettes":["dark","light"],"background_colors":{"dark":"#434A4F","light":"#434A4F"},"runways":[{"ends":["05R","23L"],"headings":[52,232],"thresholds":[[2.159063889,47.894282778],[2.172477778,47.901032778]]},{"ends":["05","23"],"headings":[52,232],"thresholds":[[2.157318889,47.894141944],[2.174446944,47.902777778]]}],"saved_active_runways":[],"saved_active_airport_modes":[],"airport_reference":[2.164166944,47.8975],"feature_count":2,"style_count":2,"layer_counts":{"Guidance lines":2},"category_counts":{"Grass runways":1,"Runways":1},"geometry_source":"local GNG/KMZ","geometry_source_url":"","geometry_license":"GPL-3.0"},"styles":{"line.runwayconcrete.555555":{"name":"Runways","layer":"Guidance lines","object_type":"Line","paint":{"stroke":"#111318","stroke-opacity":1,"stroke-width":1,"palette-overrides":{"light":{"stroke":"#555555"}}},"feature_count":1},"line.runwaygrass.008000":{"name":"Grass runways","layer":"Guidance lines","object_type":"Line","paint":{"stroke":"#859A77","stroke-opacity":1,"stroke-width":1,"palette-overrides":{"light":{"stroke":"#008000"}}},"feature_count":1}},"vsmr_groups":[],"features":[{"type":"Feature","id":"LFOZ-7a6a92f782eac4172318","properties":{"airport":"LFOZ","name":"LFOZ Groundlayout","layer":"Guidance lines","category":"Runways","object_type":"Line","style_id":"line.runwayconcrete.555555","source_group":"LFOZ Groundlayout","vsmr_group_ids":[],"geometry_role":"linework"},"geometry":{"type":"MultiLineString","coordinates":[[[2.160277778,47.893027778],[2.171583333,47.898722222]],[[2.157722222,47.895777778],[2.160277778,47.893027778]],[[2.169,47.901472222],[2.171583333,47.898722222]]]}},{"type":"Feature","id":"LFOZ-611a6ea21d6c5608fc77","properties":{"airport":"LFOZ","name":"LFOZ Groundlayout","layer":"Guidance lines","category":"Grass runways","object_type":"Line","style_id":"line.runwaygrass.008000","source_group":"LFOZ Groundlayout","vsmr_group_ids":[],"geometry_role":"linework"},"geometry":{"type":"MultiLineString","coordinates":[[[2.156,47.895472222],[2.170888889,47.903055556]],[[2.158611111,47.892722222],[2.1735,47.900333333]],[[2.156,47.895472222],[2.158611111,47.892722222]],[[2.170888889,47.903055556],[2.1735,47.900333333]]]}}]}
