{"type":"FeatureCollection","name":"LFPC AVISO","bbox":[2.517333333,49.249777778,2.524333333,49.251972222],"metadata":{"schema":"vSMR AVISO","schema_version":2,"geometry_mode":"shared","airport":"LFPC","coordinate_reference_system":"WGS84","coordinate_order":"longitude, latitude","default_color_palette":"dark","color_palettes":["dark","light"],"background_colors":{"dark":"#434A4F","light":"#434A4F"},"runways":[],"saved_active_runways":[],"saved_active_airport_modes":[],"feature_count":8,"style_count":1,"layer_counts":{"Labels":8},"category_counts":{"Gates":8},"geometry_source":"local GNG/KMZ","geometry_source_url":"","geometry_license":"GPL-3.0"},"styles":{"label.gates":{"name":"Gates","layer":"Labels","object_type":"Label","paint":{"text-color":"#CCCCCC","text-font":"Arial","text-size":12,"text-halo-color":"#000000","text-halo-width":1,"text-anchor":"center","zoomLevel":9},"feature_count":8}},"vsmr_groups":[],"features":[{"type":"Feature","id":"LFPC-fc768614c33d63a8a639","properties":{"airport":"LFPC","name":"1","layer":"Labels","category":"Gates","object_type":"Label","style_id":"label.gates","source_group":"LFPC Gates","vsmr_group_ids":[],"geometry_role":"text_label","text-field":"1"},"geometry":{"type":"Point","coordinates":[2.524333333,49.251972222]}},{"type":"Feature","id":"LFPC-ccc0c87da50bc4fc8cf3","properties":{"airport":"LFPC","name":"2","layer":"Labels","category":"Gates","object_type":"Label","style_id":"label.gates","source_group":"LFPC Gates","vsmr_group_ids":[],"geometry_role":"text_label","text-field":"2"},"geometry":{"type":"Point","coordinates":[2.523777778,49.251805556]}},{"type":"Feature","id":"LFPC-c5b10cf202ac45b81104","properties":{"airport":"LFPC","name":"3","layer":"Labels","category":"Gates","object_type":"Label","style_id":"label.gates","source_group":"LFPC Gates","vsmr_group_ids":[],"geometry_role":"text_label","text-field":"3"},"geometry":{"type":"Point","coordinates":[2.519083333,49.250361111]}},{"type":"Feature","id":"LFPC-a7ce7674d9d2ddd9a547","properties":{"airport":"LFPC","name":"4","layer":"Labels","category":"Gates","object_type":"Label","style_id":"label.gates","source_group":"LFPC Gates","vsmr_group_ids":[],"geometry_role":"text_label","text-field":"4"},"geometry":{"type":"Point","coordinates":[2.518194444,49.250055556]}},{"type":"Feature","id":"LFPC-4dd4978913b79f760bb0","properties":{"airport":"LFPC","name":"5","layer":"Labels","category":"Gates","object_type":"Label","style_id":"label.gates","source_group":"LFPC Gates","vsmr_group_ids":[],"geometry_role":"text_label","text-field":"5"},"geometry":{"type":"Point","coordinates":[2.519861111,49.250611111]}},{"type":"Feature","id":"LFPC-ee369dabc37ec5cb82f1","properties":{"airport":"LFPC","name":"6","layer":"Labels","category":"Gates","object_type":"Label","style_id":"label.gates","source_group":"LFPC Gates","vsmr_group_ids":[],"geometry_role":"text_label","text-field":"6"},"geometry":{"type":"Point","coordinates":[2.520638889,49.250861111]}},{"type":"Feature","id":"LFPC-a2784006bec7d283b739","properties":{"airport":"LFPC","name":"7","layer":"Labels","category":"Gates","object_type":"Label","style_id":"label.gates","source_group":"LFPC Gates","vsmr_group_ids":[],"geometry_role":"text_label","text-field":"7"},"geometry":{"type":"Point","coordinates":[2.522833333,49.251527778]}},{"type":"Feature","id":"LFPC-d49c736ad4bcd00a7742","properties":{"airport":"LFPC","name":"8","layer":"Labels","category":"Gates","object_type":"Label","style_id":"label.gates","source_group":"LFPC Gates","vsmr_group_ids":[],"geometry_role":"text_label","text-field":"8"},"geometry":{"type":"Point","coordinates":[2.517333333,49.249777778]}}]}
