{"type":"FeatureCollection","name":"LFPE AVISO","bbox":[2.827638889,48.921333333,2.844472222,48.933472222],"metadata":{"schema":"vSMR AVISO","schema_version":2,"geometry_mode":"shared","airport":"LFPE","coordinate_reference_system":"WGS84","coordinate_order":"longitude, latitude","default_color_palette":"dark","color_palettes":["dark","light"],"background_colors":{"dark":"#434A4F","light":"#434A4F"},"runways":[],"saved_active_runways":[],"saved_active_airport_modes":[],"airport_reference":[2.833888889,48.926943889],"feature_count":1,"style_count":1,"layer_counts":{"Guidance lines":1},"category_counts":{"Grass runways":1},"geometry_source":"local GNG/KMZ","geometry_source_url":"","geometry_license":"GPL-3.0"},"styles":{"line.runwaygrass.008000":{"name":"Grass runways","layer":"Guidance lines","object_type":"Line","paint":{"stroke":"#859A77","stroke-opacity":1,"stroke-width":1,"palette-overrides":{"light":{"stroke":"#008000"}}},"feature_count":1}},"vsmr_groups":[],"features":[{"type":"Feature","id":"LFPE-7a7c7a1d718eb5b85f77","properties":{"airport":"LFPE","name":"LFPE Groundlayout","layer":"Guidance lines","category":"Grass runways","object_type":"Line","style_id":"line.runwaygrass.008000","source_group":"LFPE Groundlayout","vsmr_group_ids":[],"geometry_role":"linework"},"geometry":{"type":"MultiLineString","coordinates":[[[2.829166667,48.926527778],[2.843666667,48.930333333]],[[2.827638889,48.929666667],[2.829166667,48.926527778]],[[2.842138889,48.933472222],[2.843666667,48.930333333]],[[2.829222222,48.927972222],[2.842944444,48.931555556]],[[2.830777778,48.924833333],[2.844472222,48.928444444]],[[2.829222222,48.927972222],[2.830777778,48.924833333]],[[2.842944444,48.931555556],[2.844472222,48.928444444]],[[2.836388889,48.932472222],[2.840972222,48.924888889]],[[2.832222222,48.931111111],[2.836833333,48.923527778]],[[2.836388889,48.932472222],[2.832222222,48.931111111]],[[2.840972222,48.924888889],[2.836833333,48.923527778]],[[2.834388889,48.930277778],[2.838972222,48.922666667]],[[2.830222222,48.928916667],[2.834833333,48.921333333]],[[2.834388889,48.930277778],[2.830222222,48.928916667]],[[2.838972222,48.922666667],[2.834833333,48.921333333]]]}}]}
