{"type":"FeatureCollection","name":"LFPL AVISO","bbox":[2.617944167,48.818475278,2.634365556,48.824192222],"metadata":{"schema":"vSMR AVISO","schema_version":2,"geometry_mode":"shared","airport":"LFPL","coordinate_reference_system":"WGS84","coordinate_order":"longitude, latitude","default_color_palette":"dark","color_palettes":["dark","light"],"background_colors":{"dark":"#434A4F","light":"#434A4F"},"runways":[{"ends":["08R","26L"],"headings":[80,260],"thresholds":[[2.619888889,48.819082778],[2.630432778,48.820110833]]},{"ends":["08","26"],"headings":[80,260],"thresholds":[[2.621325,48.820588889],[2.630741944,48.821502778]]}],"saved_active_runways":[],"saved_active_airport_modes":[],"airport_reference":[2.622777778,48.821943889],"feature_count":58,"style_count":7,"layer_counts":{"Airfield surfaces":7,"Buildings and structures":13,"Labels":35,"Terrain":3},"category_counts":{"Buildings":13,"Gates":6,"Grass":3,"Hard Surface 2":1,"Hard Surface 3":5,"Runways":1,"Taxiways":29},"geometry_source":"local GNG/KMZ","geometry_source_url":"","geometry_license":"GPL-3.0"},"styles":{"polygon.building.394446":{"name":"Buildings","layer":"Buildings and structures","object_type":"Area","paint":{"fill":"#475570","fill-opacity":1,"palette-overrides":{"light":{"fill":"#394446"}}},"feature_count":13},"polygon.hardsurface2.595e5b":{"name":"Hard Surface 2","layer":"Airfield surfaces","object_type":"Area","paint":{"fill":"#2F3949","fill-opacity":1,"palette-overrides":{"light":{"fill":"#595E5B"}}},"feature_count":1},"polygon.grassurface.00512f":{"name":"Grass","layer":"Terrain","object_type":"Area","paint":{"fill":"#010D19","fill-opacity":1,"palette-overrides":{"light":{"fill":"#00512F"}}},"feature_count":3},"polygon.runwayconcrete.555555":{"name":"Runways","layer":"Airfield surfaces","object_type":"Area","paint":{"fill":"#111318","fill-opacity":1,"palette-overrides":{"light":{"fill":"#555555"}}},"feature_count":1},"polygon.hardsurface3.8a807f":{"name":"Hard Surface 3","layer":"Airfield surfaces","object_type":"Area","paint":{"fill":"#222D3C","fill-opacity":1,"palette-overrides":{"light":{"fill":"#8A807F"}}},"feature_count":5},"label.gates":{"name":"Gates","layer":"Labels","object_type":"Label","paint":{"text-color":"#CCCCCC","text-font":"Arial","text-size":12,"text-halo-color":"#000000","text-halo-width":1,"text-anchor":"center","zoomLevel":9},"feature_count":6},"label.taxiways":{"name":"Taxiways","layer":"Labels","object_type":"Label","paint":{"text-color":"#CCCCCC","text-font":"Arial","text-size":12,"text-halo-color":"#000000","text-halo-width":1,"text-anchor":"center","zoomLevel":7},"feature_count":29}},"vsmr_groups":[],"features":[{"type":"Feature","id":"LFPL-33330beac9924771659f","properties":{"airport":"LFPL","name":"LFPL AVISO","layer":"Buildings and structures","category":"Buildings","object_type":"Area","style_id":"polygon.building.394446","source_group":"LFPL AVISO","vsmr_group_ids":[],"geometry_role":"filled_region"},"geometry":{"type":"Polygon","coordinates":[[[2.624186111,48.822121944],[2.624787222,48.822174444],[2.6247725,48.822258611],[2.6248025,48.822285556],[2.625023889,48.82231],[2.625016667,48.822339722],[2.624813889,48.822331667],[2.624766944,48.822344444],[2.624736111,48.822427778],[2.624139444,48.822387222],[2.624186111,48.822121944]]]}},{"type":"Feature","id":"LFPL-9fed6679f3b8c68abcb0","properties":{"airport":"LFPL","name":"LFPL AVISO","layer":"Buildings and structures","category":"Buildings","object_type":"Area","style_id":"polygon.building.394446","source_group":"LFPL AVISO","vsmr_group_ids":[],"geometry_role":"filled_region"},"geometry":{"type":"Polygon","coordinates":[[[2.6246825,48.822570556],[2.624665833,48.822611944],[2.624690556,48.822633056],[2.624961667,48.822655],[2.624953056,48.822693056],[2.624699444,48.822674444],[2.624666389,48.822692222],[2.62464,48.822738889],[2.624146389,48.822701111],[2.624183611,48.822534444],[2.6246825,48.822570556]]]}},{"type":"Feature","id":"LFPL-e6b55bc8bd44a6904e83","properties":{"airport":"LFPL","name":"LFPL AVISO","layer":"Buildings and structures","category":"Buildings","object_type":"Area","style_id":"polygon.building.394446","source_group":"LFPL AVISO","vsmr_group_ids":[],"geometry_role":"filled_region"},"geometry":{"type":"Polygon","coordinates":[[[2.624680556,48.822779444],[2.624617222,48.823088611],[2.624873611,48.823087778],[2.624858056,48.823182778],[2.624605556,48.823161944],[2.624509167,48.823686111],[2.624921389,48.823721389],[2.6249125,48.823784722],[2.624496111,48.823756389],[2.62448,48.823842222],[2.623880278,48.823785],[2.624076667,48.822729167],[2.624680556,48.822779444]]]}},{"type":"Feature","id":"LFPL-ae3b52f9cb537e8e6d61","properties":{"airport":"LFPL","name":"LFPL AVISO","layer":"Buildings and structures","category":"Buildings","object_type":"Area","style_id":"polygon.building.394446","source_group":"LFPL AVISO","vsmr_group_ids":[],"geometry_role":"filled_region"},"geometry":{"type":"Polygon","coordinates":[[[2.625559444,48.822634444],[2.625598333,48.822616111],[2.625622778,48.822531667],[2.626320278,48.822579722],[2.626211667,48.823165],[2.625523056,48.823107222],[2.625531944,48.823034167],[2.625512778,48.8230075],[2.625496111,48.822996111],[2.625351389,48.822976944],[2.625359167,48.822939167],[2.625483333,48.822946389],[2.625523611,48.822933611],[2.625577222,48.822757222],[2.625560278,48.822718333],[2.625531389,48.822691667],[2.625405833,48.822667222],[2.625413333,48.822624444],[2.625559444,48.822634444]]]}},{"type":"Feature","id":"LFPL-9edc3b8d62427e7f6180","properties":{"airport":"LFPL","name":"LFPL AVISO","layer":"Buildings and structures","category":"Buildings","object_type":"Area","style_id":"polygon.building.394446","source_group":"LFPL AVISO","vsmr_group_ids":[],"geometry_role":"filled_region"},"geometry":{"type":"Polygon","coordinates":[[[2.626053056,48.823240556],[2.625985833,48.823598889],[2.6254875,48.823559444],[2.625490833,48.823514722],[2.625253611,48.823493611],[2.625260833,48.823457778],[2.625505278,48.823473333],[2.625555556,48.823203611],[2.626053056,48.823240556]]]}},{"type":"Feature","id":"LFPL-788e504d01d442674b7b","properties":{"airport":"LFPL","name":"LFPL AVISO","layer":"Buildings and structures","category":"Buildings","object_type":"Area","style_id":"polygon.building.394446","source_group":"LFPL AVISO","vsmr_group_ids":[],"geometry_role":"filled_region"},"geometry":{"type":"Polygon","coordinates":[[[2.625388611,48.823775556],[2.625412222,48.823692222],[2.626005,48.823738056],[2.625960278,48.823962222],[2.625368889,48.8239025],[2.625376944,48.823820833],[2.625200833,48.823801111],[2.625205278,48.823763889],[2.625388611,48.823775556]]]}},{"type":"Feature","id":"LFPL-ecbf9a1e2994204ddab6","properties":{"airport":"LFPL","name":"LFPL AVISO","layer":"Buildings and structures","category":"Buildings","object_type":"Area","style_id":"polygon.building.394446","source_group":"LFPL AVISO","vsmr_group_ids":[],"geometry_role":"filled_region"},"geometry":{"type":"Polygon","coordinates":[[[2.625535,48.822161667],[2.625351389,48.822137778],[2.625358611,48.822099167],[2.627229444,48.822256111],[2.627226944,48.822294444],[2.625995556,48.822195278],[2.625941111,48.822236944],[2.626385,48.822271944],[2.626326667,48.822535833],[2.62549,48.822467778],[2.625535,48.822161667]]]}},{"type":"Feature","id":"LFPL-fe20539d9aae65509e9b","properties":{"airport":"LFPL","name":"LFPL AVISO","layer":"Buildings and structures","category":"Buildings","object_type":"Area","style_id":"polygon.building.394446","source_group":"LFPL AVISO","vsmr_group_ids":[],"geometry_role":"filled_region"},"geometry":{"type":"Polygon","coordinates":[[[2.626973611,48.822324444],[2.626979167,48.822326111],[2.6269975,48.822328611],[2.627017222,48.822332222],[2.627703333,48.822387222],[2.627704722,48.822452222],[2.627753333,48.822459444],[2.627736111,48.822518333],[2.627683889,48.822544444],[2.627661389,48.822607778],[2.627276389,48.822575556],[2.627280278,48.822528611],[2.626929167,48.822494444],[2.626973611,48.822324444]]]}},{"type":"Feature","id":"LFPL-6ab23ed4db20ec78e78d","properties":{"airport":"LFPL","name":"LFPL AVISO","layer":"Buildings and structures","category":"Buildings","object_type":"Area","style_id":"polygon.building.394446","source_group":"LFPL AVISO","vsmr_group_ids":[],"geometry_role":"filled_region"},"geometry":{"type":"Polygon","coordinates":[[[2.626789722,48.822853056],[2.627418889,48.822903056],[2.627405556,48.822945278],[2.627466389,48.8229525],[2.627464444,48.8229975],[2.627643889,48.823010278],[2.627624444,48.8231],[2.627446389,48.823085278],[2.627421389,48.823218333],[2.6275975,48.823235278],[2.627584722,48.823323611],[2.627406389,48.823310556],[2.627390278,48.823349722],[2.627330278,48.823346389],[2.627322222,48.8233925],[2.626696111,48.823341944],[2.626789722,48.822853056]]]}},{"type":"Feature","id":"LFPL-421639b49d1eb62b0ea5","properties":{"airport":"LFPL","name":"LFPL AVISO","layer":"Buildings and structures","category":"Buildings","object_type":"Area","style_id":"polygon.building.394446","source_group":"LFPL AVISO","vsmr_group_ids":[],"geometry_role":"filled_region"},"geometry":{"type":"Polygon","coordinates":[[[2.627225833,48.823432778],[2.627213889,48.823512222],[2.627253333,48.823546389],[2.627537222,48.8235725],[2.627521111,48.823608056],[2.627247778,48.8235925],[2.627193333,48.823624444],[2.627175833,48.823690833],[2.626708056,48.823651944],[2.626763333,48.823396944],[2.627225833,48.823432778]]]}},{"type":"Feature","id":"LFPL-e78fe06882857660420b","properties":{"airport":"LFPL","name":"LFPL AVISO","layer":"Buildings and structures","category":"Buildings","object_type":"Area","style_id":"polygon.building.394446","source_group":"LFPL AVISO","vsmr_group_ids":[],"geometry_role":"filled_region"},"geometry":{"type":"Polygon","coordinates":[[[2.626628333,48.823698889],[2.627308889,48.823755],[2.627308333,48.823757778],[2.627300556,48.823838889],[2.62733,48.823887222],[2.627475556,48.823903056],[2.627464167,48.823943889],[2.627457778,48.823944444],[2.627366944,48.823937778],[2.627323611,48.823944722],[2.6272975,48.823964167],[2.627266667,48.8240675],[2.626565556,48.824007222],[2.626628333,48.823698889]]]}},{"type":"Feature","id":"LFPL-5306f4bde8a977bf5f5b","properties":{"airport":"LFPL","name":"LFPL AVISO","layer":"Buildings and structures","category":"Buildings","object_type":"Area","style_id":"polygon.building.394446","source_group":"LFPL AVISO","vsmr_group_ids":[],"geometry_role":"filled_region"},"geometry":{"type":"Polygon","coordinates":[[[2.628203333,48.824163889],[2.628196667,48.824073611],[2.628110278,48.824039167],[2.6279075,48.824028889],[2.627920556,48.823956667],[2.628110556,48.823971667],[2.628187222,48.823956389],[2.628246389,48.823914722],[2.628265278,48.823841944],[2.628393333,48.823852222],[2.6283975,48.823891389],[2.628795278,48.823924722],[2.628748611,48.824192222],[2.628203333,48.824163889]]]}},{"type":"Feature","id":"LFPL-9bd0fd918e0bbf5011e6","properties":{"airport":"LFPL","name":"LFPL AVISO","layer":"Buildings and structures","category":"Buildings","object_type":"Area","style_id":"polygon.building.394446","source_group":"LFPL AVISO","vsmr_group_ids":[],"geometry_role":"filled_region"},"geometry":{"type":"Polygon","coordinates":[[[2.628356111,48.82298],[2.628381111,48.822830556],[2.628354444,48.822780278],[2.628233889,48.822734167],[2.628146389,48.822725556],[2.628160278,48.822660833],[2.628246389,48.822666667],[2.628345556,48.822654167],[2.628405556,48.822610556],[2.628458333,48.822446111],[2.629059722,48.822483611],[2.628959167,48.823031111],[2.628356111,48.82298]]]}},{"type":"Feature","id":"LFPL-3a3e3bedc0f2f6cec335","properties":{"airport":"LFPL","name":"LFPL AVISO","layer":"Airfield surfaces","category":"Hard Surface 2","object_type":"Area","style_id":"polygon.hardsurface2.595e5b","source_group":"LFPL AVISO","vsmr_group_ids":[],"geometry_role":"filled_region"},"geometry":{"type":"Polygon","coordinates":[[[2.62155,48.8207425],[2.621500278,48.820765278],[2.621443056,48.820801389],[2.621383611,48.820855556],[2.621365278,48.820915556],[2.62135,48.821011667],[2.6213725,48.821066944],[2.621428333,48.821117222],[2.621532778,48.821137778],[2.625131667,48.821481389],[2.625226944,48.821478611],[2.625285833,48.82146],[2.625334167,48.821434722],[2.625362222,48.821399722],[2.625384722,48.821272222],[2.625384167,48.821227778],[2.625351667,48.821178333],[2.625301944,48.821122222],[2.625227778,48.821086111],[2.625145833,48.821060278],[2.625825,48.821124444],[2.625720556,48.821139444],[2.625668889,48.821151944],[2.6256125,48.821176389],[2.625565556,48.821206667],[2.625543889,48.821226389],[2.625503333,48.821275278],[2.625482778,48.821380833],[2.625478889,48.821452778],[2.625534722,48.821509167],[2.625653333,48.821551667],[2.627989444,48.821872778],[2.6302125,48.8220975],[2.630313333,48.822076111],[2.630405556,48.822012778],[2.6304625,48.821732222],[2.630426389,48.821664722],[2.630334722,48.821593333],[2.630229444,48.821551389],[2.630742778,48.821603056],[2.6307375,48.821683611],[2.630848889,48.821888611],[2.630854444,48.821923333],[2.630854722,48.82197],[2.630813333,48.822154722],[2.630955556,48.822167778],[2.630938611,48.822227222],[2.628210556,48.821985278],[2.628139722,48.82202],[2.628118889,48.822077222],[2.628020556,48.822595833],[2.628096111,48.822651944],[2.628165,48.822662222],[2.628147222,48.822727778],[2.628054444,48.822734722],[2.62798,48.822773056],[2.627785833,48.823893889],[2.627917778,48.823958889],[2.627903056,48.8240275],[2.627608611,48.824001111],[2.627619167,48.823961667],[2.627462222,48.823943056],[2.627472222,48.823899444],[2.627635,48.823885],[2.627664722,48.823641944],[2.6275275,48.823610278],[2.627536111,48.823569167],[2.627687222,48.823569722],[2.627728333,48.823339444],[2.627581944,48.823327222],[2.627601944,48.823237222],[2.627748056,48.823251389],[2.627771111,48.823112222],[2.627624444,48.823100556],[2.627641389,48.82301],[2.627781944,48.823019167],[2.627881944,48.822540833],[2.627734167,48.822514722],[2.627757222,48.822456944],[2.627886667,48.822464722],[2.627969722,48.822064722],[2.627970833,48.821986111],[2.627887778,48.821931944],[2.625672778,48.821650833],[2.62552,48.821649444],[2.625451944,48.821696944],[2.625417778,48.821772778],[2.625276111,48.822555556],[2.62532,48.822608056],[2.625410833,48.822624444],[2.625402778,48.822665556],[2.625303056,48.822658056],[2.625255,48.822674722],[2.625215,48.822905278],[2.625243611,48.822931111],[2.625353889,48.822941944],[2.625348333,48.822978889],[2.625241667,48.82297],[2.625196667,48.822985],[2.625121389,48.823427222],[2.625154444,48.8234425],[2.625260278,48.823454444],[2.625253056,48.823493889],[2.625144444,48.823481667],[2.625105,48.823496111],[2.625065833,48.823742222],[2.625203056,48.823766667],[2.625196389,48.823806111],[2.624910556,48.823783889],[2.625007222,48.823186667],[2.6248575,48.823181111],[2.624875,48.823087778],[2.625026389,48.823095556],[2.625096111,48.822720278],[2.625063056,48.822699444],[2.62495,48.822695],[2.624953333,48.822651944],[2.625055,48.822663056],[2.6251,48.822644444],[2.625153333,48.822391389],[2.625118056,48.822361111],[2.625009722,48.822342778],[2.6250225,48.822307778],[2.625181667,48.822287778],[2.625203333,48.822085278],[2.625153611,48.822036389],[2.625073056,48.822021111],[2.625093611,48.821934167],[2.625198611,48.821915],[2.625264167,48.821852778],[2.625273611,48.821629722],[2.6252375,48.821609722],[2.624825556,48.821547222],[2.624735278,48.821579722],[2.6246825,48.821624722],[2.6245325,48.821611111],[2.624487778,48.821536944],[2.624393889,48.821488056],[2.623991111,48.821448056],[2.623896111,48.82146],[2.623804444,48.821526111],[2.623637222,48.821503889],[2.623661667,48.821424167],[2.623426111,48.8213925],[2.623406389,48.821480833],[2.623211667,48.821460556],[2.623226389,48.821375556],[2.62297,48.821348056],[2.622955,48.821433056],[2.622807222,48.821421944],[2.622823056,48.821335556],[2.620934722,48.821145556],[2.62094,48.821080278],[2.621212222,48.821105278],[2.621299444,48.820688611],[2.621679722,48.820726667],[2.62155,48.8207425]]]}},{"type":"Feature","id":"LFPL-4e04d1fedc5e60acb5e5","properties":{"airport":"LFPL","name":"LFPL AVISO","layer":"Terrain","category":"Grass","object_type":"Area","style_id":"polygon.grassurface.00512f","source_group":"LFPL AVISO","vsmr_group_ids":[],"geometry_role":"filled_region"},"geometry":{"type":"Polygon","coordinates":[[[2.619578889,48.821064722],[2.6194075,48.821009167],[2.619398056,48.821005556],[2.619341389,48.820963611],[2.619283333,48.820904167],[2.619248889,48.820658611],[2.619293056,48.820322778],[2.619324722,48.820118889],[2.619350278,48.819946667],[2.61933,48.819739167],[2.619103333,48.819670278],[2.618705556,48.819605833],[2.618277778,48.819540833],[2.617963889,48.8194675],[2.617947222,48.819348889],[2.619534444,48.819513611],[2.619521667,48.819672778],[2.621978889,48.819936389],[2.622028611,48.819755833],[2.622310556,48.819780556],[2.622273333,48.819956111],[2.624350556,48.82016],[2.624381944,48.819983333],[2.624657222,48.820006389],[2.624633889,48.820186111],[2.625511111,48.820276667],[2.625552222,48.820095556],[2.625801667,48.820121667],[2.625773333,48.820298333],[2.628944167,48.820596667],[2.628978333,48.820444444],[2.629254167,48.820454167],[2.629219167,48.820633056],[2.6324225,48.820944722],[2.632427778,48.820760556],[2.632751667,48.820788611],[2.632856111,48.820986111],[2.633395,48.821040556],[2.634115,48.821227778],[2.634365556,48.821525278],[2.634343056,48.821835278],[2.634279722,48.822001111],[2.634065556,48.8222],[2.633788333,48.8223625],[2.6333525,48.822451944],[2.632811944,48.822425833],[2.632209444,48.822369167],[2.631593333,48.822298333],[2.631258611,48.822263333],[2.630944167,48.822236111],[2.6309575,48.822171944],[2.631269444,48.822172778],[2.631621389,48.822186667],[2.632235278,48.822233056],[2.632833333,48.822280556],[2.633286111,48.822290833],[2.63371,48.822229444],[2.633878611,48.822155278],[2.634058056,48.821944444],[2.634091389,48.821799722],[2.634086944,48.821596111],[2.633946944,48.821355833],[2.633741944,48.821243889],[2.633516389,48.821194722],[2.632685,48.821107778],[2.63186,48.821028056],[2.631033333,48.820948611],[2.620267778,48.819903333],[2.6197925,48.8198725],[2.619600833,48.819954722],[2.619566944,48.820117778],[2.619512222,48.820345556],[2.619468611,48.820675278],[2.619499167,48.820879722],[2.619646111,48.820942778],[2.620078889,48.820995],[2.620515833,48.821029444],[2.620938611,48.821065278],[2.620926944,48.821160556],[2.619578889,48.821064722]]]}},{"type":"Feature","id":"LFPL-f470a7f85b8f2aac1229","properties":{"airport":"LFPL","name":"LFPL AVISO","layer":"Airfield surfaces","category":"Runways","object_type":"Area","style_id":"polygon.runwayconcrete.555555","source_group":"LFPL AVISO","vsmr_group_ids":[],"geometry_role":"filled_region"},"geometry":{"type":"Polygon","coordinates":[[[2.62134,48.820505833],[2.630784444,48.821418611],[2.630741667,48.821598333],[2.621299722,48.820688889],[2.62134,48.820505833]]]}},{"type":"Feature","id":"LFPL-e14560983da1038556ff","properties":{"airport":"LFPL","name":"LFPL AVISO","layer":"Terrain","category":"Grass","object_type":"Area","style_id":"polygon.grassurface.00512f","source_group":"LFPL AVISO","vsmr_group_ids":[],"geometry_role":"filled_region"},"geometry":{"type":"Polygon","coordinates":[[[2.618137222,48.818475278],[2.632945556,48.819913056],[2.632743056,48.820788333],[2.617944167,48.819352778],[2.618137222,48.818475278]]]}},{"type":"Feature","id":"LFPL-a82fd1fc6f96cdb1fbaa","properties":{"airport":"LFPL","name":"LFPL AVISO","layer":"Terrain","category":"Grass","object_type":"Area","style_id":"polygon.grassurface.00512f","source_group":"LFPL AVISO","vsmr_group_ids":[],"geometry_role":"filled_region"},"geometry":{"type":"Polygon","coordinates":[[[2.620496389,48.821171111],[2.620537778,48.821205556],[2.620634722,48.821252222],[2.620746667,48.821275],[2.621850833,48.821379167],[2.621927778,48.821370556],[2.621972778,48.821345833],[2.621990833,48.8213],[2.621915833,48.821253333],[2.622489722,48.821308333],[2.622240278,48.821369444],[2.622284722,48.821494167],[2.622220556,48.821754444],[2.62054,48.821580278],[2.620559167,48.821366111],[2.620086667,48.821102778],[2.620502778,48.821131944],[2.620496389,48.821171111]]]}},{"type":"Feature","id":"LFPL-08a5b742f66a009270e1","properties":{"airport":"LFPL","name":"LFPL AVISO","layer":"Airfield surfaces","category":"Hard Surface 3","object_type":"Area","style_id":"polygon.hardsurface3.8a807f","source_group":"LFPL AVISO","vsmr_group_ids":[],"geometry_role":"filled_region"},"geometry":{"type":"Polygon","coordinates":[[[2.622811111,48.821420556],[2.623799444,48.821528056],[2.6238125,48.821575556],[2.623852222,48.821593611],[2.624484722,48.821657778],[2.624516389,48.821636944],[2.624530833,48.8216125],[2.624671111,48.821628889],[2.624641389,48.821793611],[2.624670833,48.821857778],[2.624725833,48.8218925],[2.625095556,48.821935],[2.625076111,48.822021389],[2.622730556,48.821789722],[2.622811111,48.821420556]]]}},{"type":"Feature","id":"LFPL-021110bddb0fd3345172","properties":{"airport":"LFPL","name":"LFPL AVISO","layer":"Airfield surfaces","category":"Hard Surface 3","object_type":"Area","style_id":"polygon.hardsurface3.8a807f","source_group":"LFPL AVISO","vsmr_group_ids":[],"geometry_role":"filled_region"},"geometry":{"type":"Polygon","coordinates":[[[2.6257825,48.821978889],[2.625828611,48.821991111],[2.625863333,48.822019722],[2.625865556,48.822065278],[2.625826944,48.822100833],[2.625773611,48.822116667],[2.625718611,48.822111944],[2.6256775,48.822088056],[2.625658333,48.8220525],[2.625663889,48.822013056],[2.625717778,48.821981667],[2.6257825,48.821978889]]]}},{"type":"Feature","id":"LFPL-7ba056bf0bf0145d3fd2","properties":{"airport":"LFPL","name":"LFPL AVISO","layer":"Airfield surfaces","category":"Hard Surface 3","object_type":"Area","style_id":"polygon.hardsurface3.8a807f","source_group":"LFPL AVISO","vsmr_group_ids":[],"geometry_role":"filled_region"},"geometry":{"type":"Polygon","coordinates":[[[2.626143056,48.822023889],[2.626142778,48.822045],[2.626130556,48.822059444],[2.626103333,48.822061944],[2.626075,48.822056389],[2.626067778,48.822036111],[2.626080833,48.8220175],[2.626110278,48.822008889],[2.626143056,48.822023889]]]}},{"type":"Feature","id":"LFPL-c6e2c77f5c0ce8abab03","properties":{"airport":"LFPL","name":"LFPL AVISO","layer":"Airfield surfaces","category":"Hard Surface 3","object_type":"Area","style_id":"polygon.hardsurface3.8a807f","source_group":"LFPL AVISO","vsmr_group_ids":[],"geometry_role":"filled_region"},"geometry":{"type":"Polygon","coordinates":[[[2.626480278,48.822048333],[2.626488611,48.822073889],[2.626465833,48.822086111],[2.6264325,48.822086667],[2.626409167,48.822066667],[2.626413611,48.822044722],[2.62645,48.822039444],[2.626480278,48.822048333]]]}},{"type":"Feature","id":"LFPL-bdfb03c14246ee14e342","properties":{"airport":"LFPL","name":"LFPL AVISO","layer":"Airfield surfaces","category":"Hard Surface 3","object_type":"Area","style_id":"polygon.hardsurface3.8a807f","source_group":"LFPL AVISO","vsmr_group_ids":[],"geometry_role":"filled_region"},"geometry":{"type":"Polygon","coordinates":[[[2.626819167,48.822071944],[2.626828889,48.822096667],[2.626811389,48.822114722],[2.626770556,48.822114444],[2.626742222,48.822091389],[2.626755833,48.822070556],[2.626793333,48.822063333],[2.626819167,48.822071944]]]}},{"type":"Feature","id":"LFPL-d524d18b2c3feb6c7cda","properties":{"airport":"LFPL","name":"1","layer":"Labels","category":"Gates","object_type":"Label","style_id":"label.gates","source_group":"LFPL Gates","vsmr_group_ids":[],"geometry_role":"text_label","text-field":"1"},"geometry":{"type":"Point","coordinates":[2.626119444,48.821939167]}},{"type":"Feature","id":"LFPL-7dec9af007b2b0cef2d4","properties":{"airport":"LFPL","name":"2","layer":"Labels","category":"Gates","object_type":"Label","style_id":"label.gates","source_group":"LFPL Gates","vsmr_group_ids":[],"geometry_role":"text_label","text-field":"2"},"geometry":{"type":"Point","coordinates":[2.626468333,48.821966667]}},{"type":"Feature","id":"LFPL-6749f42445dcdccf5cc1","properties":{"airport":"LFPL","name":"3","layer":"Labels","category":"Gates","object_type":"Label","style_id":"label.gates","source_group":"LFPL Gates","vsmr_group_ids":[],"geometry_role":"text_label","text-field":"3"},"geometry":{"type":"Point","coordinates":[2.626831111,48.821994167]}},{"type":"Feature","id":"LFPL-8a5787d065c6568c0acb","properties":{"airport":"LFPL","name":"4","layer":"Labels","category":"Gates","object_type":"Label","style_id":"label.gates","source_group":"LFPL Gates","vsmr_group_ids":[],"geometry_role":"text_label","text-field":"4"},"geometry":{"type":"Point","coordinates":[2.625756667,48.8219025]}},{"type":"Feature","id":"LFPL-075eb6e19423a1799b92","properties":{"airport":"LFPL","name":"PRKG","layer":"Labels","category":"Gates","object_type":"Label","style_id":"label.gates","source_group":"LFPL Gates","vsmr_group_ids":[],"geometry_role":"text_label","text-field":"PRKG"},"geometry":{"type":"Point","coordinates":[2.623719722,48.821764722]}},{"type":"Feature","id":"LFPL-da5adacf5c1af294ad6e","properties":{"airport":"LFPL","name":"PRKG","layer":"Labels","category":"Gates","object_type":"Label","style_id":"label.gates","source_group":"LFPL Gates","vsmr_group_ids":[],"geometry_role":"text_label","text-field":"PRKG"},"geometry":{"type":"Point","coordinates":[2.621361944,48.8215625]}},{"type":"Feature","id":"LFPL-eef547f38e448dc96cb9","properties":{"airport":"LFPL","name":"08","layer":"Labels","category":"Taxiways","object_type":"Label","style_id":"label.taxiways","source_group":"LFPL Taxiways","vsmr_group_ids":[],"geometry_role":"text_label","text-field":"08"},"geometry":{"type":"Point","coordinates":[2.621515278,48.820607222]}},{"type":"Feature","id":"LFPL-d48027e7e307da613503","properties":{"airport":"LFPL","name":"26","layer":"Labels","category":"Taxiways","object_type":"Label","style_id":"label.taxiways","source_group":"LFPL Taxiways","vsmr_group_ids":[],"geometry_role":"text_label","text-field":"26"},"geometry":{"type":"Point","coordinates":[2.630556389,48.821489167]}},{"type":"Feature","id":"LFPL-905a274823feffe41c15","properties":{"airport":"LFPL","name":"08R","layer":"Labels","category":"Taxiways","object_type":"Label","style_id":"label.taxiways","source_group":"LFPL Taxiways","vsmr_group_ids":[],"geometry_role":"text_label","text-field":"08R"},"geometry":{"type":"Point","coordinates":[2.618641389,48.818971944]}},{"type":"Feature","id":"LFPL-dbfe7ae578468d686ba0","properties":{"airport":"LFPL","name":"26L","layer":"Labels","category":"Taxiways","object_type":"Label","style_id":"label.taxiways","source_group":"LFPL Taxiways","vsmr_group_ids":[],"geometry_role":"text_label","text-field":"26L"},"geometry":{"type":"Point","coordinates":[2.632328333,48.820239722]}},{"type":"Feature","id":"LFPL-c28c3f61e1b6280de1f5","properties":{"airport":"LFPL","name":"S1","layer":"Labels","category":"Taxiways","object_type":"Label","style_id":"label.taxiways","source_group":"LFPL Taxiways","vsmr_group_ids":[],"geometry_role":"text_label","text-field":"S1"},"geometry":{"type":"Point","coordinates":[2.632593333,48.820827778]}},{"type":"Feature","id":"LFPL-a0a37684cede9aadeb19","properties":{"airport":"LFPL","name":"S2","layer":"Labels","category":"Taxiways","object_type":"Label","style_id":"label.taxiways","source_group":"LFPL Taxiways","vsmr_group_ids":[],"geometry_role":"text_label","text-field":"S2"},"geometry":{"type":"Point","coordinates":[2.6290775,48.820515278]}},{"type":"Feature","id":"LFPL-92abbdb9f70c3161b3b4","properties":{"airport":"LFPL","name":"S3","layer":"Labels","category":"Taxiways","object_type":"Label","style_id":"label.taxiways","source_group":"LFPL Taxiways","vsmr_group_ids":[],"geometry_role":"text_label","text-field":"S3"},"geometry":{"type":"Point","coordinates":[2.625659167,48.820193889]}},{"type":"Feature","id":"LFPL-a0c2a1cfe1391bb60ea0","properties":{"airport":"LFPL","name":"S4","layer":"Labels","category":"Taxiways","object_type":"Label","style_id":"label.taxiways","source_group":"LFPL Taxiways","vsmr_group_ids":[],"geometry_role":"text_label","text-field":"S4"},"geometry":{"type":"Point","coordinates":[2.624501111,48.820074444]}},{"type":"Feature","id":"LFPL-19c91d2ee08c90b9d7b3","properties":{"airport":"LFPL","name":"S5","layer":"Labels","category":"Taxiways","object_type":"Label","style_id":"label.taxiways","source_group":"LFPL Taxiways","vsmr_group_ids":[],"geometry_role":"text_label","text-field":"S5"},"geometry":{"type":"Point","coordinates":[2.622157222,48.819826389]}},{"type":"Feature","id":"LFPL-ee069b13460df3e84c78","properties":{"airport":"LFPL","name":"S6","layer":"Labels","category":"Taxiways","object_type":"Label","style_id":"label.taxiways","source_group":"LFPL Taxiways","vsmr_group_ids":[],"geometry_role":"text_label","text-field":"S6"},"geometry":{"type":"Point","coordinates":[2.619310833,48.8195875]}},{"type":"Feature","id":"LFPL-9ab7281fd46a828b6855","properties":{"airport":"LFPL","name":"N1","layer":"Labels","category":"Taxiways","object_type":"Label","style_id":"label.taxiways","source_group":"LFPL Taxiways","vsmr_group_ids":[],"geometry_role":"text_label","text-field":"N1"},"geometry":{"type":"Point","coordinates":[2.630751667,48.8219575]}},{"type":"Feature","id":"LFPL-2de4a7c30ecdea2cf937","properties":{"airport":"LFPL","name":"N2","layer":"Labels","category":"Taxiways","object_type":"Label","style_id":"label.taxiways","source_group":"LFPL Taxiways","vsmr_group_ids":[],"geometry_role":"text_label","text-field":"N2"},"geometry":{"type":"Point","coordinates":[2.630556389,48.821948333]}},{"type":"Feature","id":"LFPL-1eba2539a7d66a1923b6","properties":{"airport":"LFPL","name":"N3","layer":"Labels","category":"Taxiways","object_type":"Label","style_id":"label.taxiways","source_group":"LFPL Taxiways","vsmr_group_ids":[],"geometry_role":"text_label","text-field":"N3"},"geometry":{"type":"Point","coordinates":[2.625421944,48.821314444]}},{"type":"Feature","id":"LFPL-62b5407d2c6003cb415f","properties":{"airport":"LFPL","name":"N4","layer":"Labels","category":"Taxiways","object_type":"Label","style_id":"label.taxiways","source_group":"LFPL Taxiways","vsmr_group_ids":[],"geometry_role":"text_label","text-field":"N4"},"geometry":{"type":"Point","coordinates":[2.621306111,48.820882778]}},{"type":"Feature","id":"LFPL-c7a57fec739a1e902300","properties":{"airport":"LFPL","name":"S","layer":"Labels","category":"Taxiways","object_type":"Label","style_id":"label.taxiways","source_group":"LFPL Taxiways","vsmr_group_ids":[],"geometry_role":"text_label","text-field":"S"},"geometry":{"type":"Point","coordinates":[2.632425833,48.822315833]}},{"type":"Feature","id":"LFPL-7d0429f6de4df465ecc1","properties":{"airport":"LFPL","name":"S","layer":"Labels","category":"Taxiways","object_type":"Label","style_id":"label.taxiways","source_group":"LFPL Taxiways","vsmr_group_ids":[],"geometry_role":"text_label","text-field":"S"},"geometry":{"type":"Point","coordinates":[2.630946944,48.820864444]}},{"type":"Feature","id":"LFPL-2bfd2d93973e9ab1d915","properties":{"airport":"LFPL","name":"S","layer":"Labels","category":"Taxiways","object_type":"Label","style_id":"label.taxiways","source_group":"LFPL Taxiways","vsmr_group_ids":[],"geometry_role":"text_label","text-field":"S"},"geometry":{"type":"Point","coordinates":[2.627096111,48.820496944]}},{"type":"Feature","id":"LFPL-13265bb08a1d367cdee8","properties":{"airport":"LFPL","name":"S","layer":"Labels","category":"Taxiways","object_type":"Label","style_id":"label.taxiways","source_group":"LFPL Taxiways","vsmr_group_ids":[],"geometry_role":"text_label","text-field":"S"},"geometry":{"type":"Point","coordinates":[2.623259444,48.820120278]}},{"type":"Feature","id":"LFPL-a09ea45e119fb2f98a79","properties":{"airport":"LFPL","name":"S","layer":"Labels","category":"Taxiways","object_type":"Label","style_id":"label.taxiways","source_group":"LFPL Taxiways","vsmr_group_ids":[],"geometry_role":"text_label","text-field":"S"},"geometry":{"type":"Point","coordinates":[2.620678333,48.819881389]}},{"type":"Feature","id":"LFPL-4394a5f60836877c815e","properties":{"airport":"LFPL","name":"N","layer":"Labels","category":"Taxiways","object_type":"Label","style_id":"label.taxiways","source_group":"LFPL Taxiways","vsmr_group_ids":[],"geometry_role":"text_label","text-field":"N"},"geometry":{"type":"Point","coordinates":[2.622631667,48.821259444]}},{"type":"Feature","id":"LFPL-2b816da35ea3904737e9","properties":{"airport":"LFPL","name":"N","layer":"Labels","category":"Taxiways","object_type":"Label","style_id":"label.taxiways","source_group":"LFPL Taxiways","vsmr_group_ids":[],"geometry_role":"text_label","text-field":"N"},"geometry":{"type":"Point","coordinates":[2.626845,48.821746389]}},{"type":"Feature","id":"LFPL-20f29fcc2605f16f38ac","properties":{"airport":"LFPL","name":"N","layer":"Labels","category":"Taxiways","object_type":"Label","style_id":"label.taxiways","source_group":"LFPL Taxiways","vsmr_group_ids":[],"geometry_role":"text_label","text-field":"N"},"geometry":{"type":"Point","coordinates":[2.629328611,48.822049444]}},{"type":"Feature","id":"LFPL-9ad3a352699c18832631","properties":{"airport":"LFPL","name":"W","layer":"Labels","category":"Taxiways","object_type":"Label","style_id":"label.taxiways","source_group":"LFPL Taxiways","vsmr_group_ids":[],"geometry_role":"text_label","text-field":"W"},"geometry":{"type":"Point","coordinates":[2.619450556,48.819991667]}},{"type":"Feature","id":"LFPL-6f53f06c8eddd7232497","properties":{"airport":"LFPL","name":"W","layer":"Labels","category":"Taxiways","object_type":"Label","style_id":"label.taxiways","source_group":"LFPL Taxiways","vsmr_group_ids":[],"geometry_role":"text_label","text-field":"W"},"geometry":{"type":"Point","coordinates":[2.619729444,48.820983889]}},{"type":"Feature","id":"LFPL-92b455c7b14bc3e1c1de","properties":{"airport":"LFPL","name":"V","layer":"Labels","category":"Taxiways","object_type":"Label","style_id":"label.taxiways","source_group":"LFPL Taxiways","vsmr_group_ids":[],"geometry_role":"text_label","text-field":"V"},"geometry":{"type":"Point","coordinates":[2.621389722,48.821388056]}},{"type":"Feature","id":"LFPL-09e65361d0eb6b8f5e57","properties":{"airport":"LFPL","name":"T1","layer":"Labels","category":"Taxiways","object_type":"Label","style_id":"label.taxiways","source_group":"LFPL Taxiways","vsmr_group_ids":[],"geometry_role":"text_label","text-field":"T1"},"geometry":{"type":"Point","coordinates":[2.625073056,48.823307778]}},{"type":"Feature","id":"LFPL-2b86df7bb7b878bcc076","properties":{"airport":"LFPL","name":"T1","layer":"Labels","category":"Taxiways","object_type":"Label","style_id":"label.taxiways","source_group":"LFPL Taxiways","vsmr_group_ids":[],"geometry_role":"text_label","text-field":"T1"},"geometry":{"type":"Point","coordinates":[2.625254444,48.822159722]}},{"type":"Feature","id":"LFPL-9dbc837e18979198fe39","properties":{"airport":"LFPL","name":"T2","layer":"Labels","category":"Taxiways","object_type":"Label","style_id":"label.taxiways","source_group":"LFPL Taxiways","vsmr_group_ids":[],"geometry_role":"text_label","text-field":"T2"},"geometry":{"type":"Point","coordinates":[2.627765833,48.823473333]}},{"type":"Feature","id":"LFPL-1a2633d05030f44332c8","properties":{"airport":"LFPL","name":"T2","layer":"Labels","category":"Taxiways","object_type":"Label","style_id":"label.taxiways","source_group":"LFPL Taxiways","vsmr_group_ids":[],"geometry_role":"text_label","text-field":"T2"},"geometry":{"type":"Point","coordinates":[2.628016944,48.822205556]}}]}
