{"type":"FeatureCollection","name":"LFPM AVISO","bbox":[0.902518333,48.155664722,3.681878611,49.096201111],"metadata":{"schema":"vSMR AVISO","schema_version":2,"geometry_mode":"shared","airport":"LFPM","coordinate_reference_system":"WGS84","coordinate_order":"longitude, latitude","default_color_palette":"dark","color_palettes":["dark","light"],"background_colors":{"dark":"#434A4F","light":"#434A4F"},"runways":[{"ends":["10","28"],"headings":[103,283],"thresholds":[[2.663285833,48.606477778],[2.688205833,48.602507778]]},{"ends":["01","19"],"headings":[12,192],"thresholds":[[2.671077778,48.606163889],[2.674974722,48.617582778]]}],"saved_active_runways":[],"saved_active_airport_modes":[],"airport_reference":[2.670832778,48.605277778],"feature_count":43,"style_count":3,"layer_counts":{"Labels":43},"category_counts":{"Gates":11,"Seine Airspace Information":13,"Taxiways":19},"geometry_source":"local GNG","geometry_source_url":"","geometry_license":"GPL-3.0"},"styles":{"label.gates":{"name":"Gates","layer":"Labels","object_type":"Label","paint":{"text-color":"#CCCCCC","text-font":"Arial","text-size":12,"text-halo-color":"#000000","text-halo-width":1,"text-anchor":"center","zoomLevel":9},"feature_count":11},"label.taxiways":{"name":"Taxiways","layer":"Labels","object_type":"Label","paint":{"text-color":"#CCCCCC","text-font":"Arial","text-size":12,"text-halo-color":"#000000","text-halo-width":1,"text-anchor":"center","zoomLevel":7},"feature_count":19},"label.seine-airspace-information":{"name":"Seine Airspace Information","layer":"Labels","object_type":"Label","paint":{"text-color":"#CCCCCC","text-font":"Arial","text-size":12,"text-halo-color":"#000000","text-halo-width":1,"text-anchor":"center","zoomLevel":7},"feature_count":13}},"vsmr_groups":[],"features":[{"type":"Feature","id":"LFPM-a7fbe605747dc90d9262","properties":{"airport":"LFPM","name":"1","layer":"Labels","category":"Gates","object_type":"Label","style_id":"label.gates","source_group":"LFPM Gates","vsmr_group_ids":[],"geometry_role":"text_label","text-field":"1"},"geometry":{"type":"Point","coordinates":[2.666055556,48.611083333]}},{"type":"Feature","id":"LFPM-bf3397db0660a4596291","properties":{"airport":"LFPM","name":"2","layer":"Labels","category":"Gates","object_type":"Label","style_id":"label.gates","source_group":"LFPM Gates","vsmr_group_ids":[],"geometry_role":"text_label","text-field":"2"},"geometry":{"type":"Point","coordinates":[2.666194444,48.611361111]}},{"type":"Feature","id":"LFPM-d77c17f3d3d98a59dc70","properties":{"airport":"LFPM","name":"3","layer":"Labels","category":"Gates","object_type":"Label","style_id":"label.gates","source_group":"LFPM Gates","vsmr_group_ids":[],"geometry_role":"text_label","text-field":"3"},"geometry":{"type":"Point","coordinates":[2.666277778,48.611666667]}},{"type":"Feature","id":"LFPM-577322d51bc7ec05abc5","properties":{"airport":"LFPM","name":"4","layer":"Labels","category":"Gates","object_type":"Label","style_id":"label.gates","source_group":"LFPM Gates","vsmr_group_ids":[],"geometry_role":"text_label","text-field":"4"},"geometry":{"type":"Point","coordinates":[2.666444444,48.612111111]}},{"type":"Feature","id":"LFPM-3057b16911da6953a270","properties":{"airport":"LFPM","name":"5","layer":"Labels","category":"Gates","object_type":"Label","style_id":"label.gates","source_group":"LFPM Gates","vsmr_group_ids":[],"geometry_role":"text_label","text-field":"5"},"geometry":{"type":"Point","coordinates":[2.666527778,48.612305556]}},{"type":"Feature","id":"LFPM-aa1faea2f9232548765b","properties":{"airport":"LFPM","name":"6","layer":"Labels","category":"Gates","object_type":"Label","style_id":"label.gates","source_group":"LFPM Gates","vsmr_group_ids":[],"geometry_role":"text_label","text-field":"6"},"geometry":{"type":"Point","coordinates":[2.666583333,48.6125]}},{"type":"Feature","id":"LFPM-a37454dfad1f35b48902","properties":{"airport":"LFPM","name":"7","layer":"Labels","category":"Gates","object_type":"Label","style_id":"label.gates","source_group":"LFPM Gates","vsmr_group_ids":[],"geometry_role":"text_label","text-field":"7"},"geometry":{"type":"Point","coordinates":[2.666972222,48.613361111]}},{"type":"Feature","id":"LFPM-ea93484a8eff1ca8aed3","properties":{"airport":"LFPM","name":"8","layer":"Labels","category":"Gates","object_type":"Label","style_id":"label.gates","source_group":"LFPM Gates","vsmr_group_ids":[],"geometry_role":"text_label","text-field":"8"},"geometry":{"type":"Point","coordinates":[2.667222222,48.614055556]}},{"type":"Feature","id":"LFPM-f5da89aa2f9663cd20cd","properties":{"airport":"LFPM","name":"9","layer":"Labels","category":"Gates","object_type":"Label","style_id":"label.gates","source_group":"LFPM Gates","vsmr_group_ids":[],"geometry_role":"text_label","text-field":"9"},"geometry":{"type":"Point","coordinates":[2.667694444,48.615083333]}},{"type":"Feature","id":"LFPM-08a11d39a565222181da","properties":{"airport":"LFPM","name":"10","layer":"Labels","category":"Gates","object_type":"Label","style_id":"label.gates","source_group":"LFPM Gates","vsmr_group_ids":[],"geometry_role":"text_label","text-field":"10"},"geometry":{"type":"Point","coordinates":[2.667833333,48.615444444]}},{"type":"Feature","id":"LFPM-9ad75cc72d0cdfb56e8c","properties":{"airport":"LFPM","name":"11","layer":"Labels","category":"Gates","object_type":"Label","style_id":"label.gates","source_group":"LFPM Gates","vsmr_group_ids":[],"geometry_role":"text_label","text-field":"11"},"geometry":{"type":"Point","coordinates":[2.668,48.615833333]}},{"type":"Feature","id":"LFPM-e4cc802a4f4a1ee765f6","properties":{"airport":"LFPM","name":"FL85","layer":"Labels","category":"Seine Airspace Information","object_type":"Label","style_id":"label.seine-airspace-information","source_group":"LFPM Seine Airspace Information","vsmr_group_ids":[],"geometry_role":"text_label","text-field":"FL85"},"geometry":{"type":"Point","coordinates":[0.902518333,48.155664722]}},{"type":"Feature","id":"LFPM-6ca6f60753750f0631c1","properties":{"airport":"LFPM","name":"FL65","layer":"Labels","category":"Seine Airspace Information","object_type":"Label","style_id":"label.seine-airspace-information","source_group":"LFPM Seine Airspace Information","vsmr_group_ids":[],"geometry_role":"text_label","text-field":"FL65"},"geometry":{"type":"Point","coordinates":[1.408153056,48.336788889]}},{"type":"Feature","id":"LFPM-602786c7df47e4f517ab","properties":{"airport":"LFPM","name":"3500","layer":"Labels","category":"Seine Airspace Information","object_type":"Label","style_id":"label.seine-airspace-information","source_group":"LFPM Seine Airspace Information","vsmr_group_ids":[],"geometry_role":"text_label","text-field":"3500"},"geometry":{"type":"Point","coordinates":[1.616931389,48.814695]}},{"type":"Feature","id":"LFPM-27ebb5d1e5751a240171","properties":{"airport":"LFPM","name":"2500","layer":"Labels","category":"Seine Airspace Information","object_type":"Label","style_id":"label.seine-airspace-information","source_group":"LFPM Seine Airspace Information","vsmr_group_ids":[],"geometry_role":"text_label","text-field":"2500"},"geometry":{"type":"Point","coordinates":[1.828971667,48.705583889]}},{"type":"Feature","id":"LFPM-f8a9567f2423b7dd6a80","properties":{"airport":"LFPM","name":"2500","layer":"Labels","category":"Seine Airspace Information","object_type":"Label","style_id":"label.seine-airspace-information","source_group":"LFPM Seine Airspace Information","vsmr_group_ids":[],"geometry_role":"text_label","text-field":"2500"},"geometry":{"type":"Point","coordinates":[1.946409444,48.513548611]}},{"type":"Feature","id":"LFPM-ffd00eaaa366fd2b7079","properties":{"airport":"LFPM","name":"1500","layer":"Labels","category":"Seine Airspace Information","object_type":"Label","style_id":"label.seine-airspace-information","source_group":"LFPM Seine Airspace Information","vsmr_group_ids":[],"geometry_role":"text_label","text-field":"1500"},"geometry":{"type":"Point","coordinates":[2.236741667,48.583379722]}},{"type":"Feature","id":"LFPM-c2684c7bbd085935702d","properties":{"airport":"LFPM","name":"2500","layer":"Labels","category":"Seine Airspace Information","object_type":"Label","style_id":"label.seine-airspace-information","source_group":"LFPM Seine Airspace Information","vsmr_group_ids":[],"geometry_role":"text_label","text-field":"2500"},"geometry":{"type":"Point","coordinates":[2.576006389,48.454628611]}},{"type":"Feature","id":"LFPM-e5178c952379bfbfad5f","properties":{"airport":"LFPM","name":"3500","layer":"Labels","category":"Seine Airspace Information","object_type":"Label","style_id":"label.seine-airspace-information","source_group":"LFPM Seine Airspace Information","vsmr_group_ids":[],"geometry_role":"text_label","text-field":"3500"},"geometry":{"type":"Point","coordinates":[2.667346667,48.6008375]}},{"type":"Feature","id":"LFPM-f97e3b52ef9869122e92","properties":{"airport":"LFPM","name":"4500","layer":"Labels","category":"Seine Airspace Information","object_type":"Label","style_id":"label.seine-airspace-information","source_group":"LFPM Seine Airspace Information","vsmr_group_ids":[],"geometry_role":"text_label","text-field":"4500"},"geometry":{"type":"Point","coordinates":[2.846765556,48.439353056]}},{"type":"Feature","id":"LFPM-57c7ae2f4b7e3331803b","properties":{"airport":"LFPM","name":"FL65","layer":"Labels","category":"Seine Airspace Information","object_type":"Label","style_id":"label.seine-airspace-information","source_group":"LFPM Seine Airspace Information","vsmr_group_ids":[],"geometry_role":"text_label","text-field":"FL65"},"geometry":{"type":"Point","coordinates":[3.417643611,48.410984167]}},{"type":"Feature","id":"LFPM-b40e7b8e90ae2b63ca7c","properties":{"airport":"LFPM","name":"FL85","layer":"Labels","category":"Seine Airspace Information","object_type":"Label","style_id":"label.seine-airspace-information","source_group":"LFPM Seine Airspace Information","vsmr_group_ids":[],"geometry_role":"text_label","text-field":"FL85"},"geometry":{"type":"Point","coordinates":[3.681878611,48.247317778]}},{"type":"Feature","id":"LFPM-6bdbd55a405bec7d539c","properties":{"airport":"LFPM","name":"4500","layer":"Labels","category":"Seine Airspace Information","object_type":"Label","style_id":"label.seine-airspace-information","source_group":"LFPM Seine Airspace Information","vsmr_group_ids":[],"geometry_role":"text_label","text-field":"4500"},"geometry":{"type":"Point","coordinates":[3.570965,48.963085833]}},{"type":"Feature","id":"LFPM-08cf947468396f61e446","properties":{"airport":"LFPM","name":"3500","layer":"Labels","category":"Seine Airspace Information","object_type":"Label","style_id":"label.seine-airspace-information","source_group":"LFPM Seine Airspace Information","vsmr_group_ids":[],"geometry_role":"text_label","text-field":"3500"},"geometry":{"type":"Point","coordinates":[3.313254444,49.096201111]}},{"type":"Feature","id":"LFPM-8324d59ebcff6b1af5e7","properties":{"airport":"LFPM","name":"Z","layer":"Labels","category":"Taxiways","object_type":"Label","style_id":"label.taxiways","source_group":"LFPM Taxiways","vsmr_group_ids":[],"geometry_role":"text_label","text-field":"Z"},"geometry":{"type":"Point","coordinates":[2.677694444,48.608277778]}},{"type":"Feature","id":"LFPM-9c5a58b1dc9a0c983196","properties":{"airport":"LFPM","name":"W","layer":"Labels","category":"Taxiways","object_type":"Label","style_id":"label.taxiways","source_group":"LFPM Taxiways","vsmr_group_ids":[],"geometry_role":"text_label","text-field":"W"},"geometry":{"type":"Point","coordinates":[2.665888889,48.606305556]}},{"type":"Feature","id":"LFPM-f163add945bb4dbed21d","properties":{"airport":"LFPM","name":"W","layer":"Labels","category":"Taxiways","object_type":"Label","style_id":"label.taxiways","source_group":"LFPM Taxiways","vsmr_group_ids":[],"geometry_role":"text_label","text-field":"W"},"geometry":{"type":"Point","coordinates":[2.666361111,48.607611111]}},{"type":"Feature","id":"LFPM-c535a3326827265bc63e","properties":{"airport":"LFPM","name":"W","layer":"Labels","category":"Taxiways","object_type":"Label","style_id":"label.taxiways","source_group":"LFPM Taxiways","vsmr_group_ids":[],"geometry_role":"text_label","text-field":"W"},"geometry":{"type":"Point","coordinates":[2.667083333,48.609666667]}},{"type":"Feature","id":"LFPM-dddb20b5b3af4eaf4ca4","properties":{"airport":"LFPM","name":"Z","layer":"Labels","category":"Taxiways","object_type":"Label","style_id":"label.taxiways","source_group":"LFPM Taxiways","vsmr_group_ids":[],"geometry_role":"text_label","text-field":"Z"},"geometry":{"type":"Point","coordinates":[2.687972222,48.602805556]}},{"type":"Feature","id":"LFPM-15de463dbfc982ed1c4f","properties":{"airport":"LFPM","name":"Z","layer":"Labels","category":"Taxiways","object_type":"Label","style_id":"label.taxiways","source_group":"LFPM Taxiways","vsmr_group_ids":[],"geometry_role":"text_label","text-field":"Z"},"geometry":{"type":"Point","coordinates":[2.688388889,48.604027778]}},{"type":"Feature","id":"LFPM-007d92be8ead927dcd0d","properties":{"airport":"LFPM","name":"Z","layer":"Labels","category":"Taxiways","object_type":"Label","style_id":"label.taxiways","source_group":"LFPM Taxiways","vsmr_group_ids":[],"geometry_role":"text_label","text-field":"Z"},"geometry":{"type":"Point","coordinates":[2.68475,48.606666667]}},{"type":"Feature","id":"LFPM-02e78e5d9f958baa5b6c","properties":{"airport":"LFPM","name":"Z","layer":"Labels","category":"Taxiways","object_type":"Label","style_id":"label.taxiways","source_group":"LFPM Taxiways","vsmr_group_ids":[],"geometry_role":"text_label","text-field":"Z"},"geometry":{"type":"Point","coordinates":[2.680666667,48.608666667]}},{"type":"Feature","id":"LFPM-b51e1690445f5a1df6e2","properties":{"airport":"LFPM","name":"T","layer":"Labels","category":"Taxiways","object_type":"Label","style_id":"label.taxiways","source_group":"LFPM Taxiways","vsmr_group_ids":[],"geometry_role":"text_label","text-field":"T"},"geometry":{"type":"Point","coordinates":[2.674472222,48.606361111]}},{"type":"Feature","id":"LFPM-05323650297bbea6142f","properties":{"airport":"LFPM","name":"T","layer":"Labels","category":"Taxiways","object_type":"Label","style_id":"label.taxiways","source_group":"LFPM Taxiways","vsmr_group_ids":[],"geometry_role":"text_label","text-field":"T"},"geometry":{"type":"Point","coordinates":[2.674027778,48.605]}},{"type":"Feature","id":"LFPM-409dcb81879b24a980fd","properties":{"airport":"LFPM","name":"C","layer":"Labels","category":"Taxiways","object_type":"Label","style_id":"label.taxiways","source_group":"LFPM Taxiways","vsmr_group_ids":[],"geometry_role":"text_label","text-field":"C"},"geometry":{"type":"Point","coordinates":[2.673444444,48.607694444]}},{"type":"Feature","id":"LFPM-ba83de3eb564bf77a177","properties":{"airport":"LFPM","name":"C","layer":"Labels","category":"Taxiways","object_type":"Label","style_id":"label.taxiways","source_group":"LFPM Taxiways","vsmr_group_ids":[],"geometry_role":"text_label","text-field":"C"},"geometry":{"type":"Point","coordinates":[2.671722222,48.607944444]}},{"type":"Feature","id":"LFPM-226f199ab210e25dac71","properties":{"airport":"LFPM","name":"D","layer":"Labels","category":"Taxiways","object_type":"Label","style_id":"label.taxiways","source_group":"LFPM Taxiways","vsmr_group_ids":[],"geometry_role":"text_label","text-field":"D"},"geometry":{"type":"Point","coordinates":[2.671138889,48.608027778]}},{"type":"Feature","id":"LFPM-5b1432b6581090d5bd60","properties":{"airport":"LFPM","name":"D","layer":"Labels","category":"Taxiways","object_type":"Label","style_id":"label.taxiways","source_group":"LFPM Taxiways","vsmr_group_ids":[],"geometry_role":"text_label","text-field":"D"},"geometry":{"type":"Point","coordinates":[2.668777778,48.608361111]}},{"type":"Feature","id":"LFPM-1c07e6454e4a915b474d","properties":{"airport":"LFPM","name":"J","layer":"Labels","category":"Taxiways","object_type":"Label","style_id":"label.taxiways","source_group":"LFPM Taxiways","vsmr_group_ids":[],"geometry_role":"text_label","text-field":"J"},"geometry":{"type":"Point","coordinates":[2.669833333,48.612694444]}},{"type":"Feature","id":"LFPM-406e6f0e3bdaaba9cbff","properties":{"airport":"LFPM","name":"J","layer":"Labels","category":"Taxiways","object_type":"Label","style_id":"label.taxiways","source_group":"LFPM Taxiways","vsmr_group_ids":[],"geometry_role":"text_label","text-field":"J"},"geometry":{"type":"Point","coordinates":[2.672,48.612833333]}},{"type":"Feature","id":"LFPM-dcbe8b5acd6b50786440","properties":{"airport":"LFPM","name":"J","layer":"Labels","category":"Taxiways","object_type":"Label","style_id":"label.taxiways","source_group":"LFPM Taxiways","vsmr_group_ids":[],"geometry_role":"text_label","text-field":"J"},"geometry":{"type":"Point","coordinates":[2.672805556,48.612888889]}},{"type":"Feature","id":"LFPM-51712f94e128e854da6c","properties":{"airport":"LFPM","name":"J","layer":"Labels","category":"Taxiways","object_type":"Label","style_id":"label.taxiways","source_group":"LFPM Taxiways","vsmr_group_ids":[],"geometry_role":"text_label","text-field":"J"},"geometry":{"type":"Point","coordinates":[2.673444444,48.612944444]}},{"type":"Feature","id":"LFPM-df5b047ba064913e7c6b","properties":{"airport":"LFPM","name":"J","layer":"Labels","category":"Taxiways","object_type":"Label","style_id":"label.taxiways","source_group":"LFPM Taxiways","vsmr_group_ids":[],"geometry_role":"text_label","text-field":"J"},"geometry":{"type":"Point","coordinates":[2.675194444,48.613055556]}}]}
