{"type":"FeatureCollection","name":"LFPT AVISO","bbox":[2.025916667,49.087638889,2.046583333,49.103138889],"metadata":{"schema":"vSMR AVISO","schema_version":2,"geometry_mode":"shared","airport":"LFPT","coordinate_reference_system":"WGS84","coordinate_order":"longitude, latitude","default_color_palette":"dark","color_palettes":["dark","light"],"background_colors":{"dark":"#434A4F","light":"#434A4F"},"runways":[{"ends":["12","30"],"headings":[116,296],"thresholds":[[2.026402778,49.101655833],[2.043449722,49.095674722]]},{"ends":["04","22"],"headings":[43,223],"thresholds":[[2.027396944,49.087766944],[2.041999722,49.097480833]]}],"saved_active_runways":[],"saved_active_airport_modes":[],"airport_reference":[2.040832778,49.096666944],"feature_count":41,"style_count":5,"layer_counts":{"Guidance lines":3,"Labels":38},"category_counts":{"Apron Surface":1,"Gates":9,"Runways":1,"Taxiways":30},"geometry_source":"local GNG","geometry_source_url":"","geometry_license":"GPL-3.0"},"styles":{"line.taxiway.c0b631":{"name":"Taxiways","layer":"Guidance lines","object_type":"Line","paint":{"stroke":"#4E5A69","stroke-opacity":1,"stroke-width":1,"palette-overrides":{"light":{"stroke":"#C0B631"}}},"feature_count":1},"line.runwayconcrete.555555":{"name":"Runways","layer":"Guidance lines","object_type":"Line","paint":{"stroke":"#111318","stroke-opacity":1,"stroke-width":1,"palette-overrides":{"light":{"stroke":"#555555"}}},"feature_count":1},"line.apronsurface.808080":{"name":"Apron Surface","layer":"Guidance lines","object_type":"Line","paint":{"stroke":"#808080","stroke-opacity":1,"stroke-width":1,"palette-overrides":{"light":{"stroke":"#808080"}}},"feature_count":1},"label.gates":{"name":"Gates","layer":"Labels","object_type":"Label","paint":{"text-color":"#CCCCCC","text-font":"Arial","text-size":12,"text-halo-color":"#000000","text-halo-width":1,"text-anchor":"center","zoomLevel":9},"feature_count":9},"label.taxiways":{"name":"Taxiways","layer":"Labels","object_type":"Label","paint":{"text-color":"#CCCCCC","text-font":"Arial","text-size":12,"text-halo-color":"#000000","text-halo-width":1,"text-anchor":"center","zoomLevel":7},"feature_count":29}},"vsmr_groups":[],"features":[{"type":"Feature","id":"LFPT-0729fd77b459ab28168c","properties":{"airport":"LFPT","name":"1","layer":"Labels","category":"Gates","object_type":"Label","style_id":"label.gates","source_group":"LFPT Gates","vsmr_group_ids":[],"geometry_role":"text_label","text-field":"1"},"geometry":{"type":"Point","coordinates":[2.04,49.089027778]}},{"type":"Feature","id":"LFPT-c565cd1ccfc0af30cbfd","properties":{"airport":"LFPT","name":"2","layer":"Labels","category":"Gates","object_type":"Label","style_id":"label.gates","source_group":"LFPT Gates","vsmr_group_ids":[],"geometry_role":"text_label","text-field":"2"},"geometry":{"type":"Point","coordinates":[2.040472222,49.089361111]}},{"type":"Feature","id":"LFPT-444aa211ca2962958e62","properties":{"airport":"LFPT","name":"3","layer":"Labels","category":"Gates","object_type":"Label","style_id":"label.gates","source_group":"LFPT Gates","vsmr_group_ids":[],"geometry_role":"text_label","text-field":"3"},"geometry":{"type":"Point","coordinates":[2.0325,49.10125]}},{"type":"Feature","id":"LFPT-15c97b0fb748d2210f43","properties":{"airport":"LFPT","name":"4","layer":"Labels","category":"Gates","object_type":"Label","style_id":"label.gates","source_group":"LFPT Gates","vsmr_group_ids":[],"geometry_role":"text_label","text-field":"4"},"geometry":{"type":"Point","coordinates":[2.0345,49.100611111]}},{"type":"Feature","id":"LFPT-4888a43f7c53be98c31f","properties":{"airport":"LFPT","name":"5","layer":"Labels","category":"Gates","object_type":"Label","style_id":"label.gates","source_group":"LFPT Gates","vsmr_group_ids":[],"geometry_role":"text_label","text-field":"5"},"geometry":{"type":"Point","coordinates":[2.035444444,49.100416667]}},{"type":"Feature","id":"LFPT-c1c2d9e9434b28903a50","properties":{"airport":"LFPT","name":"6","layer":"Labels","category":"Gates","object_type":"Label","style_id":"label.gates","source_group":"LFPT Gates","vsmr_group_ids":[],"geometry_role":"text_label","text-field":"6"},"geometry":{"type":"Point","coordinates":[2.034777778,49.100916667]}},{"type":"Feature","id":"LFPT-3fb2c9569254dece3b52","properties":{"airport":"LFPT","name":"7","layer":"Labels","category":"Gates","object_type":"Label","style_id":"label.gates","source_group":"LFPT Gates","vsmr_group_ids":[],"geometry_role":"text_label","text-field":"7"},"geometry":{"type":"Point","coordinates":[2.035611111,49.100666667]}},{"type":"Feature","id":"LFPT-9b978166c8492dede9ef","properties":{"airport":"LFPT","name":"8","layer":"Labels","category":"Gates","object_type":"Label","style_id":"label.gates","source_group":"LFPT Gates","vsmr_group_ids":[],"geometry_role":"text_label","text-field":"8"},"geometry":{"type":"Point","coordinates":[2.038583333,49.099333333]}},{"type":"Feature","id":"LFPT-5844bc4988b85896a206","properties":{"airport":"LFPT","name":"9","layer":"Labels","category":"Gates","object_type":"Label","style_id":"label.gates","source_group":"LFPT Gates","vsmr_group_ids":[],"geometry_role":"text_label","text-field":"9"},"geometry":{"type":"Point","coordinates":[2.038972222,49.099555556]}},{"type":"Feature","id":"LFPT-85528972f70e29be6c88","properties":{"airport":"LFPT","name":"LFPT Groundlayout","layer":"Guidance lines","category":"Taxiways","object_type":"Line","style_id":"line.taxiway.c0b631","source_group":"LFPT Groundlayout","vsmr_group_ids":[],"geometry_role":"linework"},"geometry":{"type":"MultiLineString","coordinates":[[[2.038638889,49.088583333],[2.039527778,49.08925]],[[2.039222222,49.089444444],[2.039722222,49.089805556]],[[2.039527778,49.08925],[2.040027778,49.089638889]],[[2.039722222,49.089805556],[2.042472222,49.091833333]],[[2.040027778,49.089638889],[2.042777778,49.091666667]],[[2.03825,49.098638889],[2.039194444,49.099166667]],[[2.038416667,49.098388889],[2.039444444,49.098972222]],[[2.039194444,49.099166667],[2.039555556,49.099388889]],[[2.039444444,49.098972222],[2.039833333,49.099194444]],[[2.039555556,49.099388889],[2.040472222,49.099944444]],[[2.039833333,49.099194444],[2.04075,49.09975]],[[2.040472222,49.099944444],[2.04075,49.09975]],[[2.031277778,49.100888889],[2.031861111,49.1015]],[[2.03175,49.100861111],[2.032194444,49.101361111]],[[2.031861111,49.1015],[2.033277778,49.103138889]],[[2.032194444,49.101361111],[2.033638889,49.103]],[[2.033277778,49.103138889],[2.033638889,49.103]],[[2.035527778,49.099916667],[2.035277778,49.099666667]],[[2.035194444,49.100055556],[2.034916667,49.099777778]],[[2.035527778,49.099916667],[2.035194444,49.100055556]],[[2.03175,49.100861111],[2.034222222,49.100027778]],[[2.031527778,49.100638889],[2.034027778,49.099777778]],[[2.034583333,49.099888889],[2.034916667,49.099777778]],[[2.034388889,49.099666667],[2.034916667,49.099472222]],[[2.035277778,49.099666667],[2.03825,49.098638889]],[[2.034916667,49.099472222],[2.037944444,49.098444444]],[[2.045944444,49.093666667],[2.045194444,49.093888889]],[[2.046111111,49.093888889],[2.045527778,49.094083333]],[[2.045944444,49.093666667],[2.046111111,49.093888889]],[[2.045194444,49.093888889],[2.043777778,49.094388889]],[[2.045166667,49.094194444],[2.044055556,49.094611111]],[[2.033861111,49.09175],[2.034166667,49.091583333]],[[2.033583333,49.091583333],[2.033888889,49.091388889]],[[2.034166667,49.091583333],[2.038583333,49.088972222]],[[2.033888889,49.091388889],[2.038638889,49.088583333]],[[2.043305556,49.091361111],[2.042777778,49.091666667]],[[2.043583333,49.091555556],[2.042888889,49.091944444]],[[2.043305556,49.091361111],[2.043583333,49.091555556]],[[2.042472222,49.091833333],[2.041111111,49.092638889]],[[2.042888889,49.091944444],[2.041527778,49.09275]],[[2.041111111,49.092638889],[2.038305556,49.094305556]],[[2.04125,49.092944444],[2.038555556,49.0945]],[[2.038305556,49.094305556],[2.038,49.0945]],[[2.038555556,49.0945],[2.038277778,49.094694444]],[[2.04125,49.092944444],[2.043583333,49.094666667]],[[2.041527778,49.09275],[2.043777778,49.094388889]],[[2.043583333,49.094666667],[2.044083333,49.095027778]],[[2.044055556,49.094611111],[2.044388889,49.094861111]],[[2.044083333,49.095027778],[2.044305556,49.095194444]],[[2.044388889,49.094861111],[2.044666667,49.095083333]],[[2.037416667,49.098111111],[2.03775,49.098333333]],[[2.037777778,49.097972222],[2.038027778,49.098138889]],[[2.03775,49.098333333],[2.037944444,49.098444444]],[[2.038027778,49.098138889],[2.038416667,49.098388889]],[[2.030861111,49.100388889],[2.031055556,49.100638889]],[[2.031222222,49.100277778],[2.031416667,49.1005]],[[2.031055556,49.100638889],[2.031277778,49.100888889]],[[2.031416667,49.1005],[2.031527778,49.100638889]],[[2.033694444,49.099416667],[2.033888889,49.099638889]],[[2.034055556,49.099277778],[2.03425,49.0995]],[[2.033888889,49.099638889],[2.034027778,49.099777778]],[[2.03425,49.0995],[2.034388889,49.099666667]],[[2.034222222,49.100027778],[2.034666667,49.100555556]],[[2.034583333,49.099888889],[2.035027778,49.100416667]],[[2.034666667,49.100555556],[2.034777778,49.100666667]],[[2.035027778,49.100416667],[2.035111111,49.100555556]],[[2.034777778,49.100666667],[2.034916667,49.100861111]],[[2.035111111,49.100555556],[2.035222222,49.100638889]],[[2.034916667,49.100861111],[2.036055556,49.102222222]],[[2.035416667,49.100888889],[2.036416667,49.102083333]],[[2.036055556,49.102222222],[2.036416667,49.102083333]],[[2.043833333,49.098361111],[2.044027778,49.098055556]],[[2.043527778,49.098166667],[2.043638889,49.097944444]],[[2.044027778,49.098055556],[2.045472222,49.095722222]],[[2.043638889,49.097944444],[2.045083333,49.095611111]],[[2.045472222,49.095722222],[2.045805556,49.095194444]],[[2.045083333,49.095611111],[2.045222222,49.095388889]],[[2.045805556,49.094694444],[2.045694444,49.094444444]],[[2.045444444,49.094805556],[2.045305556,49.094527778]],[[2.045694444,49.094444444],[2.045527778,49.094083333]],[[2.045305556,49.094527778],[2.045166667,49.094194444]],[[2.035333333,49.100638889],[2.035222222,49.100638889]],[[2.035388889,49.100888889],[2.035416667,49.100888889]],[[2.035333333,49.100638889],[2.035388889,49.100888889]]]}},{"type":"Feature","id":"LFPT-ca531dc863e208fa61d0","properties":{"airport":"LFPT","name":"LFPT Groundlayout","layer":"Guidance lines","category":"Runways","object_type":"Line","style_id":"line.runwayconcrete.555555","source_group":"LFPT Groundlayout","vsmr_group_ids":[],"geometry_role":"linework"},"geometry":{"type":"MultiLineString","coordinates":[[[2.043888889,49.098416667],[2.043833333,49.098361111]],[[2.043416667,49.098722222],[2.043305556,49.098638889]],[[2.043888889,49.098416667],[2.043416667,49.098722222]],[[2.043527778,49.098166667],[2.041361111,49.096722222]],[[2.043305556,49.098638889],[2.04075,49.096944444]],[[2.040861111,49.096416667],[2.038277778,49.094694444]],[[2.04025,49.096611111],[2.037638889,49.094888889]],[[2.038,49.0945],[2.033861111,49.09175]],[[2.037638889,49.094888889],[2.033222222,49.091972222]],[[2.033583333,49.091583333],[2.027638889,49.087638889]],[[2.033222222,49.091972222],[2.027166667,49.087944444]],[[2.027638889,49.087638889],[2.027166667,49.087944444]],[[2.045861111,49.094666667],[2.045805556,49.094694444]],[[2.046194444,49.095055556],[2.045888889,49.095166667]],[[2.045861111,49.094666667],[2.046194444,49.095055556]],[[2.045444444,49.094805556],[2.044666667,49.095083333]],[[2.045222222,49.095388889],[2.044888889,49.0955]],[[2.044305556,49.095194444],[2.040861111,49.096416667]],[[2.044888889,49.0955],[2.041361111,49.096722222]],[[2.04025,49.096611111],[2.037166667,49.097694444]],[[2.04075,49.096944444],[2.037777778,49.097972222]],[[2.037166667,49.097694444],[2.033555556,49.098944444]],[[2.037416667,49.098111111],[2.034055556,49.099277778]],[[2.033555556,49.098944444],[2.030694444,49.099944444]],[[2.033694444,49.099416667],[2.031222222,49.100277778]],[[2.030694444,49.099944444],[2.025916667,49.101611111]],[[2.030861111,49.100388889],[2.02625,49.102]],[[2.025916667,49.101611111],[2.02625,49.102]]]}},{"type":"Feature","id":"LFPT-55c1994a7e8619a30670","properties":{"airport":"LFPT","name":"LFPT Groundlayout","layer":"Guidance lines","category":"Apron Surface","object_type":"Line","style_id":"line.apronsurface.808080","source_group":"LFPT Groundlayout","vsmr_group_ids":[],"geometry_role":"linework"},"geometry":{"type":"MultiLineString","coordinates":[[[2.039166667,49.089138889],[2.039944444,49.088722222],[2.041805556,49.090083333],[2.041472222,49.090277778],[2.041277778,49.090111111],[2.040833333,49.090416667]],[[2.039166667,49.089138889],[2.040833333,49.090416667]],[[2.045166667,49.094194444],[2.046222222,49.093805556],[2.046583333,49.093111111],[2.046444444,49.093111111],[2.044944444,49.093666667]],[[2.045166667,49.094194444],[2.044944444,49.093666667]],[[2.03425,49.100555556],[2.034583333,49.100444444],[2.034527778,49.100055556],[2.035361111,49.09975],[2.035666667,49.100111111],[2.035416667,49.100194444],[2.035833333,49.100694444],[2.03475,49.101111111]],[[2.03425,49.100555556],[2.03475,49.101111111]],[[2.0325,49.10175],[2.032055556,49.101277778],[2.032555556,49.101111111],[2.032944444,49.101555556]],[[2.0325,49.10175],[2.032944444,49.101555556]],[[2.033694444,49.102583333],[2.033861111,49.10275],[2.0335,49.102888889],[2.033333333,49.102722222]],[[2.033694444,49.102583333],[2.033333333,49.102722222]],[[2.036027778,49.101777778],[2.035555556,49.101972222],[2.035138889,49.101444444],[2.035611111,49.101277778]],[[2.036027778,49.101777778],[2.035611111,49.101277778]],[[2.040583333,49.099833333],[2.040055556,49.100055556],[2.040583333,49.100388889],[2.040277778,49.100555556],[2.038111111,49.09925],[2.039,49.098888889]],[[2.040583333,49.099833333],[2.039,49.098888889]]]}},{"type":"Feature","id":"LFPT-80e5279185646561e49f","properties":{"airport":"LFPT","name":"F","layer":"Labels","category":"Taxiways","object_type":"Label","style_id":"label.taxiways","source_group":"LFPT Taxiways","vsmr_group_ids":[],"geometry_role":"text_label","text-field":"F"},"geometry":{"type":"Point","coordinates":[2.038805556,49.098777778]}},{"type":"Feature","id":"LFPT-7f7d99330f8d36263878","properties":{"airport":"LFPT","name":"F","layer":"Labels","category":"Taxiways","object_type":"Label","style_id":"label.taxiways","source_group":"LFPT Taxiways","vsmr_group_ids":[],"geometry_role":"text_label","text-field":"F"},"geometry":{"type":"Point","coordinates":[2.0395,49.099194444]}},{"type":"Feature","id":"LFPT-b5b605596bb2255a46d5","properties":{"airport":"LFPT","name":"F","layer":"Labels","category":"Taxiways","object_type":"Label","style_id":"label.taxiways","source_group":"LFPT Taxiways","vsmr_group_ids":[],"geometry_role":"text_label","text-field":"F"},"geometry":{"type":"Point","coordinates":[2.040166667,49.099555556]}},{"type":"Feature","id":"LFPT-d94e19dbe5cbf63d4030","properties":{"airport":"LFPT","name":"H","layer":"Labels","category":"Taxiways","object_type":"Label","style_id":"label.taxiways","source_group":"LFPT Taxiways","vsmr_group_ids":[],"geometry_role":"text_label","text-field":"H"},"geometry":{"type":"Point","coordinates":[2.03175,49.101111111]}},{"type":"Feature","id":"LFPT-d1774d6b4bc55c05cf64","properties":{"airport":"LFPT","name":"H","layer":"Labels","category":"Taxiways","object_type":"Label","style_id":"label.taxiways","source_group":"LFPT Taxiways","vsmr_group_ids":[],"geometry_role":"text_label","text-field":"H"},"geometry":{"type":"Point","coordinates":[2.03275,49.10225]}},{"type":"Feature","id":"LFPT-c0dc6b341dc39113edec","properties":{"airport":"LFPT","name":"J1","layer":"Labels","category":"Taxiways","object_type":"Label","style_id":"label.taxiways","source_group":"LFPT Taxiways","vsmr_group_ids":[],"geometry_role":"text_label","text-field":"J1"},"geometry":{"type":"Point","coordinates":[2.032861111,49.100333333]}},{"type":"Feature","id":"LFPT-0d21e2db67d662c76dd9","properties":{"airport":"LFPT","name":"J2","layer":"Labels","category":"Taxiways","object_type":"Label","style_id":"label.taxiways","source_group":"LFPT Taxiways","vsmr_group_ids":[],"geometry_role":"text_label","text-field":"J2"},"geometry":{"type":"Point","coordinates":[2.034638889,49.099722222]}},{"type":"Feature","id":"LFPT-febf6980e0197105920e","properties":{"airport":"LFPT","name":"J2","layer":"Labels","category":"Taxiways","object_type":"Label","style_id":"label.taxiways","source_group":"LFPT Taxiways","vsmr_group_ids":[],"geometry_role":"text_label","text-field":"J2"},"geometry":{"type":"Point","coordinates":[2.036638889,49.099055556]}},{"type":"Feature","id":"LFPT-a647467a9a6cc6a9eace","properties":{"airport":"LFPT","name":"E","layer":"Labels","category":"Taxiways","object_type":"Label","style_id":"label.taxiways","source_group":"LFPT Taxiways","vsmr_group_ids":[],"geometry_role":"text_label","text-field":"E"},"geometry":{"type":"Point","coordinates":[2.044527778,49.094277778]}},{"type":"Feature","id":"LFPT-0dbfa93117a869a740ab","properties":{"airport":"LFPT","name":"A","layer":"Labels","category":"Taxiways","object_type":"Label","style_id":"label.taxiways","source_group":"LFPT Taxiways","vsmr_group_ids":[],"geometry_role":"text_label","text-field":"A"},"geometry":{"type":"Point","coordinates":[2.03375,49.091666667]}},{"type":"Feature","id":"LFPT-baff4fcc623f34235e6a","properties":{"airport":"LFPT","name":"A","layer":"Labels","category":"Taxiways","object_type":"Label","style_id":"label.taxiways","source_group":"LFPT Taxiways","vsmr_group_ids":[],"geometry_role":"text_label","text-field":"A"},"geometry":{"type":"Point","coordinates":[2.036305556,49.090138889]}},{"type":"Feature","id":"LFPT-6a3aa6d2fc3ead27a212","properties":{"airport":"LFPT","name":"B","layer":"Labels","category":"Taxiways","object_type":"Label","style_id":"label.taxiways","source_group":"LFPT Taxiways","vsmr_group_ids":[],"geometry_role":"text_label","text-field":"B"},"geometry":{"type":"Point","coordinates":[2.043111111,49.091638889]}},{"type":"Feature","id":"LFPT-4f8c6256660c05c26ef2","properties":{"airport":"LFPT","name":"B","layer":"Labels","category":"Taxiways","object_type":"Label","style_id":"label.taxiways","source_group":"LFPT Taxiways","vsmr_group_ids":[],"geometry_role":"text_label","text-field":"B"},"geometry":{"type":"Point","coordinates":[2.042,49.092305556]}},{"type":"Feature","id":"LFPT-61c93a33549187e2689f","properties":{"airport":"LFPT","name":"B","layer":"Labels","category":"Taxiways","object_type":"Label","style_id":"label.taxiways","source_group":"LFPT Taxiways","vsmr_group_ids":[],"geometry_role":"text_label","text-field":"B"},"geometry":{"type":"Point","coordinates":[2.039833333,49.093583333]}},{"type":"Feature","id":"LFPT-249fce3ad8cfeb65257c","properties":{"airport":"LFPT","name":"B","layer":"Labels","category":"Taxiways","object_type":"Label","style_id":"label.taxiways","source_group":"LFPT Taxiways","vsmr_group_ids":[],"geometry_role":"text_label","text-field":"B"},"geometry":{"type":"Point","coordinates":[2.038166667,49.094583333]}},{"type":"Feature","id":"LFPT-6e0b58824680b5653d27","properties":{"airport":"LFPT","name":"D","layer":"Labels","category":"Taxiways","object_type":"Label","style_id":"label.taxiways","source_group":"LFPT Taxiways","vsmr_group_ids":[],"geometry_role":"text_label","text-field":"D"},"geometry":{"type":"Point","coordinates":[2.0425,49.093666667]}},{"type":"Feature","id":"LFPT-83a1d47bc0c27b4ca828","properties":{"airport":"LFPT","name":"D","layer":"Labels","category":"Taxiways","object_type":"Label","style_id":"label.taxiways","source_group":"LFPT Taxiways","vsmr_group_ids":[],"geometry_role":"text_label","text-field":"D"},"geometry":{"type":"Point","coordinates":[2.044,49.09475]}},{"type":"Feature","id":"LFPT-5f14bce9f513cb1d5968","properties":{"airport":"LFPT","name":"D","layer":"Labels","category":"Taxiways","object_type":"Label","style_id":"label.taxiways","source_group":"LFPT Taxiways","vsmr_group_ids":[],"geometry_role":"text_label","text-field":"D"},"geometry":{"type":"Point","coordinates":[2.044472222,49.095138889]}},{"type":"Feature","id":"LFPT-c1bb2a17ccc3f2485020","properties":{"airport":"LFPT","name":"G","layer":"Labels","category":"Taxiways","object_type":"Label","style_id":"label.taxiways","source_group":"LFPT Taxiways","vsmr_group_ids":[],"geometry_role":"text_label","text-field":"G"},"geometry":{"type":"Point","coordinates":[2.033888889,49.099361111]}},{"type":"Feature","id":"LFPT-1302a4aadda640fdfced","properties":{"airport":"LFPT","name":"G","layer":"Labels","category":"Taxiways","object_type":"Label","style_id":"label.taxiways","source_group":"LFPT Taxiways","vsmr_group_ids":[],"geometry_role":"text_label","text-field":"G"},"geometry":{"type":"Point","coordinates":[2.034194444,49.099694444]}},{"type":"Feature","id":"LFPT-180a57a063dfaf9adc27","properties":{"airport":"LFPT","name":"G","layer":"Labels","category":"Taxiways","object_type":"Label","style_id":"label.taxiways","source_group":"LFPT Taxiways","vsmr_group_ids":[],"geometry_role":"text_label","text-field":"G"},"geometry":{"type":"Point","coordinates":[2.034555556,49.100166667]}},{"type":"Feature","id":"LFPT-556632288dfbdf517083","properties":{"airport":"LFPT","name":"G","layer":"Labels","category":"Taxiways","object_type":"Label","style_id":"label.taxiways","source_group":"LFPT Taxiways","vsmr_group_ids":[],"geometry_role":"text_label","text-field":"G"},"geometry":{"type":"Point","coordinates":[2.034888889,49.100555556]}},{"type":"Feature","id":"LFPT-cab6bca5a82470418e1e","properties":{"airport":"LFPT","name":"G","layer":"Labels","category":"Taxiways","object_type":"Label","style_id":"label.taxiways","source_group":"LFPT Taxiways","vsmr_group_ids":[],"geometry_role":"text_label","text-field":"G"},"geometry":{"type":"Point","coordinates":[2.035027778,49.100694444]}},{"type":"Feature","id":"LFPT-1b4f09b0b569c9bd6e66","properties":{"airport":"LFPT","name":"G","layer":"Labels","category":"Taxiways","object_type":"Label","style_id":"label.taxiways","source_group":"LFPT Taxiways","vsmr_group_ids":[],"geometry_role":"text_label","text-field":"G"},"geometry":{"type":"Point","coordinates":[2.035666667,49.101472222]}},{"type":"Feature","id":"LFPT-28bbeb3a716cc25207bc","properties":{"airport":"LFPT","name":"C","layer":"Labels","category":"Taxiways","object_type":"Label","style_id":"label.taxiways","source_group":"LFPT Taxiways","vsmr_group_ids":[],"geometry_role":"text_label","text-field":"C"},"geometry":{"type":"Point","coordinates":[2.043694444,49.09825]}},{"type":"Feature","id":"LFPT-ec7aa7b69b7f98af02bb","properties":{"airport":"LFPT","name":"C","layer":"Labels","category":"Taxiways","object_type":"Label","style_id":"label.taxiways","source_group":"LFPT Taxiways","vsmr_group_ids":[],"geometry_role":"text_label","text-field":"C"},"geometry":{"type":"Point","coordinates":[2.044555556,49.096833333]}},{"type":"Feature","id":"LFPT-286e0e9e3f054ce9c00e","properties":{"airport":"LFPT","name":"C","layer":"Labels","category":"Taxiways","object_type":"Label","style_id":"label.taxiways","source_group":"LFPT Taxiways","vsmr_group_ids":[],"geometry_role":"text_label","text-field":"C"},"geometry":{"type":"Point","coordinates":[2.0455,49.095333333]}},{"type":"Feature","id":"LFPT-f21bcb671ec03ca770c0","properties":{"airport":"LFPT","name":"C","layer":"Labels","category":"Taxiways","object_type":"Label","style_id":"label.taxiways","source_group":"LFPT Taxiways","vsmr_group_ids":[],"geometry_role":"text_label","text-field":"C"},"geometry":{"type":"Point","coordinates":[2.045611111,49.094722222]}},{"type":"Feature","id":"LFPT-fb2bd1b4ab37146ece95","properties":{"airport":"LFPT","name":"C","layer":"Labels","category":"Taxiways","object_type":"Label","style_id":"label.taxiways","source_group":"LFPT Taxiways","vsmr_group_ids":[],"geometry_role":"text_label","text-field":"C"},"geometry":{"type":"Point","coordinates":[2.045388889,49.09425]}}]}
