{"type":"FeatureCollection","name":"LFPV AVISO","bbox":[2.179459722,48.762263056,2.219143333,48.778445],"metadata":{"schema":"vSMR AVISO","schema_version":2,"geometry_mode":"shared","airport":"LFPV","coordinate_reference_system":"WGS84","coordinate_order":"longitude, latitude","default_color_palette":"dark","color_palettes":["dark","light"],"background_colors":{"dark":"#434A4F","light":"#434A4F"},"runways":[{"ends":["09","27"],"headings":[87,267],"thresholds":[[2.189274722,48.774127778],[2.213932778,48.774605833]]}],"saved_active_runways":[],"saved_active_airport_modes":[],"airport_reference":[2.191388889,48.774166944],"feature_count":68,"style_count":14,"layer_counts":{"Airfield surfaces":19,"Buildings and structures":18,"Guidance lines":3,"Labels":24,"Surface markings":3,"Terrain":1},"category_counts":{"Buildings":18,"Gates":7,"Grass":1,"Grass runways":1,"Hard Surface 2":2,"Hard Surface 3":6,"Hard Surface 4":7,"Runway Border":1,"Runways":1,"Stopbars":3,"Taxiway Orange":3,"Taxiways":18},"geometry_source":"local GNG","geometry_source_url":"","geometry_license":"GPL-3.0"},"styles":{"polygon.grassurface.00512f":{"name":"Grass","layer":"Terrain","object_type":"Area","paint":{"fill":"#010D19","fill-opacity":1,"palette-overrides":{"light":{"fill":"#00512F"}}},"feature_count":1},"polygon.hardsurface4.969393":{"name":"Hard Surface 4","layer":"Airfield surfaces","object_type":"Area","paint":{"fill":"#152841","fill-opacity":1,"palette-overrides":{"light":{"fill":"#969393"}}},"feature_count":7},"polygon.hardsurface3.8a807f":{"name":"Hard Surface 3","layer":"Airfield surfaces","object_type":"Area","paint":{"fill":"#222D3C","fill-opacity":1,"palette-overrides":{"light":{"fill":"#8A807F"}}},"feature_count":6},"polygon.hardsurface2.595e5b":{"name":"Hard Surface 2","layer":"Airfield surfaces","object_type":"Area","paint":{"fill":"#2F3949","fill-opacity":1,"palette-overrides":{"light":{"fill":"#595E5B"}}},"feature_count":2},"polygon.runwaygrass.008000":{"name":"Grass runways","layer":"Airfield surfaces","object_type":"Area","paint":{"fill":"#859A77","fill-opacity":1,"palette-overrides":{"light":{"fill":"#008000"}}},"feature_count":1},"polygon.runwayconcrete.555555":{"name":"Runways","layer":"Airfield surfaces","object_type":"Area","paint":{"fill":"#111318","fill-opacity":1,"palette-overrides":{"light":{"fill":"#555555"}}},"feature_count":1},"polygon.building.394446":{"name":"Buildings","layer":"Buildings and structures","object_type":"Area","paint":{"fill":"#475570","fill-opacity":1,"palette-overrides":{"light":{"fill":"#394446"}}},"feature_count":18},"polygon.stopbar.7e0000":{"name":"Stopbars","layer":"Surface markings","object_type":"Area","paint":{"fill":"#7E0000","fill-opacity":1,"palette-overrides":{"light":{"fill":"#7E0000"}}},"feature_count":3},"polygon.taxiwayorange.cc6d00":{"name":"Taxiway Orange","layer":"Airfield surfaces","object_type":"Area","paint":{"fill":"#CC8B00","fill-opacity":1,"palette-overrides":{"light":{"fill":"#CC6D00"}}},"feature_count":2},"line.taxiway.c0b631":{"name":"Taxiways","layer":"Guidance lines","object_type":"Line","paint":{"stroke":"#4E5A69","stroke-opacity":1,"stroke-width":1,"palette-overrides":{"light":{"stroke":"#C0B631"}}},"feature_count":1},"line.taxiwayorange.cc6d00":{"name":"Taxiway Orange","layer":"Guidance lines","object_type":"Line","paint":{"stroke":"#CC8B00","stroke-opacity":1,"stroke-width":1,"palette-overrides":{"light":{"stroke":"#CC6D00"}}},"feature_count":1},"line.runwayborder.808080":{"name":"Runway Border","layer":"Guidance lines","object_type":"Line","paint":{"stroke":"#808080","stroke-opacity":1,"stroke-width":1,"palette-overrides":{"light":{"stroke":"#808080"}}},"feature_count":1},"label.gates":{"name":"Gates","layer":"Labels","object_type":"Label","paint":{"text-color":"#CCCCCC","text-font":"Arial","text-size":12,"text-halo-color":"#000000","text-halo-width":1,"text-anchor":"center","zoomLevel":9},"feature_count":7},"label.taxiways":{"name":"Taxiways","layer":"Labels","object_type":"Label","paint":{"text-color":"#CCCCCC","text-font":"Arial","text-size":12,"text-halo-color":"#000000","text-halo-width":1,"text-anchor":"center","zoomLevel":7},"feature_count":17}},"vsmr_groups":[],"features":[{"type":"Feature","id":"LFPV-a71d0b20b471bfa3ee22","properties":{"airport":"LFPV","name":"LFPV AVISO","layer":"Terrain","category":"Grass","object_type":"Area","style_id":"polygon.grassurface.00512f","source_group":"LFPV AVISO","vsmr_group_ids":[],"geometry_role":"filled_region"},"geometry":{"type":"Polygon","coordinates":[[[2.188058889,48.777796111],[2.183735,48.778115278],[2.182436944,48.778274722],[2.181503611,48.778377778],[2.181036667,48.778423611],[2.180709444,48.778445],[2.180275,48.778200278],[2.179459722,48.777781944],[2.1848025,48.773662222],[2.185955833,48.772761389],[2.186406667,48.772531111],[2.186878611,48.7723325],[2.189888056,48.771694167],[2.190671389,48.771183611],[2.191685278,48.768903611],[2.191728056,48.768623333],[2.191706667,48.767921389],[2.191744167,48.767658889],[2.191840833,48.767449722],[2.19205,48.767233333],[2.192221667,48.767135833],[2.192688333,48.766990556],[2.198240556,48.766557778],[2.198771667,48.766396389],[2.198961944,48.766315],[2.199230278,48.766144722],[2.200936111,48.765084444],[2.20125,48.764873333],[2.201558333,48.764642778],[2.201773056,48.7644175],[2.202049167,48.764071944],[2.202298611,48.763678333],[2.202373611,48.763614444],[2.20276,48.763488611],[2.204688611,48.763821944],[2.205273333,48.763825278],[2.205654167,48.763798889],[2.205898056,48.763738611],[2.206096667,48.763653333],[2.207196389,48.762866111],[2.207829444,48.762475833],[2.208178056,48.762334167],[2.208741389,48.762263056],[2.209326111,48.762273889],[2.210382778,48.7624475],[2.211503889,48.762610833],[2.2124375,48.762713611],[2.212827222,48.762804444],[2.213251111,48.762962222],[2.213618611,48.763144722],[2.213956667,48.763362778],[2.214281111,48.763639444],[2.214653889,48.764013611],[2.215069722,48.764581111],[2.215203056,48.764901944],[2.215431111,48.765611389],[2.2154875,48.765999722],[2.215525,48.766519167],[2.215465833,48.767194722],[2.215044722,48.769123611],[2.2149,48.769740833],[2.214875833,48.769967778],[2.214878611,48.770281389],[2.2149375,48.770568611],[2.215066389,48.770909167],[2.215238056,48.771176944],[2.21549,48.771518889],[2.215903056,48.7719925],[2.216147222,48.772274167],[2.21608,48.772387778],[2.216096111,48.772586389],[2.216155278,48.772703333],[2.217056389,48.773330833],[2.219143333,48.775800556],[2.219127222,48.776153333],[2.218866944,48.776323333],[2.216064167,48.776768333],[2.215063611,48.776874722],[2.2139425,48.776954444],[2.212166667,48.776935],[2.2051125,48.776784167],[2.203795556,48.776768333],[2.20261,48.776800278],[2.195376111,48.777289444],[2.188058889,48.777796111]]]}},{"type":"Feature","id":"LFPV-23c48c6b64c58dd7e1db","properties":{"airport":"LFPV","name":"LFPV AVISO","layer":"Airfield surfaces","category":"Hard Surface 4","object_type":"Area","style_id":"polygon.hardsurface4.969393","source_group":"LFPV AVISO","vsmr_group_ids":[],"geometry_role":"filled_region"},"geometry":{"type":"Polygon","coordinates":[[[2.203370278,48.770615833],[2.202989444,48.770433056],[2.202949167,48.770266389],[2.203386389,48.7698675],[2.203676111,48.769839167],[2.203718889,48.770012778],[2.204024722,48.770156389],[2.204073056,48.770362222],[2.203858611,48.770558889],[2.203370278,48.770615833]]]}},{"type":"Feature","id":"LFPV-01a7cc084be47a21ce3d","properties":{"airport":"LFPV","name":"LFPV AVISO","layer":"Airfield surfaces","category":"Hard Surface 4","object_type":"Area","style_id":"polygon.hardsurface4.969393","source_group":"LFPV AVISO","vsmr_group_ids":[],"geometry_role":"filled_region"},"geometry":{"type":"Polygon","coordinates":[[[2.207450833,48.771928056],[2.207386389,48.771900278],[2.2079875,48.771293611],[2.208043611,48.771323056],[2.207450833,48.771928056]]]}},{"type":"Feature","id":"LFPV-e7991e67577fec6302f3","properties":{"airport":"LFPV","name":"LFPV AVISO","layer":"Airfield surfaces","category":"Hard Surface 4","object_type":"Area","style_id":"polygon.hardsurface4.969393","source_group":"LFPV AVISO","vsmr_group_ids":[],"geometry_role":"filled_region"},"geometry":{"type":"Polygon","coordinates":[[[2.190458056,48.772296389],[2.190501111,48.772381667],[2.191085833,48.772241389],[2.191230556,48.772211389],[2.191351389,48.772191944],[2.191453333,48.772186389],[2.191544444,48.772197222],[2.1916275,48.772229167],[2.191681389,48.772268056],[2.191735,48.772319444],[2.191767222,48.772367222],[2.191769722,48.772406389],[2.191764444,48.772578333],[2.191968333,48.772581944],[2.191962778,48.772374444],[2.191960278,48.772230833],[2.191962778,48.772097778],[2.191960278,48.772012778],[2.191952222,48.77191],[2.191954722,48.771849722],[2.191968333,48.771794722],[2.1920675,48.7716725],[2.191936111,48.771629722],[2.191348611,48.772085556],[2.190458056,48.772296389]]]}},{"type":"Feature","id":"LFPV-67b58720ad8b15b7000d","properties":{"airport":"LFPV","name":"LFPV AVISO","layer":"Airfield surfaces","category":"Hard Surface 4","object_type":"Area","style_id":"polygon.hardsurface4.969393","source_group":"LFPV AVISO","vsmr_group_ids":[],"geometry_role":"filled_region"},"geometry":{"type":"Polygon","coordinates":[[[2.193786667,48.767903056],[2.193505278,48.767895833],[2.193368333,48.767793056],[2.194492222,48.767098056],[2.194773889,48.767298333],[2.193786667,48.767903056]]]}},{"type":"Feature","id":"LFPV-0403aa8c6db1b6d88590","properties":{"airport":"LFPV","name":"LFPV AVISO","layer":"Airfield surfaces","category":"Hard Surface 4","object_type":"Area","style_id":"polygon.hardsurface4.969393","source_group":"LFPV AVISO","vsmr_group_ids":[],"geometry_role":"filled_region"},"geometry":{"type":"Polygon","coordinates":[[[2.203008333,48.768670833],[2.202627222,48.768332222],[2.211084444,48.764058889],[2.211121944,48.764035833],[2.211159444,48.763995],[2.211191667,48.763945278],[2.211213056,48.763895833],[2.211229167,48.763853333],[2.211226389,48.763817778],[2.2114925,48.7636775],[2.212026111,48.764086389],[2.204191389,48.768071389],[2.204161944,48.768099722],[2.204137778,48.768142222],[2.204126944,48.76819],[2.204129722,48.768241667],[2.204137778,48.768278889],[2.204159167,48.768319444],[2.204451667,48.768557222],[2.204515833,48.768599722],[2.204572222,48.768631667],[2.204631389,48.768654722],[2.204679722,48.768665278],[2.204730556,48.768670556],[2.204781389,48.768670556],[2.204837778,48.768663611],[2.204910278,48.768642222],[2.2042825,48.768968611],[2.204330833,48.768918889],[2.204355,48.768883333],[2.204368333,48.768848056],[2.204373889,48.768816111],[2.204373889,48.768785833],[2.204365833,48.768748611],[2.204352222,48.768718611],[2.204320278,48.768677778],[2.204030556,48.768438333],[2.203966111,48.768393889],[2.2039125,48.768371111],[2.203853333,48.768355],[2.203783611,48.768346111],[2.203721944,48.768351389],[2.203663056,48.768365556],[2.203625556,48.768376389],[2.203008333,48.768670833]]]}},{"type":"Feature","id":"LFPV-cda8079de1917469dfdf","properties":{"airport":"LFPV","name":"LFPV AVISO","layer":"Airfield surfaces","category":"Hard Surface 4","object_type":"Area","style_id":"polygon.hardsurface4.969393","source_group":"LFPV AVISO","vsmr_group_ids":[],"geometry_role":"filled_region"},"geometry":{"type":"Polygon","coordinates":[[[2.212463056,48.766285833],[2.212991667,48.766743333],[2.212350556,48.767060556],[2.211814167,48.766585556],[2.211736389,48.766599722],[2.211781944,48.765736111],[2.211889167,48.765670556],[2.211921389,48.765643889],[2.211945556,48.765611944],[2.211964167,48.765576667],[2.211966944,48.765539444],[2.211958889,48.765503889],[2.211948333,48.765477222],[2.211927222,48.765447222],[2.2119,48.765420556],[2.211867778,48.765402778],[2.211811389,48.765395833],[2.211733611,48.765392222],[2.21168,48.765399167],[2.211623611,48.765413333],[2.211551111,48.765441944],[2.211197222,48.765622778],[2.211156944,48.765658056],[2.211132778,48.765691944],[2.211119444,48.765721944],[2.211111389,48.765750278],[2.211116667,48.765776944],[2.211132778,48.765807222],[2.211154167,48.765835556],[2.211191944,48.765858611],[2.211223889,48.765878056],[2.211272222,48.765893889],[2.211323333,48.765901111],[2.211371667,48.765904722],[2.211414444,48.7658975],[2.211457222,48.765885],[2.211511111,48.7658675],[2.210955833,48.766149444],[2.211009444,48.766103333],[2.211028333,48.766074722],[2.211041667,48.766046389],[2.211044167,48.766021667],[2.211038889,48.765993333],[2.211028333,48.765971944],[2.211012222,48.765945278],[2.210993333,48.765924167],[2.210969167,48.765908056],[2.210936944,48.765890556],[2.210899444,48.765876389],[2.210856667,48.765869167],[2.210810833,48.765865556],[2.21076,48.765872778],[2.210706389,48.765883333],[2.210644722,48.76591],[2.210250278,48.766111944],[2.210126944,48.766000278],[2.211457222,48.765324722],[2.211610278,48.765241389],[2.211685278,48.765193611],[2.211746944,48.765140278],[2.211803333,48.76508],[2.211840833,48.765012778],[2.211889167,48.764838889],[2.2119375,48.764672222],[2.211956389,48.764583611],[2.211958889,48.764528611],[2.211948333,48.764459444],[2.211916111,48.76441],[2.211873056,48.764363889],[2.2118275,48.764333611],[2.211787222,48.764312222],[2.211725556,48.764303611],[2.211669167,48.764296389],[2.211594167,48.764305278],[2.212018056,48.76408],[2.212149444,48.76419],[2.212181667,48.764234444],[2.212203056,48.764296389],[2.212211111,48.764367222],[2.212197778,48.764438333],[2.212170833,48.764562222],[2.212098333,48.7648],[2.212060833,48.764943611],[2.212034167,48.76505],[2.212028611,48.765117222],[2.212036667,48.765188333],[2.212058056,48.765262778],[2.212076944,48.765331944],[2.21212,48.765401111],[2.212168056,48.7654525],[2.212677778,48.765890556],[2.2123075,48.766090833],[2.212272778,48.766119167],[2.212252778,48.766148333],[2.212245833,48.766170556],[2.212247778,48.766199167],[2.212260556,48.766223611],[2.212287778,48.766250278],[2.212334444,48.766268056],[2.212382778,48.766282222],[2.212433611,48.766289444],[2.212463056,48.766285833]]]}},{"type":"Feature","id":"LFPV-3672fe3363777fcc7231","properties":{"airport":"LFPV","name":"LFPV AVISO","layer":"Airfield surfaces","category":"Hard Surface 4","object_type":"Area","style_id":"polygon.hardsurface4.969393","source_group":"LFPV AVISO","vsmr_group_ids":[],"geometry_role":"filled_region"},"geometry":{"type":"Polygon","coordinates":[[[2.2048825,48.769427222],[2.204780556,48.769466111],[2.204689444,48.769505278],[2.204611667,48.769545833],[2.204528611,48.7695975],[2.204475,48.769638056],[2.204421111,48.769684167],[2.204378333,48.769735556],[2.204348889,48.769781667],[2.204321944,48.769829722],[2.204287222,48.769895278],[2.204273611,48.769950278],[2.204271111,48.770014167],[2.204273611,48.770085],[2.204284444,48.770148889],[2.204308611,48.7702125],[2.204338056,48.770276389],[2.204391667,48.770340278],[2.204453333,48.770396944],[2.204520556,48.770450278],[2.204590278,48.770499722],[2.204649167,48.770531667],[2.204657222,48.770558333],[2.20455,48.770654167],[2.204483056,48.770623889],[2.204423889,48.770583056],[2.204365,48.770545833],[2.204297778,48.770496389],[2.204252222,48.770457222],[2.204203889,48.770404167],[2.204169167,48.770359722],[2.204145,48.770311944],[2.204118056,48.770262222],[2.204101944,48.7702125],[2.204083333,48.770157778],[2.2040725,48.770104444],[2.204067222,48.7700425],[2.204067222,48.769976944],[2.204078056,48.769914722],[2.204091389,48.769858056],[2.204112778,48.769804722],[2.204142222,48.769744444],[2.2041825,48.769695],[2.204241667,48.769625833],[2.204295278,48.769570833],[2.204346111,48.769523056],[2.204405278,48.769482222],[2.204456111,48.769446667],[2.204531111,48.769407778],[2.204576944,48.769379444],[2.204603611,48.769350833],[2.2046225,48.769317222],[2.2046225,48.7692925],[2.204619722,48.769253333],[2.204608889,48.769219722],[2.204579444,48.769175278],[2.2048825,48.769427222]]]}},{"type":"Feature","id":"LFPV-c14435e7ca4341bb9dcd","properties":{"airport":"LFPV","name":"LFPV AVISO","layer":"Airfield surfaces","category":"Hard Surface 3","object_type":"Area","style_id":"polygon.hardsurface3.8a807f","source_group":"LFPV AVISO","vsmr_group_ids":[],"geometry_role":"filled_region"},"geometry":{"type":"Polygon","coordinates":[[[2.190460556,48.772302778],[2.190311944,48.771992222],[2.190494444,48.771586111],[2.191414444,48.771364722],[2.191516389,48.771547222],[2.191539167,48.771541667],[2.191420556,48.771319722],[2.191492222,48.771155556],[2.191599444,48.770925],[2.1926375,48.7696075],[2.192666944,48.769588056],[2.192862778,48.769547222],[2.192895,48.769529722],[2.192908333,48.76951],[2.193351111,48.769417778],[2.193351111,48.769446389],[2.193396667,48.769488889],[2.193418056,48.769517222],[2.193428889,48.769550833],[2.193428889,48.76959],[2.19341,48.769639444],[2.193380556,48.7696875],[2.191929444,48.771543611],[2.191925278,48.771554722],[2.191925,48.771573611],[2.191929444,48.771589722],[2.191943056,48.771631944],[2.191854167,48.771736944],[2.191376944,48.772096944],[2.190460556,48.772302778]]]}},{"type":"Feature","id":"LFPV-55854f2f69fe5436d528","properties":{"airport":"LFPV","name":"LFPV AVISO","layer":"Airfield surfaces","category":"Hard Surface 3","object_type":"Area","style_id":"polygon.hardsurface3.8a807f","source_group":"LFPV AVISO","vsmr_group_ids":[],"geometry_role":"filled_region"},"geometry":{"type":"Polygon","coordinates":[[[2.1994275,48.770480556],[2.198915278,48.770063889],[2.202528056,48.768237778],[2.203010833,48.768668611],[2.1994275,48.770480556]]]}},{"type":"Feature","id":"LFPV-bd2c00f9e127041dd312","properties":{"airport":"LFPV","name":"LFPV AVISO","layer":"Airfield surfaces","category":"Hard Surface 3","object_type":"Area","style_id":"polygon.hardsurface3.8a807f","source_group":"LFPV AVISO","vsmr_group_ids":[],"geometry_role":"filled_region"},"geometry":{"type":"Polygon","coordinates":[[[2.193781389,48.768033889],[2.193757222,48.768007222],[2.193743889,48.767975278],[2.193743056,48.767955],[2.193746944,48.767936667],[2.193754722,48.767919444],[2.193766111,48.767905],[2.193837778,48.767856667],[2.194771111,48.767296389],[2.195039444,48.767484167],[2.194966944,48.767525],[2.195063611,48.767603056],[2.194979444,48.767652778],[2.195033889,48.767696944],[2.194823333,48.7678175],[2.194856944,48.767840556],[2.194527222,48.768041111],[2.194470833,48.768071111],[2.194441667,48.768083333],[2.194411389,48.768093056],[2.194377222,48.768098333],[2.1943475,48.768099444],[2.194173056,48.7680925],[2.193915556,48.768076389],[2.193861944,48.768071111],[2.193818889,48.768058611],[2.193781389,48.768033889]]]}},{"type":"Feature","id":"LFPV-21216261052c26a6b393","properties":{"airport":"LFPV","name":"LFPV AVISO","layer":"Airfield surfaces","category":"Hard Surface 3","object_type":"Area","style_id":"polygon.hardsurface3.8a807f","source_group":"LFPV AVISO","vsmr_group_ids":[],"geometry_role":"filled_region"},"geometry":{"type":"Polygon","coordinates":[[[2.211178333,48.7727525],[2.211078889,48.772855556],[2.210574722,48.772846667],[2.210368333,48.772841389],[2.209823611,48.772828889],[2.209215,48.772811111],[2.207361389,48.772015],[2.20804,48.77132],[2.209160833,48.771829722],[2.209466389,48.771523056],[2.210051111,48.771767778],[2.209734722,48.772095556],[2.211178333,48.7727525]]]}},{"type":"Feature","id":"LFPV-bab1b3dcc61d1f49273b","properties":{"airport":"LFPV","name":"LFPV AVISO","layer":"Airfield surfaces","category":"Hard Surface 3","object_type":"Area","style_id":"polygon.hardsurface3.8a807f","source_group":"LFPV AVISO","vsmr_group_ids":[],"geometry_role":"filled_region"},"geometry":{"type":"Polygon","coordinates":[[[2.207948889,48.771334167],[2.207388333,48.771901667],[2.2071575,48.771800556],[2.207077222,48.771882222],[2.204708889,48.770843056],[2.204918056,48.770626944],[2.205062778,48.770660556],[2.206307222,48.7706075],[2.207948889,48.771334167]]]}},{"type":"Feature","id":"LFPV-2ed118eb07ef183148f6","properties":{"airport":"LFPV","name":"LFPV AVISO","layer":"Airfield surfaces","category":"Hard Surface 3","object_type":"Area","style_id":"polygon.hardsurface3.8a807f","source_group":"LFPV AVISO","vsmr_group_ids":[],"geometry_role":"filled_region"},"geometry":{"type":"Polygon","coordinates":[[[2.204869722,48.769432222],[2.204574722,48.769178611],[2.205202222,48.768909167],[2.205237222,48.768930556],[2.20528,48.768944722],[2.205328333,48.76895],[2.205376667,48.76895],[2.205430278,48.768942778],[2.205467778,48.768932222],[2.205532222,48.768900278],[2.207028889,48.768130833],[2.207055556,48.768098889],[2.207066389,48.768068889],[2.207069167,48.768028056],[2.207063611,48.768003056],[2.207055556,48.767978333],[2.207240833,48.767880833],[2.207278333,48.767895],[2.207326667,48.767909167],[2.207375,48.767914444],[2.207428611,48.767911111],[2.207482222,48.767900278],[2.20848,48.767396667],[2.208525556,48.767365],[2.208555,48.767336389],[2.208568333,48.767308056],[2.208573889,48.767261944],[2.208568333,48.767235556],[2.208565833,48.767214167],[2.208750833,48.767123611],[2.208804444,48.767138056],[2.20885,48.767146667],[2.208903611,48.767150278],[2.2089575,48.767145],[2.209003056,48.767130833],[2.210000833,48.766629167],[2.210043611,48.766598889],[2.210067778,48.766565278],[2.210078611,48.766535],[2.210083889,48.766494167],[2.210075833,48.766465833],[2.210070556,48.76645],[2.210258333,48.766359444],[2.210298611,48.766375556],[2.210344167,48.766386111],[2.210392222,48.766387778],[2.21043,48.766386111],[2.210483611,48.766375556],[2.210534444,48.766357778],[2.211843333,48.765696389],[2.211813889,48.766058056],[2.211779167,48.766058056],[2.211738889,48.766600556],[2.209335556,48.767825833],[2.206674722,48.7692],[2.206210833,48.769393333],[2.205263889,48.769386111],[2.205145833,48.769386111],[2.205041389,48.769396667],[2.204974167,48.7694075],[2.204869722,48.769432222]]]}},{"type":"Feature","id":"LFPV-17f3d06e4832932be6c1","properties":{"airport":"LFPV","name":"LFPV AVISO","layer":"Airfield surfaces","category":"Hard Surface 2","object_type":"Area","style_id":"polygon.hardsurface2.595e5b","source_group":"LFPV AVISO","vsmr_group_ids":[],"geometry_role":"filled_region"},"geometry":{"type":"Polygon","coordinates":[[[2.189594722,48.773309444],[2.189405278,48.773259444],[2.189435833,48.773216944],[2.189462778,48.773181389],[2.189500278,48.773144167],[2.189545833,48.773103333],[2.189602222,48.773060833],[2.189663889,48.773025278],[2.189731111,48.772993611],[2.189803333,48.772961667],[2.189873056,48.772940278],[2.189956389,48.772919167],[2.190760833,48.772736389],[2.191206111,48.772631944],[2.191418056,48.772585833],[2.191490556,48.772575],[2.191576389,48.772571667],[2.1948675,48.772638611],[2.195261944,48.772647222],[2.195642778,48.772652778],[2.195741944,48.772656111],[2.195816944,48.772652778],[2.195894722,48.772640278],[2.19597,48.772620833],[2.196036944,48.772597778],[2.198778056,48.7712025],[2.198796944,48.771168889],[2.198813056,48.771115556],[2.198818333,48.771069444],[2.198813056,48.771023333],[2.198791667,48.770973611],[2.19877,48.770933056],[2.198738056,48.770893889],[2.198684167,48.770849722],[2.198155833,48.770424167],[2.198917778,48.770060556],[2.199427222,48.770479167],[2.199129444,48.770638889],[2.199218056,48.770720556],[2.199271667,48.770754167],[2.199341389,48.7707825],[2.199421944,48.770801944],[2.199496944,48.770810833],[2.1995775,48.770809167],[2.199641944,48.770800278],[2.199716944,48.770784444],[2.199783889,48.770771944],[2.199869722,48.770763056],[2.200245278,48.770747222],[2.200371389,48.77074],[2.2005,48.770729444],[2.200596667,48.770715278],[2.200679722,48.770693889],[2.200760278,48.770669167],[2.200865,48.77063],[2.201071389,48.770543333],[2.201320833,48.770422778],[2.203544444,48.769289722],[2.203866389,48.769174444],[2.2041425,48.7690325],[2.204923056,48.768635278],[2.210136389,48.765996944],[2.210259722,48.766106944],[2.210211389,48.7661425],[2.210187222,48.766167222],[2.210171111,48.766202778],[2.210165833,48.766245278],[2.210171111,48.766280556],[2.210187222,48.766305556],[2.210230278,48.766346389],[2.210259722,48.766360556],[2.210074722,48.766458056],[2.210055833,48.766433056],[2.210034444,48.766413611],[2.210002222,48.766390556],[2.209964722,48.766372778],[2.209919167,48.766362222],[2.2098575,48.766355278],[2.209798333,48.766362222],[2.209752778,48.766372778],[2.209699167,48.766390556],[2.208752222,48.766860556],[2.208704167,48.766890556],[2.2086825,48.766915556],[2.208663889,48.766943889],[2.208655833,48.766968611],[2.208647778,48.766998889],[2.208655833,48.767023611],[2.208666389,48.767048333],[2.208688056,48.767073333],[2.208730833,48.767112222],[2.208755,48.767124722],[2.20857,48.767216944],[2.208553889,48.767199167],[2.208513611,48.767167222],[2.208481389,48.767144167],[2.208441111,48.76713],[2.208392778,48.7671175],[2.208344722,48.767112222],[2.208291111,48.767114167],[2.20824,48.767131667],[2.208175556,48.767153056],[2.207236944,48.767628333],[2.207204722,48.767653056],[2.207177778,48.767677778],[2.207156389,48.767718611],[2.207143056,48.767752222],[2.207148333,48.767786111],[2.207156389,48.767818056],[2.207177778,48.767842778],[2.207204722,48.767864167],[2.207242222,48.767881667],[2.207057222,48.767981111],[2.207048333,48.767961667],[2.207033056,48.767940278],[2.207006111,48.767918889],[2.206968611,48.767901389],[2.206912222,48.767883611],[2.206861389,48.767876389],[2.206807778,48.767874722],[2.206751389,48.767885278],[2.206711111,48.767901389],[2.205206389,48.768660278],[2.205166111,48.768691944],[2.205134167,48.768729167],[2.205118056,48.76877],[2.205115278,48.768818056],[2.205136667,48.768855278],[2.205166111,48.768890556],[2.205201111,48.768911944],[2.204576111,48.769181389],[2.204541389,48.769163611],[2.204501111,48.769147778],[2.20445,48.769135278],[2.204383056,48.76913],[2.204313333,48.769135278],[2.204265,48.769144167],[2.203978056,48.769378333],[2.203868056,48.7694775],[2.203803611,48.769555556],[2.203744722,48.769638889],[2.203701667,48.769718611],[2.203672222,48.769789444],[2.203653333,48.7698375],[2.202804444,48.770006111],[2.202434167,48.770123333],[2.202200833,48.770275556],[2.202158056,48.770314722],[2.202123056,48.770360833],[2.202104444,48.770415833],[2.202104444,48.770476111],[2.202106944,48.770518611],[2.202133889,48.770561111],[2.202174167,48.770603611],[2.202219722,48.770639167],[2.202273333,48.770669167],[2.202329722,48.770690556],[2.202380556,48.770703056],[2.202439722,48.77071],[2.203145,48.770738333],[2.203128889,48.770953056],[2.202882222,48.770951111],[2.202386111,48.770951111],[2.200562222,48.770963611],[2.200352778,48.770968889],[2.200122222,48.770979444],[2.199990833,48.770990278],[2.199886111,48.7710025],[2.199773611,48.771025556],[2.1996475,48.7710575],[2.199521389,48.771096667],[2.199408611,48.771146111],[2.197641111,48.772034444],[2.196034444,48.772851667],[2.195597222,48.773075],[2.195436389,48.773165556],[2.195315556,48.773238333],[2.19523,48.773287778],[2.195170833,48.773330278],[2.195111944,48.773374722],[2.1950475,48.7734225],[2.194810833,48.773221389],[2.195473889,48.772878333],[2.195409444,48.772848056],[2.195345278,48.772825278],[2.195286111,48.772805556],[2.195216389,48.772789722],[2.195144167,48.772779167],[2.195034167,48.772773611],[2.192295556,48.772722222],[2.191547222,48.772706389],[2.191493611,48.77271],[2.191418333,48.772724167],[2.190023611,48.773045],[2.189919167,48.773073333],[2.189843889,48.773101667],[2.189785,48.773128333],[2.189736667,48.773160278],[2.189677778,48.773202778],[2.189642778,48.773236389],[2.189618611,48.773268333],[2.189594722,48.773309444]]]}},{"type":"Feature","id":"LFPV-fa408f2940b67f64a980","properties":{"airport":"LFPV","name":"LFPV AVISO","layer":"Airfield surfaces","category":"Hard Surface 2","object_type":"Area","style_id":"polygon.hardsurface2.595e5b","source_group":"LFPV AVISO","vsmr_group_ids":[],"geometry_role":"filled_region"},"geometry":{"type":"Polygon","coordinates":[[[2.203122222,48.770953611],[2.203143611,48.7707375],[2.2031975,48.770726667],[2.203251111,48.770708889],[2.203293889,48.770684167],[2.203331389,48.770652222],[2.203355556,48.770622222],[2.203353056,48.770604444],[2.203334167,48.770574167],[2.203301944,48.770522778],[2.203264444,48.770464444],[2.203235,48.770404167],[2.203210833,48.770340278],[2.203183889,48.770271111],[2.203165278,48.770207222],[2.203151667,48.770154167],[2.203135556,48.770115],[2.203116944,48.770090278],[2.2030875,48.770068889],[2.203060556,48.770047778],[2.203020278,48.770028333],[2.20298,48.770013889],[2.202937222,48.770005278],[2.202894167,48.770001667],[2.202846111,48.770001667],[2.202776389,48.770005278],[2.203656111,48.769827778],[2.203645278,48.769882778],[2.203637222,48.769923611],[2.203631944,48.769967778],[2.203629167,48.770021111],[2.203631944,48.770074167],[2.2036425,48.770120278],[2.203653333,48.770166389],[2.203664167,48.7702125],[2.203682778,48.770265833],[2.203701667,48.770320833],[2.203728333,48.770372222],[2.203763333,48.7704325],[2.203800833,48.770476667],[2.203846389,48.770542222],[2.203891944,48.770585],[2.203953611,48.770643333],[2.204018056,48.770694722],[2.204090556,48.770740833],[2.204165556,48.770785278],[2.204256944,48.770835],[2.204331944,48.770872222],[2.204404444,48.770898611],[2.204479444,48.770918333],[2.204543889,48.770927222],[2.204586667,48.770925278],[2.204626944,48.770918333],[2.204653889,48.770902222],[2.20471,48.770840278],[2.207078611,48.771880833],[2.206984722,48.771969444],[2.206973889,48.771996111],[2.206984722,48.772038611],[2.207011389,48.7720725],[2.207043611,48.772100833],[2.207081111,48.772125556],[2.207132222,48.772150278],[2.207601667,48.7723525],[2.207649722,48.772370278],[2.207695556,48.772373889],[2.207757222,48.772370278],[2.207802778,48.772356111],[2.207845556,48.772338333],[2.207880556,48.772313611],[2.207934722,48.772260556],[2.208104722,48.772333611],[2.2080575,48.772377222],[2.208033333,48.772405833],[2.208014722,48.772441111],[2.208014722,48.772476667],[2.208025278,48.772510278],[2.208046667,48.772535],[2.208076389,48.77256],[2.208639444,48.77281],[2.208859444,48.7729075],[2.208985556,48.77295],[2.209084722,48.772983611],[2.2091625,48.773005],[2.209261944,48.773020833],[2.209406667,48.773035],[2.209559444,48.773043889],[2.210151944,48.773053056],[2.210221667,48.773049722],[2.21027,48.773033611],[2.210310278,48.773008889],[2.210350556,48.772975],[2.210371944,48.7729325],[2.210371944,48.772838611],[2.210575833,48.772845833],[2.210565,48.772904167],[2.210570556,48.772941389],[2.210586389,48.772973333],[2.210608056,48.773003611],[2.210650833,48.773031944],[2.210701944,48.773053056],[2.210742222,48.773061944],[2.211291944,48.773070833],[2.211401944,48.773076111],[2.211495833,48.773079722],[2.211584167,48.773090278],[2.211664722,48.773106389],[2.211745278,48.773129444],[2.211817778,48.773159444],[2.211876667,48.773195],[2.2119275,48.773226944],[2.211986667,48.773278333],[2.212364444,48.773665278],[2.212158056,48.77375],[2.211951667,48.773535278],[2.211844444,48.773437778],[2.2117775,48.773382778],[2.211723889,48.773343889],[2.21167,48.773313889],[2.211597778,48.773287222],[2.211533333,48.773264167],[2.211458333,48.773251667],[2.211324167,48.7732375],[2.211173889,48.773226944],[2.211021111,48.773221667],[2.209414444,48.773195],[2.209256111,48.773193333],[2.209191667,48.773193333],[2.20913,48.773184444],[2.209063056,48.773171944],[2.209009444,48.773154167],[2.208945,48.773129444],[2.207213889,48.772373056],[2.207012778,48.772311111],[2.204775833,48.771332222],[2.204598611,48.7712525],[2.204413611,48.771178056],[2.2042125,48.771101944],[2.204067778,48.771046944],[2.203965833,48.771015],[2.2038825,48.770995556],[2.203786111,48.770979444],[2.2036975,48.770974167],[2.203496389,48.770965278],[2.203122222,48.770953611]]]}},{"type":"Feature","id":"LFPV-b4679f7f42f081d44877","properties":{"airport":"LFPV","name":"LFPV AVISO","layer":"Airfield surfaces","category":"Grass runways","object_type":"Area","style_id":"polygon.runwaygrass.008000","source_group":"LFPV AVISO","vsmr_group_ids":[],"geometry_role":"filled_region"},"geometry":{"type":"Polygon","coordinates":[[[2.192855833,48.769137778],[2.193131944,48.769338056],[2.196152222,48.7675225],[2.195875833,48.767323889],[2.192855833,48.769137778]]]}},{"type":"Feature","id":"LFPV-c5f6010cce7480d93f49","properties":{"airport":"LFPV","name":"LFPV AVISO","layer":"Airfield surfaces","category":"Runways","object_type":"Area","style_id":"polygon.runwayconcrete.555555","source_group":"LFPV AVISO","vsmr_group_ids":[],"geometry_role":"filled_region"},"geometry":{"type":"Polygon","coordinates":[[[2.189279444,48.774326111],[2.189204444,48.774335],[2.189129167,48.774347222],[2.189054167,48.774366667],[2.1885525,48.774519167],[2.188474722,48.774489167],[2.188418611,48.774451944],[2.188359444,48.774403889],[2.188327222,48.774354444],[2.188311111,48.774311944],[2.188327222,48.773905833],[2.189319722,48.773927222],[2.189338611,48.773485833],[2.189346667,48.773416667],[2.189354722,48.773365278],[2.189370833,48.773319167],[2.189392222,48.773281944],[2.189405556,48.773258889],[2.189596111,48.773308333],[2.189563889,48.773358056],[2.189550278,48.773393611],[2.189542222,48.773451944],[2.189545,48.773514167],[2.189555833,48.773570833],[2.189574444,48.773623889],[2.189606667,48.773675278],[2.189652222,48.773739167],[2.189703333,48.773783611],[2.189767778,48.773826111],[2.189831944,48.773861667],[2.189909722,48.773895278],[2.190001111,48.77392],[2.190100278,48.773936111],[2.190210278,48.773946667],[2.192881667,48.773998056],[2.192988889,48.773996389],[2.193088333,48.773989167],[2.193192778,48.773975],[2.193308056,48.773950278],[2.193426111,48.773909444],[2.193568333,48.773852778],[2.194820833,48.773216111],[2.195054167,48.773418333],[2.19499,48.773471389],[2.194941667,48.773521111],[2.194904167,48.773576111],[2.194888056,48.773634722],[2.194885278,48.773691389],[2.194896111,48.773749722],[2.1949175,48.773813611],[2.194957778,48.773868611],[2.195014167,48.773918333],[2.195073056,48.773960833],[2.195150833,48.773996389],[2.195231389,48.774024722],[2.195325278,48.774038889],[2.195421667,48.774047778],[2.211946944,48.774366667],[2.212024722,48.774365],[2.212099722,48.7743525],[2.212166667,48.774329444],[2.212241944,48.774295833],[2.212306389,48.774256944],[2.212343889,48.774219722],[2.212370556,48.77417],[2.212392222,48.774113333],[2.212394722,48.774061944],[2.212389444,48.7740175],[2.21236,48.773967778],[2.212319722,48.773916389],[2.212156111,48.773748056],[2.2123625,48.773663056],[2.212711389,48.774021111],[2.212791667,48.77406],[2.212875,48.774095556],[2.212960833,48.774116944],[2.213057222,48.774131111],[2.213153889,48.774141667],[2.213266389,48.774145278],[2.2134275,48.774148611],[2.213507778,48.774159444],[2.213588333,48.774175278],[2.213668889,48.774201944],[2.213733333,48.774235556],[2.213789444,48.774278056],[2.213829722,48.774324167],[2.213859167,48.774372222],[2.213880833,48.774402222],[2.213959722,48.774405833],[2.214029444,48.774403889],[2.214096667,48.774393333],[2.214158333,48.774379167],[2.2146975,48.7742125],[2.214799167,48.774258611],[2.2148475,48.774295833],[2.214893056,48.77434],[2.214922778,48.774379167],[2.214944167,48.77442],[2.214925278,48.774825833],[2.189279444,48.774326111]]]}},{"type":"Feature","id":"LFPV-4f5c806bfdf408dd8c03","properties":{"airport":"LFPV","name":"LFPV AVISO","layer":"Buildings and structures","category":"Buildings","object_type":"Area","style_id":"polygon.building.394446","source_group":"LFPV AVISO","vsmr_group_ids":[],"geometry_role":"filled_region"},"geometry":{"type":"Polygon","coordinates":[[[2.210279167,48.772344444],[2.210662778,48.771973889],[2.210128889,48.771738056],[2.209764167,48.772113889],[2.210279167,48.772344444]]]}},{"type":"Feature","id":"LFPV-3fad3031ea84204d4771","properties":{"airport":"LFPV","name":"LFPV AVISO","layer":"Buildings and structures","category":"Buildings","object_type":"Area","style_id":"polygon.building.394446","source_group":"LFPV AVISO","vsmr_group_ids":[],"geometry_role":"filled_region"},"geometry":{"type":"Polygon","coordinates":[[[2.208568056,48.771585556],[2.209141944,48.771839167],[2.209555,48.7714225],[2.208978333,48.771158333],[2.208568056,48.771585556]]]}},{"type":"Feature","id":"LFPV-05fc6e8e80f3ac60c64a","properties":{"airport":"LFPV","name":"LFPV AVISO","layer":"Buildings and structures","category":"Buildings","object_type":"Area","style_id":"polygon.building.394446","source_group":"LFPV AVISO","vsmr_group_ids":[],"geometry_role":"filled_region"},"geometry":{"type":"Polygon","coordinates":[[[2.208495556,48.771547778],[2.207959167,48.771311944],[2.208401667,48.770883056],[2.208927222,48.771120556],[2.208495556,48.771547778]]]}},{"type":"Feature","id":"LFPV-40ce9f1fc29c9538a784","properties":{"airport":"LFPV","name":"LFPV AVISO","layer":"Buildings and structures","category":"Buildings","object_type":"Area","style_id":"polygon.building.394446","source_group":"LFPV AVISO","vsmr_group_ids":[],"geometry_role":"filled_region"},"geometry":{"type":"Polygon","coordinates":[[[2.2079725,48.771184444],[2.207674722,48.771053056],[2.207830278,48.770898889],[2.208128056,48.771026667],[2.2079725,48.771184444]]]}},{"type":"Feature","id":"LFPV-829b602090d2f0600610","properties":{"airport":"LFPV","name":"LFPV AVISO","layer":"Buildings and structures","category":"Buildings","object_type":"Area","style_id":"polygon.building.394446","source_group":"LFPV AVISO","vsmr_group_ids":[],"geometry_role":"filled_region"},"geometry":{"type":"Polygon","coordinates":[[[2.206955833,48.770708333],[2.207197222,48.770818333],[2.207339444,48.770674722],[2.20709,48.770563056],[2.206955833,48.770708333]]]}},{"type":"Feature","id":"LFPV-107e65eeedf0ee7791d3","properties":{"airport":"LFPV","name":"LFPV AVISO","layer":"Buildings and structures","category":"Buildings","object_type":"Area","style_id":"polygon.building.394446","source_group":"LFPV AVISO","vsmr_group_ids":[],"geometry_role":"filled_region"},"geometry":{"type":"Polygon","coordinates":[[[2.2060575,48.770603611],[2.205952778,48.770522222],[2.206381944,48.770302222],[2.206591111,48.770385556],[2.206494722,48.770474444],[2.206395278,48.770433611],[2.2060575,48.770603611]]]}},{"type":"Feature","id":"LFPV-ee63c9425cb83877944c","properties":{"airport":"LFPV","name":"LFPV AVISO","layer":"Buildings and structures","category":"Buildings","object_type":"Area","style_id":"polygon.building.394446","source_group":"LFPV AVISO","vsmr_group_ids":[],"geometry_role":"filled_region"},"geometry":{"type":"Polygon","coordinates":[[[2.204904167,48.770197778],[2.204930833,48.770151667],[2.2047325,48.770149722],[2.204737778,48.770031111],[2.2049175,48.7700275],[2.204863889,48.769953056],[2.205113333,48.7698625],[2.205166944,48.769937222],[2.205024722,48.769990278],[2.205065,48.770018611],[2.20514,48.770016944],[2.205185556,48.770043611],[2.205199167,48.770080833],[2.2051775,48.770116111],[2.205097222,48.770245556],[2.204904167,48.770197778]]]}},{"type":"Feature","id":"LFPV-a94b28cae6c452f810fb","properties":{"airport":"LFPV","name":"LFPV AVISO","layer":"Buildings and structures","category":"Buildings","object_type":"Area","style_id":"polygon.building.394446","source_group":"LFPV AVISO","vsmr_group_ids":[],"geometry_role":"filled_region"},"geometry":{"type":"Polygon","coordinates":[[[2.205982222,48.769557778],[2.206001111,48.769451389],[2.206368611,48.769469167],[2.206357778,48.769515],[2.206398056,48.769518611],[2.2065375,48.769628611],[2.207006944,48.769651667],[2.206996111,48.769765],[2.206398056,48.769735],[2.206400833,48.7696925],[2.206328333,48.769685278],[2.206261111,48.769628611],[2.206263889,48.769575278],[2.205982222,48.769557778]]]}},{"type":"Feature","id":"LFPV-eaf1f8eb704d9e563d40","properties":{"airport":"LFPV","name":"LFPV AVISO","layer":"Buildings and structures","category":"Buildings","object_type":"Area","style_id":"polygon.building.394446","source_group":"LFPV AVISO","vsmr_group_ids":[],"geometry_role":"filled_region"},"geometry":{"type":"Polygon","coordinates":[[[2.206661111,48.7692],[2.207074167,48.769563333],[2.208270278,48.768955278],[2.207846667,48.768588056],[2.206661111,48.7692]]]}},{"type":"Feature","id":"LFPV-5cfe61c28a7429c26e50","properties":{"airport":"LFPV","name":"LFPV AVISO","layer":"Buildings and structures","category":"Buildings","object_type":"Area","style_id":"polygon.building.394446","source_group":"LFPV AVISO","vsmr_group_ids":[],"geometry_role":"filled_region"},"geometry":{"type":"Polygon","coordinates":[[[2.20856,48.768914444],[2.209860833,48.768253056],[2.209348611,48.767813333],[2.207953889,48.768531389],[2.208294444,48.768818611],[2.208385833,48.768770833],[2.20856,48.768914444]]]}},{"type":"Feature","id":"LFPV-11f038017a7c7487bb24","properties":{"airport":"LFPV","name":"LFPV AVISO","layer":"Buildings and structures","category":"Buildings","object_type":"Area","style_id":"polygon.building.394446","source_group":"LFPV AVISO","vsmr_group_ids":[],"geometry_role":"filled_region"},"geometry":{"type":"Polygon","coordinates":[[[2.209606111,48.767793889],[2.210019167,48.768153889],[2.211000833,48.767657222],[2.210587778,48.7672975],[2.209606111,48.767793889]]]}},{"type":"Feature","id":"LFPV-207e0fad5ae1469ed094","properties":{"airport":"LFPV","name":"LFPV AVISO","layer":"Buildings and structures","category":"Buildings","object_type":"Area","style_id":"polygon.building.394446","source_group":"LFPV AVISO","vsmr_group_ids":[],"geometry_role":"filled_region"},"geometry":{"type":"Polygon","coordinates":[[[2.212132778,48.76655],[2.21246,48.766833611],[2.212653056,48.766734444],[2.212320556,48.766450833],[2.212132778,48.76655]]]}},{"type":"Feature","id":"LFPV-f0e3f8185be769bb1db6","properties":{"airport":"LFPV","name":"LFPV AVISO","layer":"Buildings and structures","category":"Buildings","object_type":"Area","style_id":"polygon.building.394446","source_group":"LFPV AVISO","vsmr_group_ids":[],"geometry_role":"filled_region"},"geometry":{"type":"Polygon","coordinates":[[[2.193767778,48.767848056],[2.1936175,48.767736111],[2.193668333,48.767704444],[2.193585278,48.7676475],[2.193636389,48.7676175],[2.193588056,48.767581944],[2.19391,48.767388611],[2.193781111,48.767280556],[2.194041389,48.767129722],[2.194467778,48.767433056],[2.193767778,48.767848056]]]}},{"type":"Feature","id":"LFPV-a06b24c13818a630eea8","properties":{"airport":"LFPV","name":"LFPV AVISO","layer":"Buildings and structures","category":"Buildings","object_type":"Area","style_id":"polygon.building.394446","source_group":"LFPV AVISO","vsmr_group_ids":[],"geometry_role":"filled_region"},"geometry":{"type":"Polygon","coordinates":[[[2.194953333,48.767207778],[2.194776111,48.7673125],[2.195006944,48.767471944],[2.195189167,48.767369167],[2.194953333,48.767207778]]]}},{"type":"Feature","id":"LFPV-2711f6924cbe316a5515","properties":{"airport":"LFPV","name":"LFPV AVISO","layer":"Buildings and structures","category":"Buildings","object_type":"Area","style_id":"polygon.building.394446","source_group":"LFPV AVISO","vsmr_group_ids":[],"geometry_role":"filled_region"},"geometry":{"type":"Polygon","coordinates":[[[2.190787778,48.771035],[2.191493333,48.771173056],[2.191621944,48.7709125],[2.190903056,48.770776111],[2.190787778,48.771035]]]}},{"type":"Feature","id":"LFPV-00aa285969aa2317a605","properties":{"airport":"LFPV","name":"LFPV AVISO","layer":"Buildings and structures","category":"Buildings","object_type":"Area","style_id":"polygon.building.394446","source_group":"LFPV AVISO","vsmr_group_ids":[],"geometry_role":"filled_region"},"geometry":{"type":"Polygon","coordinates":[[[2.191286667,48.771884167],[2.1913725,48.772057778],[2.190511389,48.7722475],[2.190431111,48.7720775],[2.190449722,48.772045556],[2.19049,48.772025833],[2.190549167,48.772006389],[2.190608056,48.7719975],[2.190659167,48.7719975],[2.190715278,48.772008333],[2.190734167,48.77198],[2.190758333,48.771956944],[2.190795833,48.771935556],[2.190828056,48.771923056],[2.190881667,48.771910833],[2.190935278,48.7719125],[2.190975556,48.771921389],[2.191005,48.771944444],[2.191018333,48.771917778],[2.191048056,48.771889444],[2.191082778,48.771868056],[2.191125833,48.771852222],[2.191176667,48.771841667],[2.191225,48.771841667],[2.1912625,48.771852222],[2.191286667,48.771884167]]]}},{"type":"Feature","id":"LFPV-ce6439f36beb51e7129c","properties":{"airport":"LFPV","name":"LFPV AVISO","layer":"Buildings and structures","category":"Buildings","object_type":"Area","style_id":"polygon.building.394446","source_group":"LFPV AVISO","vsmr_group_ids":[],"geometry_role":"filled_region"},"geometry":{"type":"Polygon","coordinates":[[[2.202235556,48.771937222],[2.202238056,48.77176],[2.202956944,48.771753056],[2.202954167,48.771939167],[2.202235556,48.771937222]]]}},{"type":"Feature","id":"LFPV-5dacc8f4ed963484b520","properties":{"airport":"LFPV","name":"LFPV AVISO","layer":"Buildings and structures","category":"Buildings","object_type":"Area","style_id":"polygon.building.394446","source_group":"LFPV AVISO","vsmr_group_ids":[],"geometry_role":"filled_region"},"geometry":{"type":"Polygon","coordinates":[[[2.202474167,48.77151],[2.203230556,48.771503056],[2.203227778,48.771297222],[2.202471389,48.771293611],[2.202474167,48.77151]]]}},{"type":"Feature","id":"LFPV-bf3d3df66f593035eef8","properties":{"airport":"LFPV","name":"LFPV AVISO","layer":"Surface markings","category":"Stopbars","object_type":"Area","style_id":"polygon.stopbar.7e0000","source_group":"LFPV AVISO","vsmr_group_ids":[],"geometry_role":"filled_region"},"geometry":{"type":"Polygon","coordinates":[[[2.189391389,48.773281389],[2.189405833,48.773257222],[2.189596944,48.773308056],[2.189584167,48.773328056],[2.189391389,48.773281389]]]}},{"type":"Feature","id":"LFPV-7e4f9fd3552cfd3ef2dc","properties":{"airport":"LFPV","name":"LFPV AVISO","layer":"Surface markings","category":"Stopbars","object_type":"Area","style_id":"polygon.stopbar.7e0000","source_group":"LFPV AVISO","vsmr_group_ids":[],"geometry_role":"filled_region"},"geometry":{"type":"Polygon","coordinates":[[[2.195064167,48.773411389],[2.195037222,48.773433333],[2.194805,48.773223611],[2.194828056,48.773211944],[2.195064167,48.773411389]]]}},{"type":"Feature","id":"LFPV-fecb75175871b84d6e73","properties":{"airport":"LFPV","name":"LFPV AVISO","layer":"Surface markings","category":"Stopbars","object_type":"Area","style_id":"polygon.stopbar.7e0000","source_group":"LFPV AVISO","vsmr_group_ids":[],"geometry_role":"filled_region"},"geometry":{"type":"Polygon","coordinates":[[[2.212378889,48.773678333],[2.212168056,48.773761667],[2.212149722,48.773743056],[2.212358056,48.773657222],[2.212378889,48.773678333]]]}},{"type":"Feature","id":"LFPV-f7201ce1987f0cb47e1e","properties":{"airport":"LFPV","name":"LFPV AVISO","layer":"Airfield surfaces","category":"Taxiway Orange","object_type":"Area","style_id":"polygon.taxiwayorange.cc6d00","source_group":"LFPV AVISO","vsmr_group_ids":[],"geometry_role":"filled_region"},"geometry":{"type":"Polygon","coordinates":[[[2.196203611,48.772766111],[2.196015278,48.772604444],[2.196036667,48.7725975],[2.196048611,48.772591667],[2.196231111,48.772751944],[2.196203611,48.772766111]]]}},{"type":"Feature","id":"LFPV-7cfd74864ca58ba0317f","properties":{"airport":"LFPV","name":"LFPV AVISO","layer":"Airfield surfaces","category":"Taxiway Orange","object_type":"Area","style_id":"polygon.taxiwayorange.cc6d00","source_group":"LFPV AVISO","vsmr_group_ids":[],"geometry_role":"filled_region"},"geometry":{"type":"Polygon","coordinates":[[[2.209011667,48.773155833],[2.209113889,48.772990833],[2.209142222,48.772998611],[2.209043056,48.773165556],[2.209011667,48.773155833]]]}},{"type":"Feature","id":"LFPV-159ca8c1ccf52bd8694e","properties":{"airport":"LFPV","name":"PRKG A","layer":"Labels","category":"Gates","object_type":"Label","style_id":"label.gates","source_group":"LFPV Gates","vsmr_group_ids":[],"geometry_role":"text_label","text-field":"PRKG A"},"geometry":{"type":"Point","coordinates":[2.208578056,48.771950556]}},{"type":"Feature","id":"LFPV-bd6d5b2ba4d77abb6f3b","properties":{"airport":"LFPV","name":"PRKG B","layer":"Labels","category":"Gates","object_type":"Label","style_id":"label.gates","source_group":"LFPV Gates","vsmr_group_ids":[],"geometry_role":"text_label","text-field":"PRKG B"},"geometry":{"type":"Point","coordinates":[2.205840556,48.770954167]}},{"type":"Feature","id":"LFPV-2225bc04c5cf29c4ba5f","properties":{"airport":"LFPV","name":"PRKG C","layer":"Labels","category":"Gates","object_type":"Label","style_id":"label.gates","source_group":"LFPV Gates","vsmr_group_ids":[],"geometry_role":"text_label","text-field":"PRKG C"},"geometry":{"type":"Point","coordinates":[2.206419722,48.768875833]}},{"type":"Feature","id":"LFPV-b26d33a2652975fbf5c2","properties":{"airport":"LFPV","name":"PRKG D","layer":"Labels","category":"Gates","object_type":"Label","style_id":"label.gates","source_group":"LFPV Gates","vsmr_group_ids":[],"geometry_role":"text_label","text-field":"PRKG D"},"geometry":{"type":"Point","coordinates":[2.208230833,48.767923889]}},{"type":"Feature","id":"LFPV-2a76ead439fdcf1a5b6c","properties":{"airport":"LFPV","name":"PRKG E","layer":"Labels","category":"Gates","object_type":"Label","style_id":"label.gates","source_group":"LFPV Gates","vsmr_group_ids":[],"geometry_role":"text_label","text-field":"PRKG E"},"geometry":{"type":"Point","coordinates":[2.202172778,48.768762222]}},{"type":"Feature","id":"LFPV-6f625f6b3237da1cea86","properties":{"airport":"LFPV","name":"HEL","layer":"Labels","category":"Gates","object_type":"Label","style_id":"label.gates","source_group":"LFPV Gates","vsmr_group_ids":[],"geometry_role":"text_label","text-field":"HEL"},"geometry":{"type":"Point","coordinates":[2.192352222,48.770491944]}},{"type":"Feature","id":"LFPV-a08af32e352fdb0a4814","properties":{"airport":"LFPV","name":"HEL","layer":"Labels","category":"Gates","object_type":"Label","style_id":"label.gates","source_group":"LFPV Gates","vsmr_group_ids":[],"geometry_role":"text_label","text-field":"HEL"},"geometry":{"type":"Point","coordinates":[2.194421944,48.767778056]}},{"type":"Feature","id":"LFPV-822b71714012e1a3371e","properties":{"airport":"LFPV","name":"LFPV Groundlayout AVISO","layer":"Guidance lines","category":"Taxiways","object_type":"Line","style_id":"line.taxiway.c0b631","source_group":"LFPV Groundlayout AVISO","vsmr_group_ids":[],"geometry_role":"linework"},"geometry":{"type":"MultiLineString","coordinates":[[[2.209439444,48.772505278],[2.209281389,48.772659444]],[[2.209071944,48.772343889],[2.208919167,48.772496389]],[[2.208701944,48.772186111],[2.208554444,48.772336944]],[[2.207918611,48.771836944],[2.207768611,48.771982222]],[[2.209640833,48.771989444],[2.209782778,48.7718475]],[[2.2095,48.771925556],[2.209701111,48.77172]],[[2.209349722,48.771858333],[2.209486389,48.77172]],[[2.199208333,48.770266111],[2.200691389,48.7695125],[2.200769167,48.769471944],[2.200833611,48.769443333],[2.200887222,48.7694275],[2.200943611,48.769413333],[2.200991667,48.769403611],[2.201054444,48.769393889],[2.201117222,48.769385833],[2.201181389,48.769378611],[2.201244167,48.769373333],[2.201296111,48.76937],[2.201330556,48.769368333],[2.2013675,48.769365],[2.201399722,48.769360278],[2.201426111,48.769354167],[2.201450556,48.769348056],[2.201477778,48.769338889],[2.201503889,48.769328611],[2.201527778,48.769316667],[2.201549722,48.769305278],[2.201769722,48.769191389],[2.201785833,48.769181111],[2.201799722,48.76917],[2.201804167,48.769160556],[2.2018075,48.769149444],[2.201806944,48.769139167],[2.201803889,48.769125278],[2.201799722,48.769113333],[2.2017925,48.769099722],[2.201781389,48.769086944],[2.201768333,48.769075278],[2.201748056,48.769059167],[2.201734722,48.76905],[2.201716944,48.769040556],[2.201700556,48.769033333],[2.201679444,48.769026389],[2.201658333,48.769020278],[2.201633611,48.769014444],[2.201610833,48.769010833],[2.201588333,48.769009167],[2.201567222,48.769010556],[2.201549722,48.7690125],[2.201523611,48.769017778],[2.201496389,48.769026667],[2.201472778,48.769035556],[2.2014575,48.769043333],[2.201394722,48.7690775],[2.201372778,48.769093056],[2.201351944,48.769109167],[2.201338056,48.769123611],[2.201324167,48.769143611],[2.201313889,48.769161667],[2.201300278,48.769186389],[2.201284722,48.769218333],[2.201275278,48.769231389],[2.201265,48.769241944],[2.201253056,48.769249722],[2.201245556,48.769253333],[2.2012275,48.769259722],[2.201206944,48.769265278],[2.201175,48.7692725],[2.201168889,48.769274167],[2.201163056,48.769276667],[2.201035,48.769340278],[2.201026944,48.769332222],[2.201041944,48.769346944]],[[2.205165556,48.770980556],[2.205390833,48.770909722]],[[2.205412222,48.771092222],[2.205640278,48.771019722]],[[2.205661667,48.771203889],[2.205889722,48.771131389]],[[2.205916389,48.771313889],[2.206141667,48.771243056]],[[2.206168611,48.771425556],[2.206393889,48.771353056]],[[2.206412778,48.771537222],[2.206646111,48.771459167]],[[2.206656667,48.771648889],[2.206900833,48.771572778]],[[2.20711,48.771407778],[2.206503889,48.771140278]],[[2.205878889,48.770800556],[2.206147222,48.770713889]],[[2.206120278,48.770914167],[2.206404722,48.770820278]],[[2.206369722,48.771024167],[2.206662222,48.770931944]],[[2.206640556,48.771130556],[2.206908889,48.771043611]],[[2.206895556,48.771238611],[2.207163611,48.77115]],[[2.207153056,48.771348611],[2.207410556,48.771263333]]]}},{"type":"Feature","id":"LFPV-3ceb1b379d0c904f53bc","properties":{"airport":"LFPV","name":"LFPV Groundlayout AVISO","layer":"Guidance lines","category":"Taxiway Orange","object_type":"Line","style_id":"line.taxiwayorange.cc6d00","source_group":"LFPV Groundlayout AVISO","vsmr_group_ids":[],"geometry_role":"linework"},"geometry":{"type":"MultiLineString","coordinates":[[[2.205203056,48.770827222],[2.205825278,48.771103889]],[[2.206922222,48.771580833],[2.206329444,48.771323611]],[[2.206415278,48.770836944],[2.206071944,48.770821111]],[[2.2069975,48.771042778],[2.206624444,48.771025]],[[2.207590278,48.771285556],[2.207225278,48.771269722]]]}},{"type":"Feature","id":"LFPV-de84640f4ae72bae605f","properties":{"airport":"LFPV","name":"LFPV Groundlayout AVISO","layer":"Guidance lines","category":"Runway Border","object_type":"Line","style_id":"line.runwayborder.808080","source_group":"LFPV Groundlayout AVISO","vsmr_group_ids":[],"geometry_role":"linework"},"geometry":{"type":"MultiLineString","coordinates":[[[2.188553056,48.774113333],[2.188824167,48.774118611]],[[2.188824167,48.774136389],[2.188958056,48.774122222],[2.188829444,48.774100833]],[[2.18928,48.774326111],[2.189296111,48.773925278]],[[2.213943056,48.774806389],[2.213956389,48.774405833]],[[2.214412222,48.774629167],[2.214278333,48.774613333],[2.214415,48.774600833]],[[2.214683333,48.774618611],[2.214412222,48.774616667]]]}},{"type":"Feature","id":"LFPV-1573fac9b5b9c590dfaf","properties":{"airport":"LFPV","name":"09","layer":"Labels","category":"Taxiways","object_type":"Label","style_id":"label.taxiways","source_group":"LFPV Taxiways","vsmr_group_ids":[],"geometry_role":"text_label","text-field":"09"},"geometry":{"type":"Point","coordinates":[2.1896725,48.774122778]}},{"type":"Feature","id":"LFPV-9206b03e5b2959a60e1c","properties":{"airport":"LFPV","name":"27","layer":"Labels","category":"Taxiways","object_type":"Label","style_id":"label.taxiways","source_group":"LFPV Taxiways","vsmr_group_ids":[],"geometry_role":"text_label","text-field":"27"},"geometry":{"type":"Point","coordinates":[2.2134525,48.774577222]}},{"type":"Feature","id":"LFPV-4385b8bbe733cff23246","properties":{"airport":"LFPV","name":"A","layer":"Labels","category":"Taxiways","object_type":"Label","style_id":"label.taxiways","source_group":"LFPV Taxiways","vsmr_group_ids":[],"geometry_role":"text_label","text-field":"A"},"geometry":{"type":"Point","coordinates":[2.211512222,48.773156389]}},{"type":"Feature","id":"LFPV-986fc0161ce3d3c2431d","properties":{"airport":"LFPV","name":"A","layer":"Labels","category":"Taxiways","object_type":"Label","style_id":"label.taxiways","source_group":"LFPV Taxiways","vsmr_group_ids":[],"geometry_role":"text_label","text-field":"A"},"geometry":{"type":"Point","coordinates":[2.205623056,48.771592778]}},{"type":"Feature","id":"LFPV-07fc3f1fd703bded2276","properties":{"airport":"LFPV","name":"B","layer":"Labels","category":"Taxiways","object_type":"Label","style_id":"label.taxiways","source_group":"LFPV Taxiways","vsmr_group_ids":[],"geometry_role":"text_label","text-field":"B"},"geometry":{"type":"Point","coordinates":[2.197478056,48.771985]}},{"type":"Feature","id":"LFPV-fc03db34dad4392470ab","properties":{"airport":"LFPV","name":"C","layer":"Labels","category":"Taxiways","object_type":"Label","style_id":"label.taxiways","source_group":"LFPV Taxiways","vsmr_group_ids":[],"geometry_role":"text_label","text-field":"C"},"geometry":{"type":"Point","coordinates":[2.1931475,48.772653611]}},{"type":"Feature","id":"LFPV-5da256cdc577ff77e922","properties":{"airport":"LFPV","name":"D","layer":"Labels","category":"Taxiways","object_type":"Label","style_id":"label.taxiways","source_group":"LFPV Taxiways","vsmr_group_ids":[],"geometry_role":"text_label","text-field":"D"},"geometry":{"type":"Point","coordinates":[2.20272,48.770849167]}},{"type":"Feature","id":"LFPV-57c2e2d75a567176e603","properties":{"airport":"LFPV","name":"E","layer":"Labels","category":"Taxiways","object_type":"Label","style_id":"label.taxiways","source_group":"LFPV Taxiways","vsmr_group_ids":[],"geometry_role":"text_label","text-field":"E"},"geometry":{"type":"Point","coordinates":[2.202288611,48.770053611]}},{"type":"Feature","id":"LFPV-de50a7a64baa5c56abe6","properties":{"airport":"LFPV","name":"E","layer":"Labels","category":"Taxiways","object_type":"Label","style_id":"label.taxiways","source_group":"LFPV Taxiways","vsmr_group_ids":[],"geometry_role":"text_label","text-field":"E"},"geometry":{"type":"Point","coordinates":[2.2077,48.767297222]}},{"type":"Feature","id":"LFPV-26f780ff0b9c3b861741","properties":{"airport":"LFPV","name":"F","layer":"Labels","category":"Taxiways","object_type":"Label","style_id":"label.taxiways","source_group":"LFPV Taxiways","vsmr_group_ids":[],"geometry_role":"text_label","text-field":"F"},"geometry":{"type":"Point","coordinates":[2.203431389,48.770323611]}},{"type":"Feature","id":"LFPV-c60890a014d42987a33d","properties":{"airport":"LFPV","name":"G","layer":"Labels","category":"Taxiways","object_type":"Label","style_id":"label.taxiways","source_group":"LFPV Taxiways","vsmr_group_ids":[],"geometry_role":"text_label","text-field":"G"},"geometry":{"type":"Point","coordinates":[2.198839167,48.770650278]}},{"type":"Feature","id":"LFPV-b54778fc4f63680368df","properties":{"airport":"LFPV","name":"H1","layer":"Labels","category":"Taxiways","object_type":"Label","style_id":"label.taxiways","source_group":"LFPV Taxiways","vsmr_group_ids":[],"geometry_role":"text_label","text-field":"H1"},"geometry":{"type":"Point","coordinates":[2.193708056,48.7688175]}},{"type":"Feature","id":"LFPV-ec507127f34ff9185eec","properties":{"airport":"LFPV","name":"X","layer":"Labels","category":"Taxiways","object_type":"Label","style_id":"label.taxiways","source_group":"LFPV Taxiways","vsmr_group_ids":[],"geometry_role":"text_label","text-field":"X"},"geometry":{"type":"Point","coordinates":[2.204293611,48.7685475]}},{"type":"Feature","id":"LFPV-826a2fbb28cc4b68cd58","properties":{"airport":"LFPV","name":"X","layer":"Labels","category":"Taxiways","object_type":"Label","style_id":"label.taxiways","source_group":"LFPV Taxiways","vsmr_group_ids":[],"geometry_role":"text_label","text-field":"X"},"geometry":{"type":"Point","coordinates":[2.203151111,48.768320278]}},{"type":"Feature","id":"LFPV-3a998d263aea4d30be87","properties":{"airport":"LFPV","name":"X","layer":"Labels","category":"Taxiways","object_type":"Label","style_id":"label.taxiways","source_group":"LFPV Taxiways","vsmr_group_ids":[],"geometry_role":"text_label","text-field":"X"},"geometry":{"type":"Point","coordinates":[2.210459722,48.765876389]}},{"type":"Feature","id":"LFPV-9bbfec0fc6e2309873a6","properties":{"airport":"LFPV","name":"X","layer":"Labels","category":"Taxiways","object_type":"Label","style_id":"label.taxiways","source_group":"LFPV Taxiways","vsmr_group_ids":[],"geometry_role":"text_label","text-field":"X"},"geometry":{"type":"Point","coordinates":[2.207118056,48.766331111]}},{"type":"Feature","id":"LFPV-64706335536848354db2","properties":{"airport":"LFPV","name":"X","layer":"Labels","category":"Taxiways","object_type":"Label","style_id":"label.taxiways","source_group":"LFPV Taxiways","vsmr_group_ids":[],"geometry_role":"text_label","text-field":"X"},"geometry":{"type":"Point","coordinates":[2.210847778,48.764412778]}}]}
