{"type":"FeatureCollection","name":"LFPZ AVISO","bbox":[2.06015,48.806564444,2.079451389,48.81623],"metadata":{"schema":"vSMR AVISO","schema_version":2,"geometry_mode":"shared","airport":"LFPZ","coordinate_reference_system":"WGS84","coordinate_order":"longitude, latitude","default_color_palette":"dark","color_palettes":["dark","light"],"background_colors":{"dark":"#434A4F","light":"#434A4F"},"runways":[{"ends":["11R","29L"],"headings":[112,292],"thresholds":[[2.064205833,48.812899722],[2.071468889,48.810857778]]},{"ends":["11L","29R"],"headings":[112,292],"thresholds":[[2.065441944,48.813724722],[2.071516944,48.812016944]]}],"saved_active_runways":[],"saved_active_airport_modes":[],"airport_reference":[2.073332778,48.810277778],"feature_count":111,"style_count":10,"layer_counts":{"Airfield surfaces":61,"Buildings and structures":22,"Labels":23,"Surface markings":2,"Terrain":3},"category_counts":{"Apron Surface":1,"Buildings":22,"Gras Surface 2":2,"Grass":1,"Grass runways":2,"Hard Surface 2":9,"Hard Surface 3":3,"Runway Border":46,"Stopbars":2,"Taxiways":23},"geometry_source":"local GNG/KMZ","geometry_source_url":"","geometry_license":"GPL-3.0"},"styles":{"polygon.grassurface.00512f":{"name":"Grass","layer":"Terrain","object_type":"Area","paint":{"fill":"#010D19","fill-opacity":1,"palette-overrides":{"light":{"fill":"#00512F"}}},"feature_count":1},"polygon.hardsurface2.595e5b":{"name":"Hard Surface 2","layer":"Airfield surfaces","object_type":"Area","paint":{"fill":"#2F3949","fill-opacity":1,"palette-overrides":{"light":{"fill":"#595E5B"}}},"feature_count":9},"polygon.grassurface2.339933":{"name":"Gras Surface 2","layer":"Terrain","object_type":"Area","paint":{"fill":"#339933","fill-opacity":1,"palette-overrides":{"light":{"fill":"#339933"}}},"feature_count":2},"polygon.building.394446":{"name":"Buildings","layer":"Buildings and structures","object_type":"Area","paint":{"fill":"#475570","fill-opacity":1,"palette-overrides":{"light":{"fill":"#394446"}}},"feature_count":22},"polygon.runwaygrass.008000":{"name":"Grass runways","layer":"Airfield surfaces","object_type":"Area","paint":{"fill":"#859A77","fill-opacity":1,"palette-overrides":{"light":{"fill":"#008000"}}},"feature_count":2},"polygon.runwayborder.808080":{"name":"Runway Border","layer":"Airfield surfaces","object_type":"Area","paint":{"fill":"#808080","fill-opacity":1,"palette-overrides":{"light":{"fill":"#808080"}}},"feature_count":46},"polygon.stopbar.7e0000":{"name":"Stopbars","layer":"Surface markings","object_type":"Area","paint":{"fill":"#7E0000","fill-opacity":1,"palette-overrides":{"light":{"fill":"#7E0000"}}},"feature_count":2},"polygon.apronsurface.808080":{"name":"Apron Surface","layer":"Airfield surfaces","object_type":"Area","paint":{"fill":"#808080","fill-opacity":1,"palette-overrides":{"light":{"fill":"#808080"}}},"feature_count":1},"polygon.hardsurface3.8a807f":{"name":"Hard Surface 3","layer":"Airfield surfaces","object_type":"Area","paint":{"fill":"#222D3C","fill-opacity":1,"palette-overrides":{"light":{"fill":"#8A807F"}}},"feature_count":3},"label.taxiways":{"name":"Taxiways","layer":"Labels","object_type":"Label","paint":{"text-color":"#CCCCCC","text-font":"Arial","text-size":12,"text-halo-color":"#000000","text-halo-width":1,"text-anchor":"center","zoomLevel":7},"feature_count":23}},"vsmr_groups":[],"features":[{"type":"Feature","id":"LFPZ-3ee997ecf44ef94387a7","properties":{"airport":"LFPZ","name":"LFPZ AVISO","layer":"Terrain","category":"Grass","object_type":"Area","style_id":"polygon.grassurface.00512f","source_group":"LFPZ AVISO","vsmr_group_ids":[],"geometry_role":"filled_region"},"geometry":{"type":"Polygon","coordinates":[[[2.074304167,48.810354167],[2.074203889,48.810839722],[2.074126389,48.811043889],[2.073944167,48.811454444],[2.073661111,48.812245556],[2.073491667,48.812495556],[2.070459722,48.813368056],[2.070665278,48.81371],[2.067831389,48.814549722],[2.068056667,48.814823333],[2.064614444,48.815863611],[2.063378056,48.81623],[2.0631325,48.816056389],[2.061844444,48.815083611],[2.060819722,48.814302222],[2.06015,48.813792778],[2.061520278,48.81312],[2.061804167,48.812974444],[2.061818889,48.812815],[2.061838889,48.812591944],[2.061859444,48.812413611],[2.061891667,48.8122575],[2.061953611,48.812134722],[2.062054167,48.812021667],[2.062266667,48.811861944],[2.063385556,48.811266111],[2.063741944,48.811104722],[2.064360278,48.810868056],[2.064497778,48.810835],[2.064595278,48.810817222],[2.064683611,48.810808889],[2.064941111,48.810803889],[2.065248611,48.810788611],[2.065497222,48.810763889],[2.065806667,48.810730833],[2.066121667,48.81071],[2.066268889,48.810698056],[2.066406111,48.810655],[2.066614167,48.810566111],[2.066976389,48.810378333],[2.067135,48.810266389],[2.0672825,48.81016],[2.0676175,48.810029167],[2.067462222,48.809883889],[2.067388056,48.809793889],[2.067309444,48.809664444],[2.067315278,48.809595556],[2.067365,48.809526944],[2.067481667,48.809442222],[2.067863333,48.8092725],[2.068168056,48.8091625],[2.068520556,48.809054444],[2.068806667,48.808946944],[2.069048056,48.808843333],[2.069236111,48.808768056],[2.069385556,48.808711667],[2.069415833,48.808722778],[2.069592222,48.80887],[2.069770278,48.80905],[2.0726625,48.807738611],[2.072771389,48.807685556],[2.072288333,48.807253611],[2.073854444,48.806564444],[2.075041111,48.806716389],[2.075612222,48.807400833],[2.077032778,48.809236111],[2.07628,48.809400278],[2.075519722,48.8095675],[2.074227222,48.809710278],[2.074301111,48.809949722],[2.074304167,48.810354167]]]}},{"type":"Feature","id":"LFPZ-b6ed5f86a597c6d3c4af","properties":{"airport":"LFPZ","name":"LFPZ AVISO","layer":"Airfield surfaces","category":"Hard Surface 2","object_type":"Area","style_id":"polygon.hardsurface2.595e5b","source_group":"LFPZ AVISO","vsmr_group_ids":[],"geometry_role":"filled_region"},"geometry":{"type":"Polygon","coordinates":[[[2.073260833,48.809095833],[2.073236111,48.809053056],[2.073208611,48.809014444],[2.073170278,48.808985833],[2.073147778,48.8089775],[2.073115278,48.808969167],[2.073069167,48.808972222],[2.071221111,48.809885278],[2.071157222,48.809816389],[2.071222222,48.809788056],[2.071955833,48.809428611],[2.072425833,48.809195833],[2.072477778,48.809162778],[2.072419444,48.809106667],[2.072391667,48.809103889],[2.072706111,48.80895],[2.072754722,48.809008889],[2.072775,48.809016389],[2.072808611,48.809008611],[2.072990278,48.808917222],[2.073,48.80891],[2.073016389,48.808889444],[2.073026667,48.808865556],[2.073031667,48.808841389],[2.073023611,48.808820278],[2.07301,48.808808611],[2.072997222,48.808807778],[2.072080278,48.809256111],[2.071526389,48.809532222],[2.071224722,48.809682222],[2.071180278,48.809708333],[2.071152778,48.809747778],[2.071148056,48.809778889],[2.071151111,48.809795556],[2.0711575,48.809816389],[2.071220833,48.809885278],[2.068848056,48.811058611],[2.068609722,48.810846389],[2.068898333,48.810689167],[2.069885833,48.810209444],[2.0709375,48.8096825],[2.070973611,48.809663611],[2.070988056,48.809668611],[2.071411667,48.809459722],[2.071438333,48.809474167],[2.07192,48.809224167],[2.071859444,48.809180556],[2.071822778,48.80919],[2.071796944,48.809171667],[2.072121944,48.809009444],[2.072191389,48.809076389],[2.07224,48.809060556],[2.072272778,48.809035833],[2.072285833,48.808961389],[2.072261667,48.808932778],[2.072575278,48.808782222],[2.072624167,48.808825556],[2.072689444,48.808844167],[2.072929444,48.8087375],[2.072838611,48.8086525],[2.073134722,48.808506944],[2.073145833,48.80852],[2.073143333,48.808527778],[2.073213056,48.808581389],[2.07334,48.808538333],[2.073394444,48.808606667],[2.073390278,48.808616667],[2.073385278,48.808634167],[2.073396667,48.808653611],[2.073419167,48.808673611],[2.073448889,48.808684444],[2.073505556,48.808760833],[2.073494444,48.808771944],[2.073491389,48.808798333],[2.073531389,48.808838611],[2.073711389,48.809011389],[2.073304167,48.809171389],[2.073281944,48.809131111],[2.073260833,48.809095833]]]}},{"type":"Feature","id":"LFPZ-6948b18dc70454c4ef28","properties":{"airport":"LFPZ","name":"LFPZ AVISO","layer":"Airfield surfaces","category":"Hard Surface 2","object_type":"Area","style_id":"polygon.hardsurface2.595e5b","source_group":"LFPZ AVISO","vsmr_group_ids":[],"geometry_role":"filled_region"},"geometry":{"type":"Polygon","coordinates":[[[2.073260833,48.809095833],[2.073236111,48.809053056],[2.073208611,48.809014444],[2.073170278,48.808985833],[2.073147778,48.8089775],[2.073115278,48.808969167],[2.073074444,48.808971944],[2.072990278,48.808917222],[2.073,48.80891],[2.073016389,48.808889444],[2.073026667,48.808865556],[2.073031667,48.808841389],[2.073023611,48.808820278],[2.07301,48.808808611],[2.072997222,48.808807778],[2.072978333,48.808809722],[2.072896111,48.808854722],[2.07282,48.808796389],[2.072929444,48.8087375],[2.072838611,48.8086525],[2.073134722,48.808506944],[2.073145833,48.80852],[2.073143333,48.808527778],[2.073213056,48.808581389],[2.07334,48.808538333],[2.073394444,48.808606667],[2.073390278,48.808616667],[2.073385278,48.808634167],[2.073396667,48.808653611],[2.073419167,48.808673611],[2.073448889,48.808684444],[2.073505556,48.808760833],[2.073494444,48.808771944],[2.073491389,48.808798333],[2.073531389,48.808838611],[2.073711389,48.809011389],[2.073304167,48.809171389],[2.073281944,48.809131111],[2.073260833,48.809095833]]]}},{"type":"Feature","id":"LFPZ-198284bde7d4dc013907","properties":{"airport":"LFPZ","name":"LFPZ AVISO","layer":"Airfield surfaces","category":"Hard Surface 2","object_type":"Area","style_id":"polygon.hardsurface2.595e5b","source_group":"LFPZ AVISO","vsmr_group_ids":[],"geometry_role":"filled_region"},"geometry":{"type":"Polygon","coordinates":[[[2.073518333,48.810505],[2.073532222,48.810333889],[2.073536667,48.810183056],[2.073549722,48.810035278],[2.073540278,48.809977778],[2.073468056,48.809748889],[2.073399722,48.809474444],[2.073361667,48.809306944],[2.073327222,48.809209444],[2.073304722,48.809170278],[2.073395278,48.809135],[2.073400833,48.80918],[2.073425278,48.809261667],[2.073495278,48.809497778],[2.073553056,48.809710556],[2.073596944,48.809864167],[2.07365,48.810055556],[2.073681111,48.810161944],[2.073610278,48.810241389],[2.073633056,48.810330556],[2.073636389,48.810336111],[2.073609444,48.810498611],[2.073518333,48.810505]]]}},{"type":"Feature","id":"LFPZ-f9098b24525129020ca5","properties":{"airport":"LFPZ","name":"LFPZ AVISO","layer":"Airfield surfaces","category":"Hard Surface 2","object_type":"Area","style_id":"polygon.hardsurface2.595e5b","source_group":"LFPZ AVISO","vsmr_group_ids":[],"geometry_role":"filled_region"},"geometry":{"type":"Polygon","coordinates":[[[2.073635833,48.810338611],[2.073594444,48.810290278],[2.073586389,48.810224167],[2.073655278,48.810159167],[2.073680833,48.810162222],[2.073717222,48.810297222],[2.073748611,48.810426944],[2.073666667,48.810438611],[2.073635833,48.810338611]]]}},{"type":"Feature","id":"LFPZ-b1b538014b4712c15570","properties":{"airport":"LFPZ","name":"LFPZ AVISO","layer":"Airfield surfaces","category":"Hard Surface 2","object_type":"Area","style_id":"polygon.hardsurface2.595e5b","source_group":"LFPZ AVISO","vsmr_group_ids":[],"geometry_role":"filled_region"},"geometry":{"type":"Polygon","coordinates":[[[2.073695556,48.809010278],[2.073705278,48.809017222],[2.073713611,48.809025],[2.073720556,48.809035],[2.073728889,48.8090475],[2.073743056,48.80907],[2.073766389,48.809125556],[2.073849722,48.809371389],[2.073945278,48.8096475],[2.073967778,48.809725833],[2.073968333,48.809786944],[2.073956389,48.80986],[2.073936944,48.810083333],[2.073907222,48.810378889],[2.0738825,48.810679444],[2.0738775,48.8107775],[2.073863056,48.810911667],[2.0738375,48.810989722],[2.073763611,48.8111725],[2.073678056,48.811405],[2.073598611,48.811574722],[2.073497222,48.811804167],[2.073454167,48.811918611],[2.073418333,48.811986944],[2.073323056,48.811996111],[2.073379444,48.81187],[2.073411944,48.811794444],[2.073480556,48.811632778],[2.073504167,48.811575833],[2.073524167,48.811528889],[2.073548333,48.811472778],[2.073576667,48.811389722],[2.073595833,48.8113525],[2.073633056,48.811271389],[2.073715,48.811079444],[2.073751111,48.811001667],[2.073764444,48.810933056],[2.07377,48.810873056],[2.073777778,48.810807222],[2.073791944,48.810682222],[2.073806667,48.810513611],[2.073810833,48.810496111],[2.073815,48.810474722],[2.073812778,48.810460833],[2.073811111,48.810446667],[2.073813611,48.810432222],[2.073825833,48.810405278],[2.073831389,48.81024],[2.073841389,48.810127778],[2.073855278,48.809956667],[2.073861944,48.809877778],[2.073870556,48.809810556],[2.073866667,48.809709167],[2.073806389,48.809524444],[2.073666667,48.809115556],[2.073633611,48.8090525],[2.073596667,48.809031111],[2.073671389,48.809001111],[2.073695556,48.809010278]]]}},{"type":"Feature","id":"LFPZ-6e35d250cc8d451acb00","properties":{"airport":"LFPZ","name":"LFPZ AVISO","layer":"Airfield surfaces","category":"Hard Surface 2","object_type":"Area","style_id":"polygon.hardsurface2.595e5b","source_group":"LFPZ AVISO","vsmr_group_ids":[],"geometry_role":"filled_region"},"geometry":{"type":"Polygon","coordinates":[[[2.073508333,48.808656944],[2.073546389,48.808613611],[2.073567778,48.808585],[2.073576389,48.8085625],[2.073555556,48.808537778],[2.073531944,48.808535278],[2.073482778,48.808555833],[2.073424722,48.808587222],[2.073386667,48.808610556],[2.073323889,48.808544444],[2.073364167,48.808526667],[2.073400556,48.808505],[2.073427222,48.80848],[2.073445,48.808453611],[2.073453056,48.808431667],[2.073444722,48.808406667],[2.073436944,48.808388611],[2.0734125,48.808367778],[2.073474444,48.8083375],[2.073481667,48.808338056],[2.073516111,48.808371111],[2.073544167,48.808388056],[2.073586111,48.808398333],[2.073628889,48.808394722],[2.073671667,48.808375278],[2.074964167,48.807735833],[2.075291944,48.807573611],[2.075342222,48.807521944],[2.075349444,48.807457778],[2.075085,48.807061667],[2.07518,48.807033333],[2.075262778,48.807153889],[2.075528889,48.807558333],[2.0750725,48.807773056],[2.073853611,48.808374722],[2.073765833,48.808448333],[2.073730556,48.808507778],[2.073725556,48.808555556],[2.07374,48.808590278],[2.073702222,48.808646944],[2.073629722,48.808693889],[2.073573611,48.808721944],[2.073531667,48.808743889],[2.073509722,48.808758056],[2.073488889,48.808771944],[2.073453333,48.808684167],[2.073508333,48.808656944]]]}},{"type":"Feature","id":"LFPZ-f07ab59b05cd2042abf5","properties":{"airport":"LFPZ","name":"LFPZ AVISO","layer":"Airfield surfaces","category":"Hard Surface 2","object_type":"Area","style_id":"polygon.hardsurface2.595e5b","source_group":"LFPZ AVISO","vsmr_group_ids":[],"geometry_role":"filled_region"},"geometry":{"type":"Polygon","coordinates":[[[2.075088056,48.807063056],[2.074998333,48.8070125],[2.074938889,48.806999722],[2.0748075,48.806995278],[2.074687222,48.806986389],[2.074591389,48.806948333],[2.074498889,48.806875278],[2.074423333,48.806808611],[2.074377222,48.806774444],[2.074318056,48.806752778],[2.074518889,48.806778889],[2.0745425,48.806806667],[2.074588889,48.80685],[2.074650833,48.806892222],[2.074705833,48.806920556],[2.074776944,48.806936667],[2.074837778,48.806934444],[2.074895,48.806932778],[2.074961389,48.806931944],[2.074983611,48.806930278],[2.074945278,48.8068975],[2.074887222,48.806861667],[2.074827778,48.806835556],[2.074761944,48.806818333],[2.074662222,48.806798611],[2.074673611,48.806739167],[2.074769722,48.806750833],[2.074865,48.8067725],[2.074941389,48.806801111],[2.075005556,48.806841111],[2.075069167,48.806894167],[2.075125,48.806959444],[2.075179444,48.807035],[2.075088056,48.807063056]]]}},{"type":"Feature","id":"LFPZ-41056bf22351c58e817a","properties":{"airport":"LFPZ","name":"LFPZ AVISO","layer":"Airfield surfaces","category":"Hard Surface 2","object_type":"Area","style_id":"polygon.hardsurface2.595e5b","source_group":"LFPZ AVISO","vsmr_group_ids":[],"geometry_role":"filled_region"},"geometry":{"type":"Polygon","coordinates":[[[2.074541667,48.806784444],[2.074320833,48.806753611],[2.074208889,48.806735],[2.074133611,48.806730278],[2.074097222,48.806736667],[2.074081111,48.8067425],[2.0740675,48.806755833],[2.074054722,48.806775833],[2.074065,48.806799167],[2.074095278,48.806827222],[2.074045833,48.806852222],[2.073963056,48.806782778],[2.073946389,48.806784167],[2.073871944,48.806820278],[2.073756667,48.806878889],[2.073672222,48.806929444],[2.073668056,48.806948611],[2.073673889,48.806978611],[2.073701667,48.807024722],[2.073669722,48.807041111],[2.073650833,48.807021111],[2.073636667,48.807003056],[2.073619444,48.806974167],[2.073616944,48.806961944],[2.073615833,48.806960833],[2.073602222,48.806958889],[2.073406111,48.807054444],[2.07331,48.807105],[2.073296389,48.807121111],[2.073295278,48.807145],[2.073304167,48.807185556],[2.073329167,48.807208611],[2.073293056,48.807226389],[2.073288611,48.807225556],[2.073268611,48.807201389],[2.073244722,48.807166667],[2.073239167,48.807154444],[2.073223611,48.8071475],[2.073161944,48.807175556],[2.072958056,48.807279722],[2.072951944,48.807298889],[2.072947778,48.8073275],[2.072948889,48.807346111],[2.072986389,48.80738],[2.072691111,48.807527222],[2.072554167,48.807412778],[2.072711667,48.807329444],[2.072715556,48.807332778],[2.072740278,48.807350556],[2.072955833,48.807242778],[2.073426667,48.807005833],[2.073970833,48.806729444],[2.073953056,48.806706667],[2.073984167,48.806692778],[2.074044722,48.806674167],[2.074097222,48.806666111],[2.074191389,48.806668333],[2.074454167,48.806704167],[2.074678056,48.806740278],[2.074671667,48.8068],[2.074541667,48.806784444]]]}},{"type":"Feature","id":"LFPZ-3b1608b75d5bc02d0a39","properties":{"airport":"LFPZ","name":"LFPZ AVISO","layer":"Terrain","category":"Gras Surface 2","object_type":"Area","style_id":"polygon.grassurface2.339933","source_group":"LFPZ AVISO","vsmr_group_ids":[],"geometry_role":"filled_region"},"geometry":{"type":"Polygon","coordinates":[[[2.069425278,48.810748333],[2.069543333,48.810841944],[2.069755,48.811075833],[2.069283611,48.811203611],[2.06919,48.811221667],[2.069053056,48.8110725],[2.068999167,48.811092778],[2.068883889,48.811143611],[2.068741667,48.811198056],[2.068573611,48.811245278],[2.068137778,48.811367222],[2.068019167,48.811386111],[2.067614722,48.811499722],[2.0675425,48.811527778],[2.067556389,48.8115625],[2.067640278,48.811673889],[2.067399444,48.811725278],[2.0673225,48.811594444],[2.065200556,48.812194444],[2.064895278,48.812289167],[2.064976944,48.812409167],[2.064718889,48.812475],[2.064634722,48.812361111],[2.064165556,48.81249],[2.0630725,48.812792222],[2.0626575,48.812927222],[2.062533889,48.812967778],[2.062545,48.812993333],[2.062580278,48.813040833],[2.0626025,48.813075833],[2.062529722,48.813091111],[2.062460833,48.81301],[2.062118056,48.813121111],[2.062099167,48.813099167],[2.062062778,48.813014167],[2.0620275,48.812929167],[2.062041111,48.812910556],[2.062071944,48.812897778],[2.062240833,48.812844444],[2.062723056,48.812693889],[2.064095556,48.812313611],[2.065126389,48.812038056],[2.066724167,48.811573333],[2.067216944,48.811423056],[2.067941111,48.811188333],[2.0682575,48.81106],[2.068648056,48.810870833],[2.068863611,48.81102],[2.069425278,48.810748333]]]}},{"type":"Feature","id":"LFPZ-08abf74b977211bd0d43","properties":{"airport":"LFPZ","name":"LFPZ AVISO","layer":"Terrain","category":"Gras Surface 2","object_type":"Area","style_id":"polygon.grassurface2.339933","source_group":"LFPZ AVISO","vsmr_group_ids":[],"geometry_role":"filled_region"},"geometry":{"type":"Polygon","coordinates":[[[2.073292778,48.8106275],[2.073351389,48.810757222],[2.073353333,48.810828056],[2.07335,48.810862778],[2.0734925,48.810805556],[2.073516389,48.810689167],[2.073523889,48.810502778],[2.073555278,48.810338611],[2.073720556,48.810314722],[2.073748611,48.810425],[2.0738325,48.810408333],[2.073773889,48.810848056],[2.073603611,48.81089],[2.073338333,48.810958056],[2.0726575,48.811140278],[2.072182778,48.8112675],[2.068428056,48.812314444],[2.068436111,48.812403889],[2.068404444,48.812455278],[2.068323333,48.812469722],[2.068293056,48.81245],[2.0682325,48.812412222],[2.068201111,48.812381111],[2.066914167,48.81274],[2.065996389,48.812999722],[2.065891667,48.813055556],[2.0658425,48.813125556],[2.065835278,48.813186944],[2.065731944,48.813209444],[2.065671944,48.813209444],[2.065644722,48.813170278],[2.065628611,48.813138889],[2.065610278,48.813109444],[2.065191667,48.813233611],[2.065146111,48.813339167],[2.065098889,48.813416667],[2.064983056,48.813433056],[2.064924722,48.813419444],[2.064893889,48.813394444],[2.064736111,48.813439167],[2.063975556,48.813675556],[2.063610278,48.813767778],[2.061846944,48.814263889],[2.061721389,48.814289444],[2.061655278,48.8143075],[2.061636111,48.814229167],[2.0616125,48.814181389],[2.061597222,48.814146111],[2.061583333,48.814120833],[2.062388056,48.81389],[2.062573611,48.813839722],[2.062491389,48.813694167],[2.062923611,48.813564167],[2.063153611,48.813503333],[2.063112778,48.813552778],[2.06312,48.813601667],[2.063156111,48.813633611],[2.063207222,48.813655278],[2.064213333,48.813365],[2.065213056,48.813093889],[2.06516,48.81302],[2.065116111,48.812969167],[2.065096667,48.812947778],[2.065226944,48.812916667],[2.0652975,48.812903056],[2.065388056,48.813044444],[2.0658175,48.812918056],[2.067705556,48.812381389],[2.067831944,48.812346389],[2.067848056,48.812303611],[2.067837778,48.812263889],[2.067812222,48.812222778],[2.067793611,48.812168889],[2.068071111,48.812104167],[2.068135,48.812096111],[2.068164722,48.812144722],[2.068190833,48.812188333],[2.068215833,48.812215833],[2.068322778,48.812195833],[2.068824444,48.8120475],[2.069765833,48.811780556],[2.069811111,48.811757222],[2.069795833,48.811714722],[2.069758056,48.8116675],[2.069730278,48.811627222],[2.069910556,48.811599722],[2.069937778,48.811646944],[2.0699775,48.811698611],[2.070009167,48.811712222],[2.070253333,48.81165],[2.072007222,48.811167222],[2.073016667,48.810874444],[2.073145278,48.810840833],[2.073151944,48.810758889],[2.073110833,48.810691944],[2.073168333,48.810663056],[2.073292778,48.8106275]]]}},{"type":"Feature","id":"LFPZ-32aa6f14faa351c363e5","properties":{"airport":"LFPZ","name":"LFPZ AVISO","layer":"Airfield surfaces","category":"Hard Surface 2","object_type":"Area","style_id":"polygon.hardsurface2.595e5b","source_group":"LFPZ AVISO","vsmr_group_ids":[],"geometry_role":"filled_region"},"geometry":{"type":"Polygon","coordinates":[[[2.0685975,48.809433333],[2.068578056,48.809463889],[2.068650278,48.809610833],[2.068811389,48.809905],[2.068869444,48.810014167],[2.068898889,48.810051667],[2.068807222,48.810081944],[2.068773333,48.810036111],[2.068755833,48.809996389],[2.068745,48.809981667],[2.068731944,48.809977778],[2.068691389,48.809978333],[2.068644722,48.80999],[2.068582778,48.810014722],[2.068538889,48.8100325],[2.068520556,48.810128333],[2.068498611,48.810135556],[2.068469167,48.810144167],[2.068451111,48.810135556],[2.068430278,48.810121944],[2.068326389,48.810017222],[2.068381667,48.809981667],[2.068455833,48.809951944],[2.0685,48.809926667],[2.068508333,48.809921389],[2.068638611,48.809949167],[2.068713333,48.809913333],[2.068642778,48.809780833],[2.068613889,48.809759444],[2.068590278,48.809753889],[2.0685525,48.809751667],[2.068385,48.809814722],[2.0682925,48.809848889],[2.0682575,48.809864167],[2.068226944,48.809898611],[2.068206944,48.809905833],[2.068216389,48.809926389],[2.068202222,48.809933333],[2.06818,48.809932222],[2.068158056,48.809933889],[2.068076667,48.809828611],[2.068118333,48.809817778],[2.068275,48.809739167],[2.068363333,48.809703611],[2.0684175,48.809674722],[2.068458889,48.809722222],[2.068470556,48.809729722],[2.068522222,48.809711389],[2.068554722,48.809680556],[2.068579167,48.809665833],[2.068526944,48.80956],[2.068503611,48.809511944],[2.068473889,48.80949],[2.0683525,48.809385],[2.068383333,48.809364167],[2.068386389,48.809293333],[2.068410278,48.809249167],[2.068771944,48.809086111],[2.068796667,48.809076389],[2.069017778,48.809245],[2.0685975,48.809433333]]]}},{"type":"Feature","id":"LFPZ-cae20c6bc559a6763290","properties":{"airport":"LFPZ","name":"LFPZ AVISO","layer":"Buildings and structures","category":"Buildings","object_type":"Area","style_id":"polygon.building.394446","source_group":"LFPZ AVISO","vsmr_group_ids":[],"geometry_role":"filled_region"},"geometry":{"type":"Polygon","coordinates":[[[2.073971111,48.806978611],[2.073999167,48.806963056],[2.073929722,48.806904167],[2.074164167,48.806796111],[2.074326667,48.806828333],[2.074475278,48.806972778],[2.074136111,48.807124722],[2.073971111,48.806978611]]]}},{"type":"Feature","id":"LFPZ-fa25891a1b48ad06e09b","properties":{"airport":"LFPZ","name":"LFPZ AVISO","layer":"Buildings and structures","category":"Buildings","object_type":"Area","style_id":"polygon.building.394446","source_group":"LFPZ AVISO","vsmr_group_ids":[],"geometry_role":"filled_region"},"geometry":{"type":"Polygon","coordinates":[[[2.073418333,48.807174167],[2.07368,48.807363611],[2.073305556,48.807538611],[2.073090278,48.807328333],[2.073418333,48.807174167]]]}},{"type":"Feature","id":"LFPZ-712fd8ebc8a1d902b85b","properties":{"airport":"LFPZ","name":"LFPZ AVISO","layer":"Buildings and structures","category":"Buildings","object_type":"Area","style_id":"polygon.building.394446","source_group":"LFPZ AVISO","vsmr_group_ids":[],"geometry_role":"filled_region"},"geometry":{"type":"Polygon","coordinates":[[[2.074083333,48.807160833],[2.073728333,48.80733],[2.0735525,48.807179167],[2.0735875,48.807165556],[2.073524722,48.807115278],[2.07385,48.806957222],[2.0739325,48.807022222],[2.074083333,48.807160833]]]}},{"type":"Feature","id":"LFPZ-f816068b596fd3ecab7e","properties":{"airport":"LFPZ","name":"LFPZ AVISO","layer":"Buildings and structures","category":"Buildings","object_type":"Area","style_id":"polygon.building.394446","source_group":"LFPZ AVISO","vsmr_group_ids":[],"geometry_role":"filled_region"},"geometry":{"type":"Polygon","coordinates":[[[2.072903333,48.807737778],[2.072689167,48.807523333],[2.073021667,48.807359722],[2.073261389,48.807565278],[2.072903333,48.807737778]]]}},{"type":"Feature","id":"LFPZ-99f1723e49b3abb46819","properties":{"airport":"LFPZ","name":"LFPZ AVISO","layer":"Buildings and structures","category":"Buildings","object_type":"Area","style_id":"polygon.building.394446","source_group":"LFPZ AVISO","vsmr_group_ids":[],"geometry_role":"filled_region"},"geometry":{"type":"Polygon","coordinates":[[[2.072870833,48.808300278],[2.072680556,48.808138611],[2.072782778,48.808080833],[2.072895833,48.808039444],[2.072933056,48.808034444],[2.073097778,48.808180833],[2.072870833,48.808300278]]]}},{"type":"Feature","id":"LFPZ-d2b356713eddd945aaa3","properties":{"airport":"LFPZ","name":"LFPZ AVISO","layer":"Buildings and structures","category":"Buildings","object_type":"Area","style_id":"polygon.building.394446","source_group":"LFPZ AVISO","vsmr_group_ids":[],"geometry_role":"filled_region"},"geometry":{"type":"Polygon","coordinates":[[[2.072583611,48.808432778],[2.072414167,48.808290833],[2.072458056,48.8082725],[2.072448611,48.808255278],[2.072675,48.808151111],[2.072845556,48.808304444],[2.072583611,48.808432778]]]}},{"type":"Feature","id":"LFPZ-dcd38dbc832356d8747f","properties":{"airport":"LFPZ","name":"LFPZ AVISO","layer":"Buildings and structures","category":"Buildings","object_type":"Area","style_id":"polygon.building.394446","source_group":"LFPZ AVISO","vsmr_group_ids":[],"geometry_role":"filled_region"},"geometry":{"type":"Polygon","coordinates":[[[2.07192,48.808561944],[2.072428611,48.808318889],[2.072558611,48.808426944],[2.072055556,48.80868],[2.07192,48.808561944]]]}},{"type":"Feature","id":"LFPZ-70fb6843794900cf2944","properties":{"airport":"LFPZ","name":"LFPZ AVISO","layer":"Buildings and structures","category":"Buildings","object_type":"Area","style_id":"polygon.building.394446","source_group":"LFPZ AVISO","vsmr_group_ids":[],"geometry_role":"filled_region"},"geometry":{"type":"Polygon","coordinates":[[[2.071526111,48.808931667],[2.071363611,48.808785278],[2.071683889,48.808627222],[2.071845,48.808775278],[2.071526111,48.808931667]]]}},{"type":"Feature","id":"LFPZ-30d62ab8a61e22d41aa2","properties":{"airport":"LFPZ","name":"LFPZ AVISO","layer":"Buildings and structures","category":"Buildings","object_type":"Area","style_id":"polygon.building.394446","source_group":"LFPZ AVISO","vsmr_group_ids":[],"geometry_role":"filled_region"},"geometry":{"type":"Polygon","coordinates":[[[2.07135,48.809021667],[2.071276667,48.808962222],[2.071388611,48.808911111],[2.071451389,48.808971667],[2.07135,48.809021667]]]}},{"type":"Feature","id":"LFPZ-9717390443fa8a9c4d19","properties":{"airport":"LFPZ","name":"LFPZ AVISO","layer":"Buildings and structures","category":"Buildings","object_type":"Area","style_id":"polygon.building.394446","source_group":"LFPZ AVISO","vsmr_group_ids":[],"geometry_role":"filled_region"},"geometry":{"type":"Polygon","coordinates":[[[2.071141667,48.809136944],[2.070935556,48.808988056],[2.071166389,48.808886944],[2.071292778,48.809002222],[2.071251667,48.809021389],[2.071301667,48.809058889],[2.071141667,48.809136944]]]}},{"type":"Feature","id":"LFPZ-e70b7ee36520ecce75cf","properties":{"airport":"LFPZ","name":"LFPZ AVISO","layer":"Buildings and structures","category":"Buildings","object_type":"Area","style_id":"polygon.building.394446","source_group":"LFPZ AVISO","vsmr_group_ids":[],"geometry_role":"filled_region"},"geometry":{"type":"Polygon","coordinates":[[[2.070837222,48.809284167],[2.070666111,48.809119444],[2.070897222,48.809001111],[2.071081111,48.809165833],[2.070837222,48.809284167]]]}},{"type":"Feature","id":"LFPZ-66d87fa5c7ddc6229557","properties":{"airport":"LFPZ","name":"LFPZ AVISO","layer":"Buildings and structures","category":"Buildings","object_type":"Area","style_id":"polygon.building.394446","source_group":"LFPZ AVISO","vsmr_group_ids":[],"geometry_role":"filled_region"},"geometry":{"type":"Polygon","coordinates":[[[2.069293056,48.808818333],[2.069551667,48.809051111],[2.069040556,48.809291944],[2.068773056,48.809056667],[2.069293056,48.808818333]]]}},{"type":"Feature","id":"LFPZ-25ed64e2f1aaa9040c9b","properties":{"airport":"LFPZ","name":"LFPZ AVISO","layer":"Buildings and structures","category":"Buildings","object_type":"Area","style_id":"polygon.building.394446","source_group":"LFPZ AVISO","vsmr_group_ids":[],"geometry_role":"filled_region"},"geometry":{"type":"Polygon","coordinates":[[[2.070458889,48.809150556],[2.07035,48.809048889],[2.070450556,48.80901],[2.070552778,48.809103333],[2.070458889,48.809150556]]]}},{"type":"Feature","id":"LFPZ-5b8ef548bea3430cf4a1","properties":{"airport":"LFPZ","name":"LFPZ AVISO","layer":"Buildings and structures","category":"Buildings","object_type":"Area","style_id":"polygon.building.394446","source_group":"LFPZ AVISO","vsmr_group_ids":[],"geometry_role":"filled_region"},"geometry":{"type":"Polygon","coordinates":[[[2.070291667,48.809240278],[2.070195556,48.809163056],[2.070309444,48.809124722],[2.070386389,48.809195278],[2.070291667,48.809240278]]]}},{"type":"Feature","id":"LFPZ-aabef5db16346fd620c0","properties":{"airport":"LFPZ","name":"LFPZ AVISO","layer":"Buildings and structures","category":"Buildings","object_type":"Area","style_id":"polygon.building.394446","source_group":"LFPZ AVISO","vsmr_group_ids":[],"geometry_role":"filled_region"},"geometry":{"type":"Polygon","coordinates":[[[2.070074444,48.809340833],[2.069989722,48.809263333],[2.070093056,48.809211111],[2.070181944,48.809288889],[2.070074444,48.809340833]]]}},{"type":"Feature","id":"LFPZ-740366c9019e3a04591e","properties":{"airport":"LFPZ","name":"LFPZ AVISO","layer":"Buildings and structures","category":"Buildings","object_type":"Area","style_id":"polygon.building.394446","source_group":"LFPZ AVISO","vsmr_group_ids":[],"geometry_role":"filled_region"},"geometry":{"type":"Polygon","coordinates":[[[2.069886944,48.809364444],[2.069933056,48.809413611],[2.069880556,48.809433611],[2.069758889,48.809337778],[2.069898889,48.809276667],[2.069964167,48.809329444],[2.069886944,48.809364444]]]}},{"type":"Feature","id":"LFPZ-a31b004282f048f6d394","properties":{"airport":"LFPZ","name":"LFPZ AVISO","layer":"Buildings and structures","category":"Buildings","object_type":"Area","style_id":"polygon.building.394446","source_group":"LFPZ AVISO","vsmr_group_ids":[],"geometry_role":"filled_region"},"geometry":{"type":"Polygon","coordinates":[[[2.069222222,48.8097575],[2.069129167,48.809681667],[2.069311111,48.809598611],[2.0694,48.809673056],[2.069222222,48.8097575]]]}},{"type":"Feature","id":"LFPZ-a438f3a7ef0aea275d4a","properties":{"airport":"LFPZ","name":"LFPZ AVISO","layer":"Buildings and structures","category":"Buildings","object_type":"Area","style_id":"polygon.building.394446","source_group":"LFPZ AVISO","vsmr_group_ids":[],"geometry_role":"filled_region"},"geometry":{"type":"Polygon","coordinates":[[[2.069175556,48.8100425],[2.069118056,48.809996111],[2.069057778,48.810030833],[2.069029167,48.810034444],[2.068991667,48.810007778],[2.069014444,48.809996667],[2.068984444,48.809965833],[2.069153056,48.809865833],[2.069208611,48.809908611],[2.069244444,48.809895278],[2.069323889,48.809963333],[2.069175556,48.8100425]]]}},{"type":"Feature","id":"LFPZ-91481a5eea515b1dd2be","properties":{"airport":"LFPZ","name":"LFPZ AVISO","layer":"Buildings and structures","category":"Buildings","object_type":"Area","style_id":"polygon.building.394446","source_group":"LFPZ AVISO","vsmr_group_ids":[],"geometry_role":"filled_region"},"geometry":{"type":"Polygon","coordinates":[[[2.067753333,48.809957222],[2.068087778,48.809810833],[2.068188611,48.809943333],[2.06789,48.810094722],[2.067753333,48.809957222]]]}},{"type":"Feature","id":"LFPZ-decba26c862f175a6aa4","properties":{"airport":"LFPZ","name":"LFPZ AVISO","layer":"Buildings and structures","category":"Buildings","object_type":"Area","style_id":"polygon.building.394446","source_group":"LFPZ AVISO","vsmr_group_ids":[],"geometry_role":"filled_region"},"geometry":{"type":"Polygon","coordinates":[[[2.068463889,48.810150556],[2.068184444,48.810268611],[2.068033056,48.810130556],[2.068332778,48.810014444],[2.068469722,48.81014],[2.068463889,48.810150556]]]}},{"type":"Feature","id":"LFPZ-671eeb67f567f53a78fb","properties":{"airport":"LFPZ","name":"LFPZ AVISO","layer":"Buildings and structures","category":"Buildings","object_type":"Area","style_id":"polygon.building.394446","source_group":"LFPZ AVISO","vsmr_group_ids":[],"geometry_role":"filled_region"},"geometry":{"type":"Polygon","coordinates":[[[2.068453889,48.810504444],[2.068363056,48.810440833],[2.068511111,48.810377778],[2.068581389,48.810443333],[2.068453889,48.810504444]]]}},{"type":"Feature","id":"LFPZ-5f56203e61c00efe8f98","properties":{"airport":"LFPZ","name":"LFPZ AVISO","layer":"Buildings and structures","category":"Buildings","object_type":"Area","style_id":"polygon.building.394446","source_group":"LFPZ AVISO","vsmr_group_ids":[],"geometry_role":"filled_region"},"geometry":{"type":"Polygon","coordinates":[[[2.068252778,48.810619722],[2.0681925,48.810564167],[2.068283611,48.810518333],[2.06834,48.810575],[2.068252778,48.810619722]]]}},{"type":"Feature","id":"LFPZ-2df777c5ab4fde670602","properties":{"airport":"LFPZ","name":"LFPZ AVISO","layer":"Airfield surfaces","category":"Grass runways","object_type":"Area","style_id":"polygon.runwaygrass.008000","source_group":"LFPZ AVISO","vsmr_group_ids":[],"geometry_role":"filled_region"},"geometry":{"type":"Polygon","coordinates":[[[2.062151389,48.813177778],[2.073054167,48.810114444],[2.073389167,48.810630278],[2.062489444,48.813697778],[2.062151389,48.813177778]]]}},{"type":"Feature","id":"LFPZ-527f3dbaeb1963b1ce10","properties":{"airport":"LFPZ","name":"LFPZ AVISO","layer":"Airfield surfaces","category":"Runway Border","object_type":"Area","style_id":"polygon.runwayborder.808080","source_group":"LFPZ AVISO","vsmr_group_ids":[],"geometry_role":"filled_region"},"geometry":{"type":"Polygon","coordinates":[[[2.073050833,48.810115556],[2.073081111,48.810164722],[2.073066389,48.810169722],[2.073038889,48.810129444],[2.072980556,48.810147778],[2.072974167,48.810135833],[2.073050833,48.810115556]]]}},{"type":"Feature","id":"LFPZ-3ff905f872b124d7a7be","properties":{"airport":"LFPZ","name":"LFPZ AVISO","layer":"Airfield surfaces","category":"Runway Border","object_type":"Area","style_id":"polygon.runwayborder.808080","source_group":"LFPZ AVISO","vsmr_group_ids":[],"geometry_role":"filled_region"},"geometry":{"type":"Polygon","coordinates":[[[2.073351667,48.810580556],[2.073383056,48.810630833],[2.073308056,48.810650833],[2.073301389,48.810642222],[2.073360556,48.810625],[2.073334722,48.810585],[2.073351667,48.810580556]]]}},{"type":"Feature","id":"LFPZ-b527e39f78395cba8c7a","properties":{"airport":"LFPZ","name":"LFPZ AVISO","layer":"Airfield surfaces","category":"Runway Border","object_type":"Area","style_id":"polygon.runwayborder.808080","source_group":"LFPZ AVISO","vsmr_group_ids":[],"geometry_role":"filled_region"},"geometry":{"type":"Polygon","coordinates":[[[2.062238333,48.813168889],[2.062177222,48.813185833],[2.062199722,48.813223056],[2.062186667,48.813226944],[2.0621525,48.813178889],[2.062229722,48.813158056],[2.062238333,48.813168889]]]}},{"type":"Feature","id":"LFPZ-2e0410af4435a98e8ca4","properties":{"airport":"LFPZ","name":"LFPZ AVISO","layer":"Airfield surfaces","category":"Runway Border","object_type":"Area","style_id":"polygon.runwayborder.808080","source_group":"LFPZ AVISO","vsmr_group_ids":[],"geometry_role":"filled_region"},"geometry":{"type":"Polygon","coordinates":[[[2.062468889,48.813641111],[2.062495833,48.813679167],[2.06255,48.813664444],[2.062556389,48.813673611],[2.062489167,48.813693056],[2.062455833,48.813644167],[2.062468889,48.813641111]]]}},{"type":"Feature","id":"LFPZ-13c536a47e4d552e68fb","properties":{"airport":"LFPZ","name":"LFPZ AVISO","layer":"Airfield surfaces","category":"Runway Border","object_type":"Area","style_id":"polygon.runwayborder.808080","source_group":"LFPZ AVISO","vsmr_group_ids":[],"geometry_role":"filled_region"},"geometry":{"type":"Polygon","coordinates":[[[2.073202222,48.810348611],[2.073232778,48.810396944],[2.073219722,48.810400556],[2.073188611,48.8103525],[2.073202222,48.810348611]]]}},{"type":"Feature","id":"LFPZ-0e8ebcc79dcf11c93ed8","properties":{"airport":"LFPZ","name":"LFPZ AVISO","layer":"Airfield surfaces","category":"Runway Border","object_type":"Area","style_id":"polygon.runwayborder.808080","source_group":"LFPZ AVISO","vsmr_group_ids":[],"geometry_role":"filled_region"},"geometry":{"type":"Polygon","coordinates":[[[2.062318889,48.813409444],[2.062350833,48.813457778],[2.062337778,48.813460556],[2.062306944,48.813412778],[2.062318889,48.813409444]]]}},{"type":"Feature","id":"LFPZ-29aa15a6fa81cc2e91bc","properties":{"airport":"LFPZ","name":"LFPZ AVISO","layer":"Airfield surfaces","category":"Runway Border","object_type":"Area","style_id":"polygon.runwayborder.808080","source_group":"LFPZ AVISO","vsmr_group_ids":[],"geometry_role":"filled_region"},"geometry":{"type":"Polygon","coordinates":[[[2.071520556,48.810742778],[2.071473333,48.810763333],[2.071473889,48.810765833],[2.071530278,48.810760833],[2.0715325,48.810768056],[2.071423889,48.810781111],[2.071423056,48.8107775],[2.071516111,48.810737222],[2.071520556,48.810742778]]]}},{"type":"Feature","id":"LFPZ-32e9089a30de18179ec4","properties":{"airport":"LFPZ","name":"LFPZ AVISO","layer":"Airfield surfaces","category":"Runway Border","object_type":"Area","style_id":"polygon.runwayborder.808080","source_group":"LFPZ AVISO","vsmr_group_ids":[],"geometry_role":"filled_region"},"geometry":{"type":"Polygon","coordinates":[[[2.071626389,48.810906944],[2.071582222,48.810928056],[2.071584722,48.810931111],[2.071638889,48.810924722],[2.071641389,48.810931944],[2.071532778,48.810946389],[2.071529722,48.810940833],[2.071621111,48.8109],[2.071626389,48.810906944]]]}},{"type":"Feature","id":"LFPZ-084c3fe1c56122a52763","properties":{"airport":"LFPZ","name":"LFPZ AVISO","layer":"Airfield surfaces","category":"Runway Border","object_type":"Area","style_id":"polygon.runwayborder.808080","source_group":"LFPZ AVISO","vsmr_group_ids":[],"geometry_role":"filled_region"},"geometry":{"type":"Polygon","coordinates":[[[2.064164722,48.812819722],[2.064167778,48.812821944],[2.06407,48.812864444],[2.064063889,48.812860278],[2.064112222,48.812835556],[2.064110278,48.812831944],[2.064050556,48.812839722],[2.064048889,48.812835],[2.064164722,48.812819722]]]}},{"type":"Feature","id":"LFPZ-459967bf2fa1e8c586fd","properties":{"airport":"LFPZ","name":"LFPZ AVISO","layer":"Airfield surfaces","category":"Runway Border","object_type":"Area","style_id":"polygon.runwayborder.808080","source_group":"LFPZ AVISO","vsmr_group_ids":[],"geometry_role":"filled_region"},"geometry":{"type":"Polygon","coordinates":[[[2.064177778,48.813030833],[2.064170278,48.813024444],[2.0642175,48.813004167],[2.064211389,48.812998056],[2.064156667,48.813005833],[2.064155833,48.813],[2.064265556,48.812986667],[2.064177778,48.813030833]]]}},{"type":"Feature","id":"LFPZ-d6a8ebccbccead1d1632","properties":{"airport":"LFPZ","name":"LFPZ AVISO","layer":"Airfield surfaces","category":"Grass runways","object_type":"Area","style_id":"polygon.runwaygrass.008000","source_group":"LFPZ AVISO","vsmr_group_ids":[],"geometry_role":"filled_region"},"geometry":{"type":"Polygon","coordinates":[[[2.073454167,48.811986389],[2.062263611,48.815126389],[2.061715278,48.814276667],[2.072898056,48.811135833],[2.073454167,48.811986389]]]}},{"type":"Feature","id":"LFPZ-07ff1d4bd25116006f39","properties":{"airport":"LFPZ","name":"LFPZ AVISO","layer":"Airfield surfaces","category":"Runway Border","object_type":"Area","style_id":"polygon.runwayborder.808080","source_group":"LFPZ AVISO","vsmr_group_ids":[],"geometry_role":"filled_region"},"geometry":{"type":"Polygon","coordinates":[[[2.072823889,48.811155556],[2.072894722,48.811133333],[2.072928611,48.811183333],[2.072913333,48.811187778],[2.072889167,48.811148056],[2.072829722,48.811164722],[2.072823889,48.811155556]]]}},{"type":"Feature","id":"LFPZ-bec2b5aecbe288d12e02","properties":{"airport":"LFPZ","name":"LFPZ AVISO","layer":"Airfield surfaces","category":"Runway Border","object_type":"Area","style_id":"polygon.runwayborder.808080","source_group":"LFPZ AVISO","vsmr_group_ids":[],"geometry_role":"filled_region"},"geometry":{"type":"Polygon","coordinates":[[[2.073415833,48.811935556],[2.073447778,48.811984722],[2.073365278,48.811998889],[2.0733625,48.811991111],[2.073424722,48.811974722],[2.0734,48.811940556],[2.073415833,48.811935556]]]}},{"type":"Feature","id":"LFPZ-c3258481b09db62826db","properties":{"airport":"LFPZ","name":"LFPZ AVISO","layer":"Airfield surfaces","category":"Runway Border","object_type":"Area","style_id":"polygon.runwayborder.808080","source_group":"LFPZ AVISO","vsmr_group_ids":[],"geometry_role":"filled_region"},"geometry":{"type":"Polygon","coordinates":[[[2.061796389,48.814265],[2.061734722,48.814283333],[2.061760833,48.814323056],[2.061749167,48.814326389],[2.061715556,48.814276667],[2.061788056,48.814255833],[2.061796389,48.814265]]]}},{"type":"Feature","id":"LFPZ-5ea86d146f994b1c0ccb","properties":{"airport":"LFPZ","name":"LFPZ AVISO","layer":"Airfield surfaces","category":"Runway Border","object_type":"Area","style_id":"polygon.runwayborder.808080","source_group":"LFPZ AVISO","vsmr_group_ids":[],"geometry_role":"filled_region"},"geometry":{"type":"Polygon","coordinates":[[[2.062334444,48.815103056],[2.062264167,48.815125278],[2.0622325,48.815076389],[2.0622425,48.815071667],[2.062270278,48.815110833],[2.062329444,48.815092778],[2.062334444,48.815103056]]]}},{"type":"Feature","id":"LFPZ-fa6f575c7d6a102ecc03","properties":{"airport":"LFPZ","name":"LFPZ AVISO","layer":"Airfield surfaces","category":"Runway Border","object_type":"Area","style_id":"polygon.runwayborder.808080","source_group":"LFPZ AVISO","vsmr_group_ids":[],"geometry_role":"filled_region"},"geometry":{"type":"Polygon","coordinates":[[[2.073152778,48.811534167],[2.073183889,48.811581667],[2.073171389,48.811585],[2.073139167,48.811537778],[2.073152778,48.811534167]]]}},{"type":"Feature","id":"LFPZ-de3f038d7dc8142b5f19","properties":{"airport":"LFPZ","name":"LFPZ AVISO","layer":"Airfield surfaces","category":"Runway Border","object_type":"Area","style_id":"polygon.runwayborder.808080","source_group":"LFPZ AVISO","vsmr_group_ids":[],"geometry_role":"filled_region"},"geometry":{"type":"Polygon","coordinates":[[[2.061987778,48.814674722],[2.062013611,48.814714444],[2.062003889,48.814716944],[2.0619775,48.814677778],[2.061987778,48.814674722]]]}},{"type":"Feature","id":"LFPZ-0d9d7e10b194be3abdb2","properties":{"airport":"LFPZ","name":"LFPZ AVISO","layer":"Airfield surfaces","category":"Runway Border","object_type":"Area","style_id":"polygon.runwayborder.808080","source_group":"LFPZ AVISO","vsmr_group_ids":[],"geometry_role":"filled_region"},"geometry":{"type":"Polygon","coordinates":[[[2.071141111,48.812625278],[2.071073056,48.812646944],[2.071064722,48.812638611],[2.071135833,48.812618056],[2.071141111,48.812625278]]]}},{"type":"Feature","id":"LFPZ-30e3e5a96418eb1e7a13","properties":{"airport":"LFPZ","name":"LFPZ AVISO","layer":"Airfield surfaces","category":"Runway Border","object_type":"Area","style_id":"polygon.runwayborder.808080","source_group":"LFPZ AVISO","vsmr_group_ids":[],"geometry_role":"filled_region"},"geometry":{"type":"Polygon","coordinates":[[[2.068853611,48.813273056],[2.0687825,48.813291667],[2.068776667,48.813283889],[2.0688475,48.813265],[2.068853611,48.813273056]]]}},{"type":"Feature","id":"LFPZ-2328fa30190ba9f5e7e4","properties":{"airport":"LFPZ","name":"LFPZ AVISO","layer":"Airfield surfaces","category":"Runway Border","object_type":"Area","style_id":"polygon.runwayborder.808080","source_group":"LFPZ AVISO","vsmr_group_ids":[],"geometry_role":"filled_region"},"geometry":{"type":"Polygon","coordinates":[[[2.066556111,48.813916944],[2.066487222,48.813936111],[2.066481389,48.81393],[2.066551389,48.813909444],[2.066556111,48.813916944]]]}},{"type":"Feature","id":"LFPZ-9f949ee5fda1756834e7","properties":{"airport":"LFPZ","name":"LFPZ AVISO","layer":"Airfield surfaces","category":"Runway Border","object_type":"Area","style_id":"polygon.runwayborder.808080","source_group":"LFPZ AVISO","vsmr_group_ids":[],"geometry_role":"filled_region"},"geometry":{"type":"Polygon","coordinates":[[[2.064254167,48.814564167],[2.064182778,48.814583333],[2.064179444,48.814574722],[2.064254444,48.814556944],[2.064254167,48.814564167]]]}},{"type":"Feature","id":"LFPZ-eb83e331f3f30557d19c","properties":{"airport":"LFPZ","name":"LFPZ AVISO","layer":"Airfield surfaces","category":"Runway Border","object_type":"Area","style_id":"polygon.runwayborder.808080","source_group":"LFPZ AVISO","vsmr_group_ids":[],"geometry_role":"filled_region"},"geometry":{"type":"Polygon","coordinates":[[[2.063638056,48.813740556],[2.063715278,48.813718889],[2.063718889,48.813728889],[2.063644444,48.813747778],[2.063638056,48.813740556]]]}},{"type":"Feature","id":"LFPZ-e1cba04311c1fef60fcd","properties":{"airport":"LFPZ","name":"LFPZ AVISO","layer":"Airfield surfaces","category":"Runway Border","object_type":"Area","style_id":"polygon.runwayborder.808080","source_group":"LFPZ AVISO","vsmr_group_ids":[],"geometry_role":"filled_region"},"geometry":{"type":"Polygon","coordinates":[[[2.06594,48.813092222],[2.066011944,48.813073333],[2.066018333,48.813080833],[2.065945,48.813101667],[2.06594,48.813092222]]]}},{"type":"Feature","id":"LFPZ-31405146be296cc2082f","properties":{"airport":"LFPZ","name":"LFPZ AVISO","layer":"Airfield surfaces","category":"Runway Border","object_type":"Area","style_id":"polygon.runwayborder.808080","source_group":"LFPZ AVISO","vsmr_group_ids":[],"geometry_role":"filled_region"},"geometry":{"type":"Polygon","coordinates":[[[2.068235,48.812446667],[2.068310278,48.812426667],[2.068316389,48.812436667],[2.068240278,48.812454444],[2.068235,48.812446667]]]}},{"type":"Feature","id":"LFPZ-fe1934777ddcaddb6ced","properties":{"airport":"LFPZ","name":"LFPZ AVISO","layer":"Airfield surfaces","category":"Runway Border","object_type":"Area","style_id":"polygon.runwayborder.808080","source_group":"LFPZ AVISO","vsmr_group_ids":[],"geometry_role":"filled_region"},"geometry":{"type":"Polygon","coordinates":[[[2.070529167,48.811801389],[2.070605833,48.811781389],[2.070606667,48.811789722],[2.070533056,48.811808889],[2.070529167,48.811801389]]]}},{"type":"Feature","id":"LFPZ-d3b0e7ebd5d582389df4","properties":{"airport":"LFPZ","name":"LFPZ AVISO","layer":"Airfield surfaces","category":"Runway Border","object_type":"Area","style_id":"polygon.runwayborder.808080","source_group":"LFPZ AVISO","vsmr_group_ids":[],"geometry_role":"filled_region"},"geometry":{"type":"Polygon","coordinates":[[[2.071416389,48.811673333],[2.071371667,48.811693611],[2.071373889,48.811696667],[2.071426667,48.811690833],[2.071431667,48.811697778],[2.071327222,48.8117125],[2.071323333,48.8117075],[2.07141,48.811665833],[2.071416389,48.811673333]]]}},{"type":"Feature","id":"LFPZ-e54d4da53d4b9f2ea6f5","properties":{"airport":"LFPZ","name":"LFPZ AVISO","layer":"Airfield surfaces","category":"Runway Border","object_type":"Area","style_id":"polygon.runwayborder.808080","source_group":"LFPZ AVISO","vsmr_group_ids":[],"geometry_role":"filled_region"},"geometry":{"type":"Polygon","coordinates":[[[2.071548889,48.81188],[2.071504167,48.811900833],[2.071505833,48.811903889],[2.071560556,48.811896944],[2.071562222,48.811903611],[2.071459444,48.811918333],[2.071457222,48.811913611],[2.0715425,48.811874722],[2.071548889,48.81188]]]}},{"type":"Feature","id":"LFPZ-51b1a826bb9e7c344488","properties":{"airport":"LFPZ","name":"LFPZ AVISO","layer":"Airfield surfaces","category":"Runway Border","object_type":"Area","style_id":"polygon.runwayborder.808080","source_group":"LFPZ AVISO","vsmr_group_ids":[],"geometry_role":"filled_region"},"geometry":{"type":"Polygon","coordinates":[[[2.071684444,48.812087222],[2.071638611,48.812108611],[2.071640833,48.812111389],[2.071693333,48.812105278],[2.071697222,48.81211],[2.071596944,48.812125556],[2.071592778,48.812120833],[2.071678333,48.812081389],[2.071684444,48.812087222]]]}},{"type":"Feature","id":"LFPZ-c3ee19d0dbf903a923ec","properties":{"airport":"LFPZ","name":"LFPZ AVISO","layer":"Airfield surfaces","category":"Runway Border","object_type":"Area","style_id":"polygon.runwayborder.808080","source_group":"LFPZ AVISO","vsmr_group_ids":[],"geometry_role":"filled_region"},"geometry":{"type":"Polygon","coordinates":[[[2.071818611,48.812295556],[2.071773056,48.812314167],[2.071776667,48.812318056],[2.071827222,48.812311944],[2.071830556,48.8123175],[2.071726389,48.812332222],[2.071724167,48.812328611],[2.071812222,48.812288889],[2.071818611,48.812295556]]]}},{"type":"Feature","id":"LFPZ-ee36807a4261f123dc85","properties":{"airport":"LFPZ","name":"LFPZ AVISO","layer":"Airfield surfaces","category":"Runway Border","object_type":"Area","style_id":"polygon.runwayborder.808080","source_group":"LFPZ AVISO","vsmr_group_ids":[],"geometry_role":"filled_region"},"geometry":{"type":"Polygon","coordinates":[[[2.065255,48.813419167],[2.065176944,48.813456111],[2.065173611,48.813450278],[2.065208889,48.813434444],[2.065206389,48.813429444],[2.065156111,48.813435833],[2.065151944,48.813430278],[2.065255,48.813419167]]]}},{"type":"Feature","id":"LFPZ-13276b84f1d78b59587d","properties":{"airport":"LFPZ","name":"LFPZ AVISO","layer":"Airfield surfaces","category":"Runway Border","object_type":"Area","style_id":"polygon.runwayborder.808080","source_group":"LFPZ AVISO","vsmr_group_ids":[],"geometry_role":"filled_region"},"geometry":{"type":"Polygon","coordinates":[[[2.065385556,48.813623889],[2.065386389,48.813626111],[2.065299167,48.813667778],[2.065294167,48.813661667],[2.065341389,48.813640556],[2.065338611,48.813636667],[2.065283611,48.813643611],[2.06528,48.813638056],[2.065385556,48.813623889]]]}},{"type":"Feature","id":"LFPZ-7ea7ead014c9487df0a0","properties":{"airport":"LFPZ","name":"LFPZ AVISO","layer":"Airfield surfaces","category":"Runway Border","object_type":"Area","style_id":"polygon.runwayborder.808080","source_group":"LFPZ AVISO","vsmr_group_ids":[],"geometry_role":"filled_region"},"geometry":{"type":"Polygon","coordinates":[[[2.065415,48.813845],[2.065518056,48.813829722],[2.065521111,48.813832778],[2.065433611,48.813872778],[2.065430833,48.813868333],[2.065473611,48.813848056],[2.065468333,48.8138425],[2.065418333,48.813850833],[2.065415,48.813845]]]}},{"type":"Feature","id":"LFPZ-89dc9622a174b9185da4","properties":{"airport":"LFPZ","name":"LFPZ AVISO","layer":"Airfield surfaces","category":"Runway Border","object_type":"Area","style_id":"polygon.runwayborder.808080","source_group":"LFPZ AVISO","vsmr_group_ids":[],"geometry_role":"filled_region"},"geometry":{"type":"Polygon","coordinates":[[[2.065546111,48.814051667],[2.065646944,48.814040278],[2.065648333,48.8140425],[2.065564722,48.814079722],[2.0655625,48.814075],[2.065608333,48.814055278],[2.065602222,48.814048333],[2.065548611,48.814057778],[2.065546111,48.814051667]]]}},{"type":"Feature","id":"LFPZ-fd5bad23363a0e6a56a9","properties":{"airport":"LFPZ","name":"LFPZ AVISO","layer":"Surface markings","category":"Stopbars","object_type":"Area","style_id":"polygon.stopbar.7e0000","source_group":"LFPZ AVISO","vsmr_group_ids":[],"geometry_role":"filled_region"},"geometry":{"type":"Polygon","coordinates":[[[2.073553889,48.809711667],[2.073460833,48.809722778],[2.073457222,48.809707778],[2.073549722,48.8096975],[2.073553889,48.809711667]]]}},{"type":"Feature","id":"LFPZ-b4e2b72b065c2103253f","properties":{"airport":"LFPZ","name":"LFPZ AVISO","layer":"Surface markings","category":"Stopbars","object_type":"Area","style_id":"polygon.stopbar.7e0000","source_group":"LFPZ AVISO","vsmr_group_ids":[],"geometry_role":"filled_region"},"geometry":{"type":"Polygon","coordinates":[[[2.073790833,48.810697222],[2.07379,48.810683889],[2.073881111,48.810685556],[2.073878889,48.810700556],[2.073790833,48.810697222]]]}},{"type":"Feature","id":"LFPZ-092e9dad31f85908bbc1","properties":{"airport":"LFPZ","name":"LFPZ AVISO","layer":"Airfield surfaces","category":"Apron Surface","object_type":"Area","style_id":"polygon.apronsurface.808080","source_group":"LFPZ AVISO","vsmr_group_ids":[],"geometry_role":"filled_region"},"geometry":{"type":"Polygon","coordinates":[[[2.06881,48.810605833],[2.068746111,48.810635833],[2.068554167,48.810593611],[2.068458333,48.810501111],[2.068530833,48.810467778],[2.068565556,48.810481667],[2.068696111,48.810421667],[2.068771944,48.810488333],[2.0690775,48.810345556],[2.068806389,48.810082222],[2.068893611,48.810049444],[2.068934444,48.810088611],[2.069044167,48.810053333],[2.069061667,48.810003056],[2.069214444,48.809930556],[2.0691575,48.809884722],[2.070923056,48.809043056],[2.071413333,48.809460556],[2.0709875,48.809670556],[2.070973889,48.809665556],[2.069393333,48.8104575],[2.068900278,48.810694722],[2.06881,48.810605833]]]}},{"type":"Feature","id":"LFPZ-8bb478485396f28f4cff","properties":{"airport":"LFPZ","name":"LFPZ AVISO","layer":"Airfield surfaces","category":"Hard Surface 3","object_type":"Area","style_id":"polygon.hardsurface3.8a807f","source_group":"LFPZ AVISO","vsmr_group_ids":[],"geometry_role":"filled_region"},"geometry":{"type":"Polygon","coordinates":[[[2.071986111,48.808882222],[2.072068333,48.808963611],[2.072117222,48.809004722],[2.072123889,48.809013889],[2.071802222,48.809175],[2.071708056,48.809107222],[2.071633056,48.809035833],[2.071613333,48.809019167],[2.071505,48.808916389],[2.071481389,48.808886944],[2.071655833,48.808806111],[2.071827222,48.808745],[2.071865,48.808776389],[2.071986111,48.808882222]]]}},{"type":"Feature","id":"LFPZ-260f00e5e47b7dcabbe2","properties":{"airport":"LFPZ","name":"LFPZ AVISO","layer":"Airfield surfaces","category":"Hard Surface 3","object_type":"Area","style_id":"polygon.hardsurface3.8a807f","source_group":"LFPZ AVISO","vsmr_group_ids":[],"geometry_role":"filled_region"},"geometry":{"type":"Polygon","coordinates":[[[2.072576944,48.808783056],[2.072363889,48.8088875],[2.072263889,48.808934167],[2.072259167,48.808923611],[2.072246667,48.808926944],[2.072213056,48.808892778],[2.07219,48.808865],[2.072172778,48.808834722],[2.072169167,48.808812778],[2.072139167,48.808790556],[2.072115,48.808765278],[2.072071389,48.808723889],[2.072021667,48.808685833],[2.071985556,48.808664722],[2.072220278,48.8085475],[2.072946111,48.808209722],[2.073213889,48.808096389],[2.073487778,48.808343333],[2.073420833,48.808377222],[2.073273333,48.808249167],[2.073258889,48.8082375],[2.073236389,48.808235278],[2.073212222,48.808235278],[2.073189444,48.808240833],[2.073015833,48.808339722],[2.073041944,48.808360278],[2.073033889,48.808373333],[2.073030833,48.808390556],[2.073073611,48.808440833],[2.073126667,48.808489167],[2.073133333,48.8085025],[2.073134444,48.808508611],[2.072842778,48.808654444],[2.072672222,48.808505833],[2.072423056,48.808631111],[2.072576944,48.808783056]]]}},{"type":"Feature","id":"LFPZ-ef44408a71f5fc4061a1","properties":{"airport":"LFPZ","name":"LFPZ AVISO","layer":"Airfield surfaces","category":"Runway Border","object_type":"Area","style_id":"polygon.runwayborder.808080","source_group":"LFPZ AVISO","vsmr_group_ids":[],"geometry_role":"filled_region"},"geometry":{"type":"Polygon","coordinates":[[[2.066166389,48.814993611],[2.066280278,48.814962222],[2.066295,48.814981667],[2.066284444,48.814988056],[2.0662725,48.814976111],[2.066171667,48.8150025],[2.066166389,48.814993611]]]}},{"type":"Feature","id":"LFPZ-ddd5134a66cb5a0e0dd0","properties":{"airport":"LFPZ","name":"LFPZ AVISO","layer":"Airfield surfaces","category":"Runway Border","object_type":"Area","style_id":"polygon.runwayborder.808080","source_group":"LFPZ AVISO","vsmr_group_ids":[],"geometry_role":"filled_region"},"geometry":{"type":"Polygon","coordinates":[[[2.066335556,48.81505],[2.066346944,48.815069722],[2.066235278,48.815101389],[2.066233056,48.815094167],[2.066330556,48.815065278],[2.066324444,48.815053333],[2.066335556,48.81505]]]}},{"type":"Feature","id":"LFPZ-34baafab6a2b8a244d50","properties":{"airport":"LFPZ","name":"LFPZ AVISO","layer":"Airfield surfaces","category":"Runway Border","object_type":"Area","style_id":"polygon.runwayborder.808080","source_group":"LFPZ AVISO","vsmr_group_ids":[],"geometry_role":"filled_region"},"geometry":{"type":"Polygon","coordinates":[[[2.064518056,48.815468333],[2.0644175,48.815496111],[2.064424167,48.815505833],[2.064410556,48.81551],[2.064397778,48.815489722],[2.064511111,48.8154575],[2.064518056,48.815468333]]]}},{"type":"Feature","id":"LFPZ-acc250c9183a9fa02bc9","properties":{"airport":"LFPZ","name":"LFPZ AVISO","layer":"Airfield surfaces","category":"Runway Border","object_type":"Area","style_id":"polygon.runwayborder.808080","source_group":"LFPZ AVISO","vsmr_group_ids":[],"geometry_role":"filled_region"},"geometry":{"type":"Polygon","coordinates":[[[2.064469167,48.8155725],[2.064475833,48.815585833],[2.064575833,48.815558056],[2.064581944,48.815566667],[2.064467778,48.815597778],[2.064455,48.815576389],[2.064469167,48.8155725]]]}},{"type":"Feature","id":"LFPZ-6d004356d389f8700f23","properties":{"airport":"LFPZ","name":"LFPZ AVISO","layer":"Airfield surfaces","category":"Runway Border","object_type":"Area","style_id":"polygon.runwayborder.808080","source_group":"LFPZ AVISO","vsmr_group_ids":[],"geometry_role":"filled_region"},"geometry":{"type":"Polygon","coordinates":[[[2.066309167,48.815004444],[2.066320833,48.815027222],[2.066308889,48.815031944],[2.066295833,48.8150075],[2.066309167,48.815004444]]]}},{"type":"Feature","id":"LFPZ-d971387043d6db7e2c39","properties":{"airport":"LFPZ","name":"LFPZ AVISO","layer":"Airfield surfaces","category":"Runway Border","object_type":"Area","style_id":"polygon.runwayborder.808080","source_group":"LFPZ AVISO","vsmr_group_ids":[],"geometry_role":"filled_region"},"geometry":{"type":"Polygon","coordinates":[[[2.065697778,48.815136111],[2.065585556,48.815167222],[2.065579722,48.815158056],[2.065692222,48.815126944],[2.065697778,48.815136111]]]}},{"type":"Feature","id":"LFPZ-98fd5dd2567144aab6ae","properties":{"airport":"LFPZ","name":"LFPZ AVISO","layer":"Airfield surfaces","category":"Runway Border","object_type":"Area","style_id":"polygon.runwayborder.808080","source_group":"LFPZ AVISO","vsmr_group_ids":[],"geometry_role":"filled_region"},"geometry":{"type":"Polygon","coordinates":[[[2.065641944,48.815258333],[2.065755556,48.815226944],[2.065761111,48.815236111],[2.065648333,48.815266667],[2.065641944,48.815258333]]]}},{"type":"Feature","id":"LFPZ-dfc67d5127ad373d72d8","properties":{"airport":"LFPZ","name":"LFPZ AVISO","layer":"Airfield surfaces","category":"Runway Border","object_type":"Area","style_id":"polygon.runwayborder.808080","source_group":"LFPZ AVISO","vsmr_group_ids":[],"geometry_role":"filled_region"},"geometry":{"type":"Polygon","coordinates":[[[2.065108056,48.815304167],[2.064996389,48.815334722],[2.064992222,48.815323889],[2.065104444,48.815291944],[2.065108056,48.815304167]]]}},{"type":"Feature","id":"LFPZ-5c911b0f54f3321cec7a","properties":{"airport":"LFPZ","name":"LFPZ AVISO","layer":"Airfield surfaces","category":"Runway Border","object_type":"Area","style_id":"polygon.runwayborder.808080","source_group":"LFPZ AVISO","vsmr_group_ids":[],"geometry_role":"filled_region"},"geometry":{"type":"Polygon","coordinates":[[[2.065056389,48.815424722],[2.065165833,48.815393056],[2.065171944,48.815401667],[2.065059167,48.815431667],[2.065056389,48.815424722]]]}},{"type":"Feature","id":"LFPZ-93b09996f9a4266369f1","properties":{"airport":"LFPZ","name":"LFPZ AVISO","layer":"Airfield surfaces","category":"Runway Border","object_type":"Area","style_id":"polygon.runwayborder.808080","source_group":"LFPZ AVISO","vsmr_group_ids":[],"geometry_role":"filled_region"},"geometry":{"type":"Polygon","coordinates":[[[2.064440278,48.815528889],[2.064451111,48.815551389],[2.064439722,48.815553056],[2.0644275,48.815532222],[2.064440278,48.815528889]]]}},{"type":"Feature","id":"LFPZ-a02b493ea84add51c220","properties":{"airport":"LFPZ","name":"LFPZ AVISO","layer":"Airfield surfaces","category":"Runway Border","object_type":"Area","style_id":"polygon.runwayborder.808080","source_group":"LFPZ AVISO","vsmr_group_ids":[],"geometry_role":"filled_region"},"geometry":{"type":"Polygon","coordinates":[[[2.065426389,48.815253056],[2.06538,48.815265833],[2.065395278,48.815288889],[2.065441111,48.815276389],[2.065448333,48.815286944],[2.065391667,48.815303056],[2.065366111,48.815256944],[2.06542,48.815241389],[2.065426389,48.815253056]]]}},{"type":"Feature","id":"LFPZ-37309aae66013e97dd64","properties":{"airport":"LFPZ","name":"LFPZ AVISO","layer":"Airfield surfaces","category":"Runway Border","object_type":"Area","style_id":"polygon.runwayborder.808080","source_group":"LFPZ AVISO","vsmr_group_ids":[],"geometry_role":"filled_region"},"geometry":{"type":"Polygon","coordinates":[[[2.065366944,48.815256944],[2.065394722,48.815302222],[2.065335833,48.815319167],[2.065328889,48.815308889],[2.065378611,48.815294722],[2.065363056,48.815270556],[2.065313889,48.815284722],[2.0653075,48.815273333],[2.065366944,48.815256944]]]}},{"type":"Feature","id":"LFPZ-da178eec1ca030258106","properties":{"airport":"LFPZ","name":"LFPZ AVISO","layer":"Airfield surfaces","category":"Runway Border","object_type":"Area","style_id":"polygon.runwayborder.808080","source_group":"LFPZ AVISO","vsmr_group_ids":[],"geometry_role":"filled_region"},"geometry":{"type":"Polygon","coordinates":[[[2.065467778,48.815304722],[2.065441389,48.815261389],[2.065446389,48.815259444],[2.065478056,48.815306944],[2.065336667,48.815346944],[2.065306111,48.815298333],[2.0653125,48.815296667],[2.065340833,48.81534],[2.065467778,48.815304722]]]}},{"type":"Feature","id":"LFPZ-992a459e2191e4676b58","properties":{"airport":"LFPZ","name":"LFPZ AVISO","layer":"Airfield surfaces","category":"Runway Border","object_type":"Area","style_id":"polygon.runwayborder.808080","source_group":"LFPZ AVISO","vsmr_group_ids":[],"geometry_role":"filled_region"},"geometry":{"type":"Polygon","coordinates":[[[2.065418056,48.815214444],[2.065446389,48.815259444],[2.065441667,48.815261667],[2.065415,48.815218333],[2.065286111,48.815255556],[2.065313056,48.815297222],[2.065306667,48.815298611],[2.065277778,48.815253889],[2.065418056,48.815214444]]]}},{"type":"Feature","id":"LFPZ-bd0d66d9379116615ea6","properties":{"airport":"LFPZ","name":"LFPZ AVISO","layer":"Airfield surfaces","category":"Hard Surface 3","object_type":"Area","style_id":"polygon.hardsurface3.8a807f","source_group":"LFPZ AVISO","vsmr_group_ids":[],"geometry_role":"filled_region"},"geometry":{"type":"Polygon","coordinates":[[[2.065285833,48.815255278],[2.065415556,48.815217778],[2.065468056,48.815305],[2.065340278,48.815340278],[2.065285833,48.815255278]]]}},{"type":"Feature","id":"LFPZ-84d93fde4d64262d1b03","properties":{"airport":"LFPZ","name":"E2","layer":"Labels","category":"Taxiways","object_type":"Label","style_id":"label.taxiways","source_group":"LFPZ Taxiways","vsmr_group_ids":[],"geometry_role":"text_label","text-field":"E2"},"geometry":{"type":"Point","coordinates":[2.075288889,48.807244444]}},{"type":"Feature","id":"LFPZ-fba7421ac341fba3bb25","properties":{"airport":"LFPZ","name":"E1","layer":"Labels","category":"Taxiways","object_type":"Label","style_id":"label.taxiways","source_group":"LFPZ Taxiways","vsmr_group_ids":[],"geometry_role":"text_label","text-field":"E1"},"geometry":{"type":"Point","coordinates":[2.073633889,48.808333889]}},{"type":"Feature","id":"LFPZ-ae2cca3d340560e13345","properties":{"airport":"LFPZ","name":"G","layer":"Labels","category":"Taxiways","object_type":"Label","style_id":"label.taxiways","source_group":"LFPZ Taxiways","vsmr_group_ids":[],"geometry_role":"text_label","text-field":"G"},"geometry":{"type":"Point","coordinates":[2.07251,48.808900833]}},{"type":"Feature","id":"LFPZ-fe0e3afd390ebbc91eeb","properties":{"airport":"LFPZ","name":"F","layer":"Labels","category":"Taxiways","object_type":"Label","style_id":"label.taxiways","source_group":"LFPZ Taxiways","vsmr_group_ids":[],"geometry_role":"text_label","text-field":"F"},"geometry":{"type":"Point","coordinates":[2.068626111,48.809739444]}},{"type":"Feature","id":"LFPZ-df44abe5802e6e782df7","properties":{"airport":"LFPZ","name":"K7","layer":"Labels","category":"Taxiways","object_type":"Label","style_id":"label.taxiways","source_group":"LFPZ Taxiways","vsmr_group_ids":[],"geometry_role":"text_label","text-field":"K7"},"geometry":{"type":"Point","coordinates":[2.066135,48.810844167]}},{"type":"Feature","id":"LFPZ-576beceea5d2e3167283","properties":{"airport":"LFPZ","name":"K5","layer":"Labels","category":"Taxiways","object_type":"Label","style_id":"label.taxiways","source_group":"LFPZ Taxiways","vsmr_group_ids":[],"geometry_role":"text_label","text-field":"K5"},"geometry":{"type":"Point","coordinates":[2.065015,48.811128611]}},{"type":"Feature","id":"LFPZ-d20a4427fb3a90b95f70","properties":{"airport":"LFPZ","name":"K3","layer":"Labels","category":"Taxiways","object_type":"Label","style_id":"label.taxiways","source_group":"LFPZ Taxiways","vsmr_group_ids":[],"geometry_role":"text_label","text-field":"K3"},"geometry":{"type":"Point","coordinates":[2.062781667,48.811947222]}},{"type":"Feature","id":"LFPZ-04841e28d828ca4d42ea","properties":{"airport":"LFPZ","name":"K4","layer":"Labels","category":"Taxiways","object_type":"Label","style_id":"label.taxiways","source_group":"LFPZ Taxiways","vsmr_group_ids":[],"geometry_role":"text_label","text-field":"K4"},"geometry":{"type":"Point","coordinates":[2.0644475,48.811682222]}},{"type":"Feature","id":"LFPZ-c7d91d5447c82d9bf0e4","properties":{"airport":"LFPZ","name":"B","layer":"Labels","category":"Taxiways","object_type":"Label","style_id":"label.taxiways","source_group":"LFPZ Taxiways","vsmr_group_ids":[],"geometry_role":"text_label","text-field":"B"},"geometry":{"type":"Point","coordinates":[2.073889722,48.81001]}},{"type":"Feature","id":"LFPZ-b5fc5cf50b5f339baec1","properties":{"airport":"LFPZ","name":"A","layer":"Labels","category":"Taxiways","object_type":"Label","style_id":"label.taxiways","source_group":"LFPZ Taxiways","vsmr_group_ids":[],"geometry_role":"text_label","text-field":"A"},"geometry":{"type":"Point","coordinates":[2.073346389,48.809463056]}},{"type":"Feature","id":"LFPZ-fac567f52043cd361c49","properties":{"airport":"LFPZ","name":"C","layer":"Labels","category":"Taxiways","object_type":"Label","style_id":"label.taxiways","source_group":"LFPZ Taxiways","vsmr_group_ids":[],"geometry_role":"text_label","text-field":"C"},"geometry":{"type":"Point","coordinates":[2.0664125,48.812780278]}},{"type":"Feature","id":"LFPZ-d9cce08af472b513f18f","properties":{"airport":"LFPZ","name":"D","layer":"Labels","category":"Taxiways","object_type":"Label","style_id":"label.taxiways","source_group":"LFPZ Taxiways","vsmr_group_ids":[],"geometry_role":"text_label","text-field":"D"},"geometry":{"type":"Point","coordinates":[2.0658525,48.811683889]}},{"type":"Feature","id":"LFPZ-5dc622863e6e2dbc6958","properties":{"airport":"LFPZ","name":"C5","layer":"Labels","category":"Taxiways","object_type":"Label","style_id":"label.taxiways","source_group":"LFPZ Taxiways","vsmr_group_ids":[],"geometry_role":"text_label","text-field":"C5"},"geometry":{"type":"Point","coordinates":[2.073079444,48.810582222]}},{"type":"Feature","id":"LFPZ-f82a1816943c27892335","properties":{"airport":"LFPZ","name":"C4","layer":"Labels","category":"Taxiways","object_type":"Label","style_id":"label.taxiways","source_group":"LFPZ Taxiways","vsmr_group_ids":[],"geometry_role":"text_label","text-field":"C4"},"geometry":{"type":"Point","coordinates":[2.069742222,48.811680556]}},{"type":"Feature","id":"LFPZ-5a0599601e8bb2c5140a","properties":{"airport":"LFPZ","name":"C3","layer":"Labels","category":"Taxiways","object_type":"Label","style_id":"label.taxiways","source_group":"LFPZ Taxiways","vsmr_group_ids":[],"geometry_role":"text_label","text-field":"C3"},"geometry":{"type":"Point","coordinates":[2.067793889,48.812238333]}},{"type":"Feature","id":"LFPZ-acbb1d289e8b358561d8","properties":{"airport":"LFPZ","name":"C2","layer":"Labels","category":"Taxiways","object_type":"Label","style_id":"label.taxiways","source_group":"LFPZ Taxiways","vsmr_group_ids":[],"geometry_role":"text_label","text-field":"C2"},"geometry":{"type":"Point","coordinates":[2.065278611,48.810284167]}},{"type":"Feature","id":"LFPZ-7de9c50975ae6ced1d11","properties":{"airport":"LFPZ","name":"D4","layer":"Labels","category":"Taxiways","object_type":"Label","style_id":"label.taxiways","source_group":"LFPZ Taxiways","vsmr_group_ids":[],"geometry_role":"text_label","text-field":"D4"},"geometry":{"type":"Point","coordinates":[2.0691925,48.810858889]}},{"type":"Feature","id":"LFPZ-0cecb1d25463e087fcb9","properties":{"airport":"LFPZ","name":"D3","layer":"Labels","category":"Taxiways","object_type":"Label","style_id":"label.taxiways","source_group":"LFPZ Taxiways","vsmr_group_ids":[],"geometry_role":"text_label","text-field":"D3"},"geometry":{"type":"Point","coordinates":[2.067501389,48.811410556]}},{"type":"Feature","id":"LFPZ-607eb7b16a9660aa8ebc","properties":{"airport":"LFPZ","name":"D2","layer":"Labels","category":"Taxiways","object_type":"Label","style_id":"label.taxiways","source_group":"LFPZ Taxiways","vsmr_group_ids":[],"geometry_role":"text_label","text-field":"D2"},"geometry":{"type":"Point","coordinates":[2.064731111,48.812234167]}},{"type":"Feature","id":"LFPZ-8c7f2a0292f471aca757","properties":{"airport":"LFPZ","name":"D1","layer":"Labels","category":"Taxiways","object_type":"Label","style_id":"label.taxiways","source_group":"LFPZ Taxiways","vsmr_group_ids":[],"geometry_role":"text_label","text-field":"D1"},"geometry":{"type":"Point","coordinates":[2.062223611,48.812793889]}},{"type":"Feature","id":"LFPZ-944e195bedf9998f45e5","properties":{"airport":"LFPZ","name":"C1","layer":"Labels","category":"Taxiways","object_type":"Label","style_id":"label.taxiways","source_group":"LFPZ Taxiways","vsmr_group_ids":[],"geometry_role":"text_label","text-field":"C1"},"geometry":{"type":"Point","coordinates":[2.079451389,48.813635556]}},{"type":"Feature","id":"LFPZ-32048804cdd4eed51380","properties":{"airport":"LFPZ","name":"K2","layer":"Labels","category":"Taxiways","object_type":"Label","style_id":"label.taxiways","source_group":"LFPZ Taxiways","vsmr_group_ids":[],"geometry_role":"text_label","text-field":"K2"},"geometry":{"type":"Point","coordinates":[2.065838056,48.814471111]}},{"type":"Feature","id":"LFPZ-b3d1ed0385f2cd960e1b","properties":{"airport":"LFPZ","name":"K1","layer":"Labels","category":"Taxiways","object_type":"Label","style_id":"label.taxiways","source_group":"LFPZ Taxiways","vsmr_group_ids":[],"geometry_role":"text_label","text-field":"K1"},"geometry":{"type":"Point","coordinates":[2.064173889,48.8150125]}}]}
