{"type":"FeatureCollection","name":"LFQB AVISO","bbox":[4.007694444,48.315583333,4.019861111,48.329694444],"metadata":{"schema":"vSMR AVISO","schema_version":2,"geometry_mode":"shared","airport":"LFQB","coordinate_reference_system":"WGS84","coordinate_order":"longitude, latitude","default_color_palette":"dark","color_palettes":["dark","light"],"background_colors":{"dark":"#434A4F","light":"#434A4F"},"runways":[{"ends":["17R","35L"],"headings":[172,352],"thresholds":[[4.012332778,48.325580833],[4.013652778,48.317538889]]},{"ends":["17","35"],"headings":[172,352],"thresholds":[[4.015327778,48.329491944],[4.017585833,48.315752778]]},{"ends":["05","23"],"headings":[50,230],"thresholds":[[4.008738889,48.317463889],[4.015618889,48.321075]]}],"saved_active_runways":[],"saved_active_airport_modes":[],"airport_reference":[4.016666944,48.321666944],"feature_count":2,"style_count":2,"layer_counts":{"Guidance lines":2},"category_counts":{"Grass runways":1,"Runways":1},"geometry_source":"local GNG/KMZ","geometry_source_url":"","geometry_license":"GPL-3.0"},"styles":{"line.runwayconcrete.555555":{"name":"Runways","layer":"Guidance lines","object_type":"Line","paint":{"stroke":"#111318","stroke-opacity":1,"stroke-width":1,"palette-overrides":{"light":{"stroke":"#555555"}}},"feature_count":1},"line.runwaygrass.008000":{"name":"Grass runways","layer":"Guidance lines","object_type":"Line","paint":{"stroke":"#859A77","stroke-opacity":1,"stroke-width":1,"palette-overrides":{"light":{"stroke":"#008000"}}},"feature_count":1}},"vsmr_groups":[],"features":[{"type":"Feature","id":"LFQB-ef838d7bf434cddae48d","properties":{"airport":"LFQB","name":"LFQB Groundlayout","layer":"Guidance lines","category":"Runways","object_type":"Line","style_id":"line.runwayconcrete.555555","source_group":"LFQB Groundlayout","vsmr_group_ids":[],"geometry_role":"linework"},"geometry":{"type":"MultiLineString","coordinates":[[[4.010333333,48.324416667],[4.011638889,48.316305556]],[[4.014861111,48.324805556],[4.010333333,48.324416667]],[[4.016166667,48.316694444],[4.011638889,48.316305556]]]}},{"type":"Feature","id":"LFQB-64485e3fee2e36afeff3","properties":{"airport":"LFQB","name":"LFQB Groundlayout","layer":"Guidance lines","category":"Grass runways","object_type":"Line","style_id":"line.runwaygrass.008000","source_group":"LFQB Groundlayout","vsmr_group_ids":[],"geometry_role":"linework"},"geometry":{"type":"MultiLineString","coordinates":[[[4.007694444,48.318944444],[4.014583333,48.322555556]],[[4.010305556,48.31625],[4.017222222,48.319833333]],[[4.007694444,48.318944444],[4.010305556,48.31625]],[[4.014583333,48.322555556],[4.017222222,48.319833333]],[[4.017555556,48.329694444],[4.019861111,48.316]],[[4.013055556,48.329305556],[4.015333333,48.315583333]],[[4.017555556,48.329694444],[4.013055556,48.329305556]],[[4.019861111,48.316],[4.015333333,48.315583333]]]}}]}
