{"type":"FeatureCollection","name":"LFQE AVISO","bbox":[5.666194444,49.215972222,5.676083333,49.231916667],"metadata":{"schema":"vSMR AVISO","schema_version":2,"geometry_mode":"shared","airport":"LFQE","coordinate_reference_system":"WGS84","coordinate_order":"longitude, latitude","default_color_palette":"dark","color_palettes":["dark","light"],"background_colors":{"dark":"#434A4F","light":"#434A4F"},"runways":[{"ends":["01","19"],"headings":[11,191],"thresholds":[[5.668355833,49.216425],[5.673893889,49.231468889]]}],"saved_active_runways":[],"saved_active_airport_modes":[],"airport_reference":[5.676110833,49.229166944],"feature_count":2,"style_count":2,"layer_counts":{"Guidance lines":2},"category_counts":{"Grass runways":1,"Runways":1},"geometry_source":"local GNG","geometry_source_url":"","geometry_license":"GPL-3.0"},"styles":{"line.runwayconcrete.555555":{"name":"Runways","layer":"Guidance lines","object_type":"Line","paint":{"stroke":"#111318","stroke-opacity":1,"stroke-width":1,"palette-overrides":{"light":{"stroke":"#555555"}}},"feature_count":1},"line.runwaygrass.008000":{"name":"Grass runways","layer":"Guidance lines","object_type":"Line","paint":{"stroke":"#859A77","stroke-opacity":1,"stroke-width":1,"palette-overrides":{"light":{"stroke":"#008000"}}},"feature_count":1}},"vsmr_groups":[],"features":[{"type":"Feature","id":"LFQE-4eee160ef9385e5cb306","properties":{"airport":"LFQE","name":"LFQE Groundlayout","layer":"Guidance lines","category":"Runways","object_type":"Line","style_id":"line.runwayconcrete.555555","source_group":"LFQE Groundlayout","vsmr_group_ids":[],"geometry_role":"linework"},"geometry":{"type":"MultiLineString","coordinates":[[[5.670583333,49.215972222],[5.676083333,49.231083333]],[[5.666194444,49.216833333],[5.670583333,49.215972222]],[[5.671694444,49.231916667],[5.676083333,49.231083333]]]}},{"type":"Feature","id":"LFQE-e6834c91d10ecd692fd3","properties":{"airport":"LFQE","name":"LFQE Groundlayout","layer":"Guidance lines","category":"Grass runways","object_type":"Line","style_id":"line.runwaygrass.008000","source_group":"LFQE Groundlayout","vsmr_group_ids":[],"geometry_role":"linework"},"geometry":{"type":"MultiLineString","coordinates":[[[5.676083333,49.231083333],[5.670583333,49.215972222]],[[5.671694444,49.231916667],[5.666194444,49.216833333]],[[5.676083333,49.231083333],[5.671694444,49.231916667]],[[5.670583333,49.215972222],[5.666194444,49.216833333]]]}}]}
