{"type":"FeatureCollection","name":"LFQF AVISO","bbox":[4.264043056,46.971084722,4.264894444,46.972210833],"metadata":{"schema":"vSMR AVISO","schema_version":2,"geometry_mode":"shared","airport":"LFQF","coordinate_reference_system":"WGS84","coordinate_order":"longitude, latitude","default_color_palette":"dark","color_palettes":["dark","light"],"background_colors":{"dark":"#434A4F","light":"#434A4F"},"runways":[],"saved_active_runways":[],"saved_active_airport_modes":[],"airport_reference":[4.261110833,46.971110833],"feature_count":3,"style_count":1,"layer_counts":{"Labels":3},"category_counts":{"Gates":3},"geometry_source":"local GNG/KMZ","geometry_source_url":"","geometry_license":"GPL-3.0"},"styles":{"label.gates":{"name":"Gates","layer":"Labels","object_type":"Label","paint":{"text-color":"#CCCCCC","text-font":"Arial","text-size":12,"text-halo-color":"#000000","text-halo-width":1,"text-anchor":"center","zoomLevel":9},"feature_count":3}},"vsmr_groups":[],"features":[{"type":"Feature","id":"LFQF-de060da7446f69075d46","properties":{"airport":"LFQF","name":"ACB","layer":"Labels","category":"Gates","object_type":"Label","style_id":"label.gates","source_group":"LFQF Gates","vsmr_group_ids":[],"geometry_role":"text_label","text-field":"ACB"},"geometry":{"type":"Point","coordinates":[4.264043056,46.972210833]}},{"type":"Feature","id":"LFQF-158c506709cfe41992e5","properties":{"airport":"LFQF","name":"Hangars","layer":"Labels","category":"Gates","object_type":"Label","style_id":"label.gates","source_group":"LFQF Gates","vsmr_group_ids":[],"geometry_role":"text_label","text-field":"Hangars"},"geometry":{"type":"Point","coordinates":[4.264894444,46.971921944]}},{"type":"Feature","id":"LFQF-9bb01157751270b22999","properties":{"airport":"LFQF","name":"H","layer":"Labels","category":"Gates","object_type":"Label","style_id":"label.gates","source_group":"LFQF Gates","vsmr_group_ids":[],"geometry_role":"text_label","text-field":"H"},"geometry":{"type":"Point","coordinates":[4.264086667,46.971084722]}}]}
