{"type":"FeatureCollection","name":"LFQM AVISO","bbox":[6.077916667,47.203222222,6.0915,47.211555556],"metadata":{"schema":"vSMR AVISO","schema_version":2,"geometry_mode":"shared","airport":"LFQM","coordinate_reference_system":"WGS84","coordinate_order":"longitude, latitude","default_color_palette":"dark","color_palettes":["dark","light"],"background_colors":{"dark":"#434A4F","light":"#434A4F"},"runways":[{"ends":["05","23"],"headings":[51,231],"thresholds":[[6.079246944,47.204643889],[6.090221944,47.210225]]}],"saved_active_runways":[],"saved_active_airport_modes":[],"airport_reference":[6.080555833,47.205277778],"feature_count":1,"style_count":1,"layer_counts":{"Guidance lines":1},"category_counts":{"Runways":1},"geometry_source":"local GNG/KMZ","geometry_source_url":"","geometry_license":"GPL-3.0"},"styles":{"line.runwayconcrete.555555":{"name":"Runways","layer":"Guidance lines","object_type":"Line","paint":{"stroke":"#111318","stroke-opacity":1,"stroke-width":1,"palette-overrides":{"light":{"stroke":"#555555"}}},"feature_count":1}},"vsmr_groups":[],"features":[{"type":"Feature","id":"LFQM-d6088ca2667de6c9d4c2","properties":{"airport":"LFQM","name":"LFQM Groundlayout","layer":"Guidance lines","category":"Runways","object_type":"Line","style_id":"line.runwayconcrete.555555","source_group":"LFQM Groundlayout","vsmr_group_ids":[],"geometry_role":"linework"},"geometry":{"type":"MultiLineString","coordinates":[[[6.0805,47.203222222],[6.0915,47.208833333]],[[6.077916667,47.205972222],[6.0805,47.203222222]],[[6.088916667,47.211555556],[6.0915,47.208833333]]]}}]}
