{"type":"FeatureCollection","name":"LFQP AVISO","bbox":[7.198166667,48.76425,7.214222222,48.772944444],"metadata":{"schema":"vSMR AVISO","schema_version":2,"geometry_mode":"shared","airport":"LFQP","coordinate_reference_system":"WGS84","coordinate_order":"longitude, latitude","default_color_palette":"dark","color_palettes":["dark","light"],"background_colors":{"dark":"#434A4F","light":"#434A4F"},"runways":[{"ends":["06","24"],"headings":[55,235],"thresholds":[[7.199335833,48.765691944],[7.213113889,48.771541944]]}],"saved_active_runways":[],"saved_active_airport_modes":[],"airport_reference":[7.205,48.768055833],"feature_count":1,"style_count":1,"layer_counts":{"Guidance lines":1},"category_counts":{"Runways":1},"geometry_source":"local GNG/KMZ","geometry_source_url":"","geometry_license":"GPL-3.0"},"styles":{"line.runwayconcrete.555555":{"name":"Runways","layer":"Guidance lines","object_type":"Line","paint":{"stroke":"#111318","stroke-opacity":1,"stroke-width":1,"palette-overrides":{"light":{"stroke":"#555555"}}},"feature_count":1}},"vsmr_groups":[],"features":[{"type":"Feature","id":"LFQP-e5b938626692d1e34acb","properties":{"airport":"LFQP","name":"LFQP Groundlayout","layer":"Guidance lines","category":"Runways","object_type":"Line","style_id":"line.runwayconcrete.555555","source_group":"LFQP Groundlayout","vsmr_group_ids":[],"geometry_role":"linework"},"geometry":{"type":"MultiLineString","coordinates":[[[7.200416667,48.76425],[7.214222222,48.770055556]],[[7.198166667,48.767138889],[7.200416667,48.76425]],[[7.211972222,48.772944444],[7.214222222,48.770055556]]]}}]}
