{"type":"FeatureCollection","name":"LFQT AVISO","bbox":[2.6295,50.607666667,2.657888889,50.630027778],"metadata":{"schema":"vSMR AVISO","schema_version":2,"geometry_mode":"shared","airport":"LFQT","coordinate_reference_system":"WGS84","coordinate_order":"longitude, latitude","default_color_palette":"dark","color_palettes":["dark","light"],"background_colors":{"dark":"#434A4F","light":"#434A4F"},"runways":[{"ends":["04R","22L"],"headings":[36,216],"thresholds":[[2.647960833,50.620905833],[2.656499722,50.627991944]]},{"ends":["04","22"],"headings":[36,216],"thresholds":[[2.634855833,50.612252778],[2.650155833,50.624952778]]}],"saved_active_runways":[],"saved_active_airport_modes":[],"airport_reference":[2.64,50.616666944],"feature_count":24,"style_count":6,"layer_counts":{"Guidance lines":3,"Labels":21},"category_counts":{"Gates":4,"Landmark 3":1,"Runways":1,"Taxiway Border":1,"Taxiways":17},"geometry_source":"local GNG/KMZ","geometry_source_url":"","geometry_license":"GPL-3.0"},"styles":{"line.taxiwayborder.0000ff":{"name":"Taxiway Border","layer":"Guidance lines","object_type":"Line","paint":{"stroke":"#0000FF","stroke-opacity":1,"stroke-width":1,"palette-overrides":{"light":{"stroke":"#0000FF"}}},"feature_count":1},"line.runwayconcrete.555555":{"name":"Runways","layer":"Guidance lines","object_type":"Line","paint":{"stroke":"#111318","stroke-opacity":1,"stroke-width":1,"palette-overrides":{"light":{"stroke":"#555555"}}},"feature_count":1},"line.landmark3.b4424b":{"name":"Landmark 3","layer":"Guidance lines","object_type":"Line","paint":{"stroke":"#B4424B","stroke-opacity":1,"stroke-width":1,"palette-overrides":{"light":{"stroke":"#B4424B"}}},"feature_count":0},"label.gates":{"name":"Gates","layer":"Labels","object_type":"Label","paint":{"text-color":"#CCCCCC","text-font":"Arial","text-size":12,"text-halo-color":"#000000","text-halo-width":1,"text-anchor":"center","zoomLevel":9},"feature_count":4},"label.taxiways":{"name":"Taxiways","layer":"Labels","object_type":"Label","paint":{"text-color":"#CCCCCC","text-font":"Arial","text-size":12,"text-halo-color":"#000000","text-halo-width":1,"text-anchor":"center","zoomLevel":7},"feature_count":17},"line.landmark3.7e7e7e":{"name":"Landmark 3","layer":"Guidance lines","object_type":"Line","paint":{"stroke":"#7E7E7E","stroke-opacity":1,"stroke-width":1,"palette-overrides":{"light":{"stroke":"#7E7E7E"}}},"feature_count":1}},"vsmr_groups":[],"features":[{"type":"Feature","id":"LFQT-b455e5639b5e07a76126","properties":{"airport":"LFQT","name":"1","layer":"Labels","category":"Gates","object_type":"Label","style_id":"label.gates","source_group":"LFQT Gates","vsmr_group_ids":[],"geometry_role":"text_label","text-field":"1"},"geometry":{"type":"Point","coordinates":[2.646777778,50.626472222]}},{"type":"Feature","id":"LFQT-0b09a1378bfde56ecfb1","properties":{"airport":"LFQT","name":"2","layer":"Labels","category":"Gates","object_type":"Label","style_id":"label.gates","source_group":"LFQT Gates","vsmr_group_ids":[],"geometry_role":"text_label","text-field":"2"},"geometry":{"type":"Point","coordinates":[2.647,50.626694444]}},{"type":"Feature","id":"LFQT-26cf4fb53355a3e64ace","properties":{"airport":"LFQT","name":"3","layer":"Labels","category":"Gates","object_type":"Label","style_id":"label.gates","source_group":"LFQT Gates","vsmr_group_ids":[],"geometry_role":"text_label","text-field":"3"},"geometry":{"type":"Point","coordinates":[2.646277778,50.625972222]}},{"type":"Feature","id":"LFQT-e398e9c2490585de9de6","properties":{"airport":"LFQT","name":"4","layer":"Labels","category":"Gates","object_type":"Label","style_id":"label.gates","source_group":"LFQT Gates","vsmr_group_ids":[],"geometry_role":"text_label","text-field":"4"},"geometry":{"type":"Point","coordinates":[2.645944444,50.625722222]}},{"type":"Feature","id":"LFQT-5ee90b2a6533eeb8f669","properties":{"airport":"LFQT","name":"LFQT Groundlayout","layer":"Guidance lines","category":"Taxiway Border","object_type":"Line","style_id":"line.taxiwayborder.0000ff","source_group":"LFQT Groundlayout","vsmr_group_ids":[],"geometry_role":"linework"},"geometry":{"type":"MultiLineString","coordinates":[[[2.647416667,50.625944444],[2.647138889,50.626083333]],[[2.635111111,50.611916667],[2.630027778,50.607666667]],[[2.634611111,50.612166667],[2.6295,50.607916667]],[[2.635111111,50.611916667],[2.634611111,50.612166667]],[[2.630027778,50.607666667],[2.6295,50.607916667]],[[2.650111111,50.62525],[2.654555556,50.629]],[[2.650638889,50.625],[2.655055556,50.62875]],[[2.650111111,50.62525],[2.650638889,50.625]],[[2.654555556,50.629],[2.655055556,50.62875]],[[2.634638889,50.611777778],[2.636805556,50.611388889]],[[2.634527778,50.6115],[2.636694444,50.611138889]],[[2.634638889,50.611777778],[2.634527778,50.6115]],[[2.636805556,50.611388889],[2.636694444,50.611138889]],[[2.637555556,50.617472222],[2.636416667,50.618305556]],[[2.637888889,50.617638889],[2.636722222,50.6185]],[[2.637555556,50.617472222],[2.637888889,50.617638889]],[[2.636416667,50.618305556],[2.636722222,50.6185]],[[2.640694444,50.616888889],[2.641944444,50.616]],[[2.640388889,50.616722222],[2.641361111,50.616027778]],[[2.640694444,50.616888889],[2.640388889,50.616722222]],[[2.641944444,50.616],[2.64075,50.615305556]],[[2.641361111,50.616027778],[2.640472222,50.615527778]],[[2.64075,50.615305556],[2.640472222,50.615527778]],[[2.643666667,50.6195],[2.64175,50.620916667]],[[2.643972222,50.619666667],[2.642083333,50.621083333]],[[2.643666667,50.6195],[2.643972222,50.619666667]],[[2.64175,50.620916667],[2.642083333,50.621083333]],[[2.657555556,50.628083333],[2.657888889,50.626722222]],[[2.657138889,50.628055556],[2.657472222,50.626666667]],[[2.657555556,50.628083333],[2.657138889,50.628055556]],[[2.657888889,50.626722222],[2.657472222,50.626666667]],[[2.634694444,50.612138889],[2.634333333,50.612277778]],[[2.634944444,50.612361111],[2.634583333,50.6125]],[[2.634333333,50.612277778],[2.633,50.612861111]],[[2.634583333,50.6125],[2.633333333,50.613055556]],[[2.633,50.612861111],[2.632527778,50.613444444]],[[2.633333333,50.613055556],[2.633027778,50.613416667]],[[2.632527778,50.613444444],[2.637555556,50.617666667]],[[2.633027778,50.613416667],[2.637722222,50.617361111]],[[2.637555556,50.617666667],[2.646361111,50.625055556]],[[2.638,50.617583333],[2.646833333,50.625]],[[2.646638889,50.625277778],[2.647166667,50.625722222]],[[2.646833333,50.625],[2.647638889,50.625666667]],[[2.647416667,50.625944444],[2.64775,50.626222222]],[[2.647638889,50.625666667],[2.647972222,50.625944444]],[[2.64775,50.626222222],[2.652277778,50.630027778]],[[2.648222222,50.626166667],[2.652361111,50.629666667]],[[2.652277778,50.630027778],[2.656194444,50.628111111]],[[2.652361111,50.629666667],[2.655916667,50.627888889]],[[2.656194444,50.628111111],[2.656527778,50.627944444]],[[2.655916667,50.627888889],[2.656277778,50.627722222]],[[2.651833333,50.624138889],[2.6515,50.624305556]],[[2.652083333,50.624361111],[2.65175,50.624527778]],[[2.6515,50.624305556],[2.650666667,50.624694444]],[[2.65175,50.624527778],[2.650916667,50.624916667]],[[2.650666667,50.624694444],[2.650305556,50.624861111]],[[2.650916667,50.624916667],[2.650583333,50.625055556]],[[2.649972222,50.625],[2.649638889,50.625166667]],[[2.65025,50.625222222],[2.649888889,50.625388889]],[[2.649638889,50.625166667],[2.647972222,50.625944444]],[[2.649888889,50.625388889],[2.648222222,50.626166667]],[[2.646361111,50.625055556],[2.645805556,50.625361111]],[[2.646638889,50.625277778],[2.646388889,50.625416667]],[[2.639388889,50.616111111],[2.639083333,50.616333333]],[[2.639666667,50.616333333],[2.639416667,50.616527778]],[[2.639083333,50.616333333],[2.637722222,50.617361111]],[[2.639416667,50.616527778],[2.638,50.617583333]],[[2.647555556,50.626444444],[2.647305556,50.626222222]],[[2.647222222,50.626583333],[2.646972222,50.626388889]],[[2.647555556,50.626444444],[2.647222222,50.626583333]],[[2.647305556,50.626222222],[2.647138889,50.626083333]],[[2.646972222,50.626388889],[2.646666667,50.626138889]],[[2.646888889,50.625861111],[2.64675,50.62575]],[[2.646666667,50.626138889],[2.646416667,50.625916667]],[[2.64675,50.62575],[2.646416667,50.625916667]],[[2.646472222,50.625472222],[2.646388889,50.625416667]],[[2.646138889,50.625638889],[2.645805556,50.625361111]],[[2.646472222,50.625472222],[2.646138889,50.625638889]]]}},{"type":"Feature","id":"LFQT-7f17b8ca18b4bd8c5b03","properties":{"airport":"LFQT","name":"LFQT Groundlayout","layer":"Guidance lines","category":"Runways","object_type":"Line","style_id":"line.runwayconcrete.555555","source_group":"LFQT Groundlayout","vsmr_group_ids":[],"geometry_role":"linework"},"geometry":{"type":"MultiLineString","coordinates":[[[2.657472222,50.627555556],[2.657305556,50.627416667]],[[2.656555556,50.627972222],[2.656527778,50.627944444]],[[2.657472222,50.627555556],[2.656555556,50.627972222]],[[2.657277778,50.627416667],[2.652861111,50.623805556]],[[2.656277778,50.627722222],[2.652083333,50.624361111]],[[2.652861111,50.623805556],[2.648722222,50.620472222]],[[2.651833333,50.624138889],[2.647861111,50.620916667]],[[2.648722222,50.620472222],[2.647861111,50.620916667]],[[2.650611111,50.625111111],[2.650583333,50.625055556]],[[2.650277778,50.62525],[2.65025,50.625222222]],[[2.650611111,50.625111111],[2.650277778,50.62525]],[[2.650305556,50.624861111],[2.639833333,50.616027778]],[[2.649972222,50.625],[2.639666667,50.616333333]],[[2.639833333,50.616027778],[2.635166667,50.612083333]],[[2.639388889,50.616111111],[2.634944444,50.612361111]],[[2.635166667,50.612111111],[2.634972222,50.611916667]],[[2.634694444,50.612138889],[2.634638889,50.612055556]],[[2.634972222,50.611916667],[2.634638889,50.612055556]]]}},{"type":"Feature","id":"LFQT-61e1df8cdd5dc32768f2","properties":{"airport":"LFQT","name":"LFQT Groundlayout","layer":"Guidance lines","category":"Landmark 3","object_type":"Line","style_id":"line.landmark3.7e7e7e","source_group":"LFQT Groundlayout","vsmr_group_ids":[],"geometry_role":"linework"},"geometry":{"type":"MultiLineString","coordinates":[[[2.654444444,50.628916667],[2.654944444,50.629333333],[2.657527778,50.628166667],[2.657472222,50.627472222]],[[2.654444444,50.628916667],[2.657472222,50.627472222]],[[2.645,50.625277778],[2.645666667,50.624972222],[2.647694444,50.626638889],[2.647027778,50.626944444]],[[2.645,50.625277778],[2.647027778,50.626944444]]]}},{"type":"Feature","id":"LFQT-3782a4de9024bcc45e84","properties":{"airport":"LFQT","name":"B1","layer":"Labels","category":"Taxiways","object_type":"Label","style_id":"label.taxiways","source_group":"LFQT Taxiways","vsmr_group_ids":[],"geometry_role":"text_label","text-field":"B1"},"geometry":{"type":"Point","coordinates":[2.634722222,50.612277778]}},{"type":"Feature","id":"LFQT-4d5a0adde69dd325f618","properties":{"airport":"LFQT","name":"B1","layer":"Labels","category":"Taxiways","object_type":"Label","style_id":"label.taxiways","source_group":"LFQT Taxiways","vsmr_group_ids":[],"geometry_role":"text_label","text-field":"B1"},"geometry":{"type":"Point","coordinates":[2.633805556,50.612666667]}},{"type":"Feature","id":"LFQT-98dbf0ded7319c5ce914","properties":{"airport":"LFQT","name":"B1","layer":"Labels","category":"Taxiways","object_type":"Label","style_id":"label.taxiways","source_group":"LFQT Taxiways","vsmr_group_ids":[],"geometry_role":"text_label","text-field":"B1"},"geometry":{"type":"Point","coordinates":[2.632972222,50.613194444]}},{"type":"Feature","id":"LFQT-39e1456025c5d5dcec28","properties":{"airport":"LFQT","name":"B5","layer":"Labels","category":"Taxiways","object_type":"Label","style_id":"label.taxiways","source_group":"LFQT Taxiways","vsmr_group_ids":[],"geometry_role":"text_label","text-field":"B5"},"geometry":{"type":"Point","coordinates":[2.63525,50.6155]}},{"type":"Feature","id":"LFQT-a2b70a23c27fc57b6bb5","properties":{"airport":"LFQT","name":"B5","layer":"Labels","category":"Taxiways","object_type":"Label","style_id":"label.taxiways","source_group":"LFQT Taxiways","vsmr_group_ids":[],"geometry_role":"text_label","text-field":"B5"},"geometry":{"type":"Point","coordinates":[2.642194444,50.621333333]}},{"type":"Feature","id":"LFQT-6b2153ed9cd845725679","properties":{"airport":"LFQT","name":"B5","layer":"Labels","category":"Taxiways","object_type":"Label","style_id":"label.taxiways","source_group":"LFQT Taxiways","vsmr_group_ids":[],"geometry_role":"text_label","text-field":"B5"},"geometry":{"type":"Point","coordinates":[2.647055556,50.625416667]}},{"type":"Feature","id":"LFQT-c282156d11b62088b6fb","properties":{"airport":"LFQT","name":"B5","layer":"Labels","category":"Taxiways","object_type":"Label","style_id":"label.taxiways","source_group":"LFQT Taxiways","vsmr_group_ids":[],"geometry_role":"text_label","text-field":"B5"},"geometry":{"type":"Point","coordinates":[2.647694444,50.625944444]}},{"type":"Feature","id":"LFQT-3d062d22624dbc534d73","properties":{"airport":"LFQT","name":"B5","layer":"Labels","category":"Taxiways","object_type":"Label","style_id":"label.taxiways","source_group":"LFQT Taxiways","vsmr_group_ids":[],"geometry_role":"text_label","text-field":"B5"},"geometry":{"type":"Point","coordinates":[2.650111111,50.628]}},{"type":"Feature","id":"LFQT-3fac4d7b224b58e36bdd","properties":{"airport":"LFQT","name":"B4","layer":"Labels","category":"Taxiways","object_type":"Label","style_id":"label.taxiways","source_group":"LFQT Taxiways","vsmr_group_ids":[],"geometry_role":"text_label","text-field":"B4"},"geometry":{"type":"Point","coordinates":[2.654194444,50.628916667]}},{"type":"Feature","id":"LFQT-0944873b2fc2a00f975a","properties":{"airport":"LFQT","name":"B4","layer":"Labels","category":"Taxiways","object_type":"Label","style_id":"label.taxiways","source_group":"LFQT Taxiways","vsmr_group_ids":[],"geometry_role":"text_label","text-field":"B4"},"geometry":{"type":"Point","coordinates":[2.656444444,50.627805556]}},{"type":"Feature","id":"LFQT-9657979b8ad212fc6c1c","properties":{"airport":"LFQT","name":"B3","layer":"Labels","category":"Taxiways","object_type":"Label","style_id":"label.taxiways","source_group":"LFQT Taxiways","vsmr_group_ids":[],"geometry_role":"text_label","text-field":"B3"},"geometry":{"type":"Point","coordinates":[2.652027778,50.624222222]}},{"type":"Feature","id":"LFQT-d95f1770bc6cebddea7a","properties":{"airport":"LFQT","name":"B3","layer":"Labels","category":"Taxiways","object_type":"Label","style_id":"label.taxiways","source_group":"LFQT Taxiways","vsmr_group_ids":[],"geometry_role":"text_label","text-field":"B3"},"geometry":{"type":"Point","coordinates":[2.651194444,50.624611111]}},{"type":"Feature","id":"LFQT-b1f94707fcf594b1da67","properties":{"airport":"LFQT","name":"B3","layer":"Labels","category":"Taxiways","object_type":"Label","style_id":"label.taxiways","source_group":"LFQT Taxiways","vsmr_group_ids":[],"geometry_role":"text_label","text-field":"B3"},"geometry":{"type":"Point","coordinates":[2.650527778,50.624916667]}},{"type":"Feature","id":"LFQT-d6353df79a9007c4ae56","properties":{"airport":"LFQT","name":"B3","layer":"Labels","category":"Taxiways","object_type":"Label","style_id":"label.taxiways","source_group":"LFQT Taxiways","vsmr_group_ids":[],"geometry_role":"text_label","text-field":"B3"},"geometry":{"type":"Point","coordinates":[2.650027778,50.625166667]}},{"type":"Feature","id":"LFQT-5de147864e0dfcb7d62a","properties":{"airport":"LFQT","name":"B3","layer":"Labels","category":"Taxiways","object_type":"Label","style_id":"label.taxiways","source_group":"LFQT Taxiways","vsmr_group_ids":[],"geometry_role":"text_label","text-field":"B3"},"geometry":{"type":"Point","coordinates":[2.648833333,50.625722222]}},{"type":"Feature","id":"LFQT-9713dc751d61efe6b07e","properties":{"airport":"LFQT","name":"B2","layer":"Labels","category":"Taxiways","object_type":"Label","style_id":"label.taxiways","source_group":"LFQT Taxiways","vsmr_group_ids":[],"geometry_role":"text_label","text-field":"B2"},"geometry":{"type":"Point","coordinates":[2.639472222,50.616277778]}},{"type":"Feature","id":"LFQT-26fca452d8daf94f7a63","properties":{"airport":"LFQT","name":"B2","layer":"Labels","category":"Taxiways","object_type":"Label","style_id":"label.taxiways","source_group":"LFQT Taxiways","vsmr_group_ids":[],"geometry_role":"text_label","text-field":"B2"},"geometry":{"type":"Point","coordinates":[2.638472222,50.617]}}]}
