{"type":"FeatureCollection","name":"LFRB AVISO","bbox":[-4.444571111,48.441364722,-4.392743333,48.454409167],"metadata":{"schema":"vSMR AVISO","schema_version":2,"geometry_mode":"shared","airport":"LFRB","coordinate_reference_system":"WGS84","coordinate_order":"longitude, latitude","default_color_palette":"dark","color_palettes":["dark","light"],"background_colors":{"dark":"#434A4F","light":"#434A4F"},"runways":[{"ends":["07R","25L"],"headings":[72,252],"thresholds":[[-4.438349722,48.443375],[-4.402557778,48.451471944]]},{"ends":["07L","25R"],"headings":[72,252],"thresholds":[[-4.422432778,48.4498],[-4.413421944,48.451835833]]}],"saved_active_runways":[],"saved_active_airport_modes":[],"airport_reference":[-4.421666944,48.447221944],"feature_count":86,"style_count":12,"layer_counts":{"Airfield surfaces":23,"Buildings and structures":10,"Guidance lines":2,"Labels":45,"Surface markings":5,"Terrain":1},"category_counts":{"Buildings":10,"Gates":33,"Grass":1,"Hard Surface 2":2,"Hard Surface 3":3,"Runway Border":11,"Runways":2,"Stopbars":5,"Taxiway Orange":6,"Taxiways":13},"geometry_source":"local GNG","geometry_source_url":"","geometry_license":"GPL-3.0"},"styles":{"polygon.grassurface.00512f":{"name":"Grass","layer":"Terrain","object_type":"Area","paint":{"fill":"#010D19","fill-opacity":1,"palette-overrides":{"light":{"fill":"#00512F"}}},"feature_count":1},"polygon.hardsurface3.8a807f":{"name":"Hard Surface 3","layer":"Airfield surfaces","object_type":"Area","paint":{"fill":"#222D3C","fill-opacity":1,"palette-overrides":{"light":{"fill":"#8A807F"}}},"feature_count":3},"polygon.hardsurface2.595e5b":{"name":"Hard Surface 2","layer":"Airfield surfaces","object_type":"Area","paint":{"fill":"#2F3949","fill-opacity":1,"palette-overrides":{"light":{"fill":"#595E5B"}}},"feature_count":2},"polygon.runwayconcrete.555555":{"name":"Runways","layer":"Airfield surfaces","object_type":"Area","paint":{"fill":"#111318","fill-opacity":1,"palette-overrides":{"light":{"fill":"#555555"}}},"feature_count":2},"polygon.building.394446":{"name":"Buildings","layer":"Buildings and structures","object_type":"Area","paint":{"fill":"#475570","fill-opacity":1,"palette-overrides":{"light":{"fill":"#394446"}}},"feature_count":10},"polygon.stopbar.7e0000":{"name":"Stopbars","layer":"Surface markings","object_type":"Area","paint":{"fill":"#7E0000","fill-opacity":1,"palette-overrides":{"light":{"fill":"#7E0000"}}},"feature_count":5},"polygon.taxiwayorange.cc6d00":{"name":"Taxiway Orange","layer":"Airfield surfaces","object_type":"Area","paint":{"fill":"#CC8B00","fill-opacity":1,"palette-overrides":{"light":{"fill":"#CC6D00"}}},"feature_count":6},"polygon.runwayborder.808080":{"name":"Runway Border","layer":"Airfield surfaces","object_type":"Area","paint":{"fill":"#808080","fill-opacity":1,"palette-overrides":{"light":{"fill":"#808080"}}},"feature_count":10},"line.runwayborder.808080":{"name":"Runway Border","layer":"Guidance lines","object_type":"Line","paint":{"stroke":"#808080","stroke-opacity":1,"stroke-width":1,"palette-overrides":{"light":{"stroke":"#808080"}}},"feature_count":1},"line.taxiway.c0b631":{"name":"Taxiways","layer":"Guidance lines","object_type":"Line","paint":{"stroke":"#4E5A69","stroke-opacity":1,"stroke-width":1,"palette-overrides":{"light":{"stroke":"#C0B631"}}},"feature_count":1},"label.gates":{"name":"Gates","layer":"Labels","object_type":"Label","paint":{"text-color":"#CCCCCC","text-font":"Arial","text-size":12,"text-halo-color":"#000000","text-halo-width":1,"text-anchor":"center","zoomLevel":9},"feature_count":33},"label.taxiways":{"name":"Taxiways","layer":"Labels","object_type":"Label","paint":{"text-color":"#CCCCCC","text-font":"Arial","text-size":12,"text-halo-color":"#000000","text-halo-width":1,"text-anchor":"center","zoomLevel":7},"feature_count":12}},"vsmr_groups":[],"features":[{"type":"Feature","id":"LFRB-375916faa36f31ed15c3","properties":{"airport":"LFRB","name":"LFRB AVISO","layer":"Terrain","category":"Grass","object_type":"Area","style_id":"polygon.grassurface.00512f","source_group":"LFRB AVISO","vsmr_group_ids":[],"geometry_role":"filled_region"},"geometry":{"type":"Polygon","coordinates":[[[-4.443503056,48.443149167],[-4.443858333,48.443061389],[-4.444093611,48.442970556],[-4.444273611,48.442838889],[-4.444386944,48.442726111],[-4.444483611,48.442593333],[-4.444543889,48.442433889],[-4.444571111,48.442286667],[-4.444563889,48.442120556],[-4.444457222,48.441896389],[-4.444299167,48.4417325],[-4.443994722,48.441548056],[-4.443671111,48.441443056],[-4.443335,48.441398611],[-4.443020833,48.441402778],[-4.442783333,48.441451389],[-4.442745278,48.441364722],[-4.440946944,48.44137],[-4.438836944,48.441861667],[-4.438539722,48.441640556],[-4.434940278,48.442236389],[-4.431796389,48.443195556],[-4.426215,48.444264722],[-4.426073889,48.44427],[-4.425947222,48.444258056],[-4.42509,48.444059167],[-4.424923333,48.4440275],[-4.424721111,48.444000833],[-4.424058056,48.443946111],[-4.424015,48.443931111],[-4.423983333,48.4439025],[-4.423854444,48.443443611],[-4.423828611,48.443385833],[-4.423780278,48.443309167],[-4.423593889,48.443038611],[-4.423076111,48.443178611],[-4.422672222,48.442858611],[-4.4211925,48.442444444],[-4.420920278,48.442368056],[-4.418441944,48.442926389],[-4.418284444,48.443104167],[-4.417503333,48.443293056],[-4.417044167,48.443342222],[-4.413043333,48.4443775],[-4.410564444,48.445723611],[-4.409008889,48.446762778],[-4.405690556,48.448910556],[-4.404898056,48.449286667],[-4.403282778,48.449773889],[-4.401885833,48.450011667],[-4.401216944,48.450073056],[-4.401000556,48.450447778],[-4.396286944,48.451455],[-4.396163333,48.451524167],[-4.395678889,48.452556667],[-4.393845833,48.452971111],[-4.393928333,48.453134444],[-4.392810278,48.453401111],[-4.392828611,48.453446944],[-4.392743333,48.453524167],[-4.392886944,48.453922222],[-4.393023333,48.454191944],[-4.393060556,48.454234722],[-4.393273056,48.454409167],[-4.3943625,48.454175278],[-4.394506944,48.454161389],[-4.394873333,48.454156667],[-4.395026111,48.454156667],[-4.395721389,48.454112778],[-4.397001944,48.454153889],[-4.401185278,48.453205278],[-4.401433333,48.453669722],[-4.408098056,48.452101389],[-4.408776111,48.451627222],[-4.40884,48.451598333],[-4.408936667,48.451593611],[-4.409025556,48.451578889],[-4.410959444,48.451213056],[-4.412464722,48.452514167],[-4.413596111,48.453343333],[-4.413724722,48.453418333],[-4.413998611,48.453529167],[-4.414720556,48.453720833],[-4.417219444,48.452504444],[-4.417336389,48.452453889],[-4.424995,48.450725556],[-4.424703333,48.450079444],[-4.423875,48.449264444],[-4.423787778,48.449155833],[-4.423776944,48.449032778],[-4.423906389,48.448998056],[-4.424360833,48.448400556],[-4.436191389,48.445501944],[-4.437547778,48.445276389],[-4.437788889,48.445200833],[-4.438014444,48.445184722],[-4.442540278,48.444031389],[-4.443755,48.443595],[-4.443503056,48.443149167]]]}},{"type":"Feature","id":"LFRB-dd08e78014860f5f515f","properties":{"airport":"LFRB","name":"LFRB AVISO","layer":"Airfield surfaces","category":"Hard Surface 3","object_type":"Area","style_id":"polygon.hardsurface3.8a807f","source_group":"LFRB AVISO","vsmr_group_ids":[],"geometry_role":"filled_region"},"geometry":{"type":"Polygon","coordinates":[[[-4.421112222,48.445276111],[-4.421134722,48.445216389],[-4.421165556,48.445165833],[-4.421201667,48.445118056],[-4.4212525,48.445073611],[-4.421346111,48.445016944],[-4.421453056,48.444963611],[-4.421589444,48.444915833],[-4.421710833,48.444880278],[-4.421835278,48.444830556],[-4.421935556,48.444771389],[-4.421988333,48.444724167],[-4.42243,48.444206389],[-4.422487778,48.444146667],[-4.422552222,48.4440975],[-4.422628611,48.44405],[-4.4227125,48.444011944],[-4.4228175,48.443980556],[-4.423118333,48.443916667],[-4.422596389,48.442899167],[-4.422229444,48.442980278],[-4.422160556,48.442845278],[-4.419232222,48.443469722],[-4.419051944,48.443825833],[-4.418932222,48.443852778],[-4.419036389,48.444072778],[-4.418924167,48.444158056],[-4.418999167,48.444285278],[-4.418977222,48.444340556],[-4.419027778,48.444426667],[-4.419161389,48.4445125],[-4.419478056,48.445130278],[-4.419503889,48.445148611],[-4.419521111,48.445179444],[-4.419561389,48.445291111],[-4.419571944,48.445354167],[-4.419574444,48.445501944],[-4.421104167,48.445315556],[-4.421112222,48.445276111]]]}},{"type":"Feature","id":"LFRB-22e5e806ed6f3b199a22","properties":{"airport":"LFRB","name":"LFRB AVISO","layer":"Airfield surfaces","category":"Hard Surface 3","object_type":"Area","style_id":"polygon.hardsurface3.8a807f","source_group":"LFRB AVISO","vsmr_group_ids":[],"geometry_role":"filled_region"},"geometry":{"type":"Polygon","coordinates":[[[-4.417928611,48.445988333],[-4.417886111,48.445962222],[-4.417863611,48.445937778],[-4.417864167,48.445916111],[-4.417904167,48.445781944],[-4.417905556,48.4457525],[-4.417698889,48.445356111],[-4.414347778,48.446134444],[-4.414683889,48.446776667],[-4.417977778,48.446007778],[-4.417928611,48.445988333]]]}},{"type":"Feature","id":"LFRB-119294f68b25c249582a","properties":{"airport":"LFRB","name":"LFRB AVISO","layer":"Airfield surfaces","category":"Hard Surface 3","object_type":"Area","style_id":"polygon.hardsurface3.8a807f","source_group":"LFRB AVISO","vsmr_group_ids":[],"geometry_role":"filled_region"},"geometry":{"type":"Polygon","coordinates":[[[-4.412689167,48.447058889],[-4.412708611,48.447037222],[-4.412741667,48.44701],[-4.412786111,48.446985278],[-4.412835833,48.446965833],[-4.412889444,48.446952222],[-4.413391111,48.446842222],[-4.413331667,48.446713889],[-4.413678056,48.446631111],[-4.413564167,48.446390556],[-4.413491111,48.446380833],[-4.413395833,48.446355],[-4.413322778,48.446323056],[-4.41327,48.446285],[-4.412311667,48.446517778],[-4.412309167,48.446543889],[-4.412303056,48.446562778],[-4.412291667,48.446577222],[-4.4122775,48.446585833],[-4.412153611,48.446613333],[-4.4121325,48.446615],[-4.412113611,48.446610556],[-4.412091389,48.44659],[-4.412068611,48.446565278],[-4.411294167,48.446741667],[-4.411312222,48.446781111],[-4.411318611,48.446801944],[-4.411315556,48.446825278],[-4.411300278,48.4468425],[-4.411266667,48.446854722],[-4.4111525,48.446878056],[-4.411118611,48.446884167],[-4.411092778,48.446882778],[-4.411068333,48.446874722],[-4.411052778,48.446861389],[-4.411015833,48.446797222],[-4.41017,48.446968611],[-4.410223611,48.447105],[-4.410262778,48.447098333],[-4.410279722,48.447127778],[-4.410595278,48.447057222],[-4.410721944,48.447300278],[-4.41222,48.446965278],[-4.412275833,48.446972222],[-4.412336389,48.446989167],[-4.412380556,48.447013056],[-4.412424444,48.447045],[-4.4124875,48.4471525],[-4.412679444,48.447110278],[-4.412680278,48.447089722],[-4.412689167,48.447058889]]]}},{"type":"Feature","id":"LFRB-a2ca4a0dab4b1849b381","properties":{"airport":"LFRB","name":"LFRB AVISO","layer":"Airfield surfaces","category":"Hard Surface 2","object_type":"Area","style_id":"polygon.hardsurface2.595e5b","source_group":"LFRB AVISO","vsmr_group_ids":[],"geometry_role":"filled_region"},"geometry":{"type":"Polygon","coordinates":[[[-4.412855556,48.450555556],[-4.412750833,48.450568056],[-4.413244722,48.451536667],[-4.41335,48.451516944],[-4.412855556,48.450555556]]]}},{"type":"Feature","id":"LFRB-b984756dc89b859d650d","properties":{"airport":"LFRB","name":"LFRB AVISO","layer":"Airfield surfaces","category":"Hard Surface 2","object_type":"Area","style_id":"polygon.hardsurface2.595e5b","source_group":"LFRB AVISO","vsmr_group_ids":[],"geometry_role":"filled_region"},"geometry":{"type":"Polygon","coordinates":[[[-4.419574167,48.445496944],[-4.419556389,48.445558333],[-4.419508889,48.445636389],[-4.419443889,48.445701111],[-4.419325,48.445769167],[-4.419197222,48.445831389],[-4.419105556,48.445865833],[-4.418895556,48.445923056],[-4.418463056,48.446032222],[-4.418345556,48.4460575],[-4.418242222,48.446063333],[-4.418137222,48.446050278],[-4.418045833,48.446029167],[-4.417971389,48.446005556],[-4.414676389,48.446765278],[-4.414896111,48.447193889],[-4.415363611,48.44709],[-4.415452222,48.447087778],[-4.415523611,48.447091389],[-4.415569167,48.447103056],[-4.415600556,48.447115],[-4.415604167,48.447146389],[-4.41559,48.447174167],[-4.415525278,48.447193889],[-4.415177222,48.447276111],[-4.415053056,48.447304167],[-4.414916944,48.447317778],[-4.414718611,48.447339444],[-4.414531111,48.4473675],[-4.414313889,48.4474],[-4.413157222,48.447656667],[-4.41309,48.447666944],[-4.413030833,48.447653056],[-4.412980278,48.447631667],[-4.412935278,48.447597778],[-4.4129,48.447556111],[-4.412692222,48.447152222],[-4.412683056,48.447122222],[-4.412679167,48.447097222],[-4.412481389,48.447141944],[-4.413058611,48.448260833],[-4.413245556,48.448219167],[-4.413098889,48.447940556],[-4.413099167,48.447895],[-4.413116389,48.447858889],[-4.41315,48.4478225],[-4.413198611,48.447789722],[-4.413235,48.447779444],[-4.41521,48.447335556],[-4.415791389,48.447209167],[-4.415868333,48.447206667],[-4.415943611,48.447220556],[-4.416001389,48.447246111],[-4.416041667,48.447271667],[-4.416075,48.447316944],[-4.416171111,48.447533056],[-4.416472222,48.447464444],[-4.416437222,48.447398333],[-4.416405833,48.447340278],[-4.416367222,48.447271667],[-4.416346111,48.447224167],[-4.416333889,48.447169444],[-4.416326944,48.447081389],[-4.416340833,48.446944444],[-4.416373333,48.446885278],[-4.416418611,48.446834444],[-4.416475,48.446786389],[-4.416538333,48.4467425],[-4.416620556,48.446701111],[-4.416731111,48.446655],[-4.416880278,48.446608889],[-4.419354167,48.446048889],[-4.419558889,48.446004167],[-4.419922222,48.445931389],[-4.420046389,48.445908333],[-4.420167778,48.445890556],[-4.420283056,48.445879722],[-4.420416944,48.445876389],[-4.420530556,48.445881389],[-4.420623333,48.445894722],[-4.420698333,48.445911389],[-4.420768889,48.4459325],[-4.420829444,48.445959444],[-4.420878333,48.445989444],[-4.420931944,48.446033056],[-4.420965556,48.4460675],[-4.421016111,48.446126667],[-4.421068056,48.446196944],[-4.421105278,48.446249167],[-4.421147222,48.446319444],[-4.421190833,48.446395278],[-4.421517778,48.446325833],[-4.421188889,48.445670556],[-4.421135556,48.445515556],[-4.421103056,48.445418333],[-4.421096667,48.445384722],[-4.421099167,48.445351389],[-4.421106111,48.445308056],[-4.419574167,48.445496944]]]}},{"type":"Feature","id":"LFRB-28837924681b1a5f59c0","properties":{"airport":"LFRB","name":"LFRB AVISO","layer":"Airfield surfaces","category":"Runways","object_type":"Area","style_id":"polygon.runwayconcrete.555555","source_group":"LFRB AVISO","vsmr_group_ids":[],"geometry_role":"filled_region"},"geometry":{"type":"Polygon","coordinates":[[[-4.406481111,48.450810833],[-4.406596667,48.450830556],[-4.406670833,48.450841667],[-4.406785,48.450850833],[-4.406927778,48.450838611],[-4.407036389,48.4508175],[-4.407139444,48.450788056],[-4.407236389,48.450746389],[-4.407428056,48.4506225],[-4.407507222,48.450574722],[-4.407534722,48.450560556],[-4.412011111,48.449550556],[-4.412103056,48.449542778],[-4.412168889,48.449554167],[-4.412211389,48.449573889],[-4.412249444,48.449606111],[-4.412278611,48.44965],[-4.412773611,48.450613056],[-4.412873611,48.450589167],[-4.412380556,48.449630556],[-4.412366944,48.449585556],[-4.412376389,48.449543333],[-4.412393333,48.449506111],[-4.412440833,48.449463889],[-4.412505,48.449438889],[-4.437232222,48.443842222],[-4.437397222,48.443829167],[-4.437481111,48.443828889],[-4.437556667,48.443833889],[-4.438222778,48.443918056],[-4.438271944,48.443891667],[-4.438314167,48.443859444],[-4.438365,48.443813889],[-4.438400556,48.443767222],[-4.4384225,48.443726389],[-4.438435556,48.443683611],[-4.438441111,48.443634444],[-4.438433333,48.443599444],[-4.438425,48.443573611],[-4.438464444,48.443563333],[-4.438271389,48.443186111],[-4.422448056,48.446766667],[-4.422313056,48.44679],[-4.42216,48.446793056],[-4.422054722,48.446779722],[-4.421878333,48.446729167],[-4.4218,48.446690833],[-4.421722778,48.4466275],[-4.421607222,48.446479167],[-4.421513889,48.44634],[-4.4211875,48.446404167],[-4.421248889,48.446535],[-4.421285556,48.446641111],[-4.421307778,48.446740833],[-4.421304444,48.446796944],[-4.421276667,48.4468575],[-4.421185556,48.446970833],[-4.421126667,48.447020278],[-4.421035278,48.447070833],[-4.420936111,48.447108333],[-4.417242222,48.4479475],[-4.417162778,48.447955833],[-4.417076111,48.447953889],[-4.416966389,48.447930833],[-4.416841667,48.447886944],[-4.416751944,48.447831944],[-4.416663333,48.447750278],[-4.4166025,48.447675833],[-4.416526944,48.447553611],[-4.416479167,48.447462222],[-4.416155278,48.447534167],[-4.416218056,48.4476725],[-4.416258333,48.447783611],[-4.416265833,48.447836944],[-4.41626,48.447928611],[-4.416236667,48.447993889],[-4.416199722,48.448067222],[-4.416141944,48.448130833],[-4.416081944,48.448183333],[-4.416021389,48.448218333],[-4.4159625,48.448234444],[-4.413634167,48.448763889],[-4.413587222,48.4487675],[-4.4135425,48.4487625],[-4.413523056,48.448746944],[-4.413237778,48.448202222],[-4.413050278,48.448245],[-4.413324722,48.448798333],[-4.41332,48.448820556],[-4.413289444,48.4488375],[-4.413253611,48.448849722],[-4.400083056,48.451824444],[-4.400010833,48.451825278],[-4.399898056,48.451821111],[-4.399703889,48.451801111],[-4.399322778,48.4517425],[-4.399148889,48.451725278],[-4.399061944,48.451732778],[-4.398959167,48.4517625],[-4.398856389,48.451806389],[-4.398792778,48.451855833],[-4.398585833,48.452158889],[-4.398569722,48.452163056],[-4.3987675,48.452548611],[-4.406431111,48.450809167],[-4.406481111,48.450810833]]]}},{"type":"Feature","id":"LFRB-f8b9f59fc06c46bf6752","properties":{"airport":"LFRB","name":"LFRB AVISO","layer":"Airfield surfaces","category":"Runways","object_type":"Area","style_id":"polygon.runwayconcrete.555555","source_group":"LFRB AVISO","vsmr_group_ids":[],"geometry_role":"filled_region"},"geometry":{"type":"Polygon","coordinates":[[[-4.422372778,48.449762222],[-4.422336944,48.449713611],[-4.422285278,48.44968],[-4.422213611,48.449659167],[-4.422138611,48.449655278],[-4.422054167,48.449671667],[-4.421720278,48.44976],[-4.421656389,48.449802222],[-4.421627778,48.449837778],[-4.421616389,48.449874167],[-4.421602222,48.449912222],[-4.4215775,48.449938889],[-4.421520833,48.449953889],[-4.413651389,48.451731667],[-4.413565278,48.4517375],[-4.413497778,48.451718056],[-4.413448889,48.451692778],[-4.413419444,48.451646111],[-4.41334,48.451498056],[-4.413236389,48.451521667],[-4.413320278,48.451687222],[-4.4133375,48.451732778],[-4.41336,48.451798056],[-4.4134375,48.451952222],[-4.422448611,48.449911667],[-4.422372778,48.449762222]]]}},{"type":"Feature","id":"LFRB-333d4f272291b8ab741e","properties":{"airport":"LFRB","name":"LFRB AVISO","layer":"Buildings and structures","category":"Buildings","object_type":"Area","style_id":"polygon.building.394446","source_group":"LFRB AVISO","vsmr_group_ids":[],"geometry_role":"filled_region"},"geometry":{"type":"Polygon","coordinates":[[[-4.419525833,48.442470556],[-4.419545833,48.442517222],[-4.419615833,48.442840833],[-4.419474444,48.442873333],[-4.419396389,48.443246944],[-4.419218889,48.443288889],[-4.419097778,48.443640833],[-4.419012222,48.4436625],[-4.418965278,48.443854444],[-4.419231944,48.443796111],[-4.419553889,48.443751111],[-4.419730833,48.444066111],[-4.419641944,48.444085833],[-4.419660556,48.444128056],[-4.419884444,48.444076944],[-4.419865556,48.444036389],[-4.419815556,48.444048056],[-4.419645278,48.443735833],[-4.419888056,48.443718611],[-4.420064444,48.4436925],[-4.420241944,48.443651667],[-4.420401111,48.443595833],[-4.420616944,48.443513056],[-4.420796111,48.443825278],[-4.420775,48.443831944],[-4.420796389,48.443870556],[-4.420970833,48.443828056],[-4.4209525,48.443791111],[-4.420891389,48.443803611],[-4.420724722,48.443481667],[-4.42099,48.4434],[-4.421942222,48.443176111],[-4.421795278,48.443095556],[-4.421133056,48.44324],[-4.421064167,48.443191389],[-4.42095,48.443216111],[-4.420568611,48.44299],[-4.420372222,48.443031111],[-4.419976944,48.442757778],[-4.419833056,48.4427925],[-4.419725278,48.442657222],[-4.419600278,48.442451389],[-4.419525833,48.442470556]]]}},{"type":"Feature","id":"LFRB-939a08e2eff268f3f8fb","properties":{"airport":"LFRB","name":"LFRB AVISO","layer":"Buildings and structures","category":"Buildings","object_type":"Area","style_id":"polygon.building.394446","source_group":"LFRB AVISO","vsmr_group_ids":[],"geometry_role":"filled_region"},"geometry":{"type":"Polygon","coordinates":[[[-4.418769722,48.443764722],[-4.418549722,48.443811389],[-4.418485278,48.443792222],[-4.418411667,48.443797778],[-4.418352778,48.443824167],[-4.418323611,48.443868611],[-4.418260833,48.443881944],[-4.418369444,48.44409],[-4.418885,48.443973611],[-4.418769722,48.443764722]]]}},{"type":"Feature","id":"LFRB-91acb33938a082dd61e1","properties":{"airport":"LFRB","name":"LFRB AVISO","layer":"Buildings and structures","category":"Buildings","object_type":"Area","style_id":"polygon.building.394446","source_group":"LFRB AVISO","vsmr_group_ids":[],"geometry_role":"filled_region"},"geometry":{"type":"Polygon","coordinates":[[[-4.418078611,48.444164444],[-4.418098056,48.444123333],[-4.418074722,48.444075556],[-4.418003333,48.444061111],[-4.417934444,48.444086389],[-4.417918056,48.444131667],[-4.417957778,48.4441725],[-4.418038333,48.444181389],[-4.418078611,48.444164444]]]}},{"type":"Feature","id":"LFRB-38ed483091acd9221622","properties":{"airport":"LFRB","name":"LFRB AVISO","layer":"Buildings and structures","category":"Buildings","object_type":"Area","style_id":"polygon.building.394446","source_group":"LFRB AVISO","vsmr_group_ids":[],"geometry_role":"filled_region"},"geometry":{"type":"Polygon","coordinates":[[[-4.418026389,48.444053056],[-4.418010556,48.444040278],[-4.417970833,48.444030278],[-4.417927778,48.444025556],[-4.417935,48.444044444],[-4.417778056,48.444036944],[-4.417772222,48.444058056],[-4.417771944,48.444074444],[-4.417773333,48.444091389],[-4.417723611,48.444103611],[-4.417751389,48.444143056],[-4.417783611,48.444165],[-4.417837778,48.444175833],[-4.41789,48.444169444],[-4.417929444,48.444153333],[-4.418043611,48.444071667],[-4.418026389,48.444053056]]]}},{"type":"Feature","id":"LFRB-6e25214f96f54ff5e772","properties":{"airport":"LFRB","name":"LFRB AVISO","layer":"Buildings and structures","category":"Buildings","object_type":"Area","style_id":"polygon.building.394446","source_group":"LFRB AVISO","vsmr_group_ids":[],"geometry_role":"filled_region"},"geometry":{"type":"Polygon","coordinates":[[[-4.417834722,48.4441275],[-4.417840556,48.444109722],[-4.417836111,48.444093611],[-4.417710833,48.44412],[-4.417286667,48.443690833],[-4.417228056,48.443652222],[-4.417152778,48.443646667],[-4.417082778,48.443662222],[-4.417040833,48.443711111],[-4.417048611,48.443765278],[-4.417539444,48.444260278],[-4.417787778,48.444201667],[-4.417756111,48.444165278],[-4.417834722,48.4441275]]]}},{"type":"Feature","id":"LFRB-393b8707f3949fc00d88","properties":{"airport":"LFRB","name":"LFRB AVISO","layer":"Buildings and structures","category":"Buildings","object_type":"Area","style_id":"polygon.building.394446","source_group":"LFRB AVISO","vsmr_group_ids":[],"geometry_role":"filled_region"},"geometry":{"type":"Polygon","coordinates":[[[-4.417516111,48.444945278],[-4.417335,48.444985556],[-4.417446944,48.445229722],[-4.417333611,48.445265556],[-4.41739,48.445376667],[-4.417463611,48.445358611],[-4.417493056,48.445403889],[-4.41773,48.445350556],[-4.417516111,48.444945278]]]}},{"type":"Feature","id":"LFRB-32aa6039ed2c9ac57165","properties":{"airport":"LFRB","name":"LFRB AVISO","layer":"Buildings and structures","category":"Buildings","object_type":"Area","style_id":"polygon.building.394446","source_group":"LFRB AVISO","vsmr_group_ids":[],"geometry_role":"filled_region"},"geometry":{"type":"Polygon","coordinates":[[[-4.416870278,48.445311667],[-4.416946389,48.445458333],[-4.417072222,48.445431667],[-4.417001667,48.445281111],[-4.416870278,48.445311667]]]}},{"type":"Feature","id":"LFRB-297cd7e57f4f0f85ad6a","properties":{"airport":"LFRB","name":"LFRB AVISO","layer":"Buildings and structures","category":"Buildings","object_type":"Area","style_id":"polygon.building.394446","source_group":"LFRB AVISO","vsmr_group_ids":[],"geometry_role":"filled_region"},"geometry":{"type":"Polygon","coordinates":[[[-4.416555833,48.445465],[-4.416238333,48.445538333],[-4.416250833,48.445555],[-4.416011667,48.445610278],[-4.415981667,48.445559722],[-4.416123889,48.445525833],[-4.416023333,48.445328333],[-4.416066111,48.445313889],[-4.416106111,48.445386111],[-4.416252778,48.445364167],[-4.416108611,48.445084722],[-4.415963611,48.445114444],[-4.416051944,48.445283333],[-4.414910278,48.445548611],[-4.414995278,48.445718056],[-4.415176944,48.445678333],[-4.415199167,48.4457275],[-4.415028056,48.445766667],[-4.415088056,48.445885],[-4.416603889,48.445554444],[-4.416555833,48.445465]]]}},{"type":"Feature","id":"LFRB-7a576206206f2e2e26ea","properties":{"airport":"LFRB","name":"LFRB AVISO","layer":"Buildings and structures","category":"Buildings","object_type":"Area","style_id":"polygon.building.394446","source_group":"LFRB AVISO","vsmr_group_ids":[],"geometry_role":"filled_region"},"geometry":{"type":"Polygon","coordinates":[[[-4.414819722,48.4457775],[-4.414493333,48.445851111],[-4.414560556,48.445983889],[-4.414884444,48.4459125],[-4.414819722,48.4457775]]]}},{"type":"Feature","id":"LFRB-5c169436cb04bf69701f","properties":{"airport":"LFRB","name":"LFRB AVISO","layer":"Buildings and structures","category":"Buildings","object_type":"Area","style_id":"polygon.building.394446","source_group":"LFRB AVISO","vsmr_group_ids":[],"geometry_role":"filled_region"},"geometry":{"type":"Polygon","coordinates":[[[-4.412652778,48.446256389],[-4.412626944,48.446209167],[-4.412205833,48.446303333],[-4.412251667,48.446388333],[-4.411144722,48.446636667],[-4.411161667,48.446666667],[-4.411004444,48.446706389],[-4.410964722,48.446629444],[-4.410104444,48.446840556],[-4.41019,48.446997778],[-4.413896389,48.446159167],[-4.413808333,48.445975],[-4.412652778,48.446256389]]]}},{"type":"Feature","id":"LFRB-c3946e4b919295ec052b","properties":{"airport":"LFRB","name":"LFRB AVISO","layer":"Surface markings","category":"Stopbars","object_type":"Area","style_id":"polygon.stopbar.7e0000","source_group":"LFRB AVISO","vsmr_group_ids":[],"geometry_role":"filled_region"},"geometry":{"type":"Polygon","coordinates":[[[-4.413233889,48.451516667],[-4.413243889,48.451535556],[-4.4133475,48.4515125],[-4.413337222,48.4514925],[-4.413233889,48.451516667]]]}},{"type":"Feature","id":"LFRB-2b77b76c41481fd7f8af","properties":{"airport":"LFRB","name":"LFRB AVISO","layer":"Surface markings","category":"Stopbars","object_type":"Area","style_id":"polygon.stopbar.7e0000","source_group":"LFRB AVISO","vsmr_group_ids":[],"geometry_role":"filled_region"},"geometry":{"type":"Polygon","coordinates":[[[-4.412865833,48.450573889],[-4.412765278,48.450596111],[-4.412775556,48.450616111],[-4.412875556,48.450593333],[-4.412865833,48.450573889]]]}},{"type":"Feature","id":"LFRB-5617113ca7d26ff01181","properties":{"airport":"LFRB","name":"LFRB AVISO","layer":"Surface markings","category":"Stopbars","object_type":"Area","style_id":"polygon.stopbar.7e0000","source_group":"LFRB AVISO","vsmr_group_ids":[],"geometry_role":"filled_region"},"geometry":{"type":"Polygon","coordinates":[[[-4.421518056,48.446318056],[-4.421188056,48.446388889],[-4.4211975,48.446407778],[-4.421524167,48.446336667],[-4.421518056,48.446318056]]]}},{"type":"Feature","id":"LFRB-26e8c294c8315ac3d9a9","properties":{"airport":"LFRB","name":"LFRB AVISO","layer":"Surface markings","category":"Stopbars","object_type":"Area","style_id":"polygon.stopbar.7e0000","source_group":"LFRB AVISO","vsmr_group_ids":[],"geometry_role":"filled_region"},"geometry":{"type":"Polygon","coordinates":[[[-4.416478056,48.447450833],[-4.416148333,48.447521389],[-4.416155278,48.447545278],[-4.4164875,48.447473333],[-4.416478056,48.447450833]]]}},{"type":"Feature","id":"LFRB-e12d91ac9493d9cb8ba6","properties":{"airport":"LFRB","name":"LFRB AVISO","layer":"Surface markings","category":"Stopbars","object_type":"Area","style_id":"polygon.stopbar.7e0000","source_group":"LFRB AVISO","vsmr_group_ids":[],"geometry_role":"filled_region"},"geometry":{"type":"Polygon","coordinates":[[[-4.4132425,48.448211111],[-4.413236389,48.448199722],[-4.413049167,48.448242778],[-4.413055,48.448253611],[-4.4132425,48.448211111]]]}},{"type":"Feature","id":"LFRB-3ff04494d1bd41d54829","properties":{"airport":"LFRB","name":"LFRB AVISO","layer":"Airfield surfaces","category":"Taxiway Orange","object_type":"Area","style_id":"polygon.taxiwayorange.cc6d00","source_group":"LFRB AVISO","vsmr_group_ids":[],"geometry_role":"filled_region"},"geometry":{"type":"Polygon","coordinates":[[[-4.412920278,48.447580278],[-4.412906389,48.447563889],[-4.412720556,48.447604722],[-4.412729722,48.447623611],[-4.412920278,48.447580278]]]}},{"type":"Feature","id":"LFRB-fd04fb6790d8ffad8754","properties":{"airport":"LFRB","name":"LFRB AVISO","layer":"Airfield surfaces","category":"Taxiway Orange","object_type":"Area","style_id":"polygon.taxiwayorange.cc6d00","source_group":"LFRB AVISO","vsmr_group_ids":[],"geometry_role":"filled_region"},"geometry":{"type":"Polygon","coordinates":[[[-4.416361111,48.446909167],[-4.415539722,48.447095278],[-4.4155725,48.447104167],[-4.415579444,48.447108056],[-4.416349444,48.446933889],[-4.416361111,48.446909167]]]}},{"type":"Feature","id":"LFRB-f9a6c4c4facfd6684342","properties":{"airport":"LFRB","name":"LFRB AVISO","layer":"Airfield surfaces","category":"Taxiway Orange","object_type":"Area","style_id":"polygon.taxiwayorange.cc6d00","source_group":"LFRB AVISO","vsmr_group_ids":[],"geometry_role":"filled_region"},"geometry":{"type":"Polygon","coordinates":[[[-4.4212375,48.445807778],[-4.420727778,48.445921389],[-4.420763611,48.445934722],[-4.421243889,48.4458275],[-4.4212375,48.445807778]]]}},{"type":"Feature","id":"LFRB-39793056aef23cdd9bb6","properties":{"airport":"LFRB","name":"LFRB AVISO","layer":"Airfield surfaces","category":"Taxiway Orange","object_type":"Area","style_id":"polygon.taxiwayorange.cc6d00","source_group":"LFRB AVISO","vsmr_group_ids":[],"geometry_role":"filled_region"},"geometry":{"type":"Polygon","coordinates":[[[-4.415196111,48.447271667],[-4.415167222,48.447278333],[-4.415199444,48.447338056],[-4.415229167,48.447331667],[-4.415196111,48.447271667]]]}},{"type":"Feature","id":"LFRB-b010bb7650929b046b77","properties":{"airport":"LFRB","name":"LFRB AVISO","layer":"Airfield surfaces","category":"Taxiway Orange","object_type":"Area","style_id":"polygon.taxiwayorange.cc6d00","source_group":"LFRB AVISO","vsmr_group_ids":[],"geometry_role":"filled_region"},"geometry":{"type":"Polygon","coordinates":[[[-4.420707778,48.4453725],[-4.4207075,48.445385833],[-4.421099167,48.445381944],[-4.421098889,48.445368056],[-4.420707778,48.4453725]]]}},{"type":"Feature","id":"LFRB-9cb94c0f84ee85f0c5eb","properties":{"airport":"LFRB","name":"LFRB AVISO","layer":"Airfield surfaces","category":"Taxiway Orange","object_type":"Area","style_id":"polygon.taxiwayorange.cc6d00","source_group":"LFRB AVISO","vsmr_group_ids":[],"geometry_role":"filled_region"},"geometry":{"type":"Polygon","coordinates":[[[-4.419988056,48.445468056],[-4.419558611,48.445561389],[-4.419548889,48.445576944],[-4.419993056,48.4454825],[-4.419988056,48.445468056]]]}},{"type":"Feature","id":"LFRB-0f83b3d2955ad28f2c1a","properties":{"airport":"LFRB","name":"LFRB AVISO","layer":"Airfield surfaces","category":"Runway Border","object_type":"Area","style_id":"polygon.runwayborder.808080","source_group":"LFRB AVISO","vsmr_group_ids":[],"geometry_role":"filled_region"},"geometry":{"type":"Polygon","coordinates":[[[-4.437352778,48.443625833],[-4.437118889,48.443679167],[-4.437145556,48.443730833],[-4.437183889,48.443721389],[-4.437166111,48.443685556],[-4.43732,48.44365],[-4.437331389,48.443672222],[-4.437177778,48.443708056],[-4.437183889,48.443721389],[-4.437378333,48.443677222],[-4.437352778,48.443625833]]]}},{"type":"Feature","id":"LFRB-387fd353563e7b3f6fa2","properties":{"airport":"LFRB","name":"LFRB AVISO","layer":"Airfield surfaces","category":"Runway Border","object_type":"Area","style_id":"polygon.runwayborder.808080","source_group":"LFRB AVISO","vsmr_group_ids":[],"geometry_role":"filled_region"},"geometry":{"type":"Polygon","coordinates":[[[-4.437325,48.443567778],[-4.437068889,48.443579167],[-4.437099167,48.44364],[-4.437140278,48.443630833],[-4.437120556,48.443591944],[-4.4373325,48.443582778],[-4.437325,48.443567778]]]}},{"type":"Feature","id":"LFRB-4cd483f50516ed87cd39","properties":{"airport":"LFRB","name":"LFRB AVISO","layer":"Airfield surfaces","category":"Runway Border","object_type":"Area","style_id":"polygon.runwayborder.808080","source_group":"LFRB AVISO","vsmr_group_ids":[],"geometry_role":"filled_region"},"geometry":{"type":"Polygon","coordinates":[[[-4.4376,48.443561389],[-4.437541667,48.443574444],[-4.437530278,48.443551667],[-4.437588611,48.443539167],[-4.437608056,48.443576389],[-4.4377425,48.443546667],[-4.437734722,48.443531667],[-4.43764,48.443553056],[-4.437634167,48.443541667],[-4.437724444,48.443509444],[-4.437715556,48.443493889],[-4.4376275,48.443526944],[-4.437621944,48.443515],[-4.437482778,48.443546111],[-4.437509444,48.443598611],[-4.437608056,48.443576389],[-4.4376,48.443561389]]]}},{"type":"Feature","id":"LFRB-b6b7dad9ec77afcfcc74","properties":{"airport":"LFRB","name":"LFRB AVISO","layer":"Airfield surfaces","category":"Runway Border","object_type":"Area","style_id":"polygon.runwayborder.808080","source_group":"LFRB AVISO","vsmr_group_ids":[],"geometry_role":"filled_region"},"geometry":{"type":"Polygon","coordinates":[[[-4.403750278,48.451168889],[-4.403721389,48.451175556],[-4.403606944,48.451160278],[-4.403538611,48.451175833],[-4.403566944,48.451228333],[-4.403608333,48.451219167],[-4.403588611,48.451181667],[-4.403608333,48.451176667],[-4.403725556,48.451193333],[-4.403799167,48.451175278],[-4.4037725,48.451122222],[-4.403706944,48.451137222],[-4.403714722,48.451153333],[-4.403738889,48.4511475],[-4.403750278,48.451168889]]]}},{"type":"Feature","id":"LFRB-76441487db961b29b6b4","properties":{"airport":"LFRB","name":"LFRB AVISO","layer":"Airfield surfaces","category":"Runway Border","object_type":"Area","style_id":"polygon.runwayborder.808080","source_group":"LFRB AVISO","vsmr_group_ids":[],"geometry_role":"filled_region"},"geometry":{"type":"Polygon","coordinates":[[[-4.403818889,48.451212778],[-4.403708056,48.451238889],[-4.403725833,48.451275],[-4.403645833,48.451293056],[-4.403626111,48.451255833],[-4.403585,48.451265],[-4.403611111,48.451318056],[-4.403777778,48.451280556],[-4.403758889,48.451243889],[-4.403785,48.451237778],[-4.403802778,48.451273889],[-4.403845556,48.451265],[-4.403818889,48.451212778]]]}},{"type":"Feature","id":"LFRB-983f294dbb2d8aedafa4","properties":{"airport":"LFRB","name":"LFRB AVISO","layer":"Airfield surfaces","category":"Runway Border","object_type":"Area","style_id":"polygon.runwayborder.808080","source_group":"LFRB AVISO","vsmr_group_ids":[],"geometry_role":"filled_region"},"geometry":{"type":"Polygon","coordinates":[[[-4.403411111,48.451253889],[-4.403178333,48.4513075],[-4.403205278,48.451359167],[-4.403246389,48.451350556],[-4.403226389,48.451313889],[-4.40342,48.45127],[-4.403411111,48.451253889]]]}},{"type":"Feature","id":"LFRB-ed851197cd72f5f70e90","properties":{"airport":"LFRB","name":"LFRB AVISO","layer":"Airfield surfaces","category":"Runway Border","object_type":"Area","style_id":"polygon.runwayborder.808080","source_group":"LFRB AVISO","vsmr_group_ids":[],"geometry_role":"filled_region"},"geometry":{"type":"Polygon","coordinates":[[[-4.408199444,48.450288333],[-4.408238889,48.450364722],[-4.408815,48.450234444],[-4.408776667,48.450156667],[-4.408199444,48.450288333]]]}},{"type":"Feature","id":"LFRB-b31dff00f41b196b0921","properties":{"airport":"LFRB","name":"LFRB AVISO","layer":"Airfield surfaces","category":"Runway Border","object_type":"Area","style_id":"polygon.runwayborder.808080","source_group":"LFRB AVISO","vsmr_group_ids":[],"geometry_role":"filled_region"},"geometry":{"type":"Polygon","coordinates":[[[-4.408079722,48.450057778],[-4.408119444,48.450135278],[-4.408696944,48.450004722],[-4.408657222,48.449926667],[-4.408079722,48.450057778]]]}},{"type":"Feature","id":"LFRB-1103b184b5b54b94f6ad","properties":{"airport":"LFRB","name":"LFRB AVISO","layer":"Airfield surfaces","category":"Runway Border","object_type":"Area","style_id":"polygon.runwayborder.808080","source_group":"LFRB AVISO","vsmr_group_ids":[],"geometry_role":"filled_region"},"geometry":{"type":"Polygon","coordinates":[[[-4.431949167,48.444913056],[-4.431990556,48.444990556],[-4.432568333,48.444859722],[-4.432526667,48.444781667],[-4.431949167,48.444913056]]]}},{"type":"Feature","id":"LFRB-c77dac1f710c73fe7454","properties":{"airport":"LFRB","name":"LFRB AVISO","layer":"Airfield surfaces","category":"Runway Border","object_type":"Area","style_id":"polygon.runwayborder.808080","source_group":"LFRB AVISO","vsmr_group_ids":[],"geometry_role":"filled_region"},"geometry":{"type":"Polygon","coordinates":[[[-4.432409722,48.444552222],[-4.431831667,48.444683056],[-4.4318725,48.444759444],[-4.432449444,48.444629167],[-4.432409722,48.444552222]]]}},{"type":"Feature","id":"LFRB-aa389e2c7fc629106fbf","properties":{"airport":"LFRB","name":"ACB","layer":"Labels","category":"Gates","object_type":"Label","style_id":"label.gates","source_group":"LFRB Gates","vsmr_group_ids":[],"geometry_role":"text_label","text-field":"ACB"},"geometry":{"type":"Point","coordinates":[-4.41059,48.446813611]}},{"type":"Feature","id":"LFRB-dac49b277fe6ee9a50d1","properties":{"airport":"LFRB","name":"Hangars","layer":"Labels","category":"Gates","object_type":"Label","style_id":"label.gates","source_group":"LFRB Gates","vsmr_group_ids":[],"geometry_role":"text_label","text-field":"Hangars"},"geometry":{"type":"Point","coordinates":[-4.412697778,48.446355833]}},{"type":"Feature","id":"LFRB-e50fb112ddc173f8f05d","properties":{"airport":"LFRB","name":"P - Secondary","layer":"Labels","category":"Gates","object_type":"Label","style_id":"label.gates","source_group":"LFRB Gates","vsmr_group_ids":[],"geometry_role":"text_label","text-field":"P - Secondary"},"geometry":{"type":"Point","coordinates":[-4.415575,48.445570833]}},{"type":"Feature","id":"LFRB-93630810acd1c60b115b","properties":{"airport":"LFRB","name":"TWR","layer":"Labels","category":"Gates","object_type":"Label","style_id":"label.gates","source_group":"LFRB Gates","vsmr_group_ids":[],"geometry_role":"text_label","text-field":"TWR"},"geometry":{"type":"Point","coordinates":[-4.417896389,48.444104167]}},{"type":"Feature","id":"LFRB-af3deab1bc1a887be20a","properties":{"airport":"LFRB","name":"Fret","layer":"Labels","category":"Gates","object_type":"Label","style_id":"label.gates","source_group":"LFRB Gates","vsmr_group_ids":[],"geometry_role":"text_label","text-field":"Fret"},"geometry":{"type":"Point","coordinates":[-4.418565833,48.4439175]}},{"type":"Feature","id":"LFRB-71792a78047b71aa9aed","properties":{"airport":"LFRB","name":"Terminal","layer":"Labels","category":"Gates","object_type":"Label","style_id":"label.gates","source_group":"LFRB Gates","vsmr_group_ids":[],"geometry_role":"text_label","text-field":"Terminal"},"geometry":{"type":"Point","coordinates":[-4.419961667,48.443300833]}},{"type":"Feature","id":"LFRB-4632396564e0cc8e80e3","properties":{"airport":"LFRB","name":"1S","layer":"Labels","category":"Gates","object_type":"Label","style_id":"label.gates","source_group":"LFRB Gates","vsmr_group_ids":[],"geometry_role":"text_label","text-field":"1S"},"geometry":{"type":"Point","coordinates":[-4.422571667,48.443161944]}},{"type":"Feature","id":"LFRB-88b908928c53dcaf14a5","properties":{"airport":"LFRB","name":"1N","layer":"Labels","category":"Gates","object_type":"Label","style_id":"label.gates","source_group":"LFRB Gates","vsmr_group_ids":[],"geometry_role":"text_label","text-field":"1N"},"geometry":{"type":"Point","coordinates":[-4.422831389,48.443563333]}},{"type":"Feature","id":"LFRB-6b7b900c3ed64c814924","properties":{"airport":"LFRB","name":"2","layer":"Labels","category":"Gates","object_type":"Label","style_id":"label.gates","source_group":"LFRB Gates","vsmr_group_ids":[],"geometry_role":"text_label","text-field":"2"},"geometry":{"type":"Point","coordinates":[-4.422151389,48.443265556]}},{"type":"Feature","id":"LFRB-885475e7e94367aea273","properties":{"airport":"LFRB","name":"3N","layer":"Labels","category":"Gates","object_type":"Label","style_id":"label.gates","source_group":"LFRB Gates","vsmr_group_ids":[],"geometry_role":"text_label","text-field":"3N"},"geometry":{"type":"Point","coordinates":[-4.422046389,48.443885833]}},{"type":"Feature","id":"LFRB-b7c2083a6beb669c1a9f","properties":{"airport":"LFRB","name":"3S","layer":"Labels","category":"Gates","object_type":"Label","style_id":"label.gates","source_group":"LFRB Gates","vsmr_group_ids":[],"geometry_role":"text_label","text-field":"3S"},"geometry":{"type":"Point","coordinates":[-4.421709444,48.443419444]}},{"type":"Feature","id":"LFRB-8079c0ccbebdfff30902","properties":{"airport":"LFRB","name":"4","layer":"Labels","category":"Gates","object_type":"Label","style_id":"label.gates","source_group":"LFRB Gates","vsmr_group_ids":[],"geometry_role":"text_label","text-field":"4"},"geometry":{"type":"Point","coordinates":[-4.421737222,48.444278889]}},{"type":"Feature","id":"LFRB-6d888a8c70fa00fbcba4","properties":{"airport":"LFRB","name":"4AS","layer":"Labels","category":"Gates","object_type":"Label","style_id":"label.gates","source_group":"LFRB Gates","vsmr_group_ids":[],"geometry_role":"text_label","text-field":"4AS"},"geometry":{"type":"Point","coordinates":[-4.421286111,48.443764167]}},{"type":"Feature","id":"LFRB-1bfe9c05aa4ef636da6b","properties":{"airport":"LFRB","name":"4AN","layer":"Labels","category":"Gates","object_type":"Label","style_id":"label.gates","source_group":"LFRB Gates","vsmr_group_ids":[],"geometry_role":"text_label","text-field":"4AN"},"geometry":{"type":"Point","coordinates":[-4.421468333,48.444431111]}},{"type":"Feature","id":"LFRB-60b26e6cd5bc13ed59ff","properties":{"airport":"LFRB","name":"5","layer":"Labels","category":"Gates","object_type":"Label","style_id":"label.gates","source_group":"LFRB Gates","vsmr_group_ids":[],"geometry_role":"text_label","text-field":"5"},"geometry":{"type":"Point","coordinates":[-4.420958611,48.444572778]}},{"type":"Feature","id":"LFRB-f47cd36d7072ae773b22","properties":{"airport":"LFRB","name":"6","layer":"Labels","category":"Gates","object_type":"Label","style_id":"label.gates","source_group":"LFRB Gates","vsmr_group_ids":[],"geometry_role":"text_label","text-field":"6"},"geometry":{"type":"Point","coordinates":[-4.420616944,48.444618056]}},{"type":"Feature","id":"LFRB-01d1cd1339bf42e1e6d0","properties":{"airport":"LFRB","name":"8A","layer":"Labels","category":"Gates","object_type":"Label","style_id":"label.gates","source_group":"LFRB Gates","vsmr_group_ids":[],"geometry_role":"text_label","text-field":"8A"},"geometry":{"type":"Point","coordinates":[-4.420522778,48.444276944]}},{"type":"Feature","id":"LFRB-18d60ad75406e148249e","properties":{"airport":"LFRB","name":"7A","layer":"Labels","category":"Gates","object_type":"Label","style_id":"label.gates","source_group":"LFRB Gates","vsmr_group_ids":[],"geometry_role":"text_label","text-field":"7A"},"geometry":{"type":"Point","coordinates":[-4.420374444,48.443964722]}},{"type":"Feature","id":"LFRB-33c87e4ae2879477e6e4","properties":{"airport":"LFRB","name":"7","layer":"Labels","category":"Gates","object_type":"Label","style_id":"label.gates","source_group":"LFRB Gates","vsmr_group_ids":[],"geometry_role":"text_label","text-field":"7"},"geometry":{"type":"Point","coordinates":[-4.420083889,48.4442]}},{"type":"Feature","id":"LFRB-e7abb6445802151772ab","properties":{"airport":"LFRB","name":"8","layer":"Labels","category":"Gates","object_type":"Label","style_id":"label.gates","source_group":"LFRB Gates","vsmr_group_ids":[],"geometry_role":"text_label","text-field":"8"},"geometry":{"type":"Point","coordinates":[-4.419420556,48.444197778]}},{"type":"Feature","id":"LFRB-b7ddb70168928b021692","properties":{"airport":"LFRB","name":"9","layer":"Labels","category":"Gates","object_type":"Label","style_id":"label.gates","source_group":"LFRB Gates","vsmr_group_ids":[],"geometry_role":"text_label","text-field":"9"},"geometry":{"type":"Point","coordinates":[-4.417587778,48.445551111]}},{"type":"Feature","id":"LFRB-a9f5ad87026f05ae169c","properties":{"airport":"LFRB","name":"10","layer":"Labels","category":"Gates","object_type":"Label","style_id":"label.gates","source_group":"LFRB Gates","vsmr_group_ids":[],"geometry_role":"text_label","text-field":"10"},"geometry":{"type":"Point","coordinates":[-4.417355833,48.445593889]}},{"type":"Feature","id":"LFRB-96af60e2304627292fdd","properties":{"airport":"LFRB","name":"11","layer":"Labels","category":"Gates","object_type":"Label","style_id":"label.gates","source_group":"LFRB Gates","vsmr_group_ids":[],"geometry_role":"text_label","text-field":"11"},"geometry":{"type":"Point","coordinates":[-4.417170278,48.445640833]}},{"type":"Feature","id":"LFRB-2840bfbcdad0b9dcbcc7","properties":{"airport":"LFRB","name":"Q2","layer":"Labels","category":"Gates","object_type":"Label","style_id":"label.gates","source_group":"LFRB Gates","vsmr_group_ids":[],"geometry_role":"text_label","text-field":"Q2"},"geometry":{"type":"Point","coordinates":[-4.417094444,48.44585]}},{"type":"Feature","id":"LFRB-ac4cbe613fba864cc003","properties":{"airport":"LFRB","name":"Q3","layer":"Labels","category":"Gates","object_type":"Label","style_id":"label.gates","source_group":"LFRB Gates","vsmr_group_ids":[],"geometry_role":"text_label","text-field":"Q3"},"geometry":{"type":"Point","coordinates":[-4.416063889,48.446313889]}},{"type":"Feature","id":"LFRB-b2b1a1139851d4e1376b","properties":{"airport":"LFRB","name":"Q4","layer":"Labels","category":"Gates","object_type":"Label","style_id":"label.gates","source_group":"LFRB Gates","vsmr_group_ids":[],"geometry_role":"text_label","text-field":"Q4"},"geometry":{"type":"Point","coordinates":[-4.417108333,48.446066667]}},{"type":"Feature","id":"LFRB-a3649f87167c7f74d5e0","properties":{"airport":"LFRB","name":"12","layer":"Labels","category":"Gates","object_type":"Label","style_id":"label.gates","source_group":"LFRB Gates","vsmr_group_ids":[],"geometry_role":"text_label","text-field":"12"},"geometry":{"type":"Point","coordinates":[-4.416840278,48.445699167]}},{"type":"Feature","id":"LFRB-c7772cd32a107579186c","properties":{"airport":"LFRB","name":"13","layer":"Labels","category":"Gates","object_type":"Label","style_id":"label.gates","source_group":"LFRB Gates","vsmr_group_ids":[],"geometry_role":"text_label","text-field":"13"},"geometry":{"type":"Point","coordinates":[-4.416644444,48.445757778]}},{"type":"Feature","id":"LFRB-00237bbdffbb5efc862b","properties":{"airport":"LFRB","name":"14","layer":"Labels","category":"Gates","object_type":"Label","style_id":"label.gates","source_group":"LFRB Gates","vsmr_group_ids":[],"geometry_role":"text_label","text-field":"14"},"geometry":{"type":"Point","coordinates":[-4.416490556,48.445936111]}},{"type":"Feature","id":"LFRB-29277cfbed9c8127c1df","properties":{"airport":"LFRB","name":"15","layer":"Labels","category":"Gates","object_type":"Label","style_id":"label.gates","source_group":"LFRB Gates","vsmr_group_ids":[],"geometry_role":"text_label","text-field":"15"},"geometry":{"type":"Point","coordinates":[-4.416051111,48.445895278]}},{"type":"Feature","id":"LFRB-d154b555beca9f692696","properties":{"airport":"LFRB","name":"16","layer":"Labels","category":"Gates","object_type":"Label","style_id":"label.gates","source_group":"LFRB Gates","vsmr_group_ids":[],"geometry_role":"text_label","text-field":"16"},"geometry":{"type":"Point","coordinates":[-4.415542778,48.44599]}},{"type":"Feature","id":"LFRB-833a48f57a2c7ae819de","properties":{"airport":"LFRB","name":"17","layer":"Labels","category":"Gates","object_type":"Label","style_id":"label.gates","source_group":"LFRB Gates","vsmr_group_ids":[],"geometry_role":"text_label","text-field":"17"},"geometry":{"type":"Point","coordinates":[-4.41508,48.446091111]}},{"type":"Feature","id":"LFRB-35ec0a7c8813cac60f79","properties":{"airport":"LFRB","name":"18","layer":"Labels","category":"Gates","object_type":"Label","style_id":"label.gates","source_group":"LFRB Gates","vsmr_group_ids":[],"geometry_role":"text_label","text-field":"18"},"geometry":{"type":"Point","coordinates":[-4.4146725,48.446180556]}},{"type":"Feature","id":"LFRB-ce5854ee4f8285c84588","properties":{"airport":"LFRB","name":"LFRB Groundlayout AVISO","layer":"Guidance lines","category":"Runway Border","object_type":"Line","style_id":"line.runwayborder.808080","source_group":"LFRB Groundlayout AVISO","vsmr_group_ids":[],"geometry_role":"linework"},"geometry":{"type":"MultiLineString","coordinates":[[[-4.398820833,48.452321111],[-4.399076389,48.4522625]],[[-4.399084167,48.452278889],[-4.399206389,48.452234167],[-4.399067778,48.452248889]],[[-4.399585,48.452148056],[-4.399842778,48.452089167]],[[-4.399848056,48.452105278],[-4.399970556,48.452061111],[-4.3998325,48.452075556]],[[-4.400350556,48.451975278],[-4.400610278,48.451916111]],[[-4.400616111,48.451932222],[-4.400734444,48.451888889],[-4.400600556,48.451902222]],[[-4.401119167,48.451801667],[-4.401378611,48.451743333]],[[-4.401384167,48.451758611],[-4.401504722,48.451715],[-4.401367778,48.451729167]],[[-4.401886389,48.451627778],[-4.402145833,48.451569167]],[[-4.402151944,48.451585],[-4.402268889,48.4515425],[-4.402135833,48.451555]],[[-4.402664167,48.451664167],[-4.402473333,48.451284722]]]}},{"type":"Feature","id":"LFRB-09f4f0e9dbe8083baabd","properties":{"airport":"LFRB","name":"LFRB Groundlayout AVISO","layer":"Guidance lines","category":"Taxiways","object_type":"Line","style_id":"line.taxiway.c0b631","source_group":"LFRB Groundlayout AVISO","vsmr_group_ids":[],"geometry_role":"linework"},"geometry":{"type":"MultiLineString","coordinates":[[[-4.422534722,48.4431525],[-4.422767222,48.443605833]],[[-4.422083333,48.443258889],[-4.422406389,48.443750556]],[[-4.421636667,48.443371944],[-4.4221075,48.444085833]],[[-4.421174167,48.443884722],[-4.421708056,48.444323889]],[[-4.421214444,48.4437725],[-4.421382778,48.444528889]],[[-4.421073611,48.443991944],[-4.420850833,48.444735833]],[[-4.420216667,48.444028333],[-4.420601389,48.444775833]],[[-4.420252778,48.4440275],[-4.420028889,48.444788889]],[[-4.420401389,48.444283611],[-4.419566944,48.44466]],[[-4.420065556,48.444247222],[-4.419679444,48.444908611]],[[-4.417517222,48.445585833],[-4.417809722,48.446154167]],[[-4.417319444,48.445628611],[-4.417494444,48.445975278]],[[-4.417092778,48.446319167],[-4.416799167,48.445745278]],[[-4.416500278,48.445773611],[-4.417704444,48.4461725]],[[-4.415903333,48.446319444],[-4.417151667,48.446033611]],[[-4.417453333,48.446234167],[-4.417159722,48.445665278]],[[-4.416746389,48.446395556],[-4.416453611,48.445828333]],[[-4.416319444,48.446493333],[-4.416030833,48.445928056]],[[-4.415814167,48.446606111],[-4.415529167,48.446030556]],[[-4.416790278,48.446105278],[-4.4166275,48.445788333]],[[-4.4153375,48.446711111],[-4.415054444,48.446139722]],[[-4.414946944,48.446810278],[-4.414654722,48.446226667]],[[-4.419615278,48.444072222],[-4.4193925,48.444449167]]]}},{"type":"Feature","id":"LFRB-c7190adf9c317a1e8a3e","properties":{"airport":"LFRB","name":"Y","layer":"Labels","category":"Taxiways","object_type":"Label","style_id":"label.taxiways","source_group":"LFRB Taxiways","vsmr_group_ids":[],"geometry_role":"text_label","text-field":"Y"},"geometry":{"type":"Point","coordinates":[-4.420917222,48.445245833]}},{"type":"Feature","id":"LFRB-8a89a55bbff66479bf6e","properties":{"airport":"LFRB","name":"C2","layer":"Labels","category":"Taxiways","object_type":"Label","style_id":"label.taxiways","source_group":"LFRB Taxiways","vsmr_group_ids":[],"geometry_role":"text_label","text-field":"C2"},"geometry":{"type":"Point","coordinates":[-4.421773056,48.4460575]}},{"type":"Feature","id":"LFRB-a0f1cf59d6cf834af0b6","properties":{"airport":"LFRB","name":"C1","layer":"Labels","category":"Taxiways","object_type":"Label","style_id":"label.taxiways","source_group":"LFRB Taxiways","vsmr_group_ids":[],"geometry_role":"text_label","text-field":"C1"},"geometry":{"type":"Point","coordinates":[-4.421633333,48.445783333]}},{"type":"Feature","id":"LFRB-91185c32ce49b4d738dd","properties":{"airport":"LFRB","name":"Z","layer":"Labels","category":"Taxiways","object_type":"Label","style_id":"label.taxiways","source_group":"LFRB Taxiways","vsmr_group_ids":[],"geometry_role":"text_label","text-field":"Z"},"geometry":{"type":"Point","coordinates":[-4.419856667,48.445369444]}},{"type":"Feature","id":"LFRB-1de72dc636422e68088f","properties":{"airport":"LFRB","name":"P","layer":"Labels","category":"Taxiways","object_type":"Label","style_id":"label.taxiways","source_group":"LFRB Taxiways","vsmr_group_ids":[],"geometry_role":"text_label","text-field":"P"},"geometry":{"type":"Point","coordinates":[-4.419238056,48.446235556]}},{"type":"Feature","id":"LFRB-f7ff3fd1797090833b2b","properties":{"airport":"LFRB","name":"D2","layer":"Labels","category":"Taxiways","object_type":"Label","style_id":"label.taxiways","source_group":"LFRB Taxiways","vsmr_group_ids":[],"geometry_role":"text_label","text-field":"D2"},"geometry":{"type":"Point","coordinates":[-4.416778611,48.447388611]}},{"type":"Feature","id":"LFRB-4e7e00e1a96999f94611","properties":{"airport":"LFRB","name":"D1","layer":"Labels","category":"Taxiways","object_type":"Label","style_id":"label.taxiways","source_group":"LFRB Taxiways","vsmr_group_ids":[],"geometry_role":"text_label","text-field":"D1"},"geometry":{"type":"Point","coordinates":[-4.416683333,48.446902778]}},{"type":"Feature","id":"LFRB-337b5a8985c4b25f9114","properties":{"airport":"LFRB","name":"S","layer":"Labels","category":"Taxiways","object_type":"Label","style_id":"label.taxiways","source_group":"LFRB Taxiways","vsmr_group_ids":[],"geometry_role":"text_label","text-field":"S"},"geometry":{"type":"Point","coordinates":[-4.4141,48.447354167]}},{"type":"Feature","id":"LFRB-89f2459540652a942c21","properties":{"airport":"LFRB","name":"S","layer":"Labels","category":"Taxiways","object_type":"Label","style_id":"label.taxiways","source_group":"LFRB Taxiways","vsmr_group_ids":[],"geometry_role":"text_label","text-field":"S"},"geometry":{"type":"Point","coordinates":[-4.415222222,48.447438889]}},{"type":"Feature","id":"LFRB-46f3fa35c05230c77a5d","properties":{"airport":"LFRB","name":"E2","layer":"Labels","category":"Taxiways","object_type":"Label","style_id":"label.taxiways","source_group":"LFRB Taxiways","vsmr_group_ids":[],"geometry_role":"text_label","text-field":"E2"},"geometry":{"type":"Point","coordinates":[-4.412998611,48.448408056]}},{"type":"Feature","id":"LFRB-99bc6b7207c5ba64d8b8","properties":{"airport":"LFRB","name":"E1","layer":"Labels","category":"Taxiways","object_type":"Label","style_id":"label.taxiways","source_group":"LFRB Taxiways","vsmr_group_ids":[],"geometry_role":"text_label","text-field":"E1"},"geometry":{"type":"Point","coordinates":[-4.412561111,48.447571667]}},{"type":"Feature","id":"LFRB-8b36ac0713ef8b12df7a","properties":{"airport":"LFRB","name":"N","layer":"Labels","category":"Taxiways","object_type":"Label","style_id":"label.taxiways","source_group":"LFRB Taxiways","vsmr_group_ids":[],"geometry_role":"text_label","text-field":"N"},"geometry":{"type":"Point","coordinates":[-4.413323056,48.450833056]}}]}
