{"type":"FeatureCollection","name":"LFRC AVISO","bbox":[-1.486910278,49.645733056,-1.452137778,49.653549722],"metadata":{"schema":"vSMR AVISO","schema_version":2,"geometry_mode":"shared","airport":"LFRC","coordinate_reference_system":"WGS84","coordinate_order":"longitude, latitude","default_color_palette":"dark","color_palettes":["dark","light"],"background_colors":{"dark":"#434A4F","light":"#434A4F"},"runways":[{"ends":["10","28"],"headings":[100,280],"thresholds":[[-1.486863889,49.6522],[-1.453663889,49.648102778]]}],"saved_active_runways":[],"saved_active_airport_modes":[],"airport_reference":[-1.475277778,49.650832778],"feature_count":37,"style_count":9,"layer_counts":{"Guidance lines":7,"Labels":30},"category_counts":{"Apron Surface":1,"Centerlines":1,"Gates":27,"Labels":1,"Runways":1,"Stopbars":1,"TWR-CTR":1,"Taxiways":4},"geometry_source":"local GNG","geometry_source_url":"","geometry_license":"GPL-3.0"},"styles":{"line.runwayconcrete.555555":{"name":"Runways","layer":"Guidance lines","object_type":"Line","paint":{"stroke":"#111318","stroke-opacity":1,"stroke-width":1,"palette-overrides":{"light":{"stroke":"#555555"}}},"feature_count":1},"line.taxiway.c0b631":{"name":"Taxiways","layer":"Guidance lines","object_type":"Line","paint":{"stroke":"#4E5A69","stroke-opacity":1,"stroke-width":1,"palette-overrides":{"light":{"stroke":"#C0B631"}}},"feature_count":1},"line.apronsurface.808080":{"name":"Apron Surface","layer":"Guidance lines","object_type":"Line","paint":{"stroke":"#808080","stroke-opacity":1,"stroke-width":1,"palette-overrides":{"light":{"stroke":"#808080"}}},"feature_count":1},"line.stopbar.7e0000":{"name":"Stopbars","layer":"Guidance lines","object_type":"Line","paint":{"stroke":"#7E0000","stroke-opacity":1,"stroke-width":1,"palette-overrides":{"light":{"stroke":"#7E0000"}}},"feature_count":1},"line.centerlines.ffff00":{"name":"Centerlines","layer":"Guidance lines","object_type":"Line","paint":{"stroke":"#FFFF00","stroke-opacity":1,"stroke-width":1,"palette-overrides":{"light":{"stroke":"#FFFF00"}}},"feature_count":1},"line.twr-ctr.000000":{"name":"TWR-CTR","layer":"Guidance lines","object_type":"Line","paint":{"stroke":"#000000","stroke-opacity":1,"stroke-width":1,"palette-overrides":{"light":{"stroke":"#000000"}}},"feature_count":1},"line.labels.808080":{"name":"Labels","layer":"Guidance lines","object_type":"Line","paint":{"stroke":"#808080","stroke-opacity":1,"stroke-width":1,"palette-overrides":{"light":{"stroke":"#808080"}}},"feature_count":1},"label.gates":{"name":"Gates","layer":"Labels","object_type":"Label","paint":{"text-color":"#CCCCCC","text-font":"Arial","text-size":12,"text-halo-color":"#000000","text-halo-width":1,"text-anchor":"center","zoomLevel":9},"feature_count":27},"label.taxiways":{"name":"Taxiways","layer":"Labels","object_type":"Label","paint":{"text-color":"#CCCCCC","text-font":"Arial","text-size":12,"text-halo-color":"#000000","text-halo-width":1,"text-anchor":"center","zoomLevel":7},"feature_count":3}},"vsmr_groups":[],"features":[{"type":"Feature","id":"LFRC-7e3e72d6ad365afc9056","properties":{"airport":"LFRC","name":"Parking Militaire","layer":"Labels","category":"Gates","object_type":"Label","style_id":"label.gates","source_group":"LFRC Gates","vsmr_group_ids":[],"geometry_role":"text_label","text-field":"Parking Militaire"},"geometry":{"type":"Point","coordinates":[-1.458563889,49.653549722]}},{"type":"Feature","id":"LFRC-0a0a57d047966b04dbc4","properties":{"airport":"LFRC","name":"TWR","layer":"Labels","category":"Gates","object_type":"Label","style_id":"label.gates","source_group":"LFRC Gates","vsmr_group_ids":[],"geometry_role":"text_label","text-field":"TWR"},"geometry":{"type":"Point","coordinates":[-1.477243889,49.647829722]}},{"type":"Feature","id":"LFRC-5eff087abf127b67b617","properties":{"airport":"LFRC","name":"Terminal","layer":"Labels","category":"Gates","object_type":"Label","style_id":"label.gates","source_group":"LFRC Gates","vsmr_group_ids":[],"geometry_role":"text_label","text-field":"Terminal"},"geometry":{"type":"Point","coordinates":[-1.476998889,49.647278611]}},{"type":"Feature","id":"LFRC-5e203a6d0f76bab23834","properties":{"airport":"LFRC","name":"RFFS","layer":"Labels","category":"Gates","object_type":"Label","style_id":"label.gates","source_group":"LFRC Gates","vsmr_group_ids":[],"geometry_role":"text_label","text-field":"RFFS"},"geometry":{"type":"Point","coordinates":[-1.477711667,49.648013056]}},{"type":"Feature","id":"LFRC-f3fa29e39ba7a6a4340a","properties":{"airport":"LFRC","name":"Hangar ACB","layer":"Labels","category":"Gates","object_type":"Label","style_id":"label.gates","source_group":"LFRC Gates","vsmr_group_ids":[],"geometry_role":"text_label","text-field":"Hangar ACB"},"geometry":{"type":"Point","coordinates":[-1.475997222,49.645835833]}},{"type":"Feature","id":"LFRC-c801fc8d4dd763d52f22","properties":{"airport":"LFRC","name":"H","layer":"Labels","category":"Gates","object_type":"Label","style_id":"label.gates","source_group":"LFRC Gates","vsmr_group_ids":[],"geometry_role":"text_label","text-field":"H"},"geometry":{"type":"Point","coordinates":[-1.476604167,49.648146111]}},{"type":"Feature","id":"LFRC-761602e7dc3bd214a0a4","properties":{"airport":"LFRC","name":"S1","layer":"Labels","category":"Gates","object_type":"Label","style_id":"label.gates","source_group":"LFRC Gates","vsmr_group_ids":[],"geometry_role":"text_label","text-field":"S1"},"geometry":{"type":"Point","coordinates":[-1.476386111,49.647691111]}},{"type":"Feature","id":"LFRC-1e861a5335dfd2589d73","properties":{"airport":"LFRC","name":"N1","layer":"Labels","category":"Gates","object_type":"Label","style_id":"label.gates","source_group":"LFRC Gates","vsmr_group_ids":[],"geometry_role":"text_label","text-field":"N1"},"geometry":{"type":"Point","coordinates":[-1.475813611,49.647894444]}},{"type":"Feature","id":"LFRC-17ab9a8f15b087013b6f","properties":{"airport":"LFRC","name":"S2","layer":"Labels","category":"Gates","object_type":"Label","style_id":"label.gates","source_group":"LFRC Gates","vsmr_group_ids":[],"geometry_role":"text_label","text-field":"S2"},"geometry":{"type":"Point","coordinates":[-1.476220556,49.647518889]}},{"type":"Feature","id":"LFRC-d1dc02e0d0749cd7db5f","properties":{"airport":"LFRC","name":"N2","layer":"Labels","category":"Gates","object_type":"Label","style_id":"label.gates","source_group":"LFRC Gates","vsmr_group_ids":[],"geometry_role":"text_label","text-field":"N2"},"geometry":{"type":"Point","coordinates":[-1.475636667,49.647729444]}},{"type":"Feature","id":"LFRC-d60e9c3300d71099a084","properties":{"airport":"LFRC","name":"S3","layer":"Labels","category":"Gates","object_type":"Label","style_id":"label.gates","source_group":"LFRC Gates","vsmr_group_ids":[],"geometry_role":"text_label","text-field":"S3"},"geometry":{"type":"Point","coordinates":[-1.476084444,49.647360278]}},{"type":"Feature","id":"LFRC-db085b8db2202cc1897e","properties":{"airport":"LFRC","name":"N3","layer":"Labels","category":"Gates","object_type":"Label","style_id":"label.gates","source_group":"LFRC Gates","vsmr_group_ids":[],"geometry_role":"text_label","text-field":"N3"},"geometry":{"type":"Point","coordinates":[-1.475498889,49.647564722]}},{"type":"Feature","id":"LFRC-5f5a60152cdd02eee08a","properties":{"airport":"LFRC","name":"S4","layer":"Labels","category":"Gates","object_type":"Label","style_id":"label.gates","source_group":"LFRC Gates","vsmr_group_ids":[],"geometry_role":"text_label","text-field":"S4"},"geometry":{"type":"Point","coordinates":[-1.475894722,49.647198611]}},{"type":"Feature","id":"LFRC-1a614f89d61bc014df3c","properties":{"airport":"LFRC","name":"N4","layer":"Labels","category":"Gates","object_type":"Label","style_id":"label.gates","source_group":"LFRC Gates","vsmr_group_ids":[],"geometry_role":"text_label","text-field":"N4"},"geometry":{"type":"Point","coordinates":[-1.475353056,49.647398611]}},{"type":"Feature","id":"LFRC-85e35ca9f6804d2a631c","properties":{"airport":"LFRC","name":"S5","layer":"Labels","category":"Gates","object_type":"Label","style_id":"label.gates","source_group":"LFRC Gates","vsmr_group_ids":[],"geometry_role":"text_label","text-field":"S5"},"geometry":{"type":"Point","coordinates":[-1.475740556,49.647024167]}},{"type":"Feature","id":"LFRC-2702ca3a30a4d530c402","properties":{"airport":"LFRC","name":"N5","layer":"Labels","category":"Gates","object_type":"Label","style_id":"label.gates","source_group":"LFRC Gates","vsmr_group_ids":[],"geometry_role":"text_label","text-field":"N5"},"geometry":{"type":"Point","coordinates":[-1.475226389,49.647235]}},{"type":"Feature","id":"LFRC-f7b543a94cbd69d70f16","properties":{"airport":"LFRC","name":"S6","layer":"Labels","category":"Gates","object_type":"Label","style_id":"label.gates","source_group":"LFRC Gates","vsmr_group_ids":[],"geometry_role":"text_label","text-field":"S6"},"geometry":{"type":"Point","coordinates":[-1.475594722,49.6468625]}},{"type":"Feature","id":"LFRC-c63817cb9774cf64220a","properties":{"airport":"LFRC","name":"N6","layer":"Labels","category":"Gates","object_type":"Label","style_id":"label.gates","source_group":"LFRC Gates","vsmr_group_ids":[],"geometry_role":"text_label","text-field":"N6"},"geometry":{"type":"Point","coordinates":[-1.475036667,49.64707]}},{"type":"Feature","id":"LFRC-c73f330c0ed9ff0d8093","properties":{"airport":"LFRC","name":"S7","layer":"Labels","category":"Gates","object_type":"Label","style_id":"label.gates","source_group":"LFRC Gates","vsmr_group_ids":[],"geometry_role":"text_label","text-field":"S7"},"geometry":{"type":"Point","coordinates":[-1.475450278,49.646694444]}},{"type":"Feature","id":"LFRC-967e77f32f222648345a","properties":{"airport":"LFRC","name":"N7","layer":"Labels","category":"Gates","object_type":"Label","style_id":"label.gates","source_group":"LFRC Gates","vsmr_group_ids":[],"geometry_role":"text_label","text-field":"N7"},"geometry":{"type":"Point","coordinates":[-1.474892778,49.646894444]}},{"type":"Feature","id":"LFRC-8ef1de5270331d7cc2cf","properties":{"airport":"LFRC","name":"71","layer":"Labels","category":"Gates","object_type":"Label","style_id":"label.gates","source_group":"LFRC Gates","vsmr_group_ids":[],"geometry_role":"text_label","text-field":"71"},"geometry":{"type":"Point","coordinates":[-1.475136667,49.647207778]}},{"type":"Feature","id":"LFRC-4286853fa47656e2be6c","properties":{"airport":"LFRC","name":"71","layer":"Labels","category":"Gates","object_type":"Label","style_id":"label.gates","source_group":"LFRC Gates","vsmr_group_ids":[],"geometry_role":"text_label","text-field":"71"},"geometry":{"type":"Point","coordinates":[-1.4754625,49.646788889]}},{"type":"Feature","id":"LFRC-a0c6c5ecb1eca3879b7d","properties":{"airport":"LFRC","name":"AVGAS","layer":"Labels","category":"Gates","object_type":"Label","style_id":"label.gates","source_group":"LFRC Gates","vsmr_group_ids":[],"geometry_role":"text_label","text-field":"AVGAS"},"geometry":{"type":"Point","coordinates":[-1.476079722,49.646416944]}},{"type":"Feature","id":"LFRC-89a6b245a8d4e5974f7a","properties":{"airport":"LFRC","name":"Commercial Aviation","layer":"Labels","category":"Gates","object_type":"Label","style_id":"label.gates","source_group":"LFRC Gates","vsmr_group_ids":[],"geometry_role":"text_label","text-field":"Commercial Aviation"},"geometry":{"type":"Point","coordinates":[-1.475089722,49.647577778]}},{"type":"Feature","id":"LFRC-f4de500b27e839ebf8d6","properties":{"airport":"LFRC","name":"Gros Porteur","layer":"Labels","category":"Gates","object_type":"Label","style_id":"label.gates","source_group":"LFRC Gates","vsmr_group_ids":[],"geometry_role":"text_label","text-field":"Gros Porteur"},"geometry":{"type":"Point","coordinates":[-1.475114444,49.647181667]}},{"type":"Feature","id":"LFRC-066be08a534b004bbc1b","properties":{"airport":"LFRC","name":"General Aviation < 12 m","layer":"Labels","category":"Gates","object_type":"Label","style_id":"label.gates","source_group":"LFRC Gates","vsmr_group_ids":[],"geometry_role":"text_label","text-field":"General Aviation < 12 m"},"geometry":{"type":"Point","coordinates":[-1.474351389,49.646533889]}},{"type":"Feature","id":"LFRC-1be8d89f9b9f0ab66683","properties":{"airport":"LFRC","name":"Reserve Aeroclub","layer":"Labels","category":"Gates","object_type":"Label","style_id":"label.gates","source_group":"LFRC Gates","vsmr_group_ids":[],"geometry_role":"text_label","text-field":"Reserve Aeroclub"},"geometry":{"type":"Point","coordinates":[-1.475479444,49.646086667]}},{"type":"Feature","id":"LFRC-571911ba115e0e3e56ed","properties":{"airport":"LFRC","name":"LFRC Groundlayout","layer":"Guidance lines","category":"Runways","object_type":"Line","style_id":"line.runwayconcrete.555555","source_group":"LFRC Groundlayout","vsmr_group_ids":[],"geometry_role":"linework"},"geometry":{"type":"MultiLineString","coordinates":[[[-1.453706667,49.647911667],[-1.453591111,49.6483025]],[[-1.476028333,49.650668056],[-1.485981111,49.651896667],[-1.486029444,49.6518925],[-1.486082222,49.651888333],[-1.486136944,49.651881667],[-1.486185278,49.6518775],[-1.486240278,49.651869444],[-1.486288611,49.651855833],[-1.486332778,49.651844722],[-1.486373056,49.651831111],[-1.486415,49.651816111],[-1.486446667,49.651798333],[-1.486480278,49.651779167],[-1.486514167,49.651764167],[-1.486545833,49.6517575],[-1.486575278,49.651761667],[-1.486623611,49.651771111],[-1.486651111,49.651780556],[-1.486695278,49.651795556],[-1.486731111,49.651813333],[-1.486766944,49.651833889],[-1.486796389,49.651856944],[-1.486823889,49.651876111],[-1.486845,49.651896667],[-1.486859722,49.651918333],[-1.486868056,49.651940278],[-1.486885,49.651966111],[-1.486899722,49.651988056],[-1.486906111,49.652008333],[-1.486910278,49.652033056],[-1.486798056,49.652400278],[-1.460790278,49.649189722]],[[-1.4596775,49.649051667],[-1.454246389,49.648380833]]]}},{"type":"Feature","id":"LFRC-ab20b96addcea4529b46","properties":{"airport":"LFRC","name":"LFRC Groundlayout","layer":"Guidance lines","category":"Taxiways","object_type":"Line","style_id":"line.taxiway.c0b631","source_group":"LFRC Groundlayout","vsmr_group_ids":[],"geometry_role":"linework"},"geometry":{"type":"MultiLineString","coordinates":[[[-1.454095,49.651529722],[-1.453728889,49.651488333],[-1.453623056,49.651383056],[-1.453555278,49.651292778],[-1.453495,49.651202222],[-1.453434444,49.651104444],[-1.453389444,49.651009167],[-1.453340278,49.650879722],[-1.45328,49.650670278],[-1.453256389,49.650528056],[-1.453256667,49.650378056],[-1.453258889,49.650287778],[-1.453268333,49.650193056],[-1.453301111,49.650044167],[-1.453328333,49.649945278],[-1.453367778,49.649830556],[-1.453395,49.649736389],[-1.453421944,49.649639167],[-1.453446667,49.649540278],[-1.453498333,49.649366667],[-1.453568056,49.649123611],[-1.453635556,49.648880833],[-1.453710833,49.648641389],[-1.453760556,49.648595278],[-1.453801389,49.648558333],[-1.453850278,49.648521389],[-1.453886944,49.648496111],[-1.453921667,49.648476389],[-1.4539625,49.648459167],[-1.454007222,49.648443611],[-1.454060278,49.648423611],[-1.454107222,49.648411944],[-1.454162222,49.6484025],[-1.454206944,49.648394722],[-1.454241667,49.648378889]],[[-1.476021944,49.650666667],[-1.475966667,49.650638889],[-1.4759175,49.650618056],[-1.475857222,49.650594722],[-1.47581,49.650570278],[-1.475766667,49.650539722],[-1.475740278,49.650514167],[-1.475706111,49.650492222],[-1.475675833,49.650457778],[-1.4756475,49.650432222],[-1.475623056,49.650390556],[-1.475602222,49.650356389],[-1.475589167,49.650313611],[-1.475589167,49.650281944],[-1.475585278,49.650225],[-1.475588889,49.650172222],[-1.475593056,49.650128333],[-1.4756025,49.650061111],[-1.475614722,49.650002778],[-1.475627222,49.649956944],[-1.475985833,49.648320556],[-1.475995,49.6482725],[-1.476004444,49.648236111],[-1.476013611,49.648209722],[-1.476028611,49.648183056],[-1.476050833,49.648154167],[-1.476088333,49.648116667],[-1.476131111,49.648080556],[-1.476179444,49.648038056],[-1.476235556,49.648012778]],[[-1.474536111,49.650482222],[-1.474654722,49.650474167],[-1.474760833,49.650462778],[-1.474826667,49.650452778],[-1.474887222,49.650436389],[-1.474953056,49.650410278],[-1.475011111,49.650384167],[-1.475071944,49.650349722],[-1.4751225,49.650315278],[-1.475173056,49.650274444],[-1.475198056,49.650235278],[-1.475228611,49.650200833],[-1.475263889,49.650130556],[-1.475287222,49.650062222],[-1.475305556,49.650003611],[-1.475318056,49.649935556],[-1.475355556,49.649756111],[-1.475434444,49.649388889],[-1.475594167,49.648671111],[-1.47566,49.648332222],[-1.475685833,49.648210833],[-1.475690833,49.648162222],[-1.475685833,49.648123333],[-1.475670833,49.648073056],[-1.475648333,49.648026111]],[[-1.460781111,49.649187778],[-1.460767778,49.649205],[-1.460733056,49.649209444],[-1.460683056,49.649215833],[-1.46063,49.6492275],[-1.460573611,49.649239444],[-1.460524444,49.649256389],[-1.460478333,49.649270278],[-1.460446111,49.649290278],[-1.460409167,49.649307222],[-1.460371944,49.649331944],[-1.460342778,49.649351944],[-1.460313611,49.649376944],[-1.460291944,49.649396944],[-1.460273611,49.649419722],[-1.460259722,49.649445833],[-1.460241111,49.649446667],[-1.460233333,49.649467778],[-1.460218056,49.649524444],[-1.460026667,49.650174722],[-1.459953333,49.650447222],[-1.459889444,49.650662222],[-1.459820278,49.650877222],[-1.459769722,49.651015],[-1.459730833,49.6511125],[-1.459656944,49.651235556],[-1.459517222,49.651435833],[-1.459554722,49.651675556]],[[-1.459512778,49.651856389],[-1.459060556,49.651870278],[-1.459012778,49.651898333],[-1.458919722,49.651964167],[-1.458846111,49.652011944],[-1.4587575,49.652062222],[-1.4586775,49.652108611],[-1.458575556,49.652158889],[-1.458478333,49.652208056],[-1.458400278,49.652246111],[-1.4583375,49.652275556],[-1.458268056,49.652563889]],[[-1.457973056,49.652560556],[-1.4576225,49.652505],[-1.457458333,49.6525375],[-1.457241389,49.652759722]],[[-1.457016389,49.652781111],[-1.456699167,49.652629167],[-1.456213889,49.652625],[-1.455880556,49.652785]],[[-1.455664167,49.652751389],[-1.455464444,49.65254],[-1.454982222,49.652410556],[-1.454582778,49.652471944]],[[-1.454391667,49.652396667],[-1.454316944,49.652141111],[-1.453942778,49.651909167],[-1.453530556,49.651873889]],[[-1.453413333,49.651762222],[-1.453485,49.651501389],[-1.453270833,49.651201111],[-1.452906389,49.651068889]],[[-1.452853889,49.650931111],[-1.453068611,49.650706944],[-1.4530625,49.650629444],[-1.453047222,49.650544167],[-1.453050278,49.650484444],[-1.453044167,49.650421111],[-1.453047222,49.650349444],[-1.453047222,49.65028],[-1.453059722,49.650216667],[-1.453068889,49.650149167],[-1.453084167,49.6500875],[-1.453104444,49.649997778],[-1.453120278,49.649953056],[-1.453133611,49.649896944],[-1.453160278,49.649801667],[-1.453207222,49.649651389],[-1.453278889,49.649413333],[-1.453456667,49.648803611],[-1.453594167,49.648300833]],[[-1.459681389,49.64905],[-1.459704444,49.649077778],[-1.459776389,49.649109444],[-1.459848333,49.6491475],[-1.459884167,49.649181389],[-1.459923611,49.649213333],[-1.459956389,49.649253611],[-1.459985556,49.649306389],[-1.460015,49.649365833],[-1.460031389,49.649416667],[-1.460015,49.649501389],[-1.459962778,49.649681389],[-1.459893889,49.649923056],[-1.459674722,49.650660278],[-1.459618333,49.650888889],[-1.459554722,49.651035],[-1.459455833,49.651190556],[-1.459399167,49.651295556],[-1.459300278,49.651405278],[-1.459159167,49.651551667],[-1.458996667,49.651693333],[-1.45882,49.651830278],[-1.458608333,49.6519675],[-1.458424722,49.652063333],[-1.458127778,49.652196111],[-1.457765833,49.652117778]],[[-1.457563889,49.652176111],[-1.457410833,49.652400556],[-1.457335833,49.652418056],[-1.457250833,49.652428889],[-1.457146389,49.652444722],[-1.457039722,49.652461944],[-1.456891667,49.652479167],[-1.456772778,49.652483889],[-1.456658611,49.652488611],[-1.456537222,49.65249],[-1.456415833,49.652491667],[-1.456311667,49.652488611],[-1.4561975,49.652485278],[-1.456081111,49.652475833],[-1.455875556,49.65227]],[[-1.4556625,49.652237778],[-1.455335556,49.652355],[-1.455178056,49.652315],[-1.455041944,49.652277778],[-1.454855833,49.652211389],[-1.454705556,49.652154167],[-1.454583889,49.652096944],[-1.454488333,49.652048889],[-1.454383333,49.651993333],[-1.454207222,49.651885],[-1.454235556,49.651638056]]]}},{"type":"Feature","id":"LFRC-97b4035976594dd0a786","properties":{"airport":"LFRC","name":"LFRC Groundlayout","layer":"Guidance lines","category":"Apron Surface","object_type":"Line","style_id":"line.apronsurface.808080","source_group":"LFRC Groundlayout","vsmr_group_ids":[],"geometry_role":"linework"},"geometry":{"type":"MultiLineString","coordinates":[[[-1.454235278,49.651639167],[-1.454297222,49.651606667],[-1.454369722,49.651568611],[-1.454438056,49.651533333],[-1.454451111,49.651536944],[-1.454468333,49.651541111],[-1.454493611,49.651545],[-1.454518056,49.651548611],[-1.454541667,49.651549722],[-1.454571667,49.651550278],[-1.454596944,49.651550278],[-1.454618889,49.651548611],[-1.454636944,49.651545],[-1.454654722,49.651541111],[-1.454675833,49.651536389],[-1.454688611,49.651531944],[-1.454703056,49.651525],[-1.454718056,49.651516944],[-1.454733889,49.651509722],[-1.454745,49.6515025],[-1.454759444,49.651494444],[-1.454766667,49.651485],[-1.454777222,49.651475833],[-1.454785833,49.651466111],[-1.454792222,49.651458333],[-1.4547975,49.651448611],[-1.454802222,49.6514375],[-1.454804722,49.651425556],[-1.454809444,49.651413333],[-1.454812778,49.651400556],[-1.454813333,49.651391667],[-1.454813333,49.651379722],[-1.454812778,49.651363611],[-1.454808056,49.651350556],[-1.454800556,49.651336111],[-1.454792222,49.651322778],[-1.454785,49.651309444],[-1.454773611,49.651298056],[-1.454758889,49.651287222],[-1.454742222,49.651273889],[-1.454727222,49.651263611],[-1.454709444,49.651254167],[-1.454691111,49.651243333],[-1.4546725,49.651236111],[-1.454653889,49.651231111],[-1.454633333,49.651226389],[-1.454606389,49.651222222],[-1.454574722,49.651218611],[-1.454551667,49.651218056],[-1.454530278,49.651219167],[-1.454506944,49.651222222],[-1.454484722,49.651226389],[-1.454463333,49.651233611],[-1.454442778,49.651240833],[-1.454424167,49.6512475],[-1.454408333,49.651255833],[-1.454388889,49.651266667],[-1.454372222,49.651276944],[-1.454359167,49.651287778],[-1.454348889,49.651299722],[-1.454333889,49.651313056],[-1.454323611,49.651325556],[-1.454315278,49.651338333],[-1.454309722,49.651350833],[-1.454305,49.651363611],[-1.454305,49.651379722],[-1.454306111,49.651397222],[-1.4543125,49.651423889],[-1.454165556,49.651500833],[-1.454099444,49.651533056],[-1.454093056,49.651529722]],[[-1.476233889,49.648014444],[-1.476285278,49.64799],[-1.476626667,49.647858333],[-1.4766975,49.647931111],[-1.476738333,49.647966944],[-1.476791389,49.648002778],[-1.476838611,49.648035833],[-1.476883611,49.648062222],[-1.476945,49.64809],[-1.477010556,49.648119167],[-1.477075833,49.648146944],[-1.477133056,49.648164167],[-1.477184444,49.648176111],[-1.477249722,49.648193333],[-1.477319444,49.648206667],[-1.477676944,49.648248056],[-1.477726667,49.648083611],[-1.477263611,49.648006389],[-1.477149167,49.647961111],[-1.477093889,49.647941667],[-1.477045833,49.647908889],[-1.477000278,49.647869722],[-1.476686944,49.647548889],[-1.475862778,49.646653611],[-1.47603,49.646588056],[-1.475785556,49.646320278],[-1.475600556,49.646374167],[-1.475417778,49.6461775],[-1.475748333,49.646041111],[-1.475458889,49.645733056],[-1.474932778,49.645940278],[-1.47434,49.645868333],[-1.47402,49.645909444],[-1.474013333,49.645946667],[-1.474019444,49.645991667],[-1.474033889,49.646035556],[-1.474052222,49.646076667],[-1.474072778,49.646115278],[-1.474103611,49.646153611],[-1.474316667,49.646397778],[-1.474716944,49.646848333],[-1.474607222,49.646886389],[-1.475159444,49.647496944],[-1.475649722,49.648029167]],[[-1.459554167,49.651673889],[-1.459546944,49.651675278],[-1.460713611,49.652535],[-1.460208611,49.652826389],[-1.460145833,49.652783889],[-1.460113333,49.652778611],[-1.460034167,49.65283],[-1.460131667,49.652905],[-1.459788056,49.653102222],[-1.459676667,49.653025278],[-1.459570278,49.653085],[-1.459646667,49.653146944],[-1.459138056,49.653430556],[-1.457986111,49.652564167],[-1.457966667,49.65256]],[[-1.459512222,49.651856389],[-1.459733889,49.652019167],[-1.459700278,49.652281111],[-1.459614167,49.652329167],[-1.459443889,49.652205],[-1.459424722,49.652195833],[-1.459404167,49.6521875],[-1.45938,49.652179167],[-1.459351667,49.652172778],[-1.459322222,49.652170278],[-1.459295278,49.652172778],[-1.459272222,49.652174444],[-1.459251667,49.652180833],[-1.458863333,49.652391667],[-1.458832222,49.6524275],[-1.458815,49.652449722],[-1.458808889,49.652469167],[-1.458808889,49.652486389],[-1.458807222,49.652500556],[-1.458811944,49.652518889],[-1.458821389,49.652537222],[-1.4588275,49.652554444],[-1.458833889,49.652572778],[-1.458849444,49.652591111],[-1.4589625,49.652698611],[-1.458885556,49.652743333],[-1.458474444,49.652726111],[-1.458268333,49.652564444]],[[-1.457240278,49.652762778],[-1.457315,49.653038611],[-1.457348889,49.653043333],[-1.457367222,49.653049722],[-1.457389722,49.653056667],[-1.457409444,49.653069167],[-1.457430833,49.653083056],[-1.457449444,49.653093889],[-1.457465278,49.653109722],[-1.457477778,49.653126111],[-1.457491667,49.653140278],[-1.457498333,49.653157222],[-1.457503333,49.653176944],[-1.457504167,49.653198333],[-1.457501389,49.653221944],[-1.457496389,49.653243333],[-1.457486667,49.653260556],[-1.457470833,49.653279444],[-1.457455278,49.653293333],[-1.457439722,49.65331],[-1.457417222,49.6533225],[-1.457391667,49.653333333],[-1.457363333,49.653344722],[-1.457338889,49.653351667],[-1.457304722,49.653358056],[-1.457268611,49.653361111],[-1.457226389,49.653361111],[-1.457187222,49.653356667],[-1.45715,49.653350278],[-1.457122778,49.653339722],[-1.457095278,49.6533275],[-1.45707,49.6533125],[-1.457050278,49.653298333],[-1.457035833,49.6532825],[-1.457021944,49.653263611],[-1.457013333,49.653245833],[-1.457008333,49.653228889],[-1.457006389,49.653212222],[-1.4570025,49.653192778],[-1.4570075,49.653175],[-1.457010278,49.653158611],[-1.457018056,49.653141944],[-1.457028889,49.653123056],[-1.457039722,49.653109167],[-1.457053333,49.653094444],[-1.457066944,49.6530825],[-1.457086667,49.653070556],[-1.457106111,49.653058333],[-1.457031389,49.652781667],[-1.457014444,49.652780556]],[[-1.455881111,49.652785],[-1.455829722,49.652950278],[-1.455860833,49.652967222],[-1.455883333,49.652985],[-1.4559025,49.653004444],[-1.455920556,49.6530275],[-1.455928889,49.65305],[-1.455938056,49.6530675],[-1.455940833,49.653090278],[-1.455940833,49.653109167],[-1.455933056,49.653129444],[-1.455921389,49.653149722],[-1.455908611,49.653165556],[-1.455891944,49.653181944],[-1.4558725,49.653199722],[-1.455851111,49.653211111],[-1.4558275,49.6532225],[-1.455797222,49.653233056],[-1.45577,49.653240556],[-1.455736944,49.6532475],[-1.455704722,49.653251944],[-1.4556725,49.653251944],[-1.455640278,49.653248889],[-1.455608889,49.653243889],[-1.455576667,49.653236111],[-1.455549444,49.653226111],[-1.455521111,49.653214167],[-1.455491944,49.653199444],[-1.455471389,49.653183056],[-1.455453889,49.653165556],[-1.45544,49.653147222],[-1.455435278,49.65313],[-1.455434167,49.653110556],[-1.455433333,49.653090278],[-1.455432222,49.653071944],[-1.455434167,49.653056667],[-1.455440278,49.653041667],[-1.455448056,49.653028333],[-1.455461667,49.653014444],[-1.4554725,49.653004167],[-1.455484167,49.652989167],[-1.455499722,49.652975833],[-1.455514444,49.652964444],[-1.455532778,49.652954444],[-1.455549444,49.652945556],[-1.45557,49.652939722],[-1.455594444,49.652932778],[-1.455629444,49.652924167],[-1.455676944,49.652755],[-1.455663056,49.652750833]],[[-1.454581944,49.652471667],[-1.454573889,49.652469722],[-1.454428611,49.652617778],[-1.454436944,49.652628056],[-1.454447778,49.652640556],[-1.454458056,49.652655278],[-1.454462222,49.652669444],[-1.454468889,49.652683333],[-1.454469722,49.652694444],[-1.454471389,49.6527075],[-1.454469722,49.652720833],[-1.454468056,49.652733333],[-1.454463889,49.652745],[-1.454458611,49.652756944],[-1.454451111,49.652770556],[-1.454440278,49.652785],[-1.454428611,49.652799167],[-1.454418333,49.65281],[-1.454404167,49.65282],[-1.45439,49.652831389],[-1.454374722,49.652838889],[-1.454358889,49.652846944],[-1.454337778,49.652854167],[-1.454311667,49.652861111],[-1.454290833,49.652865],[-1.454269722,49.652868889],[-1.454248056,49.652871389],[-1.454224444,49.6528725],[-1.4541975,49.6528725],[-1.4541725,49.652869167],[-1.454148889,49.652867222],[-1.454126944,49.652861111],[-1.454101944,49.652857778],[-1.4540825,49.652849722],[-1.4540575,49.652842778],[-1.454039722,49.652832222],[-1.454027222,49.6528225],[-1.454015278,49.652811111],[-1.454001389,49.652796389],[-1.453987778,49.652783333],[-1.453978611,49.65277],[-1.453976944,49.652756389],[-1.453971389,49.652740833],[-1.453971389,49.652723889],[-1.453972222,49.652707222],[-1.453976111,49.6526925],[-1.453979722,49.652678889],[-1.453986111,49.652666667],[-1.453991389,49.652654722],[-1.454001389,49.652641111],[-1.454013333,49.652628889],[-1.454024444,49.652618889],[-1.454035278,49.652609444],[-1.454046111,49.652598611],[-1.454058889,49.652588056],[-1.454071667,49.652578611],[-1.45409,49.652569167],[-1.454105556,49.652563889],[-1.454122778,49.652556111],[-1.454143889,49.652549722],[-1.454163889,49.652548056],[-1.4541875,49.652544444],[-1.454212222,49.652542778],[-1.454235,49.652541944],[-1.454254167,49.652545],[-1.454309722,49.652494722],[-1.454396667,49.652399167],[-1.454390556,49.652394722]],[[-1.453529722,49.651873889],[-1.453316667,49.651971944],[-1.453321111,49.651986667],[-1.453325833,49.652002778],[-1.453323889,49.652018889],[-1.453318056,49.652035],[-1.4533125,49.65205],[-1.453304722,49.652066667],[-1.453293333,49.652083333],[-1.453282778,49.652098056],[-1.453269444,49.652108611],[-1.453256111,49.652118611],[-1.453241667,49.652127778],[-1.453225278,49.652137778],[-1.453203333,49.652145833],[-1.453181389,49.652153889],[-1.453158333,49.652160556],[-1.453128889,49.652165556],[-1.453103056,49.65217],[-1.45308,49.65217],[-1.453055278,49.652171667],[-1.453019722,49.652168611],[-1.452985556,49.652163056],[-1.452957778,49.652155],[-1.452933889,49.6521475],[-1.452908056,49.652137778],[-1.452886111,49.652125833],[-1.452868889,49.652114722],[-1.452853611,49.652100556],[-1.452839167,49.652084444],[-1.452827778,49.652068889],[-1.452818056,49.652051667],[-1.452815278,49.652036111],[-1.452810556,49.652018889],[-1.452811389,49.652003333],[-1.452814444,49.651988611],[-1.452816389,49.651973611],[-1.452823889,49.651960833],[-1.4528325,49.651945278],[-1.452846944,49.651932222],[-1.452866111,49.651914167],[-1.452875556,49.651899444],[-1.452902778,49.651887778],[-1.452927222,49.651873611],[-1.452954444,49.651863611],[-1.452981667,49.651855278],[-1.453020556,49.651847778],[-1.453053056,49.651840833],[-1.4530775,49.651841667],[-1.453106111,49.6518425],[-1.453130556,49.651847778],[-1.453159167,49.651851111],[-1.453195278,49.651862778],[-1.453411389,49.651766667],[-1.453413611,49.6517625]],[[-1.452906111,49.651067778],[-1.452648889,49.651108333],[-1.4526425,49.651127778],[-1.452635278,49.651141389],[-1.452626389,49.651154722],[-1.452616111,49.651169167],[-1.452602778,49.651180278],[-1.452585278,49.651191667],[-1.452562222,49.651203056],[-1.452546944,49.651212222],[-1.452525556,49.651220556],[-1.452508889,49.6512275],[-1.452490556,49.651233333],[-1.452468333,49.651236389],[-1.452445556,49.65124],[-1.4524175,49.6512425],[-1.452391389,49.651241944],[-1.452370833,49.651240556],[-1.452346944,49.651239167],[-1.45232,49.651236944],[-1.452295833,49.651231667],[-1.452277222,49.651225833],[-1.4522575,49.651219444],[-1.452241389,49.651211389],[-1.452225278,49.651202222],[-1.45221,49.651191667],[-1.452193056,49.651180556],[-1.452180556,49.651170278],[-1.4521725,49.6511575],[-1.45216,49.651144167],[-1.452152778,49.651130278],[-1.452145833,49.651115833],[-1.452143056,49.651099722],[-1.452137778,49.651083889],[-1.452139444,49.651067778],[-1.452142222,49.651053333],[-1.452146389,49.651040833],[-1.452154444,49.651028056],[-1.452162778,49.651014444],[-1.452173611,49.651002222],[-1.452181111,49.650991667],[-1.452194722,49.650981389],[-1.4522075,49.650971389],[-1.452220556,49.650961944],[-1.452234167,49.650953611],[-1.452250556,49.650945833],[-1.452268056,49.650937778],[-1.45229,49.65093],[-1.452314444,49.650925],[-1.452341111,49.650921111],[-1.452363889,49.650919167],[-1.452391111,49.650916111],[-1.452413889,49.650915556],[-1.4524375,49.650915556],[-1.452458889,49.6509175],[-1.452480278,49.650921944],[-1.452503056,49.6509275],[-1.452528889,49.650936389],[-1.452549444,49.650945556],[-1.452570556,49.650955556],[-1.452581944,49.650964444],[-1.452600278,49.650974167],[-1.452851389,49.650935],[-1.452854167,49.650929722]],[[-1.457765833,49.652118056],[-1.457761667,49.652115833],[-1.457758611,49.652111944],[-1.4576525,49.651962222],[-1.457662778,49.6519525],[-1.457673333,49.651944722],[-1.457680556,49.651935833],[-1.457689167,49.651927778],[-1.457694444,49.651920556],[-1.457699722,49.651911111],[-1.457705,49.651899167],[-1.457709722,49.651884722],[-1.457711667,49.651871389],[-1.457712222,49.651859167],[-1.457712222,49.651845],[-1.457710278,49.651834444],[-1.457706389,49.651823333],[-1.457704167,49.651807778],[-1.457694444,49.651790833],[-1.457686389,49.651776667],[-1.457678056,49.651763889],[-1.457665,49.651752222],[-1.457651111,49.651742778],[-1.457635833,49.651732778],[-1.457616111,49.651722222],[-1.457600556,49.651713611],[-1.457580278,49.651705833],[-1.457555,49.651699444],[-1.457536111,49.651693611],[-1.457511667,49.651688889],[-1.457481389,49.651685278],[-1.457458611,49.651684167],[-1.457433333,49.651683611],[-1.457407222,49.651686111],[-1.457381944,49.651690833],[-1.457360833,49.651696667],[-1.457345278,49.651703611],[-1.457323889,49.651713056],[-1.457307778,49.651721667],[-1.457293056,49.65173],[-1.457281667,49.651739444],[-1.457267778,49.651749167],[-1.457254722,49.651760556],[-1.457245556,49.651771667],[-1.457235,49.651783889],[-1.457226944,49.651796667],[-1.457217778,49.651807778],[-1.457213889,49.651820278],[-1.457211389,49.651834722],[-1.457209722,49.651848333],[-1.457209722,49.651861111],[-1.457209722,49.651872778],[-1.457213056,49.651885278],[-1.457219444,49.651896944],[-1.457226944,49.6519075],[-1.457235833,49.651919722],[-1.457247222,49.651931389],[-1.457257222,49.651943611],[-1.457268333,49.651954722],[-1.457281389,49.651964444],[-1.457299444,49.651975556],[-1.457316667,49.651983333],[-1.457333611,49.651990556],[-1.457353889,49.651997778],[-1.457375833,49.652004167],[-1.457403056,49.652008889],[-1.457430278,49.652012778],[-1.457460278,49.652014722],[-1.457569167,49.652173333],[-1.457563056,49.652177222]],[[-1.455876111,49.652270556],[-1.455872222,49.652265556],[-1.455876111,49.652256667],[-1.455933611,49.652101667],[-1.455953333,49.652101667],[-1.455966389,49.652098333],[-1.455982778,49.652093056],[-1.456000833,49.652088056],[-1.456016389,49.652081667],[-1.456031111,49.652075],[-1.456045,49.652068889],[-1.4560575,49.652061944],[-1.4560725,49.652053889],[-1.456085556,49.652043889],[-1.456097222,49.652033611],[-1.456108333,49.652023056],[-1.456118333,49.652011389],[-1.456125,49.652001389],[-1.456130556,49.651991389],[-1.456134167,49.651980833],[-1.456136944,49.651971667],[-1.456139722,49.651960278],[-1.456141389,49.651950556],[-1.456139722,49.651940833],[-1.456138333,49.651929444],[-1.456136389,49.651918333],[-1.456133611,49.651908889],[-1.456131389,49.651898611],[-1.456123611,49.651887778],[-1.456117222,49.651877222],[-1.45611,49.651868056],[-1.456103889,49.651858333],[-1.456094444,49.651849722],[-1.456083889,49.65184],[-1.456071944,49.651830833],[-1.456061944,49.651823889],[-1.456047222,49.651814722],[-1.456032778,49.651807778],[-1.456013889,49.651800833],[-1.455996667,49.651793611],[-1.455980278,49.651789167],[-1.455964722,49.651784444],[-1.455950556,49.651781389],[-1.455928611,49.6517775],[-1.455908889,49.651775833],[-1.455891111,49.651775],[-1.455872222,49.651775],[-1.455853333,49.651775278],[-1.455832222,49.651775278],[-1.455815833,49.65178],[-1.455798611,49.651783611],[-1.4557775,49.651791111],[-1.455760278,49.651797778],[-1.455745278,49.651803889],[-1.455731111,49.651811389],[-1.455713333,49.651821111],[-1.4557,49.651829167],[-1.455691389,49.651837778],[-1.455680278,49.651846389],[-1.455669444,49.651856944],[-1.455660833,49.651866111],[-1.455652778,49.651874722],[-1.455645833,49.651885833],[-1.455641944,49.6518975],[-1.455638056,49.651907778],[-1.455635556,49.651916389],[-1.455635556,49.6519275],[-1.455634167,49.651939167],[-1.455635,49.651949167],[-1.455635556,49.651960556],[-1.455638056,49.651974722],[-1.455644167,49.651991389],[-1.455654167,49.652004722],[-1.455662222,49.652017778],[-1.455673889,49.652031667],[-1.455685833,49.652043889],[-1.455699722,49.652053611],[-1.455714722,49.652063333],[-1.455733611,49.652072778],[-1.455669444,49.6522375],[-1.455661667,49.652238333]]]}},{"type":"Feature","id":"LFRC-3de9b3e86ab0c6be1032","properties":{"airport":"LFRC","name":"LFRC Groundlayout","layer":"Guidance lines","category":"Stopbars","object_type":"Line","style_id":"line.stopbar.7e0000","source_group":"LFRC Groundlayout","vsmr_group_ids":[],"geometry_role":"linework"},"geometry":{"type":"MultiLineString","coordinates":[[[-1.475740556,49.649434444],[-1.475431389,49.649403333]],[[-1.459998611,49.650276944],[-1.459796111,49.650251111]],[[-1.453471389,49.649454722],[-1.453273333,49.649429722]]]}},{"type":"Feature","id":"LFRC-1489f7ee5b87ece1cdbe","properties":{"airport":"LFRC","name":"LFRC Groundlayout","layer":"Guidance lines","category":"Centerlines","object_type":"Line","style_id":"line.centerlines.ffff00","source_group":"LFRC Groundlayout","vsmr_group_ids":[],"geometry_role":"linework"},"geometry":{"type":"MultiLineString","coordinates":[[[-1.475344444,49.646704722],[-1.474908611,49.646875]],[[-1.475458611,49.646260833],[-1.475381111,49.646292222]],[[-1.475420278,49.646275556],[-1.475378056,49.646230278]],[[-1.475463056,49.645945278],[-1.475382222,49.645976944]],[[-1.475423056,49.645960278],[-1.475381111,49.645915]],[[-1.475308056,49.646005833],[-1.475227778,49.6460375]],[[-1.475266667,49.646021389],[-1.475218056,49.64597]],[[-1.475154167,49.646066389],[-1.475075833,49.6460975]],[[-1.475113611,49.646082222],[-1.475071389,49.646035833]],[[-1.475,49.6461275],[-1.474922778,49.646158056]],[[-1.474961111,49.6461425],[-1.474919722,49.646096389]],[[-1.474325278,49.645958611],[-1.474320278,49.645898611]],[[-1.474322778,49.645929444],[-1.4742375,49.645932222]],[[-1.4743875,49.646077778],[-1.474347778,49.646021944]],[[-1.474367222,49.646050556],[-1.474287778,49.646075]],[[-1.474488056,49.646193889],[-1.474439722,49.646141389]],[[-1.474464167,49.646168056],[-1.474388611,49.646196944]],[[-1.474595278,49.64631],[-1.474547222,49.646256667]],[[-1.474570278,49.646283611],[-1.474495556,49.6463125]],[[-1.474703611,49.646426389],[-1.474655,49.6463725]],[[-1.474679722,49.646400278],[-1.474608333,49.646424444]],[[-1.474809167,49.646540556],[-1.474761111,49.646489444]],[[-1.474783889,49.646513889],[-1.474704722,49.646543056]],[[-1.474912222,49.646660556],[-1.474868056,49.646606389]],[[-1.474805,49.646665833],[-1.474886389,49.646630278]],[[-1.475160556,49.647211667],[-1.475476389,49.646792778]],[[-1.476273333,49.647705],[-1.475825833,49.647869444]],[[-1.476133333,49.6475275],[-1.475666667,49.647710556]],[[-1.475970278,49.647369444],[-1.475519722,49.6475475]],[[-1.4758125,49.647205],[-1.47537,49.647381111]],[[-1.475643333,49.647039167],[-1.475206111,49.647213056]],[[-1.475493611,49.646870556],[-1.475057778,49.647043333]],[[-1.476623611,49.64811],[-1.476633889,49.648115278],[-1.476639444,49.64812],[-1.476645278,49.648125556],[-1.476649167,49.648131111],[-1.476653333,49.648136944],[-1.476656111,49.648145833],[-1.476655,49.648153333],[-1.476653333,49.648157778],[-1.476649722,49.648163611],[-1.476645833,49.648168611],[-1.476641111,49.648173056],[-1.476635556,49.6481775],[-1.476628056,49.648181667],[-1.476621389,49.648184722],[-1.476612778,49.648187222],[-1.476603056,49.648189722],[-1.476591111,49.648190833],[-1.476580278,49.64819],[-1.47657,49.648188889],[-1.476560278,49.648186111],[-1.47655,49.648182778],[-1.476542222,49.648178333],[-1.476534167,49.648171944],[-1.476528889,49.648166111],[-1.476523889,49.648159167],[-1.476522222,49.648152222],[-1.476521111,49.648143889],[-1.476522778,49.6481375],[-1.476525556,49.648131944],[-1.476529444,49.648125833],[-1.476534167,49.648120833],[-1.476541111,49.648116389],[-1.476548333,49.648112778],[-1.476556944,49.648109444],[-1.476564444,49.648106667],[-1.476575833,49.648104167],[-1.476585278,49.648104167],[-1.476598056,49.648104167],[-1.476611111,49.648106111],[-1.476623611,49.64811]]]}},{"type":"Feature","id":"LFRC-89d9036e2664a91491eb","properties":{"airport":"LFRC","name":"LFRC Groundlayout","layer":"Guidance lines","category":"TWR-CTR","object_type":"Line","style_id":"line.twr-ctr.000000","source_group":"LFRC Groundlayout","vsmr_group_ids":[],"geometry_role":"linework"},"geometry":{"type":"LineString","coordinates":[[-1.477145,49.647777778],[-1.477055,49.647810833],[-1.476996389,49.64775],[-1.477090278,49.647714444],[-1.477145,49.647777778]]}},{"type":"Feature","id":"LFRC-65cd19e90fb37b8544bb","properties":{"airport":"LFRC","name":"LFRC Groundlayout","layer":"Guidance lines","category":"Labels","object_type":"Line","style_id":"line.labels.808080","source_group":"LFRC Groundlayout","vsmr_group_ids":[],"geometry_role":"linework"},"geometry":{"type":"MultiLineString","coordinates":[[[-1.454411111,49.648236667],[-1.454404444,49.648258333],[-1.454331111,49.648248889],[-1.454337778,49.648226389],[-1.454411111,49.648236667]],[[-1.4862,49.652159167],[-1.486196667,49.652172778],[-1.485995556,49.652148611],[-1.485993333,49.652156111],[-1.48596,49.652151667],[-1.485951111,49.652145833],[-1.485953889,49.652130556],[-1.4862,49.652159167]],[[-1.486225556,49.652068889],[-1.486210278,49.652121944],[-1.485967222,49.652092222],[-1.485982778,49.652038889],[-1.486225556,49.652068889]],[[-1.486179167,49.652078889],[-1.486173056,49.652101389],[-1.486013889,49.652081667],[-1.486021389,49.652058056],[-1.486179167,49.652078889]],[[-1.454554722,49.648196111],[-1.4544675,49.648185833],[-1.4543875,49.648136667],[-1.454365833,49.648133889],[-1.454353611,49.648170833],[-1.454310833,49.648166111],[-1.454324722,49.648111111],[-1.454396111,49.648118889],[-1.454480556,49.648171111],[-1.454515833,49.648174722],[-1.454523333,49.648153056],[-1.454498889,49.648150278],[-1.454503056,49.648133611],[-1.454572222,49.648141667],[-1.454554722,49.648196111]],[[-1.454527222,49.648289722],[-1.454436389,49.648279167],[-1.454423889,49.648269167],[-1.454408333,49.648275556],[-1.454283333,49.648258611],[-1.454299167,49.648205],[-1.454423333,49.648220278],[-1.454435556,49.648231389],[-1.454452778,49.648223889],[-1.454543611,49.648235556],[-1.454527222,49.648289722]],[[-1.454488611,49.648269444],[-1.454426111,49.648261389],[-1.4544325,49.648239167],[-1.454495278,49.648246944],[-1.454488611,49.648269444]]]}},{"type":"Feature","id":"LFRC-9eddbbbf56fedf21df3e","properties":{"airport":"LFRC","name":"A","layer":"Labels","category":"Taxiways","object_type":"Label","style_id":"label.taxiways","source_group":"LFRC Taxiways","vsmr_group_ids":[],"geometry_role":"text_label","text-field":"A"},"geometry":{"type":"Point","coordinates":[-1.475142222,49.6495825]}},{"type":"Feature","id":"LFRC-41a63ad16bc337629f09","properties":{"airport":"LFRC","name":"B","layer":"Labels","category":"Taxiways","object_type":"Label","style_id":"label.taxiways","source_group":"LFRC Taxiways","vsmr_group_ids":[],"geometry_role":"text_label","text-field":"B"},"geometry":{"type":"Point","coordinates":[-1.460258333,49.650430833]}},{"type":"Feature","id":"LFRC-980d4aa22bab75e3c801","properties":{"airport":"LFRC","name":"C","layer":"Labels","category":"Taxiways","object_type":"Label","style_id":"label.taxiways","source_group":"LFRC Taxiways","vsmr_group_ids":[],"geometry_role":"text_label","text-field":"C"},"geometry":{"type":"Point","coordinates":[-1.4538225,49.649384167]}}]}
