{"type":"FeatureCollection","name":"LFRE AVISO","bbox":[-2.352361111,47.286388889,-2.339138889,47.292194444],"metadata":{"schema":"vSMR AVISO","schema_version":2,"geometry_mode":"shared","airport":"LFRE","coordinate_reference_system":"WGS84","coordinate_order":"longitude, latitude","default_color_palette":"dark","color_palettes":["dark","light"],"background_colors":{"dark":"#434A4F","light":"#434A4F"},"runways":[{"ends":["11","29"],"headings":[106,286],"thresholds":[[-2.352896944,47.289546944],[-2.340863889,47.2871]]}],"saved_active_runways":[],"saved_active_airport_modes":[],"airport_reference":[-2.346943889,47.288332778],"feature_count":1,"style_count":1,"layer_counts":{"Guidance lines":1},"category_counts":{"Runways":1},"geometry_source":"local GNG","geometry_source_url":"","geometry_license":"GPL-3.0"},"styles":{"line.runwayconcrete.555555":{"name":"Runways","layer":"Guidance lines","object_type":"Line","paint":{"stroke":"#111318","stroke-opacity":1,"stroke-width":1,"palette-overrides":{"light":{"stroke":"#555555"}}},"feature_count":1}},"vsmr_groups":[],"features":[{"type":"Feature","id":"LFRE-cec199fd55c2badb03e5","properties":{"airport":"LFRE","name":"LFRE Groundlayout","layer":"Guidance lines","category":"Runways","object_type":"Line","style_id":"line.runwayconcrete.555555","source_group":"LFRE Groundlayout","vsmr_group_ids":[],"geometry_role":"linework"},"geometry":{"type":"MultiLineString","coordinates":[[[-2.352361111,47.289],[-2.340444444,47.286388889]],[[-2.351055556,47.292194444],[-2.352361111,47.289]],[[-2.339138889,47.289611111],[-2.340444444,47.286388889]]]}}]}
