{"type":"FeatureCollection","name":"LFRG AVISO","bbox":[0.155305,49.359662778,0.161511389,49.363999167],"metadata":{"schema":"vSMR AVISO","schema_version":2,"geometry_mode":"shared","airport":"LFRG","coordinate_reference_system":"WGS84","coordinate_order":"longitude, latitude","default_color_palette":"dark","color_palettes":["dark","light"],"background_colors":{"dark":"#434A4F","light":"#434A4F"},"runways":[{"ends":["12","30"],"headings":[117,297],"thresholds":[[0.144224722,49.368680833],[0.164805833,49.361782778]]}],"saved_active_runways":[],"saved_active_airport_modes":[],"airport_reference":[0.159999722,49.363332778],"feature_count":31,"style_count":2,"layer_counts":{"Labels":31},"category_counts":{"Gates":29,"Taxiways":2},"geometry_source":"local GNG","geometry_source_url":"","geometry_license":"GPL-3.0"},"styles":{"label.gates":{"name":"Gates","layer":"Labels","object_type":"Label","paint":{"text-color":"#CCCCCC","text-font":"Arial","text-size":12,"text-halo-color":"#000000","text-halo-width":1,"text-anchor":"center","zoomLevel":9},"feature_count":29},"label.taxiways":{"name":"Taxiways","layer":"Labels","object_type":"Label","paint":{"text-color":"#CCCCCC","text-font":"Arial","text-size":12,"text-halo-color":"#000000","text-halo-width":1,"text-anchor":"center","zoomLevel":7},"feature_count":2}},"vsmr_groups":[],"features":[{"type":"Feature","id":"LFRG-3d6c81692dd26571629f","properties":{"airport":"LFRG","name":"TWR","layer":"Labels","category":"Gates","object_type":"Label","style_id":"label.gates","source_group":"LFRG Gates","vsmr_group_ids":[],"geometry_role":"text_label","text-field":"TWR"},"geometry":{"type":"Point","coordinates":[0.159993056,49.359662778]}},{"type":"Feature","id":"LFRG-b0f4affdfba93e28cbf6","properties":{"airport":"LFRG","name":"H2","layer":"Labels","category":"Gates","object_type":"Label","style_id":"label.gates","source_group":"LFRG Gates","vsmr_group_ids":[],"geometry_role":"text_label","text-field":"H2"},"geometry":{"type":"Point","coordinates":[0.161511389,49.361077778]}},{"type":"Feature","id":"LFRG-53c4f2ccea4f0ecfa8cd","properties":{"airport":"LFRG","name":"H1","layer":"Labels","category":"Gates","object_type":"Label","style_id":"label.gates","source_group":"LFRG Gates","vsmr_group_ids":[],"geometry_role":"text_label","text-field":"H1"},"geometry":{"type":"Point","coordinates":[0.161416389,49.360862222]}},{"type":"Feature","id":"LFRG-45a498257753a79d03b0","properties":{"airport":"LFRG","name":"D1","layer":"Labels","category":"Gates","object_type":"Label","style_id":"label.gates","source_group":"LFRG Gates","vsmr_group_ids":[],"geometry_role":"text_label","text-field":"D1"},"geometry":{"type":"Point","coordinates":[0.160923333,49.360657222]}},{"type":"Feature","id":"LFRG-42d178b09486256ecb03","properties":{"airport":"LFRG","name":"C3","layer":"Labels","category":"Gates","object_type":"Label","style_id":"label.gates","source_group":"LFRG Gates","vsmr_group_ids":[],"geometry_role":"text_label","text-field":"C3"},"geometry":{"type":"Point","coordinates":[0.160211111,49.361173056]}},{"type":"Feature","id":"LFRG-ce435d621a7322b81511","properties":{"airport":"LFRG","name":"C2","layer":"Labels","category":"Gates","object_type":"Label","style_id":"label.gates","source_group":"LFRG Gates","vsmr_group_ids":[],"geometry_role":"text_label","text-field":"C2"},"geometry":{"type":"Point","coordinates":[0.159577222,49.361429444]}},{"type":"Feature","id":"LFRG-5ea403a7b496e8c23f77","properties":{"airport":"LFRG","name":"C1","layer":"Labels","category":"Gates","object_type":"Label","style_id":"label.gates","source_group":"LFRG Gates","vsmr_group_ids":[],"geometry_role":"text_label","text-field":"C1"},"geometry":{"type":"Point","coordinates":[0.159009167,49.361686111]}},{"type":"Feature","id":"LFRG-3666336074e7d4663723","properties":{"airport":"LFRG","name":"B1","layer":"Labels","category":"Gates","object_type":"Label","style_id":"label.gates","source_group":"LFRG Gates","vsmr_group_ids":[],"geometry_role":"text_label","text-field":"B1"},"geometry":{"type":"Point","coordinates":[0.158301111,49.362107222]}},{"type":"Feature","id":"LFRG-9f45fc87d75e846d6462","properties":{"airport":"LFRG","name":"B2","layer":"Labels","category":"Gates","object_type":"Label","style_id":"label.gates","source_group":"LFRG Gates","vsmr_group_ids":[],"geometry_role":"text_label","text-field":"B2"},"geometry":{"type":"Point","coordinates":[0.15812,49.361945278]}},{"type":"Feature","id":"LFRG-6e0d60f2939340d4f1bf","properties":{"airport":"LFRG","name":"B3","layer":"Labels","category":"Gates","object_type":"Label","style_id":"label.gates","source_group":"LFRG Gates","vsmr_group_ids":[],"geometry_role":"text_label","text-field":"B3"},"geometry":{"type":"Point","coordinates":[0.15798,49.361777778]}},{"type":"Feature","id":"LFRG-74b83aa9b7ea2b0ab2c1","properties":{"airport":"LFRG","name":"B4","layer":"Labels","category":"Gates","object_type":"Label","style_id":"label.gates","source_group":"LFRG Gates","vsmr_group_ids":[],"geometry_role":"text_label","text-field":"B4"},"geometry":{"type":"Point","coordinates":[0.157852222,49.361615833]}},{"type":"Feature","id":"LFRG-becc8c654beddb68fead","properties":{"airport":"LFRG","name":"A1","layer":"Labels","category":"Gates","object_type":"Label","style_id":"label.gates","source_group":"LFRG Gates","vsmr_group_ids":[],"geometry_role":"text_label","text-field":"A1"},"geometry":{"type":"Point","coordinates":[0.157851944,49.362335556]}},{"type":"Feature","id":"LFRG-8ebfb4a911b46039afcf","properties":{"airport":"LFRG","name":"A2","layer":"Labels","category":"Gates","object_type":"Label","style_id":"label.gates","source_group":"LFRG Gates","vsmr_group_ids":[],"geometry_role":"text_label","text-field":"A2"},"geometry":{"type":"Point","coordinates":[0.157754722,49.362216389]}},{"type":"Feature","id":"LFRG-d2592d39751e073672d7","properties":{"airport":"LFRG","name":"A3","layer":"Labels","category":"Gates","object_type":"Label","style_id":"label.gates","source_group":"LFRG Gates","vsmr_group_ids":[],"geometry_role":"text_label","text-field":"A3"},"geometry":{"type":"Point","coordinates":[0.157675556,49.3620925]}},{"type":"Feature","id":"LFRG-610eac0b6ec4dc651dc1","properties":{"airport":"LFRG","name":"A4","layer":"Labels","category":"Gates","object_type":"Label","style_id":"label.gates","source_group":"LFRG Gates","vsmr_group_ids":[],"geometry_role":"text_label","text-field":"A4"},"geometry":{"type":"Point","coordinates":[0.157586111,49.361982778]}},{"type":"Feature","id":"LFRG-e717dc95430a60d53c5a","properties":{"airport":"LFRG","name":"A5","layer":"Labels","category":"Gates","object_type":"Label","style_id":"label.gates","source_group":"LFRG Gates","vsmr_group_ids":[],"geometry_role":"text_label","text-field":"A5"},"geometry":{"type":"Point","coordinates":[0.157498333,49.361866667]}},{"type":"Feature","id":"LFRG-bf786d532f44eaf341d6","properties":{"airport":"LFRG","name":"E1","layer":"Labels","category":"Gates","object_type":"Label","style_id":"label.gates","source_group":"LFRG Gates","vsmr_group_ids":[],"geometry_role":"text_label","text-field":"E1"},"geometry":{"type":"Point","coordinates":[0.157392222,49.362531389]}},{"type":"Feature","id":"LFRG-e26b3fccf0b946806a61","properties":{"airport":"LFRG","name":"E2","layer":"Labels","category":"Gates","object_type":"Label","style_id":"label.gates","source_group":"LFRG Gates","vsmr_group_ids":[],"geometry_role":"text_label","text-field":"E2"},"geometry":{"type":"Point","coordinates":[0.157333056,49.362414167]}},{"type":"Feature","id":"LFRG-4edb6a7f79c50c94ae53","properties":{"airport":"LFRG","name":"E3","layer":"Labels","category":"Gates","object_type":"Label","style_id":"label.gates","source_group":"LFRG Gates","vsmr_group_ids":[],"geometry_role":"text_label","text-field":"E3"},"geometry":{"type":"Point","coordinates":[0.157211667,49.3622925]}},{"type":"Feature","id":"LFRG-f4620dc65ae076929bfc","properties":{"airport":"LFRG","name":"E4","layer":"Labels","category":"Gates","object_type":"Label","style_id":"label.gates","source_group":"LFRG Gates","vsmr_group_ids":[],"geometry_role":"text_label","text-field":"E4"},"geometry":{"type":"Point","coordinates":[0.157118889,49.362179722]}},{"type":"Feature","id":"LFRG-2580c9e731397525a293","properties":{"airport":"LFRG","name":"Fuel","layer":"Labels","category":"Gates","object_type":"Label","style_id":"label.gates","source_group":"LFRG Gates","vsmr_group_ids":[],"geometry_role":"text_label","text-field":"Fuel"},"geometry":{"type":"Point","coordinates":[0.159877778,49.359968333]}},{"type":"Feature","id":"LFRG-82e3b2fc054f44f7844c","properties":{"airport":"LFRG","name":"Hangar","layer":"Labels","category":"Gates","object_type":"Label","style_id":"label.gates","source_group":"LFRG Gates","vsmr_group_ids":[],"geometry_role":"text_label","text-field":"Hangar"},"geometry":{"type":"Point","coordinates":[0.159818611,49.360076111]}},{"type":"Feature","id":"LFRG-d11473ad2ca09e06968e","properties":{"airport":"LFRG","name":"Livraison Bagage","layer":"Labels","category":"Gates","object_type":"Label","style_id":"label.gates","source_group":"LFRG Gates","vsmr_group_ids":[],"geometry_role":"text_label","text-field":"Livraison Bagage"},"geometry":{"type":"Point","coordinates":[0.159495833,49.360365833]}},{"type":"Feature","id":"LFRG-086efb5e9e39e81d7c25","properties":{"airport":"LFRG","name":"Terminal","layer":"Labels","category":"Gates","object_type":"Label","style_id":"label.gates","source_group":"LFRG Gates","vsmr_group_ids":[],"geometry_role":"text_label","text-field":"Terminal"},"geometry":{"type":"Point","coordinates":[0.157839167,49.361286944]}},{"type":"Feature","id":"LFRG-78529da3e975b98627e4","properties":{"airport":"LFRG","name":"Parking Commercial","layer":"Labels","category":"Gates","object_type":"Label","style_id":"label.gates","source_group":"LFRG Gates","vsmr_group_ids":[],"geometry_role":"text_label","text-field":"Parking Commercial"},"geometry":{"type":"Point","coordinates":[0.160033611,49.361523611]}},{"type":"Feature","id":"LFRG-a23c33bbfca796a5ab95","properties":{"airport":"LFRG","name":"Aviation Affaire","layer":"Labels","category":"Gates","object_type":"Label","style_id":"label.gates","source_group":"LFRG Gates","vsmr_group_ids":[],"geometry_role":"text_label","text-field":"Aviation Affaire"},"geometry":{"type":"Point","coordinates":[0.158433056,49.362195278]}},{"type":"Feature","id":"LFRG-07f281bcea08da1cdba0","properties":{"airport":"LFRG","name":"Aviation legere","layer":"Labels","category":"Gates","object_type":"Label","style_id":"label.gates","source_group":"LFRG Gates","vsmr_group_ids":[],"geometry_role":"text_label","text-field":"Aviation legere"},"geometry":{"type":"Point","coordinates":[0.157935278,49.362410556]}},{"type":"Feature","id":"LFRG-0a9b2b09b04d85cb3564","properties":{"airport":"LFRG","name":"P-ACB","layer":"Labels","category":"Gates","object_type":"Label","style_id":"label.gates","source_group":"LFRG Gates","vsmr_group_ids":[],"geometry_role":"text_label","text-field":"P-ACB"},"geometry":{"type":"Point","coordinates":[0.157489167,49.362581944]}},{"type":"Feature","id":"LFRG-a43e158d4a45293d1aa9","properties":{"airport":"LFRG","name":"ACB","layer":"Labels","category":"Gates","object_type":"Label","style_id":"label.gates","source_group":"LFRG Gates","vsmr_group_ids":[],"geometry_role":"text_label","text-field":"ACB"},"geometry":{"type":"Point","coordinates":[0.155967222,49.362366944]}},{"type":"Feature","id":"LFRG-713252c5c52d7cdb84d9","properties":{"airport":"LFRG","name":"A","layer":"Labels","category":"Taxiways","object_type":"Label","style_id":"label.taxiways","source_group":"LFRG Taxiways","vsmr_group_ids":[],"geometry_role":"text_label","text-field":"A"},"geometry":{"type":"Point","coordinates":[0.155305,49.363999167]}},{"type":"Feature","id":"LFRG-43afba2eb16be59ed454","properties":{"airport":"LFRG","name":"B","layer":"Labels","category":"Taxiways","object_type":"Label","style_id":"label.taxiways","source_group":"LFRG Taxiways","vsmr_group_ids":[],"geometry_role":"text_label","text-field":"B"},"geometry":{"type":"Point","coordinates":[0.158761667,49.362492778]}}]}
