{"type":"FeatureCollection","name":"LFRH AVISO","bbox":[-3.464823889,47.742574444,-3.426384167,47.774460278],"metadata":{"schema":"vSMR AVISO","schema_version":2,"geometry_mode":"shared","airport":"LFRH","coordinate_reference_system":"WGS84","coordinate_order":"longitude, latitude","default_color_palette":"dark","color_palettes":["dark","light"],"background_colors":{"dark":"#434A4F","light":"#434A4F"},"runways":[{"ends":["07","25"],"headings":[73,253],"thresholds":[[-3.459166944,47.756260833],[-3.430910833,47.762541944]]},{"ends":["02","20"],"headings":[17,197],"thresholds":[[-3.441807778,47.756213889],[-3.435610833,47.770643889]]}],"saved_active_runways":[],"saved_active_airport_modes":[],"airport_reference":[-3.439999722,47.760555833],"feature_count":33,"style_count":8,"layer_counts":{"Guidance lines":6,"Labels":27},"category_counts":{"Apron Surface":1,"Gates":13,"Labels":1,"Runways":1,"Stopbars":1,"TWR-CTR":1,"Taxiways":15},"geometry_source":"local GNG/KMZ","geometry_source_url":"","geometry_license":"GPL-3.0"},"styles":{"line.runwayconcrete.555555":{"name":"Runways","layer":"Guidance lines","object_type":"Line","paint":{"stroke":"#111318","stroke-opacity":1,"stroke-width":1,"palette-overrides":{"light":{"stroke":"#555555"}}},"feature_count":1},"line.taxiway.c0b631":{"name":"Taxiways","layer":"Guidance lines","object_type":"Line","paint":{"stroke":"#4E5A69","stroke-opacity":1,"stroke-width":1,"palette-overrides":{"light":{"stroke":"#C0B631"}}},"feature_count":1},"line.apronsurface.808080":{"name":"Apron Surface","layer":"Guidance lines","object_type":"Line","paint":{"stroke":"#808080","stroke-opacity":1,"stroke-width":1,"palette-overrides":{"light":{"stroke":"#808080"}}},"feature_count":1},"line.stopbar.7e0000":{"name":"Stopbars","layer":"Guidance lines","object_type":"Line","paint":{"stroke":"#7E0000","stroke-opacity":1,"stroke-width":1,"palette-overrides":{"light":{"stroke":"#7E0000"}}},"feature_count":1},"line.twr-ctr.000000":{"name":"TWR-CTR","layer":"Guidance lines","object_type":"Line","paint":{"stroke":"#000000","stroke-opacity":1,"stroke-width":1,"palette-overrides":{"light":{"stroke":"#000000"}}},"feature_count":1},"line.labels.808080":{"name":"Labels","layer":"Guidance lines","object_type":"Line","paint":{"stroke":"#808080","stroke-opacity":1,"stroke-width":1,"palette-overrides":{"light":{"stroke":"#808080"}}},"feature_count":1},"label.gates":{"name":"Gates","layer":"Labels","object_type":"Label","paint":{"text-color":"#CCCCCC","text-font":"Arial","text-size":12,"text-halo-color":"#000000","text-halo-width":1,"text-anchor":"center","zoomLevel":9},"feature_count":13},"label.taxiways":{"name":"Taxiways","layer":"Labels","object_type":"Label","paint":{"text-color":"#CCCCCC","text-font":"Arial","text-size":12,"text-halo-color":"#000000","text-halo-width":1,"text-anchor":"center","zoomLevel":7},"feature_count":14}},"vsmr_groups":[],"features":[{"type":"Feature","id":"LFRH-7d19c8e3b0af7f6c1020","properties":{"airport":"LFRH","name":"TWR","layer":"Labels","category":"Gates","object_type":"Label","style_id":"label.gates","source_group":"LFRH Gates","vsmr_group_ids":[],"geometry_role":"text_label","text-field":"TWR"},"geometry":{"type":"Point","coordinates":[-3.443971389,47.768067778]}},{"type":"Feature","id":"LFRH-9264ca7143e0d28b35aa","properties":{"airport":"LFRH","name":"H P-Securite Civile","layer":"Labels","category":"Gates","object_type":"Label","style_id":"label.gates","source_group":"LFRH Gates","vsmr_group_ids":[],"geometry_role":"text_label","text-field":"H P-Securite Civile"},"geometry":{"type":"Point","coordinates":[-3.429025278,47.772001944]}},{"type":"Feature","id":"LFRH-af5ebaa8ab3c9224b770","properties":{"airport":"LFRH","name":"S1 P-Helico","layer":"Labels","category":"Gates","object_type":"Label","style_id":"label.gates","source_group":"LFRH Gates","vsmr_group_ids":[],"geometry_role":"text_label","text-field":"S1 P-Helico"},"geometry":{"type":"Point","coordinates":[-3.434098611,47.755738889]}},{"type":"Feature","id":"LFRH-d677e32b12f52fa027c5","properties":{"airport":"LFRH","name":"S2 P-Helico","layer":"Labels","category":"Gates","object_type":"Label","style_id":"label.gates","source_group":"LFRH Gates","vsmr_group_ids":[],"geometry_role":"text_label","text-field":"S2 P-Helico"},"geometry":{"type":"Point","coordinates":[-3.4314525,47.755762778]}},{"type":"Feature","id":"LFRH-ae6b84880745294a5130","properties":{"airport":"LFRH","name":"S3 P-Helico","layer":"Labels","category":"Gates","object_type":"Label","style_id":"label.gates","source_group":"LFRH Gates","vsmr_group_ids":[],"geometry_role":"text_label","text-field":"S3 P-Helico"},"geometry":{"type":"Point","coordinates":[-3.4285525,47.753765556]}},{"type":"Feature","id":"LFRH-7742d27624fe353a2c2b","properties":{"airport":"LFRH","name":"ACB","layer":"Labels","category":"Gates","object_type":"Label","style_id":"label.gates","source_group":"LFRH Gates","vsmr_group_ids":[],"geometry_role":"text_label","text-field":"ACB"},"geometry":{"type":"Point","coordinates":[-3.435470278,47.753948056]}},{"type":"Feature","id":"LFRH-6e82c5c1bf8df9bbb8d8","properties":{"airport":"LFRH","name":"P-Mil","layer":"Labels","category":"Gates","object_type":"Label","style_id":"label.gates","source_group":"LFRH Gates","vsmr_group_ids":[],"geometry_role":"text_label","text-field":"P-Mil"},"geometry":{"type":"Point","coordinates":[-3.437023333,47.752393889]}},{"type":"Feature","id":"LFRH-b7ee6a7d5bd590c8a089","properties":{"airport":"LFRH","name":"P-Civ","layer":"Labels","category":"Gates","object_type":"Label","style_id":"label.gates","source_group":"LFRH Gates","vsmr_group_ids":[],"geometry_role":"text_label","text-field":"P-Civ"},"geometry":{"type":"Point","coordinates":[-3.438283333,47.754833611]}},{"type":"Feature","id":"LFRH-f86a7c408672af2662de","properties":{"airport":"LFRH","name":"Terminal","layer":"Labels","category":"Gates","object_type":"Label","style_id":"label.gates","source_group":"LFRH Gates","vsmr_group_ids":[],"geometry_role":"text_label","text-field":"Terminal"},"geometry":{"type":"Point","coordinates":[-3.438153333,47.754607222]}},{"type":"Feature","id":"LFRH-9330b4921977fa28ac80","properties":{"airport":"LFRH","name":"Hangar","layer":"Labels","category":"Gates","object_type":"Label","style_id":"label.gates","source_group":"LFRH Gates","vsmr_group_ids":[],"geometry_role":"text_label","text-field":"Hangar"},"geometry":{"type":"Point","coordinates":[-3.462878056,47.769210278]}},{"type":"Feature","id":"LFRH-e40c423534ae0a79434f","properties":{"airport":"LFRH","name":"Douanes","layer":"Labels","category":"Gates","object_type":"Label","style_id":"label.gates","source_group":"LFRH Gates","vsmr_group_ids":[],"geometry_role":"text_label","text-field":"Douanes"},"geometry":{"type":"Point","coordinates":[-3.454443056,47.767759444]}},{"type":"Feature","id":"LFRH-5e3b7ea2d694f109b03d","properties":{"airport":"LFRH","name":"P-H1","layer":"Labels","category":"Gates","object_type":"Label","style_id":"label.gates","source_group":"LFRH Gates","vsmr_group_ids":[],"geometry_role":"text_label","text-field":"P-H1"},"geometry":{"type":"Point","coordinates":[-3.442366111,47.7731775]}},{"type":"Feature","id":"LFRH-93a44f3fca092760696c","properties":{"airport":"LFRH","name":"Hangar","layer":"Labels","category":"Gates","object_type":"Label","style_id":"label.gates","source_group":"LFRH Gates","vsmr_group_ids":[],"geometry_role":"text_label","text-field":"Hangar"},"geometry":{"type":"Point","coordinates":[-3.441138889,47.771827778]}},{"type":"Feature","id":"LFRH-91ec107e0c989178190f","properties":{"airport":"LFRH","name":"LFRH Groundlayout","layer":"Guidance lines","category":"Runways","object_type":"Line","style_id":"line.runwayconcrete.555555","source_group":"LFRH Groundlayout","vsmr_group_ids":[],"geometry_role":"linework"},"geometry":{"type":"MultiLineString","coordinates":[[[-3.439217222,47.7609775],[-3.431446944,47.7626775]],[[-3.428571111,47.762845278],[-3.428234444,47.762926389],[-3.428359444,47.763284167],[-3.431003889,47.7627575]],[[-3.429062778,47.762693889],[-3.430610833,47.762381944]],[[-3.431137222,47.762257222],[-3.439651389,47.760405278],[-3.441230556,47.756451111]],[[-3.4421075,47.756467222],[-3.4406975,47.760179167],[-3.458554444,47.75615]],[[-3.459155278,47.7559975],[-3.460303333,47.755761389],[-3.460495,47.756254722],[-3.459378611,47.756469167]],[[-3.458753333,47.756572222],[-3.440401389,47.760688056],[-3.437273889,47.768205]],[[-3.437093056,47.768599722],[-3.434426667,47.774460278],[-3.4333875,47.774247778],[-3.436144444,47.768235278]]]}},{"type":"Feature","id":"LFRH-3178b6c062c123541229","properties":{"airport":"LFRH","name":"LFRH Groundlayout","layer":"Guidance lines","category":"Taxiways","object_type":"Line","style_id":"line.taxiway.c0b631","source_group":"LFRH Groundlayout","vsmr_group_ids":[],"geometry_role":"linework"},"geometry":{"type":"MultiLineString","coordinates":[[[-3.436150278,47.768246667],[-3.436121111,47.76812],[-3.436005278,47.7680225],[-3.433832222,47.767263056],[-3.433556944,47.767194722],[-3.433310556,47.767165556],[-3.432977222,47.767165556],[-3.432716389,47.767233889],[-3.430673611,47.768061389],[-3.430499722,47.768119722],[-3.430354722,47.768217222],[-3.430311389,47.768314444]],[[-3.429066389,47.762680833],[-3.4289425,47.762703611],[-3.428821389,47.762655556],[-3.428753333,47.762544722],[-3.428704722,47.762401111],[-3.428625278,47.762178889],[-3.428536389,47.761843333],[-3.428589722,47.761567778],[-3.4287325,47.761352222],[-3.429,47.761184444],[-3.429392222,47.761028611],[-3.429713056,47.760944722],[-3.429980556,47.760945],[-3.430212222,47.761052778],[-3.430265556,47.7612925],[-3.430639722,47.762107222],[-3.430693056,47.762251111],[-3.430720833,47.762298889],[-3.430720833,47.762336389],[-3.430672778,47.762358056],[-3.4305925,47.762379722]],[[-3.428550833,47.762838056],[-3.428603333,47.762807222],[-3.428636667,47.7627625],[-3.428586667,47.762683889],[-3.428232222,47.761925278],[-3.428188611,47.7614525],[-3.428364444,47.761156944],[-3.428672222,47.76095],[-3.429287778,47.760684167],[-3.430035278,47.760447778],[-3.430738611,47.760329722],[-3.431486111,47.760270833],[-3.431925833,47.760123056],[-3.432453333,47.759916111],[-3.436322778,47.756783889],[-3.436366667,47.756458611],[-3.436146944,47.756015278],[-3.435663333,47.755778889],[-3.435135833,47.755512778],[-3.4346525,47.755335556],[-3.429014444,47.755320278],[-3.428837222,47.755473333]],[[-3.431158889,47.76225],[-3.431044444,47.76225],[-3.430904167,47.762181667],[-3.430738889,47.761633611],[-3.430834444,47.761501389],[-3.438245556,47.755783889],[-3.4386725,47.755653333],[-3.439019167,47.755674722],[-3.441225,47.756267778],[-3.441270556,47.756321944],[-3.441270556,47.756378889],[-3.441220833,47.75646]],[[-3.4307625,47.761248056],[-3.430566111,47.761088611],[-3.430566111,47.760876389],[-3.430645,47.760717222],[-3.430908333,47.760575833],[-3.431223889,47.760558056],[-3.431487222,47.7604875],[-3.431671389,47.760540556],[-3.431539722,47.760735],[-3.4307625,47.761248056]],[[-3.436795833,47.756481111],[-3.4365625,47.756062778],[-3.4362125,47.755749167],[-3.435901389,47.755566111],[-3.435318056,47.755304444],[-3.436912778,47.755278333],[-3.437457222,47.755383056],[-3.437923889,47.755592222],[-3.436795833,47.756481111]],[[-3.428682222,47.755147778],[-3.429317778,47.755116389],[-3.429365278,47.754164167],[-3.428964167,47.754181111],[-3.428483333,47.754708056]],[[-3.428379167,47.754551111],[-3.429085833,47.753793333],[-3.429068056,47.753475833],[-3.429025833,47.753163889],[-3.429236667,47.753135556],[-3.429278889,47.753589167],[-3.430024167,47.753165556],[-3.430813611,47.752900278],[-3.432085278,47.752664722],[-3.433663889,47.752488056],[-3.434520833,47.752368333],[-3.434545833,47.751917222]],[[-3.431164722,47.755134167],[-3.429865556,47.755133889],[-3.429698056,47.755021111],[-3.429593333,47.754880278],[-3.429593611,47.754035],[-3.429572778,47.753851944],[-3.4296775,47.753668889],[-3.429866111,47.753570278],[-3.430033889,47.753443333],[-3.430222222,47.753358889],[-3.430452778,47.753358889],[-3.430620556,47.753528056],[-3.430766944,47.753753333],[-3.431081111,47.754486111],[-3.431165,47.754683333],[-3.431227778,47.754852222],[-3.431164722,47.755134167]],[[-3.432155833,47.753498889],[-3.432156111,47.752907222],[-3.431815278,47.752907222],[-3.431474722,47.752964444],[-3.431134167,47.753002778],[-3.430878611,47.753098056],[-3.430651389,47.753193333],[-3.430793333,47.753365278],[-3.430991944,47.753575278],[-3.431389167,47.754529444],[-3.431559444,47.754834722],[-3.431644444,47.755121111],[-3.434028889,47.755140278],[-3.434170833,47.755064167],[-3.434085833,47.754720556],[-3.433943889,47.754358056],[-3.433858889,47.7540525],[-3.433830556,47.753613611],[-3.4338875,47.753098333],[-3.433859167,47.752793056],[-3.433657778,47.7527125],[-3.433404167,47.752699444],[-3.433111389,47.752725556],[-3.432486667,47.752804444],[-3.432369722,47.752883056],[-3.432333611,47.753494167]],[[-3.434855,47.751935],[-3.434824444,47.7523325],[-3.435036667,47.752322222],[-3.435203611,47.752301944],[-3.435718889,47.752293333]],[[-3.4356675,47.752471944],[-3.435228333,47.752492222],[-3.43488,47.7525025],[-3.434546667,47.752533056],[-3.434546667,47.752543333],[-3.434319444,47.752553333],[-3.434198333,47.752695833],[-3.4341225,47.752818056],[-3.4341075,47.752970833],[-3.4341225,47.753215278],[-3.434243611,47.753276389],[-3.434455833,47.753266111],[-3.435001111,47.753266389]],[[-3.435033889,47.753341389],[-3.434165833,47.753367778],[-3.434165833,47.753473889],[-3.434086944,47.753606667],[-3.434106667,47.753792222],[-3.434165833,47.753991111],[-3.434185556,47.754150556],[-3.434264444,47.754216667],[-3.434441944,47.754176944],[-3.434481389,47.754031111],[-3.434481389,47.753885],[-3.434540556,47.753739167],[-3.434757778,47.753659722],[-3.435053611,47.753646389],[-3.435250833,47.753606667]],[[-3.435188333,47.7536875],[-3.43499,47.753714167],[-3.434821111,47.7537475],[-3.434701944,47.753760833],[-3.4346325,47.753820833],[-3.434622778,47.753894167],[-3.434622778,47.754014444],[-3.434602778,47.754127778],[-3.434592778,47.754214722],[-3.434503611,47.754274722],[-3.434414167,47.754348056],[-3.434374444,47.754428056],[-3.434305,47.754515],[-3.434325,47.754661667],[-3.434374444,47.754775],[-3.434436944,47.754956944],[-3.434469722,47.755055556],[-3.434583611,47.755121111],[-3.435593333,47.755132222],[-3.436578611,47.755118611],[-3.43761,47.755118611],[-3.437919444,47.755095556],[-3.437919444,47.754864167]],[[-3.438395556,47.75486],[-3.438413333,47.755118889],[-3.438446667,47.755223889],[-3.438457778,47.755298889],[-3.438546944,47.755343889],[-3.4386475,47.755321389],[-3.439160278,47.755208889],[-3.443578333,47.754301944],[-3.451014722,47.753011111],[-3.451219444,47.752943889],[-3.451219444,47.752739167],[-3.451053056,47.752292778],[-3.449891111,47.752292778],[-3.449891111,47.752088333],[-3.450831667,47.752050833],[-3.450637778,47.751548611],[-3.450527222,47.751306944],[-3.450222778,47.751213889],[-3.449669444,47.751176667],[-3.448451944,47.751251111],[-3.448396667,47.750953611],[-3.449641667,47.750916389],[-3.450111944,47.750878889],[-3.450111944,47.750562778],[-3.449973611,47.750135],[-3.450582222,47.750078889]],[[-3.441300833,47.756143611],[-3.439147778,47.755570833],[-3.439085833,47.755477222],[-3.439116667,47.755383333],[-3.441610556,47.754946111],[-3.441858333,47.754956389],[-3.442044167,47.755008333],[-3.442013056,47.755175],[-3.441548611,47.756164444],[-3.441300833,47.756143611]],[[-3.442092222,47.756475278],[-3.442092222,47.756283611],[-3.441938889,47.756180556],[-3.442398889,47.754987222],[-3.442508333,47.754869444],[-3.442749444,47.754795833],[-3.443297222,47.754633611],[-3.443713333,47.754545278],[-3.454176389,47.752815556],[-3.454460833,47.752763333],[-3.454796667,47.752850278],[-3.455158611,47.752936944],[-3.455649722,47.753110833],[-3.457821111,47.753909722],[-3.458028056,47.754170278],[-3.458053889,47.754430833],[-3.458002222,47.754604722],[-3.457666389,47.754813333],[-3.457563056,47.755056667],[-3.457589167,47.755299722],[-3.457873611,47.755456111],[-3.458157778,47.755681944],[-3.458553333,47.755733889],[-3.458573611,47.755915833],[-3.458582778,47.756054167],[-3.458618611,47.756114444],[-3.45852,47.756156389]],[[-3.458248056,47.754731667],[-3.458583889,47.755408333],[-3.458506667,47.755547222],[-3.458274167,47.755495278],[-3.457990278,47.755338889],[-3.457886944,47.755130833],[-3.457835278,47.75494],[-3.458248056,47.754731667]],[[-3.451525,47.752878333],[-3.453655,47.752596944],[-3.454013333,47.752543333],[-3.454371667,47.752396111],[-3.454670278,47.752248889],[-3.455008611,47.752021111],[-3.4552275,47.751766944],[-3.455585833,47.751566111],[-3.455904167,47.751258056],[-3.456356944,47.750805833],[-3.456836111,47.750257778],[-3.457171389,47.749741944],[-3.457506667,47.749065278],[-3.457650278,47.748742778],[-3.457083056,47.748743333],[-3.456452222,47.748775278],[-3.456116667,47.749162222],[-3.455589722,47.749677778],[-3.454966667,47.750161389],[-3.4544875,47.750483889],[-3.453576944,47.750645],[-3.452666111,47.750709722],[-3.451659722,47.750870833],[-3.451126667,47.750980278],[-3.450736667,47.751067778],[-3.450736944,47.7512425],[-3.450866944,47.751417222],[-3.451061944,47.751963333],[-3.451484444,47.751985278],[-3.451809444,47.751963333],[-3.451809444,47.752138056],[-3.451419444,47.752181944],[-3.451256944,47.752334722],[-3.451525,47.752878333]],[[-3.455401944,47.748853333],[-3.455999722,47.748869167],[-3.455841111,47.749104167],[-3.455555278,47.749381944],[-3.45492,47.749980278],[-3.4546975,47.749916111],[-3.454601944,47.749638611]],[[-3.4543225,47.749710833],[-3.45443,47.749891667],[-3.454501944,47.750024444],[-3.454591667,47.750084722],[-3.454519722,47.750169167],[-3.454182778,47.750285556],[-3.453954722,47.750239722],[-3.453840556,47.750055556]],[[-3.453032778,47.750265278],[-3.453069167,47.750435556],[-3.452706944,47.750484444],[-3.452453611,47.750606111],[-3.450821944,47.750828889],[-3.450633056,47.750865278],[-3.450498333,47.750846944],[-3.450403611,47.750774444],[-3.450349722,47.750547778],[-3.450322778,47.750393333],[-3.450295556,47.750320833],[-3.450349722,47.750257222],[-3.450484444,47.750239167],[-3.450633056,47.750221111]],[[-3.459135278,47.755999167],[-3.458982778,47.755999167],[-3.458871944,47.755971389],[-3.458844167,47.755896667],[-3.458849167,47.755743056],[-3.458873056,47.755564167],[-3.458268056,47.7539875],[-3.457929444,47.753743611],[-3.455076111,47.752671389],[-3.454931111,47.752590278],[-3.454931111,47.752411389],[-3.456091111,47.751338333],[-3.4563425,47.751195833],[-3.456570278,47.751239722],[-3.456700556,47.751392778],[-3.456928333,47.751589722],[-3.457058611,47.751764722],[-3.457351389,47.751720833],[-3.457286389,47.751567778],[-3.457188611,47.751414444],[-3.457448889,47.751348889],[-3.458067222,47.751370556],[-3.458099444,47.751020556],[-3.456928056,47.751086389],[-3.456667778,47.751042778],[-3.456635278,47.750889444],[-3.457480833,47.749620556],[-3.457870833,47.748810833],[-3.458326389,47.748920278]],[[-3.4584,47.748704167],[-3.458153333,47.748671111],[-3.45803,47.748571389],[-3.458227222,47.748223333],[-3.458509722,47.7477225],[-3.459234167,47.747722222],[-3.459294444,47.7473975],[-3.458751111,47.747397778],[-3.458931944,47.746748333],[-3.459776944,47.7467075],[-3.459837222,47.746463889],[-3.459068611,47.746403611],[-3.459220278,47.7458725],[-3.459372222,47.745729444],[-3.460161944,47.745708889],[-3.460161944,47.745504444],[-3.459463056,47.745463889],[-3.459493333,47.745075833],[-3.459597778,47.743901667],[-3.459252222,47.743802222],[-3.459153611,47.744399722],[-3.458166389,47.7444],[-3.458018056,47.744068056],[-3.457721667,47.743304722],[-3.457425278,47.74284],[-3.457079722,47.742574444],[-3.456734167,47.742574444],[-3.457129167,47.743005833],[-3.457398333,47.743408333],[-3.457505,47.743789722],[-3.457646944,47.744385278],[-3.45669,47.744361667],[-3.456512778,47.744647778],[-3.457540556,47.744576111],[-3.457363611,47.745052778],[-3.456903056,47.745743889],[-3.4560525,47.745696389],[-3.4560525,47.745887222],[-3.456406944,47.7459825],[-3.456655278,47.746101389],[-3.456726111,47.746482778],[-3.456726389,47.7467925],[-3.4564075,47.747031111],[-3.455805,47.747007222],[-3.455840278,47.747221667],[-3.456478333,47.747245556],[-3.456443056,47.7478175],[-3.456478889,47.748437222],[-3.456195278,47.748556389],[-3.455947222,47.748437222],[-3.455911667,47.748246667],[-3.455592778,47.748175]],[[-3.458958333,47.7446525],[-3.458083889,47.74462],[-3.4577925,47.745012222],[-3.457355556,47.745665556],[-3.457112778,47.746090278],[-3.456821667,47.747331667],[-3.456676111,47.7479525],[-3.456773611,47.748475278],[-3.457210833,47.748507778],[-3.457648056,47.748475],[-3.457890833,47.748115556],[-3.458376389,47.747233611],[-3.458521944,47.746743333],[-3.458764722,47.746318611],[-3.458958611,47.745763333],[-3.459104167,47.745273333],[-3.458958333,47.7446525]],[[-3.458724444,47.756576111],[-3.458955833,47.756631944],[-3.459081389,47.756800833],[-3.4591025,47.756955556],[-3.459123611,47.757082222],[-3.458976944,47.757166944],[-3.458851389,47.757293611],[-3.458767778,47.757434444],[-3.458788611,47.7576175],[-3.458851667,47.757856667],[-3.459019167,47.757969444],[-3.459249444,47.758025556],[-3.459458889,47.758053611],[-3.459626667,47.758194444],[-3.459815278,47.75849],[-3.460533889,47.759733611],[-3.460769722,47.760208611],[-3.460769722,47.760620556],[-3.460440278,47.761159167],[-3.459922222,47.761856111],[-3.459356944,47.762458056],[-3.458556111,47.762996667],[-3.456483056,47.764105833],[-3.455870556,47.764422778],[-3.455210833,47.765088056],[-3.454739722,47.76569],[-3.454363056,47.766260556],[-3.453750556,47.766704167],[-3.452885556,47.767043611],[-3.450745278,47.767773889],[-3.448956111,47.768310833],[-3.447933889,47.768525833],[-3.447114167,47.768733056],[-3.446112778,47.768848056],[-3.445090556,47.768955556],[-3.444282778,47.769078056],[-3.443435556,47.769212778],[-3.442726389,47.769363611],[-3.442055278,47.769471111],[-3.441448333,47.769514167],[-3.440585556,47.769449722],[-3.437582222,47.7683975],[-3.437383889,47.768346389],[-3.437262778,47.768305556],[-3.437287222,47.768183611]],[[-3.459385556,47.756469722],[-3.459323056,47.756541944],[-3.459344444,47.756813611],[-3.459502222,47.757047222],[-3.459786944,47.757875],[-3.459976389,47.758151111],[-3.460260833,47.758596667],[-3.460482222,47.759],[-3.460766667,47.759382222],[-3.461019444,47.759849167],[-3.461145833,47.760358611],[-3.46102,47.760825556],[-3.460735833,47.761313889],[-3.459811944,47.762419722],[-3.45928,47.762920556],[-3.458747778,47.763278333],[-3.45779,47.763815278],[-3.456991944,47.764137222],[-3.456193889,47.764495],[-3.455768333,47.764924444],[-3.455289444,47.765604167],[-3.455715278,47.765818889],[-3.456141389,47.766176667],[-3.456247778,47.766426944],[-3.456546111,47.766494444],[-3.456946667,47.766539167],[-3.457347222,47.766673611],[-3.457814444,47.766673611],[-3.458248333,47.766696111],[-3.4588825,47.766695833],[-3.459383333,47.766695833],[-3.459716944,47.766650833],[-3.459683611,47.766426389],[-3.45965,47.7660675],[-3.459983889,47.76609],[-3.460084167,47.766448889],[-3.460084167,47.766673056],[-3.460151111,47.766852778],[-3.460428611,47.766994722],[-3.461205556,47.767009444],[-3.461738333,47.766994444],[-3.4623375,47.766979444],[-3.462848056,47.766949444],[-3.462921389,47.7666725],[-3.463155,47.76665],[-3.463136667,47.767023889],[-3.463380833,47.767068611],[-3.463647222,47.767173056],[-3.464024722,47.767173056],[-3.464446389,47.767172778],[-3.464779444,47.767172778],[-3.464823889,47.767351667],[-3.4643125,47.767393056],[-3.4640375,47.767475278],[-3.464098889,47.767742222],[-3.463885,47.767824444],[-3.463701389,47.767413611],[-3.463334722,47.76727],[-3.462753889,47.767208333],[-3.461867778,47.767208611],[-3.461287222,47.767188333],[-3.461073333,47.767414167],[-3.461226389,47.7675375],[-3.461623611,47.767804444],[-3.461685,47.768009722],[-3.461593333,47.768276667],[-3.461654444,47.768461667],[-3.461868333,47.7685025],[-3.462204722,47.768461389]],[[-3.462240278,47.768653889],[-3.461858333,47.768636944],[-3.461756667,47.768756667],[-3.4617825,47.769663333]],[[-3.461456389,47.769642222],[-3.461456389,47.769399167],[-3.461251667,47.769304167],[-3.460764167,47.769314722]],[[-3.460830833,47.769199444],[-3.461223889,47.769183333],[-3.461331111,47.769175278],[-3.461426389,47.769135278],[-3.461485833,47.768454722],[-3.46145,47.768238611],[-3.461449722,47.768054444],[-3.461366389,47.767870278],[-3.461211389,47.767734167],[-3.461020833,47.76759],[-3.46083,47.767461944],[-3.460698889,47.76735],[-3.460460556,47.767181667],[-3.460246111,47.767085833],[-3.459960278,47.767005833],[-3.459674167,47.766901667],[-3.459400278,47.766901667],[-3.45716,47.766840833],[-3.456551944,47.766729444],[-3.456109444,47.76668],[-3.455740833,47.766667778],[-3.455316944,47.766680278],[-3.45469,47.7667175],[-3.454373333,47.766817778],[-3.454418889,47.767153333]],[[-3.459550833,47.757844722],[-3.459438611,47.757476389],[-3.459401389,47.757309167],[-3.459351389,47.757216944],[-3.459214444,47.757191944],[-3.459139722,47.757233889],[-3.458990556,47.757275556],[-3.458990556,47.757409444],[-3.458978056,47.757585278],[-3.459028056,47.7577275],[-3.459102778,47.757828056],[-3.459202222,47.757886667],[-3.459351667,47.757886667],[-3.459550833,47.757844722]],[[-3.454733056,47.7664875],[-3.454756389,47.7661725],[-3.454896944,47.765951944],[-3.455037778,47.76581],[-3.455271944,47.765825833],[-3.455483056,47.765951667],[-3.455647222,47.766077778],[-3.455787778,47.766219444],[-3.455811389,47.766392778],[-3.455788056,47.7664875],[-3.454733056,47.7664875]],[[-3.454156944,47.767123611],[-3.454140556,47.766889722],[-3.453991389,47.766889722],[-3.4537925,47.766967778],[-3.453229444,47.767168333],[-3.453196389,47.767246389],[-3.453328889,47.767368611],[-3.453478056,47.767446667]],[[-3.453308056,47.767509444],[-3.453026667,47.767308611],[-3.452798333,47.767261389],[-3.4526225,47.767344167],[-3.452393889,47.767403333],[-3.451740833,47.767611111],[-3.451674167,47.767760278],[-3.451851944,47.767864722],[-3.452029444,47.768058611],[-3.4521625,47.768192778],[-3.452096111,47.768461111],[-3.451896389,47.768610278],[-3.451585833,47.768744722],[-3.451230833,47.768834167],[-3.451008889,47.768878889],[-3.450676111,47.768834167],[-3.450409722,47.768685278],[-3.450121111,47.768446667],[-3.449988056,47.7682975],[-3.449655,47.7682975],[-3.4493,47.768386944],[-3.449011667,47.768491389],[-3.448567778,47.768580833],[-3.446881389,47.768953889],[-3.446393056,47.768983889],[-3.445372222,47.769073611],[-3.445128056,47.769133056],[-3.444995,47.7692675],[-3.444995,47.769506111],[-3.445136389,47.769693056],[-3.445346944,47.769958333],[-3.445531111,47.770223333],[-3.445688889,47.770417778],[-3.446030833,47.770364722]],[[-3.451464167,47.767832778],[-3.4517625,47.768076389],[-3.451869167,47.768233889],[-3.451933056,47.768405833],[-3.451741389,47.768520278],[-3.451443056,47.768649167],[-3.451144722,47.768735278],[-3.450867778,47.768749722],[-3.450654444,47.7686925],[-3.450462778,47.768563333],[-3.450270833,47.768405833],[-3.450164167,47.768262778],[-3.45042,47.768133611],[-3.450675556,47.768033333],[-3.45091,47.7679475],[-3.451165833,47.767847222],[-3.451464167,47.767832778]],[[-3.445386111,47.770478333],[-3.445030556,47.769930278],[-3.444926111,47.769761667],[-3.444800556,47.7699725],[-3.444717222,47.770183333],[-3.444508056,47.770351944],[-3.444257222,47.770520556],[-3.444170278,47.770783056],[-3.444634444,47.770783056]],[[-3.442880833,47.771545833],[-3.443241667,47.770956389],[-3.443706111,47.770678889],[-3.444118611,47.7702975],[-3.444412778,47.769975833],[-3.444588611,47.769691944],[-3.444729444,47.769431667],[-3.444483056,47.769218889],[-3.444025556,47.769313611],[-3.443286667,47.769431667],[-3.4425475,47.7695975],[-3.440999167,47.769691944],[-3.440400833,47.769573889],[-3.437550556,47.768580556],[-3.437337222,47.768496667],[-3.437203056,47.768469722],[-3.437135833,47.768523889],[-3.437081944,47.768614167]],[[-3.436266944,47.767723611],[-3.43617,47.767801667],[-3.436015278,47.767840833],[-3.435647778,47.767749722],[-3.435202778,47.767580833],[-3.433732778,47.7670475],[-3.4334425,47.766904444],[-3.433171667,47.766644444],[-3.432591667,47.765318333],[-3.432069444,47.764381944],[-3.432088611,47.7642],[-3.432224167,47.764043889],[-3.432340278,47.763875],[-3.4324175,47.76368],[-3.432320833,47.763445833],[-3.4321275,47.763198889],[-3.431837222,47.763133889],[-3.431605278,47.763081944],[-3.431508333,47.762951667],[-3.431424722,47.762848889],[-3.431396111,47.762746667],[-3.431424722,47.7626825],[-3.431538611,47.762656944]],[[-3.432020833,47.764060556],[-3.432140556,47.763899722],[-3.432160278,47.7637525],[-3.432160556,47.763591667],[-3.432100556,47.763417222],[-3.431921111,47.763363611],[-3.431721944,47.763363611],[-3.431582222,47.763470833],[-3.431761667,47.763805833],[-3.431801389,47.763953333],[-3.432020833,47.764060556]],[[-3.430970833,47.762756667],[-3.431088611,47.762736944],[-3.4311475,47.762771667],[-3.431198889,47.762840833],[-3.431309444,47.763018056],[-3.431386389,47.763346111],[-3.431411944,47.763570556],[-3.431514722,47.7638125],[-3.4316175,47.764036944],[-3.431771667,47.764226667],[-3.432822778,47.766498056],[-3.432874722,47.766725],[-3.432874722,47.766951944],[-3.432692778,47.767109167],[-3.432355,47.767231389],[-3.430484167,47.767964722],[-3.430146389,47.7678775],[-3.4300425,47.767685278]]]}},{"type":"Feature","id":"LFRH-0784aaedc2f845f96648","properties":{"airport":"LFRH","name":"LFRH Groundlayout","layer":"Guidance lines","category":"Apron Surface","object_type":"Line","style_id":"line.apronsurface.808080","source_group":"LFRH Groundlayout","vsmr_group_ids":[],"geometry_role":"linework"},"geometry":{"type":"MultiLineString","coordinates":[[[-3.438398611,47.754863889],[-3.438892778,47.754870278],[-3.438892778,47.754715556],[-3.438508889,47.754721944],[-3.438628889,47.754576944],[-3.438508889,47.754541389],[-3.438321944,47.7547025],[-3.437703056,47.7547025],[-3.437683889,47.754860556],[-3.437919722,47.754861111]],[[-3.445385833,47.770476111],[-3.445268611,47.770794444],[-3.444634167,47.7707825]],[[-3.442891389,47.771530833],[-3.442435833,47.771510278],[-3.442314167,47.771155556],[-3.441542778,47.771346389],[-3.441664444,47.772328889],[-3.442679444,47.772738056],[-3.443004167,47.772328889],[-3.444144167,47.771012222],[-3.445665,47.771004722],[-3.445732222,47.770674167],[-3.446593333,47.770681667],[-3.446577222,47.770391667],[-3.446045278,47.770365833]],[[-3.453303333,47.767507778],[-3.453420556,47.767591389],[-3.453561111,47.767502778],[-3.453475556,47.767446389]],[[-3.454157778,47.767121389],[-3.45416,47.767166389],[-3.453907778,47.767166389],[-3.453933333,47.767468333],[-3.454536111,47.767461111],[-3.454545556,47.767149167],[-3.454420556,47.767150278]],[[-3.460834444,47.769199722],[-3.4608375,47.769131667],[-3.460613889,47.769131667],[-3.460601944,47.769326111],[-3.460756944,47.769324167],[-3.460761111,47.769315278]],[[-3.461453889,47.769640278],[-3.461296111,47.769642778],[-3.461285556,47.770008056],[-3.461786667,47.769997222],[-3.461781944,47.769659722]],[[-3.462235,47.768653889],[-3.4625175,47.768659167],[-3.462513333,47.768448333],[-3.462199444,47.768461389]],[[-3.430304722,47.768315],[-3.430160278,47.768587222],[-3.430097222,47.768785],[-3.430278056,47.768918889],[-3.431110833,47.769880556],[-3.430531389,47.770136111],[-3.429608056,47.769113611],[-3.429046667,47.7690525],[-3.428775,47.769076944],[-3.428666389,47.769381111],[-3.428901667,47.769588056],[-3.428937778,47.769831667],[-3.427760556,47.769867778],[-3.427742222,47.770366944],[-3.426909167,47.770391111],[-3.4269275,47.769989444],[-3.426384167,47.769989444],[-3.426420556,47.769672778],[-3.426800833,47.769673056],[-3.426873611,47.768662778],[-3.426710833,47.768638333],[-3.426728889,47.768395],[-3.427598333,47.768346389],[-3.427670833,47.768200278],[-3.428757222,47.768212778],[-3.428811944,47.767470278],[-3.430010278,47.767455278],[-3.430020833,47.767611389],[-3.430045278,47.767687778]],[[-3.4583225,47.748926944],[-3.458342222,47.749147778],[-3.459353611,47.749143333],[-3.459366667,47.748564722],[-3.458388056,47.748573889],[-3.458390556,47.748700833]],[[-3.455403611,47.748853889],[-3.455400833,47.748927778],[-3.454815,47.748927778],[-3.454838333,47.748259444],[-3.45494,47.748165],[-3.455593056,47.748176111]],[[-3.454591389,47.749634722],[-3.454531111,47.749553611],[-3.454271944,47.749640556],[-3.454325278,47.749716667]],[[-3.453832222,47.750055556],[-3.453843056,47.749895833],[-3.452939722,47.749899444],[-3.452915833,47.750269444],[-3.453032778,47.750266944]],[[-3.450627222,47.750221389],[-3.450658889,47.750310556],[-3.451056389,47.750306111],[-3.451072222,47.750045278],[-3.451633889,47.750030278],[-3.451656111,47.749767222],[-3.451662222,47.749633333],[-3.451100556,47.749635556],[-3.451094167,47.749763056],[-3.450526111,47.749773611],[-3.450504167,47.750019722],[-3.4505775,47.750079167]],[[-3.428840278,47.755471389],[-3.428821389,47.755514722],[-3.428546389,47.755514722],[-3.428550278,47.755159722],[-3.428685833,47.75515]],[[-3.428487778,47.754705556],[-3.428385833,47.754783889],[-3.428228611,47.754695],[-3.428379722,47.754546944]],[[-3.432332778,47.7534925],[-3.432536389,47.7534925],[-3.432520278,47.753648056],[-3.432356667,47.753653611],[-3.432336667,47.753779722],[-3.4319775,47.753785],[-3.431982778,47.753496111],[-3.432154444,47.753496111]],[[-3.434854444,47.751932222],[-3.434861111,47.751825278],[-3.434533333,47.751823056],[-3.434546667,47.751923333]],[[-3.4356625,47.752474167],[-3.436005556,47.752471944],[-3.436009167,47.752293333],[-3.4357175,47.752295833]],[[-3.435039167,47.75334],[-3.435211111,47.753339444],[-3.435216667,47.753262778],[-3.434999167,47.753266389]],[[-3.435189444,47.753685278],[-3.435191944,47.753773889],[-3.435582222,47.753772222],[-3.435589722,47.753503333],[-3.435251667,47.753505],[-3.435250278,47.753606667]]]}},{"type":"Feature","id":"LFRH-d3c7fcbbdd527b375a2d","properties":{"airport":"LFRH","name":"LFRH Groundlayout","layer":"Guidance lines","category":"Stopbars","object_type":"Line","style_id":"line.stopbar.7e0000","source_group":"LFRH Groundlayout","vsmr_group_ids":[],"geometry_role":"linework"},"geometry":{"type":"MultiLineString","coordinates":[[[-3.432322222,47.764832778],[-3.432074722,47.764886667]],[[-3.428616667,47.762145278],[-3.428361944,47.7622025]],[[-3.430568611,47.761075556],[-3.430235278,47.761176667]],[[-3.431458333,47.761019167],[-3.431261667,47.760918889]],[[-3.440242778,47.755861111],[-3.440164722,47.755984167]],[[-3.440266944,47.755184167],[-3.440169444,47.755000556]],[[-3.444227222,47.754186111],[-3.444332222,47.754443333]],[[-3.458651389,47.754996944],[-3.458406944,47.755056111]],[[-3.457909722,47.755179444],[-3.457589167,47.755251389]],[[-3.459644167,47.757460556],[-3.45944,47.757493333]],[[-3.458982778,47.757615556],[-3.458792778,47.757624444]],[[-3.4559975,47.766411111],[-3.455807778,47.766411111]],[[-3.438393889,47.768877222],[-3.438516389,47.768726667]],[[-3.434950278,47.767656667],[-3.435050833,47.7675275]]]}},{"type":"Feature","id":"LFRH-e7b8059ed861a8c5830a","properties":{"airport":"LFRH","name":"LFRH Groundlayout","layer":"Guidance lines","category":"TWR-CTR","object_type":"Line","style_id":"line.twr-ctr.000000","source_group":"LFRH Groundlayout","vsmr_group_ids":[],"geometry_role":"linework"},"geometry":{"type":"LineString","coordinates":[[-3.444287222,47.768324167],[-3.443375556,47.768361389],[-3.443347778,47.767841389],[-3.444259722,47.767785556],[-3.444287222,47.768324167]]}},{"type":"Feature","id":"LFRH-c53b0104df1f726dbbbe","properties":{"airport":"LFRH","name":"LFRH Groundlayout","layer":"Guidance lines","category":"Labels","object_type":"Line","style_id":"line.labels.808080","source_group":"LFRH Groundlayout","vsmr_group_ids":[],"geometry_role":"linework"},"geometry":{"type":"MultiLineString","coordinates":[[[-3.429220833,47.762826944],[-3.429236111,47.7628575],[-3.429214722,47.762862222],[-3.429208333,47.762847778],[-3.42919,47.762851944],[-3.429196111,47.762865],[-3.429115833,47.762882222],[-3.429099444,47.762849167],[-3.429118889,47.762844167],[-3.429131389,47.762866389],[-3.429162222,47.762860278],[-3.429153056,47.762840278],[-3.429220833,47.762826944]],[[-3.458518056,47.756550833],[-3.458312222,47.756602778],[-3.458260556,47.756520556],[-3.458453611,47.756464167],[-3.458518056,47.756550833]],[[-3.458470833,47.756538889],[-3.4583375,47.756575],[-3.458308611,47.756533333],[-3.458438056,47.756498889],[-3.458470833,47.756538889]],[[-3.458215833,47.756478056],[-3.458171944,47.756407778],[-3.458407778,47.756407778],[-3.458417778,47.756439444],[-3.458252778,47.756439444],[-3.458283056,47.756466667],[-3.458215833,47.756478056]],[[-3.441815278,47.756946389],[-3.441765556,47.7570875],[-3.441645833,47.757070278],[-3.441697222,47.756930278],[-3.441815278,47.756946389]],[[-3.441779444,47.756963333],[-3.441743889,47.75706],[-3.441686944,47.757051944],[-3.441725,47.756956111],[-3.441779444,47.756963333]],[[-3.441539722,47.757010556],[-3.441523056,47.757050278],[-3.441399722,47.757029444],[-3.441418611,47.756986389],[-3.441496944,47.756948056],[-3.441506389,47.756924167],[-3.4414425,47.756916111],[-3.441451944,47.756889167],[-3.441544444,47.756900278],[-3.441520833,47.756959444],[-3.441451944,47.756996111],[-3.44144,47.757018333],[-3.441496944,47.757026389],[-3.441506389,47.757005556],[-3.441539722,47.757010556]],[[-3.434319167,47.774258056],[-3.434423056,47.774062778],[-3.434229167,47.774016111],[-3.434125556,47.774206667],[-3.434319167,47.774258056]],[[-3.43434,47.7740875],[-3.434276111,47.774203333],[-3.434197222,47.774183333],[-3.434256389,47.774071111],[-3.43434,47.7740875]],[[-3.433926111,47.774151111],[-3.433788056,47.774120556],[-3.433811667,47.774060278],[-3.433925,47.774034722],[-3.433948889,47.773983889],[-3.433877778,47.773971111],[-3.433859444,47.774009444],[-3.433825278,47.774003611],[-3.433856667,47.773938611],[-3.434007778,47.773971111],[-3.433965,47.774061111],[-3.433873611,47.774076389],[-3.433855556,47.774106667],[-3.433935,47.774124444],[-3.433926111,47.774151111]],[[-3.429097778,47.762805278],[-3.429075278,47.762810556],[-3.429064722,47.762779167],[-3.429109444,47.762769722],[-3.429159722,47.762775833],[-3.429180833,47.762772778],[-3.429175278,47.762759167],[-3.429155,47.762762222],[-3.429151667,47.762751667],[-3.429178611,47.762747222],[-3.429196667,47.762780556],[-3.429150556,47.762788611],[-3.429111111,47.762783333],[-3.429089722,47.762788056],[-3.429097778,47.762805278]]]}},{"type":"Feature","id":"LFRH-e62df3bf676a42600897","properties":{"airport":"LFRH","name":"B","layer":"Labels","category":"Taxiways","object_type":"Label","style_id":"label.taxiways","source_group":"LFRH Taxiways","vsmr_group_ids":[],"geometry_role":"text_label","text-field":"B"},"geometry":{"type":"Point","coordinates":[-3.428209444,47.762262222]}},{"type":"Feature","id":"LFRH-b9cc2fd4884385a0dedd","properties":{"airport":"LFRH","name":"B1","layer":"Labels","category":"Taxiways","object_type":"Label","style_id":"label.taxiways","source_group":"LFRH Taxiways","vsmr_group_ids":[],"geometry_role":"text_label","text-field":"B1"},"geometry":{"type":"Point","coordinates":[-3.430113056,47.761190833]}},{"type":"Feature","id":"LFRH-a8cd511d177b8aa021d3","properties":{"airport":"LFRH","name":"B2","layer":"Labels","category":"Taxiways","object_type":"Label","style_id":"label.taxiways","source_group":"LFRH Taxiways","vsmr_group_ids":[],"geometry_role":"text_label","text-field":"B2"},"geometry":{"type":"Point","coordinates":[-3.431696667,47.761057778]}},{"type":"Feature","id":"LFRH-558c07c52280d9ed31bd","properties":{"airport":"LFRH","name":"B","layer":"Labels","category":"Taxiways","object_type":"Label","style_id":"label.taxiways","source_group":"LFRH Taxiways","vsmr_group_ids":[],"geometry_role":"text_label","text-field":"B"},"geometry":{"type":"Point","coordinates":[-3.433877222,47.758434722]}},{"type":"Feature","id":"LFRH-1f65042eb735614e1505","properties":{"airport":"LFRH","name":"A4","layer":"Labels","category":"Taxiways","object_type":"Label","style_id":"label.taxiways","source_group":"LFRH Taxiways","vsmr_group_ids":[],"geometry_role":"text_label","text-field":"A4"},"geometry":{"type":"Point","coordinates":[-3.440127778,47.756026667]}},{"type":"Feature","id":"LFRH-97443b1297db5593e885","properties":{"airport":"LFRH","name":"A3","layer":"Labels","category":"Taxiways","object_type":"Label","style_id":"label.taxiways","source_group":"LFRH Taxiways","vsmr_group_ids":[],"geometry_role":"text_label","text-field":"A3"},"geometry":{"type":"Point","coordinates":[-3.444284444,47.753908889]}},{"type":"Feature","id":"LFRH-4f9afaf13ef10e4c051b","properties":{"airport":"LFRH","name":"A2","layer":"Labels","category":"Taxiways","object_type":"Label","style_id":"label.taxiways","source_group":"LFRH Taxiways","vsmr_group_ids":[],"geometry_role":"text_label","text-field":"A2"},"geometry":{"type":"Point","coordinates":[-3.452999167,47.752417778]}},{"type":"Feature","id":"LFRH-2d8a452128e7e240cfc4","properties":{"airport":"LFRH","name":"A","layer":"Labels","category":"Taxiways","object_type":"Label","style_id":"label.taxiways","source_group":"LFRH Taxiways","vsmr_group_ids":[],"geometry_role":"text_label","text-field":"A"},"geometry":{"type":"Point","coordinates":[-3.457107778,47.753146944]}},{"type":"Feature","id":"LFRH-a47b222d2b3b42707978","properties":{"airport":"LFRH","name":"A1","layer":"Labels","category":"Taxiways","object_type":"Label","style_id":"label.taxiways","source_group":"LFRH Taxiways","vsmr_group_ids":[],"geometry_role":"text_label","text-field":"A1"},"geometry":{"type":"Point","coordinates":[-3.457400833,47.755238889]}},{"type":"Feature","id":"LFRH-a11659b48282d27ad263","properties":{"airport":"LFRH","name":"E1","layer":"Labels","category":"Taxiways","object_type":"Label","style_id":"label.taxiways","source_group":"LFRH Taxiways","vsmr_group_ids":[],"geometry_role":"text_label","text-field":"E1"},"geometry":{"type":"Point","coordinates":[-3.458670278,47.757625556]}},{"type":"Feature","id":"LFRH-917aefa88d4e8b1638e8","properties":{"airport":"LFRH","name":"E","layer":"Labels","category":"Taxiways","object_type":"Label","style_id":"label.taxiways","source_group":"LFRH Taxiways","vsmr_group_ids":[],"geometry_role":"text_label","text-field":"E"},"geometry":{"type":"Point","coordinates":[-3.459094444,47.763615278]}},{"type":"Feature","id":"LFRH-3a979986fa708b2b97e8","properties":{"airport":"LFRH","name":"D","layer":"Labels","category":"Taxiways","object_type":"Label","style_id":"label.taxiways","source_group":"LFRH Taxiways","vsmr_group_ids":[],"geometry_role":"text_label","text-field":"D"},"geometry":{"type":"Point","coordinates":[-3.438444722,47.769050556]}},{"type":"Feature","id":"LFRH-00f4e00ea559307ea5af","properties":{"airport":"LFRH","name":"C1","layer":"Labels","category":"Taxiways","object_type":"Label","style_id":"label.taxiways","source_group":"LFRH Taxiways","vsmr_group_ids":[],"geometry_role":"text_label","text-field":"C1"},"geometry":{"type":"Point","coordinates":[-3.434905833,47.767736667]}},{"type":"Feature","id":"LFRH-330c2c3e75d7192bd5e5","properties":{"airport":"LFRH","name":"C","layer":"Labels","category":"Taxiways","object_type":"Label","style_id":"label.taxiways","source_group":"LFRH Taxiways","vsmr_group_ids":[],"geometry_role":"text_label","text-field":"C"},"geometry":{"type":"Point","coordinates":[-3.431985,47.764893889]}}]}
