{"type":"FeatureCollection","name":"LFRI AVISO","bbox":[-1.388591389,46.697879444,-1.368660556,46.704955278],"metadata":{"schema":"vSMR AVISO","schema_version":2,"geometry_mode":"shared","airport":"LFRI","coordinate_reference_system":"WGS84","coordinate_order":"longitude, latitude","default_color_palette":"dark","color_palettes":["dark","light"],"background_colors":{"dark":"#434A4F","light":"#434A4F"},"runways":[{"ends":["10","28"],"headings":[101,281],"thresholds":[[-1.388560833,46.703318889],[-1.368688889,46.700568889]]}],"saved_active_runways":[],"saved_active_airport_modes":[],"airport_reference":[-1.381666944,46.7025],"feature_count":24,"style_count":10,"layer_counts":{"Guidance lines":8,"Labels":16},"category_counts":{"Apron Surface":1,"Centerlines":1,"Gates":9,"Grass runways":1,"Labels":1,"Runways":1,"Stopbars":1,"TWR-CTR":1,"Taxiways":8},"geometry_source":"local GNG/KMZ","geometry_source_url":"","geometry_license":"GPL-3.0"},"styles":{"line.runwayconcrete.555555":{"name":"Runways","layer":"Guidance lines","object_type":"Line","paint":{"stroke":"#111318","stroke-opacity":1,"stroke-width":1,"palette-overrides":{"light":{"stroke":"#555555"}}},"feature_count":1},"line.runwaygrass.008000":{"name":"Grass runways","layer":"Guidance lines","object_type":"Line","paint":{"stroke":"#859A77","stroke-opacity":1,"stroke-width":1,"palette-overrides":{"light":{"stroke":"#008000"}}},"feature_count":1},"line.taxiway.c0b631":{"name":"Taxiways","layer":"Guidance lines","object_type":"Line","paint":{"stroke":"#4E5A69","stroke-opacity":1,"stroke-width":1,"palette-overrides":{"light":{"stroke":"#C0B631"}}},"feature_count":1},"line.apronsurface.808080":{"name":"Apron Surface","layer":"Guidance lines","object_type":"Line","paint":{"stroke":"#808080","stroke-opacity":1,"stroke-width":1,"palette-overrides":{"light":{"stroke":"#808080"}}},"feature_count":1},"line.stopbar.7e0000":{"name":"Stopbars","layer":"Guidance lines","object_type":"Line","paint":{"stroke":"#7E0000","stroke-opacity":1,"stroke-width":1,"palette-overrides":{"light":{"stroke":"#7E0000"}}},"feature_count":1},"line.twr-ctr.000000":{"name":"TWR-CTR","layer":"Guidance lines","object_type":"Line","paint":{"stroke":"#000000","stroke-opacity":1,"stroke-width":1,"palette-overrides":{"light":{"stroke":"#000000"}}},"feature_count":1},"line.centerlines.ffff00":{"name":"Centerlines","layer":"Guidance lines","object_type":"Line","paint":{"stroke":"#FFFF00","stroke-opacity":1,"stroke-width":1,"palette-overrides":{"light":{"stroke":"#FFFF00"}}},"feature_count":1},"line.labels.808080":{"name":"Labels","layer":"Guidance lines","object_type":"Line","paint":{"stroke":"#808080","stroke-opacity":1,"stroke-width":1,"palette-overrides":{"light":{"stroke":"#808080"}}},"feature_count":1},"label.gates":{"name":"Gates","layer":"Labels","object_type":"Label","paint":{"text-color":"#CCCCCC","text-font":"Arial","text-size":12,"text-halo-color":"#000000","text-halo-width":1,"text-anchor":"center","zoomLevel":9},"feature_count":9},"label.taxiways":{"name":"Taxiways","layer":"Labels","object_type":"Label","paint":{"text-color":"#CCCCCC","text-font":"Arial","text-size":12,"text-halo-color":"#000000","text-halo-width":1,"text-anchor":"center","zoomLevel":7},"feature_count":7}},"vsmr_groups":[],"features":[{"type":"Feature","id":"LFRI-978c2f4b423d837e8700","properties":{"airport":"LFRI","name":"A","layer":"Labels","category":"Gates","object_type":"Label","style_id":"label.gates","source_group":"LFRI Gates","vsmr_group_ids":[],"geometry_role":"text_label","text-field":"A"},"geometry":{"type":"Point","coordinates":[-1.377159444,46.699725278]}},{"type":"Feature","id":"LFRI-980f56e3bc3ae8cb9d06","properties":{"airport":"LFRI","name":"B","layer":"Labels","category":"Gates","object_type":"Label","style_id":"label.gates","source_group":"LFRI Gates","vsmr_group_ids":[],"geometry_role":"text_label","text-field":"B"},"geometry":{"type":"Point","coordinates":[-1.376792222,46.699675556]}},{"type":"Feature","id":"LFRI-c1e8c394c27f777a899d","properties":{"airport":"LFRI","name":"C","layer":"Labels","category":"Gates","object_type":"Label","style_id":"label.gates","source_group":"LFRI Gates","vsmr_group_ids":[],"geometry_role":"text_label","text-field":"C"},"geometry":{"type":"Point","coordinates":[-1.376244167,46.6995925]}},{"type":"Feature","id":"LFRI-d289d7d1129936a8df76","properties":{"airport":"LFRI","name":"D","layer":"Labels","category":"Gates","object_type":"Label","style_id":"label.gates","source_group":"LFRI Gates","vsmr_group_ids":[],"geometry_role":"text_label","text-field":"D"},"geometry":{"type":"Point","coordinates":[-1.375933889,46.6995425]}},{"type":"Feature","id":"LFRI-075d1adaf7ad3440a6f6","properties":{"airport":"LFRI","name":"E","layer":"Labels","category":"Gates","object_type":"Label","style_id":"label.gates","source_group":"LFRI Gates","vsmr_group_ids":[],"geometry_role":"text_label","text-field":"E"},"geometry":{"type":"Point","coordinates":[-1.375683889,46.699523889]}},{"type":"Feature","id":"LFRI-414cc15664c4cfc5c4f1","properties":{"airport":"LFRI","name":"E2","layer":"Labels","category":"Gates","object_type":"Label","style_id":"label.gates","source_group":"LFRI Gates","vsmr_group_ids":[],"geometry_role":"text_label","text-field":"E2"},"geometry":{"type":"Point","coordinates":[-1.376028889,46.699363889]}},{"type":"Feature","id":"LFRI-c3ff3f028787d1fabbee","properties":{"airport":"LFRI","name":"C2","layer":"Labels","category":"Gates","object_type":"Label","style_id":"label.gates","source_group":"LFRI Gates","vsmr_group_ids":[],"geometry_role":"text_label","text-field":"C2"},"geometry":{"type":"Point","coordinates":[-1.376605278,46.699434444]}},{"type":"Feature","id":"LFRI-db7bb30c87b2129700c7","properties":{"airport":"LFRI","name":"B2","layer":"Labels","category":"Gates","object_type":"Label","style_id":"label.gates","source_group":"LFRI Gates","vsmr_group_ids":[],"geometry_role":"text_label","text-field":"B2"},"geometry":{"type":"Point","coordinates":[-1.377263889,46.69953]}},{"type":"Feature","id":"LFRI-f3f3c52d8544b31ef81d","properties":{"airport":"LFRI","name":"TWR","layer":"Labels","category":"Gates","object_type":"Label","style_id":"label.gates","source_group":"LFRI Gates","vsmr_group_ids":[],"geometry_role":"text_label","text-field":"TWR"},"geometry":{"type":"Point","coordinates":[-1.377580556,46.699324444]}},{"type":"Feature","id":"LFRI-f49212d1e457f4879830","properties":{"airport":"LFRI","name":"LFRI Groundlayout","layer":"Guidance lines","category":"Runways","object_type":"Line","style_id":"line.runwayconcrete.555555","source_group":"LFRI Groundlayout","vsmr_group_ids":[],"geometry_role":"linework"},"geometry":{"type":"MultiLineString","coordinates":[[[-1.3695975,46.7005675],[-1.369578889,46.700558889],[-1.369533889,46.700540833],[-1.369493889,46.700523611],[-1.369105,46.700326389],[-1.369075,46.700314444],[-1.369045,46.7003075],[-1.369011111,46.700301667],[-1.368975,46.700300833],[-1.36894,46.700304167],[-1.3689025,46.700311111],[-1.3688675,46.700322222],[-1.36884,46.700335],[-1.3688075,46.700353056],[-1.3687875,46.700369444],[-1.3687725,46.700387222],[-1.3687375,46.700446389],[-1.368660556,46.700701667],[-1.374101667,46.701457778]],[[-1.381643056,46.702505556],[-1.3885175,46.703453889],[-1.388591389,46.703201944],[-1.388582778,46.703176667],[-1.388578889,46.703148333],[-1.388573889,46.703120833],[-1.388559444,46.703094167],[-1.388543333,46.703071111],[-1.388509444,46.703040278],[-1.388477222,46.703020278],[-1.388443333,46.703005833],[-1.388406389,46.702997222],[-1.388362778,46.702991667],[-1.388332222,46.702990556],[-1.3883,46.702991667],[-1.388264722,46.702996111],[-1.387775,46.703086389],[-1.381629167,46.702239444],[-1.381626111,46.702215833]],[[-1.381435833,46.702476389],[-1.374474444,46.701509722]],[[-1.381424722,46.702191111],[-1.381421944,46.702210833],[-1.377505,46.701666667]]]}},{"type":"Feature","id":"LFRI-3e26ea88dda06091b0d7","properties":{"airport":"LFRI","name":"LFRI Groundlayout","layer":"Guidance lines","category":"Grass runways","object_type":"Line","style_id":"line.runwaygrass.008000","source_group":"LFRI Groundlayout","vsmr_group_ids":[],"geometry_role":"linework"},"geometry":{"type":"MultiLineString","coordinates":[[[-1.378991944,46.703778611],[-1.374667222,46.703151111],[-1.374760833,46.702831667]],[[-1.379100278,46.703791944],[-1.387371944,46.704918333],[-1.3875975,46.704205833],[-1.381656944,46.703361389]],[[-1.381416667,46.703329167],[-1.374894167,46.702436111],[-1.374781667,46.702769167]]]}},{"type":"Feature","id":"LFRI-b4942930a57d83d1fe8c","properties":{"airport":"LFRI","name":"LFRI Groundlayout","layer":"Guidance lines","category":"Taxiways","object_type":"Line","style_id":"line.taxiway.c0b631","source_group":"LFRI Groundlayout","vsmr_group_ids":[],"geometry_role":"linework"},"geometry":{"type":"MultiLineString","coordinates":[[[-1.376276389,46.701495556],[-1.37636,46.701478056],[-1.376472222,46.701445],[-1.376591111,46.701409722],[-1.376696944,46.701356944],[-1.376780278,46.701299722],[-1.376838056,46.701249167],[-1.3768575,46.701185278],[-1.376889444,46.701090556],[-1.377218333,46.69995],[-1.377221111,46.699921944],[-1.377211667,46.699897222],[-1.377201667,46.699869167],[-1.377183333,46.699858056],[-1.377162222,46.699854722]],[[-1.379098333,46.703791667],[-1.379088333,46.703801667],[-1.378897778,46.704378889],[-1.3788975,46.7044025],[-1.378905278,46.704428333],[-1.378917222,46.704451667],[-1.378932778,46.7044775],[-1.378962778,46.704500556],[-1.379000556,46.704520278],[-1.379051111,46.704536389],[-1.379109722,46.704546944],[-1.380847778,46.704805556],[-1.380840278,46.704844167],[-1.380920556,46.704855278],[-1.380905,46.7048925],[-1.378893889,46.704581944],[-1.378878333,46.704583333],[-1.378860833,46.704591111],[-1.378843333,46.704602222],[-1.378825,46.704616389],[-1.378805278,46.704665]],[[-1.378705,46.704648056],[-1.378723056,46.704592778],[-1.3787125,46.704574167],[-1.378693056,46.704558889],[-1.378660278,46.704548611],[-1.378598889,46.704540278],[-1.378169722,46.704475],[-1.37788,46.704435556],[-1.377916389,46.704472222],[-1.377958611,46.704525],[-1.377993056,46.704575],[-1.378033611,46.704627778],[-1.378062222,46.704667222]],[[-1.377862222,46.7046375],[-1.377884167,46.704557222],[-1.3777925,46.704459167],[-1.377741389,46.704436667],[-1.376832222,46.704208611],[-1.376767778,46.704201944],[-1.376700833,46.704203611],[-1.376651389,46.704215556],[-1.376604167,46.704246111],[-1.376539722,46.704427778]],[[-1.376485278,46.704423056],[-1.376589167,46.704121944],[-1.376549167,46.704100833],[-1.376494722,46.704084722],[-1.3759375,46.703937222],[-1.375884722,46.703939722],[-1.375837778,46.703945278],[-1.375794167,46.703963889],[-1.375757222,46.703993889],[-1.375711944,46.704047778],[-1.375691944,46.704081111],[-1.375685,46.704111111],[-1.375678333,46.70414],[-1.375683333,46.704165278],[-1.37569,46.704194167],[-1.375710278,46.704219444],[-1.375737222,46.704244722],[-1.375821111,46.704325278]],[[-1.378989444,46.703779444],[-1.3788125,46.704356111],[-1.378799167,46.704382222],[-1.37878,46.704408611],[-1.378753333,46.704428056],[-1.378718889,46.704449167],[-1.378680833,46.704463333],[-1.378629444,46.704468611],[-1.378570278,46.704464722],[-1.378514722,46.704460833],[-1.377890833,46.704363889],[-1.377802222,46.704346667],[-1.374735,46.703553333],[-1.374701111,46.703542222],[-1.374670556,46.70352],[-1.374644444,46.703503333],[-1.374613889,46.703475833],[-1.374214722,46.7028775],[-1.374211944,46.702834444],[-1.374242222,46.702800833],[-1.374296667,46.702772778],[-1.374365,46.702774722],[-1.374760833,46.702830833]],[[-1.375669167,46.704304444],[-1.375591389,46.704211667],[-1.375572778,46.704166667],[-1.375583056,46.704131667],[-1.3755975,46.704086667],[-1.375626111,46.704023333],[-1.375638333,46.703964444],[-1.375638056,46.703938889],[-1.375633889,46.703903611],[-1.375613056,46.703880278],[-1.375586667,46.703859444],[-1.3755525,46.703836944],[-1.375501389,46.703820833],[-1.3747125,46.703618611],[-1.374646111,46.7035925],[-1.374603611,46.703568611],[-1.374561111,46.703536389],[-1.374529444,46.703498889],[-1.374035556,46.702743333],[-1.3740225,46.702728889],[-1.373989167,46.702714722],[-1.373946944,46.702706111],[-1.373894722,46.702699167],[-1.373620833,46.702684167],[-1.373587778,46.702687778],[-1.373564722,46.702705278]],[[-1.374781111,46.702768333],[-1.374149444,46.702677222],[-1.374094444,46.702660556],[-1.374057778,46.702641389],[-1.374036667,46.702616944],[-1.374021111,46.702591944],[-1.374019722,46.702558056],[-1.374025,46.7025175],[-1.374036389,46.702465556],[-1.374297222,46.701609722],[-1.374322778,46.701585278],[-1.374346944,46.701564167],[-1.374380833,46.701545278],[-1.374416389,46.701528611],[-1.374471389,46.70151]],[[-1.373478611,46.702627778],[-1.373541389,46.702624444],[-1.373604167,46.702627778],[-1.373661944,46.702631111],[-1.373724722,46.702637778],[-1.373789722,46.702644167],[-1.3738525,46.702645833],[-1.373888333,46.702635],[-1.373905,46.702613056],[-1.373928611,46.702585556],[-1.373942222,46.702549722],[-1.374222778,46.701602222],[-1.374224722,46.701571111],[-1.374216111,46.701549167],[-1.374206111,46.701521389],[-1.374189167,46.701500833],[-1.374155556,46.701483333],[-1.374101944,46.701458056]],[[-1.381655833,46.703361111],[-1.381641389,46.702508056]],[[-1.381414722,46.703330556],[-1.381440556,46.702477778]],[[-1.381626389,46.702213333],[-1.381598889,46.701105556],[-1.381588889,46.700651111],[-1.381585556,46.700326111],[-1.381572222,46.700157778],[-1.381449722,46.700110278],[-1.381406667,46.700105556],[-1.381191111,46.700076944],[-1.381155,46.700063611],[-1.3811175,46.700044722],[-1.381085,46.700023056],[-1.381060833,46.699989167],[-1.381051111,46.699961944],[-1.381052222,46.699887222],[-1.381053611,46.699785278],[-1.381089167,46.697881944],[-1.380992222,46.697879444],[-1.3809775,46.698473333],[-1.380766667,46.698473333],[-1.380725278,46.698446389]],[[-1.381426389,46.702185],[-1.381423056,46.702005833],[-1.381410556,46.701560556],[-1.381404167,46.701108333],[-1.381399444,46.700645833],[-1.381399444,46.700326389],[-1.381395556,46.700261667],[-1.381385,46.700228611],[-1.381355,46.700204722],[-1.381315556,46.700177778],[-1.381283056,46.700163333],[-1.381218056,46.700152222],[-1.377647222,46.699678056],[-1.377599167,46.699676389],[-1.377559444,46.699684167],[-1.377515833,46.699698611],[-1.377483611,46.699721944],[-1.377453333,46.699754444],[-1.377430556,46.699784167],[-1.377419167,46.699843889],[-1.3772675,46.700385833],[-1.377118056,46.700847778],[-1.377020278,46.701171389],[-1.377012222,46.701229722],[-1.377018889,46.701295],[-1.377043889,46.701366389],[-1.377095833,46.701440833],[-1.377175,46.701513611],[-1.377267778,46.701574167],[-1.377348333,46.701614167],[-1.377411944,46.701636111],[-1.3774575,46.701651111],[-1.377507778,46.701664722]],[[-1.380724722,46.698528056],[-1.380763333,46.698508889],[-1.3809775,46.6985125],[-1.380954444,46.699871944],[-1.380950833,46.699895],[-1.380941944,46.699914722],[-1.380929444,46.699936111],[-1.380914444,46.699955],[-1.380896667,46.699970278],[-1.380874167,46.699985],[-1.380848333,46.699998889],[-1.380816389,46.700008611],[-1.380788056,46.700015556],[-1.380756667,46.700016667],[-1.380718611,46.700014167],[-1.380671389,46.700009444],[-1.380615278,46.700003333],[-1.380552778,46.699995278],[-1.380500278,46.699988056],[-1.380423889,46.699978056],[-1.380348889,46.699965833],[-1.3803275,46.699956944],[-1.380308889,46.6999425],[-1.380286667,46.699923333],[-1.380270278,46.699903333],[-1.380258611,46.699872222],[-1.380261111,46.699846667],[-1.38026,46.699816389],[-1.380273889,46.699785833],[-1.380286667,46.699764444],[-1.380301944,46.699733889],[-1.380316944,46.699702778],[-1.380339167,46.699637222],[-1.380382222,46.699553333]],[[-1.377500278,46.699585278],[-1.379804167,46.699895278],[-1.379863333,46.699901667],[-1.379912222,46.699906944],[-1.379955556,46.699908333],[-1.379988333,46.699905556],[-1.380023333,46.699900278],[-1.380059444,46.699888611],[-1.380085,46.699878611],[-1.380105,46.6998675],[-1.380113611,46.699856111],[-1.380103889,46.699852222],[-1.380076389,46.699850833],[-1.380040278,46.699848611],[-1.379998056,46.699845],[-1.379950278,46.69984],[-1.379894167,46.699832778],[-1.379823056,46.699825556],[-1.379775556,46.699818889],[-1.379730833,46.699813056],[-1.379684167,46.699806667],[-1.379623889,46.699796389],[-1.379557222,46.699786944],[-1.379453333,46.699773056],[-1.3793525,46.699757222],[-1.377528889,46.699501667],[-1.377517222,46.699508333],[-1.377500278,46.699585278]],[[-1.380198056,46.6996075],[-1.380206667,46.6996325],[-1.380203333,46.699664722],[-1.380189444,46.699698056],[-1.380166667,46.699726667],[-1.380121667,46.6997575],[-1.380078333,46.6997825],[-1.380046944,46.699789167],[-1.380013611,46.699790556],[-1.379977222,46.69979],[-1.3772775,46.699414722]]]}},{"type":"Feature","id":"LFRI-7fe3756a5a7657322609","properties":{"airport":"LFRI","name":"LFRI Groundlayout","layer":"Guidance lines","category":"Apron Surface","object_type":"Line","style_id":"line.apronsurface.808080","source_group":"LFRI Groundlayout","vsmr_group_ids":[],"geometry_role":"linework"},"geometry":{"type":"MultiLineString","coordinates":[[[-1.380725,46.6985275],[-1.380721111,46.698609444],[-1.380660556,46.698608333],[-1.380661667,46.698649722],[-1.380606111,46.698649722],[-1.380609722,46.698099722],[-1.380725833,46.698098611],[-1.380724167,46.698446667]],[[-1.378277778,46.704930833],[-1.378430556,46.704955278],[-1.378482778,46.7047725],[-1.378905556,46.7048375],[-1.378944444,46.704689444],[-1.378805,46.704665833]],[[-1.378278889,46.704931389],[-1.378366667,46.704644722],[-1.378348333,46.704640556],[-1.3783675,46.704597222],[-1.378704444,46.704648889]],[[-1.377860556,46.70464],[-1.377760833,46.704626389],[-1.377753056,46.704658889],[-1.378284722,46.704741111],[-1.378296944,46.704711111],[-1.3780625,46.704668333]],[[-1.375666944,46.704305],[-1.375659722,46.704366944],[-1.376431111,46.704484444],[-1.376383333,46.704623611],[-1.376605556,46.704711389],[-1.376669722,46.704495556],[-1.376541389,46.704473056],[-1.376540278,46.704428889]],[[-1.376485,46.704423333],[-1.375823889,46.704328611]],[[-1.373563611,46.702706667],[-1.373470556,46.702629167]],[[-1.377159167,46.699855],[-1.373878056,46.6994025],[-1.373917778,46.699291389],[-1.372184722,46.699055833],[-1.372238056,46.698848611],[-1.374580833,46.699157222],[-1.374566111,46.699204167],[-1.374575833,46.69923],[-1.374595556,46.699245833],[-1.374615278,46.699259444],[-1.374651111,46.699269444],[-1.374690556,46.699277222],[-1.374774167,46.699288611],[-1.374806667,46.699293056],[-1.374839444,46.699183056],[-1.375588889,46.699275278],[-1.375605833,46.699228889],[-1.376144444,46.699303056],[-1.376157222,46.699263611],[-1.377177222,46.699401111],[-1.377194444,46.699393611],[-1.377191944,46.699382778],[-1.377174722,46.699372778],[-1.377144167,46.699366389],[-1.377149167,46.699340556],[-1.377279444,46.699355556],[-1.377309722,46.699285556],[-1.377344444,46.6992925],[-1.377279444,46.699395556],[-1.377276944,46.699405833],[-1.377274167,46.699411389],[-1.377279444,46.699415]],[[-1.3801975,46.69961],[-1.379715833,46.6996],[-1.379719167,46.699487778],[-1.379674722,46.699485556],[-1.3796825,46.699423611],[-1.380183333,46.699427778],[-1.3801925,46.699062222],[-1.380524722,46.699067778],[-1.380503611,46.699415833],[-1.380482778,46.69945],[-1.380382222,46.699555]]]}},{"type":"Feature","id":"LFRI-f1481a02d47304bc7935","properties":{"airport":"LFRI","name":"LFRI Groundlayout","layer":"Guidance lines","category":"Stopbars","object_type":"Line","style_id":"line.stopbar.7e0000","source_group":"LFRI Groundlayout","vsmr_group_ids":[],"geometry_role":"linework"},"geometry":{"type":"MultiLineString","coordinates":[[[-1.377269167,46.700381667],[-1.377100278,46.700360278]],[[-1.376495278,46.699763056],[-1.376519444,46.6996725]],[[-1.378613611,46.699806944],[-1.378633333,46.699737778]]]}},{"type":"Feature","id":"LFRI-a07dd18fcf12903aabd6","properties":{"airport":"LFRI","name":"LFRI Groundlayout","layer":"Guidance lines","category":"TWR-CTR","object_type":"Line","style_id":"line.twr-ctr.000000","source_group":"LFRI Groundlayout","vsmr_group_ids":[],"geometry_role":"linework"},"geometry":{"type":"LineString","coordinates":[[-1.377727222,46.699231667],[-1.377383056,46.6991825],[-1.377338333,46.699374167],[-1.377673611,46.699414167],[-1.377727222,46.699231667]]}},{"type":"Feature","id":"LFRI-a6abf66182534cccd0c8","properties":{"airport":"LFRI","name":"LFRI Groundlayout","layer":"Guidance lines","category":"Centerlines","object_type":"Line","style_id":"line.centerlines.ffff00","source_group":"LFRI Groundlayout","vsmr_group_ids":[],"geometry_role":"linework"},"geometry":{"type":"MultiLineString","coordinates":[[[-1.376982222,46.699519444],[-1.377261944,46.699558056]],[[-1.377105,46.699753889],[-1.377158056,46.699564167]],[[-1.376744167,46.699685833],[-1.376793056,46.699511667]],[[-1.376189444,46.699606111],[-1.376224444,46.699481944]],[[-1.375884444,46.699552778],[-1.3759275,46.699393333]],[[-1.375634167,46.699526667],[-1.375681111,46.699358056]],[[-1.375797222,46.699356667],[-1.376030278,46.69939]],[[-1.376353333,46.699433056],[-1.376606389,46.699466944]]]}},{"type":"Feature","id":"LFRI-01376ee000435e02eda8","properties":{"airport":"LFRI","name":"LFRI Groundlayout","layer":"Guidance lines","category":"Labels","object_type":"Line","style_id":"line.labels.808080","source_group":"LFRI Groundlayout","vsmr_group_ids":[],"geometry_role":"linework"},"geometry":{"type":"MultiLineString","coordinates":[[[-1.369539167,46.700671111],[-1.369463333,46.700661111],[-1.369391111,46.700611111],[-1.369364444,46.7006075],[-1.369353889,46.700644722],[-1.36931,46.700638611],[-1.369326389,46.700583333],[-1.369395278,46.700592778],[-1.369473611,46.700644722],[-1.369504722,46.700648056],[-1.369510556,46.700626944],[-1.36949,46.700623333],[-1.369494167,46.7006075],[-1.369558056,46.700615833],[-1.369539167,46.700671111]],[[-1.387920278,46.703295278],[-1.387728333,46.703267778],[-1.387726667,46.703273333],[-1.387693056,46.703269444],[-1.387685833,46.703262222],[-1.387691389,46.703245278],[-1.387923611,46.703277222],[-1.387920278,46.703295278]],[[-1.387936389,46.703239722],[-1.387703333,46.703206944],[-1.387719167,46.703151944],[-1.387954167,46.703184167],[-1.387936389,46.703239722]],[[-1.387901111,46.703218333],[-1.387749722,46.703197778],[-1.387757222,46.703174722],[-1.387908333,46.703195556],[-1.387901111,46.703218333]],[[-1.369514167,46.700765556],[-1.369425556,46.700753889],[-1.369416944,46.7007425],[-1.369397778,46.700750833],[-1.369280833,46.700733889],[-1.369298889,46.700675833],[-1.369416944,46.700693056],[-1.369428056,46.700704722],[-1.369445278,46.700696111],[-1.369531389,46.700708333],[-1.369514167,46.700765556]],[[-1.369476944,46.7007425],[-1.369435,46.700737222],[-1.369441667,46.700714167],[-1.369483889,46.700720278],[-1.369476944,46.7007425]],[[-1.369402222,46.7007325],[-1.369328889,46.7007225],[-1.369335833,46.700698889],[-1.369409167,46.700708889],[-1.369402222,46.7007325]]]}},{"type":"Feature","id":"LFRI-08d1c7251cdceced398a","properties":{"airport":"LFRI","name":"AW","layer":"Labels","category":"Taxiways","object_type":"Label","style_id":"label.taxiways","source_group":"LFRI Taxiways","vsmr_group_ids":[],"geometry_role":"text_label","text-field":"AW"},"geometry":{"type":"Point","coordinates":[-1.3764825,46.699827778]}},{"type":"Feature","id":"LFRI-9991538cb2a9b0a104f1","properties":{"airport":"LFRI","name":"A","layer":"Labels","category":"Taxiways","object_type":"Label","style_id":"label.taxiways","source_group":"LFRI Taxiways","vsmr_group_ids":[],"geometry_role":"text_label","text-field":"A"},"geometry":{"type":"Point","coordinates":[-1.377423056,46.700371944]}},{"type":"Feature","id":"LFRI-0cd913d063e3ae790f9b","properties":{"airport":"LFRI","name":"AE","layer":"Labels","category":"Taxiways","object_type":"Label","style_id":"label.taxiways","source_group":"LFRI Taxiways","vsmr_group_ids":[],"geometry_role":"text_label","text-field":"AE"},"geometry":{"type":"Point","coordinates":[-1.378598333,46.699860833]}},{"type":"Feature","id":"LFRI-6a16191e6001ca24b23d","properties":{"airport":"LFRI","name":"B","layer":"Labels","category":"Taxiways","object_type":"Label","style_id":"label.taxiways","source_group":"LFRI Taxiways","vsmr_group_ids":[],"geometry_role":"text_label","text-field":"B"},"geometry":{"type":"Point","coordinates":[-1.381860833,46.702128056]}},{"type":"Feature","id":"LFRI-4c8c7bdfa01be3aca0c2","properties":{"airport":"LFRI","name":"D","layer":"Labels","category":"Taxiways","object_type":"Label","style_id":"label.taxiways","source_group":"LFRI Taxiways","vsmr_group_ids":[],"geometry_role":"text_label","text-field":"D"},"geometry":{"type":"Point","coordinates":[-1.381914722,46.702954722]}},{"type":"Feature","id":"LFRI-9eb73418a5e066d7566a","properties":{"airport":"LFRI","name":"F","layer":"Labels","category":"Taxiways","object_type":"Label","style_id":"label.taxiways","source_group":"LFRI Taxiways","vsmr_group_ids":[],"geometry_role":"text_label","text-field":"F"},"geometry":{"type":"Point","coordinates":[-1.379217778,46.704155278]}},{"type":"Feature","id":"LFRI-dedb635858c82a30c3b0","properties":{"airport":"LFRI","name":"C","layer":"Labels","category":"Taxiways","object_type":"Label","style_id":"label.taxiways","source_group":"LFRI Taxiways","vsmr_group_ids":[],"geometry_role":"text_label","text-field":"C"},"geometry":{"type":"Point","coordinates":[-1.37427,46.702443889]}}]}
