{"type":"FeatureCollection","name":"LFRK AVISO","bbox":[-0.466063611,49.171345278,-0.442754722,49.183349167],"metadata":{"schema":"vSMR AVISO","schema_version":2,"geometry_mode":"shared","airport":"LFRK","coordinate_reference_system":"WGS84","coordinate_order":"longitude, latitude","default_color_palette":"dark","color_palettes":["dark","light"],"background_colors":{"dark":"#434A4F","light":"#434A4F"},"runways":[{"ends":["13L","31R"],"headings":[125,305],"thresholds":[[-0.457825,49.179721944],[-0.448880833,49.175571944]]},{"ends":["13","31"],"headings":[125,305],"thresholds":[[-0.463066944,49.179396944],[-0.445168889,49.171096944]]}],"saved_active_runways":[],"saved_active_airport_modes":[],"airport_reference":[-0.45,49.173332778],"feature_count":53,"style_count":11,"layer_counts":{"Labels":53},"category_counts":{"Gates":11,"Taxiways":42},"geometry_source":"local GNG","geometry_source_url":"","geometry_license":"GPL-3.0"},"styles":{"polygon.grassurface.00512f":{"name":"Grass","layer":"Terrain","object_type":"Area","paint":{"fill":"#010D19","fill-opacity":1,"palette-overrides":{"light":{"fill":"#00512F"}}},"feature_count":0},"polygon.dangerarea.280908":{"name":"Danger Area","layer":"Operational restrictions","object_type":"Area","paint":{"fill":"#280908","fill-opacity":1,"palette-overrides":{"light":{"fill":"#280908"}}},"feature_count":0},"polygon.hardsurface3.8a807f":{"name":"Hard Surface 3","layer":"Airfield surfaces","object_type":"Area","paint":{"fill":"#222D3C","fill-opacity":1,"palette-overrides":{"light":{"fill":"#8A807F"}}},"feature_count":0},"polygon.runwaygrass.008000":{"name":"Grass runways","layer":"Airfield surfaces","object_type":"Area","paint":{"fill":"#859A77","fill-opacity":1,"palette-overrides":{"light":{"fill":"#008000"}}},"feature_count":0},"polygon.hardsurface2.595e5b":{"name":"Hard Surface 2","layer":"Airfield surfaces","object_type":"Area","paint":{"fill":"#2F3949","fill-opacity":1,"palette-overrides":{"light":{"fill":"#595E5B"}}},"feature_count":0},"polygon.runwayconcrete.555555":{"name":"Runways","layer":"Airfield surfaces","object_type":"Area","paint":{"fill":"#111318","fill-opacity":1,"palette-overrides":{"light":{"fill":"#555555"}}},"feature_count":0},"polygon.building.394446":{"name":"Buildings","layer":"Buildings and structures","object_type":"Area","paint":{"fill":"#475570","fill-opacity":1,"palette-overrides":{"light":{"fill":"#394446"}}},"feature_count":0},"polygon.stopbar.7e0000":{"name":"Stopbars","layer":"Surface markings","object_type":"Area","paint":{"fill":"#7E0000","fill-opacity":1,"palette-overrides":{"light":{"fill":"#7E0000"}}},"feature_count":0},"line.taxiway.c0b631":{"name":"Taxiways","layer":"Guidance lines","object_type":"Line","paint":{"stroke":"#4E5A69","stroke-opacity":1,"stroke-width":1,"palette-overrides":{"light":{"stroke":"#C0B631"}}},"feature_count":0},"label.gates":{"name":"Gates","layer":"Labels","object_type":"Label","paint":{"text-color":"#CCCCCC","text-font":"Arial","text-size":12,"text-halo-color":"#000000","text-halo-width":1,"text-anchor":"center","zoomLevel":9},"feature_count":11},"label.taxiways":{"name":"Taxiways","layer":"Labels","object_type":"Label","paint":{"text-color":"#CCCCCC","text-font":"Arial","text-size":12,"text-halo-color":"#000000","text-halo-width":1,"text-anchor":"center","zoomLevel":7},"feature_count":42}},"vsmr_groups":[],"features":[{"type":"Feature","id":"LFRK-a5adcd5da579e690095d","properties":{"airport":"LFRK","name":"1","layer":"Labels","category":"Gates","object_type":"Label","style_id":"label.gates","source_group":"LFRK Gates","vsmr_group_ids":[],"geometry_role":"text_label","text-field":"1"},"geometry":{"type":"Point","coordinates":[-0.460336111,49.182977778]}},{"type":"Feature","id":"LFRK-85ee3d5f266e8ac1b133","properties":{"airport":"LFRK","name":"2","layer":"Labels","category":"Gates","object_type":"Label","style_id":"label.gates","source_group":"LFRK Gates","vsmr_group_ids":[],"geometry_role":"text_label","text-field":"2"},"geometry":{"type":"Point","coordinates":[-0.459686111,49.182655556]}},{"type":"Feature","id":"LFRK-c8a5f9035e23a49edc47","properties":{"airport":"LFRK","name":"3","layer":"Labels","category":"Gates","object_type":"Label","style_id":"label.gates","source_group":"LFRK Gates","vsmr_group_ids":[],"geometry_role":"text_label","text-field":"3"},"geometry":{"type":"Point","coordinates":[-0.458955556,49.182341667]}},{"type":"Feature","id":"LFRK-7a6e023d0b3ddb316ad1","properties":{"airport":"LFRK","name":"4","layer":"Labels","category":"Gates","object_type":"Label","style_id":"label.gates","source_group":"LFRK Gates","vsmr_group_ids":[],"geometry_role":"text_label","text-field":"4"},"geometry":{"type":"Point","coordinates":[-0.458230556,49.182030556]}},{"type":"Feature","id":"LFRK-51b32ad3e1c313f409ee","properties":{"airport":"LFRK","name":"5","layer":"Labels","category":"Gates","object_type":"Label","style_id":"label.gates","source_group":"LFRK Gates","vsmr_group_ids":[],"geometry_role":"text_label","text-field":"5"},"geometry":{"type":"Point","coordinates":[-0.457525,49.181694444]}},{"type":"Feature","id":"LFRK-bdf675a90cac40b92eca","properties":{"airport":"LFRK","name":"6","layer":"Labels","category":"Gates","object_type":"Label","style_id":"label.gates","source_group":"LFRK Gates","vsmr_group_ids":[],"geometry_role":"text_label","text-field":"6"},"geometry":{"type":"Point","coordinates":[-0.456827778,49.181347222]}},{"type":"Feature","id":"LFRK-c37798304114f0549aef","properties":{"airport":"LFRK","name":"Parking Herbe","layer":"Labels","category":"Gates","object_type":"Label","style_id":"label.gates","source_group":"LFRK Gates","vsmr_group_ids":[],"geometry_role":"text_label","text-field":"Parking Herbe"},"geometry":{"type":"Point","coordinates":[-0.459740556,49.181615]}},{"type":"Feature","id":"LFRK-992c7dcfb6210e127ba8","properties":{"airport":"LFRK","name":"Terminal","layer":"Labels","category":"Gates","object_type":"Label","style_id":"label.gates","source_group":"LFRK Gates","vsmr_group_ids":[],"geometry_role":"text_label","text-field":"Terminal"},"geometry":{"type":"Point","coordinates":[-0.45962,49.183349167]}},{"type":"Feature","id":"LFRK-3c7c8ae596af8cd3de38","properties":{"airport":"LFRK","name":"TWR","layer":"Labels","category":"Gates","object_type":"Label","style_id":"label.gates","source_group":"LFRK Gates","vsmr_group_ids":[],"geometry_role":"text_label","text-field":"TWR"},"geometry":{"type":"Point","coordinates":[-0.457376111,49.182300556]}},{"type":"Feature","id":"LFRK-b9e5f37d5cbaa9d80586","properties":{"airport":"LFRK","name":"ACB","layer":"Labels","category":"Gates","object_type":"Label","style_id":"label.gates","source_group":"LFRK Gates","vsmr_group_ids":[],"geometry_role":"text_label","text-field":"ACB"},"geometry":{"type":"Point","coordinates":[-0.454729167,49.181096944]}},{"type":"Feature","id":"LFRK-041a24e773a71dfc9da7","properties":{"airport":"LFRK","name":"Hangars","layer":"Labels","category":"Gates","object_type":"Label","style_id":"label.gates","source_group":"LFRK Gates","vsmr_group_ids":[],"geometry_role":"text_label","text-field":"Hangars"},"geometry":{"type":"Point","coordinates":[-0.452284722,49.179911389]}},{"type":"Feature","id":"LFRK-e4c93a1441c99f4e6a0f","properties":{"airport":"LFRK","name":"A1","layer":"Labels","category":"Taxiways","object_type":"Label","style_id":"label.taxiways","source_group":"LFRK Taxiways","vsmr_group_ids":[],"geometry_role":"text_label","text-field":"A1"},"geometry":{"type":"Point","coordinates":[-0.462747778,49.180126111]}},{"type":"Feature","id":"LFRK-3fa62055ce9b24e09fb9","properties":{"airport":"LFRK","name":"A","layer":"Labels","category":"Taxiways","object_type":"Label","style_id":"label.taxiways","source_group":"LFRK Taxiways","vsmr_group_ids":[],"geometry_role":"text_label","text-field":"A"},"geometry":{"type":"Point","coordinates":[-0.459113056,49.182064167]}},{"type":"Feature","id":"LFRK-06fc5315d62f5ed100b5","properties":{"airport":"LFRK","name":"H","layer":"Labels","category":"Taxiways","object_type":"Label","style_id":"label.taxiways","source_group":"LFRK Taxiways","vsmr_group_ids":[],"geometry_role":"text_label","text-field":"H"},"geometry":{"type":"Point","coordinates":[-0.4586125,49.180919444]}},{"type":"Feature","id":"LFRK-ed63f48531f704861f39","properties":{"airport":"LFRK","name":"H","layer":"Labels","category":"Taxiways","object_type":"Label","style_id":"label.taxiways","source_group":"LFRK Taxiways","vsmr_group_ids":[],"geometry_role":"text_label","text-field":"H"},"geometry":{"type":"Point","coordinates":[-0.454701389,49.179581944]}},{"type":"Feature","id":"LFRK-656c36a64706ad37edcd","properties":{"airport":"LFRK","name":"H","layer":"Labels","category":"Taxiways","object_type":"Label","style_id":"label.taxiways","source_group":"LFRK Taxiways","vsmr_group_ids":[],"geometry_role":"text_label","text-field":"H"},"geometry":{"type":"Point","coordinates":[-0.452288889,49.178012222]}},{"type":"Feature","id":"LFRK-b7fb2b57871bba8607ed","properties":{"airport":"LFRK","name":"H3","layer":"Labels","category":"Taxiways","object_type":"Label","style_id":"label.taxiways","source_group":"LFRK Taxiways","vsmr_group_ids":[],"geometry_role":"text_label","text-field":"H3"},"geometry":{"type":"Point","coordinates":[-0.448267778,49.175737778]}},{"type":"Feature","id":"LFRK-dd8020ee73c53aed0027","properties":{"airport":"LFRK","name":"H2","layer":"Labels","category":"Taxiways","object_type":"Label","style_id":"label.taxiways","source_group":"LFRK Taxiways","vsmr_group_ids":[],"geometry_role":"text_label","text-field":"H2"},"geometry":{"type":"Point","coordinates":[-0.455383056,49.178989167]}},{"type":"Feature","id":"LFRK-98e8e113a4c980b97c51","properties":{"airport":"LFRK","name":"H1","layer":"Labels","category":"Taxiways","object_type":"Label","style_id":"label.taxiways","source_group":"LFRK Taxiways","vsmr_group_ids":[],"geometry_role":"text_label","text-field":"H1"},"geometry":{"type":"Point","coordinates":[-0.457508333,49.179966667]}},{"type":"Feature","id":"LFRK-f7e64e6076339d7de1e0","properties":{"airport":"LFRK","name":"X","layer":"Labels","category":"Taxiways","object_type":"Label","style_id":"label.taxiways","source_group":"LFRK Taxiways","vsmr_group_ids":[],"geometry_role":"text_label","text-field":"X"},"geometry":{"type":"Point","coordinates":[-0.453706111,49.171345278]}},{"type":"Feature","id":"LFRK-0364d858b87fc4dfa71b","properties":{"airport":"LFRK","name":"X","layer":"Labels","category":"Taxiways","object_type":"Label","style_id":"label.taxiways","source_group":"LFRK Taxiways","vsmr_group_ids":[],"geometry_role":"text_label","text-field":"X"},"geometry":{"type":"Point","coordinates":[-0.445664167,49.178341389]}},{"type":"Feature","id":"LFRK-78fe7c85e342b185f900","properties":{"airport":"LFRK","name":"X","layer":"Labels","category":"Taxiways","object_type":"Label","style_id":"label.taxiways","source_group":"LFRK Taxiways","vsmr_group_ids":[],"geometry_role":"text_label","text-field":"X"},"geometry":{"type":"Point","coordinates":[-0.449234722,49.174200833]}},{"type":"Feature","id":"LFRK-cc749ed5f60c74432b9f","properties":{"airport":"LFRK","name":"X","layer":"Labels","category":"Taxiways","object_type":"Label","style_id":"label.taxiways","source_group":"LFRK Taxiways","vsmr_group_ids":[],"geometry_role":"text_label","text-field":"X"},"geometry":{"type":"Point","coordinates":[-0.449580556,49.174344167]}},{"type":"Feature","id":"LFRK-274e1630605475a7c291","properties":{"airport":"LFRK","name":"X","layer":"Labels","category":"Taxiways","object_type":"Label","style_id":"label.taxiways","source_group":"LFRK Taxiways","vsmr_group_ids":[],"geometry_role":"text_label","text-field":"X"},"geometry":{"type":"Point","coordinates":[-0.45098,49.174986389]}},{"type":"Feature","id":"LFRK-995fadbb518665104b2b","properties":{"airport":"LFRK","name":"X","layer":"Labels","category":"Taxiways","object_type":"Label","style_id":"label.taxiways","source_group":"LFRK Taxiways","vsmr_group_ids":[],"geometry_role":"text_label","text-field":"X"},"geometry":{"type":"Point","coordinates":[-0.450703333,49.174860556]}},{"type":"Feature","id":"LFRK-47dff13e09e8e5d2e3cd","properties":{"airport":"LFRK","name":"X","layer":"Labels","category":"Taxiways","object_type":"Label","style_id":"label.taxiways","source_group":"LFRK Taxiways","vsmr_group_ids":[],"geometry_role":"text_label","text-field":"X"},"geometry":{"type":"Point","coordinates":[-0.452347778,49.175621389]}},{"type":"Feature","id":"LFRK-725bb7a825532c942862","properties":{"airport":"LFRK","name":"X","layer":"Labels","category":"Taxiways","object_type":"Label","style_id":"label.taxiways","source_group":"LFRK Taxiways","vsmr_group_ids":[],"geometry_role":"text_label","text-field":"X"},"geometry":{"type":"Point","coordinates":[-0.453005278,49.175929444]}},{"type":"Feature","id":"LFRK-f8d5de1ea553297d575f","properties":{"airport":"LFRK","name":"X","layer":"Labels","category":"Taxiways","object_type":"Label","style_id":"label.taxiways","source_group":"LFRK Taxiways","vsmr_group_ids":[],"geometry_role":"text_label","text-field":"X"},"geometry":{"type":"Point","coordinates":[-0.456694167,49.176868611]}},{"type":"Feature","id":"LFRK-254790140acba32ba45e","properties":{"airport":"LFRK","name":"X","layer":"Labels","category":"Taxiways","object_type":"Label","style_id":"label.taxiways","source_group":"LFRK Taxiways","vsmr_group_ids":[],"geometry_role":"text_label","text-field":"X"},"geometry":{"type":"Point","coordinates":[-0.456451667,49.177156111]}},{"type":"Feature","id":"LFRK-3e48ade2fbc70b2269b5","properties":{"airport":"LFRK","name":"X","layer":"Labels","category":"Taxiways","object_type":"Label","style_id":"label.taxiways","source_group":"LFRK Taxiways","vsmr_group_ids":[],"geometry_role":"text_label","text-field":"X"},"geometry":{"type":"Point","coordinates":[-0.461789167,49.180010833]}},{"type":"Feature","id":"LFRK-944b95e3f7deff17190a","properties":{"airport":"LFRK","name":"X","layer":"Labels","category":"Taxiways","object_type":"Label","style_id":"label.taxiways","source_group":"LFRK Taxiways","vsmr_group_ids":[],"geometry_role":"text_label","text-field":"X"},"geometry":{"type":"Point","coordinates":[-0.461265556,49.1797875]}},{"type":"Feature","id":"LFRK-4df5669d69e5c6a334c5","properties":{"airport":"LFRK","name":"X","layer":"Labels","category":"Taxiways","object_type":"Label","style_id":"label.taxiways","source_group":"LFRK Taxiways","vsmr_group_ids":[],"geometry_role":"text_label","text-field":"X"},"geometry":{"type":"Point","coordinates":[-0.456518056,49.177565833]}},{"type":"Feature","id":"LFRK-6b88f833459e9365baac","properties":{"airport":"LFRK","name":"X","layer":"Labels","category":"Taxiways","object_type":"Label","style_id":"label.taxiways","source_group":"LFRK Taxiways","vsmr_group_ids":[],"geometry_role":"text_label","text-field":"X"},"geometry":{"type":"Point","coordinates":[-0.456926667,49.177742778]}},{"type":"Feature","id":"LFRK-df8748b3550b97795bd5","properties":{"airport":"LFRK","name":"X","layer":"Labels","category":"Taxiways","object_type":"Label","style_id":"label.taxiways","source_group":"LFRK Taxiways","vsmr_group_ids":[],"geometry_role":"text_label","text-field":"X"},"geometry":{"type":"Point","coordinates":[-0.455661389,49.177166389]}},{"type":"Feature","id":"LFRK-ea18ae9d692e7097c970","properties":{"airport":"LFRK","name":"X","layer":"Labels","category":"Taxiways","object_type":"Label","style_id":"label.taxiways","source_group":"LFRK Taxiways","vsmr_group_ids":[],"geometry_role":"text_label","text-field":"X"},"geometry":{"type":"Point","coordinates":[-0.455058611,49.176902778]}},{"type":"Feature","id":"LFRK-f5851d5e5a0bdc90e404","properties":{"airport":"LFRK","name":"X","layer":"Labels","category":"Taxiways","object_type":"Label","style_id":"label.taxiways","source_group":"LFRK Taxiways","vsmr_group_ids":[],"geometry_role":"text_label","text-field":"X"},"geometry":{"type":"Point","coordinates":[-0.448676389,49.176793889]}},{"type":"Feature","id":"LFRK-6db2f591ede65e7c5774","properties":{"airport":"LFRK","name":"X","layer":"Labels","category":"Taxiways","object_type":"Label","style_id":"label.taxiways","source_group":"LFRK Taxiways","vsmr_group_ids":[],"geometry_role":"text_label","text-field":"X"},"geometry":{"type":"Point","coordinates":[-0.446309444,49.178031667]}},{"type":"Feature","id":"LFRK-e07b5208ea10a9aa420e","properties":{"airport":"LFRK","name":"X","layer":"Labels","category":"Taxiways","object_type":"Label","style_id":"label.taxiways","source_group":"LFRK Taxiways","vsmr_group_ids":[],"geometry_role":"text_label","text-field":"X"},"geometry":{"type":"Point","coordinates":[-0.452003056,49.175112222]}},{"type":"Feature","id":"LFRK-db6afdccb800fd9a6592","properties":{"airport":"LFRK","name":"X","layer":"Labels","category":"Taxiways","object_type":"Label","style_id":"label.taxiways","source_group":"LFRK Taxiways","vsmr_group_ids":[],"geometry_role":"text_label","text-field":"X"},"geometry":{"type":"Point","coordinates":[-0.4660475,49.181361944]}},{"type":"Feature","id":"LFRK-de585b4917b351f3f837","properties":{"airport":"LFRK","name":"X","layer":"Labels","category":"Taxiways","object_type":"Label","style_id":"label.taxiways","source_group":"LFRK Taxiways","vsmr_group_ids":[],"geometry_role":"text_label","text-field":"X"},"geometry":{"type":"Point","coordinates":[-0.466063611,49.181669167]}},{"type":"Feature","id":"LFRK-af7b0512797ea9fec5bf","properties":{"airport":"LFRK","name":"X","layer":"Labels","category":"Taxiways","object_type":"Label","style_id":"label.taxiways","source_group":"LFRK Taxiways","vsmr_group_ids":[],"geometry_role":"text_label","text-field":"X"},"geometry":{"type":"Point","coordinates":[-0.451481944,49.175348889]}},{"type":"Feature","id":"LFRK-1f57ad5c8559857d6ba6","properties":{"airport":"LFRK","name":"X","layer":"Labels","category":"Taxiways","object_type":"Label","style_id":"label.taxiways","source_group":"LFRK Taxiways","vsmr_group_ids":[],"geometry_role":"text_label","text-field":"X"},"geometry":{"type":"Point","coordinates":[-0.448914167,49.176679444]}},{"type":"Feature","id":"LFRK-353017fce49c3f15ba2f","properties":{"airport":"LFRK","name":"X","layer":"Labels","category":"Taxiways","object_type":"Label","style_id":"label.taxiways","source_group":"LFRK Taxiways","vsmr_group_ids":[],"geometry_role":"text_label","text-field":"X"},"geometry":{"type":"Point","coordinates":[-0.450313056,49.173077222]}},{"type":"Feature","id":"LFRK-5690d10c870fe8d37627","properties":{"airport":"LFRK","name":"X","layer":"Labels","category":"Taxiways","object_type":"Label","style_id":"label.taxiways","source_group":"LFRK Taxiways","vsmr_group_ids":[],"geometry_role":"text_label","text-field":"X"},"geometry":{"type":"Point","coordinates":[-0.449466111,49.173515833]}},{"type":"Feature","id":"LFRK-60c357ebfdb8dbe93e9a","properties":{"airport":"LFRK","name":"X","layer":"Labels","category":"Taxiways","object_type":"Label","style_id":"label.taxiways","source_group":"LFRK Taxiways","vsmr_group_ids":[],"geometry_role":"text_label","text-field":"X"},"geometry":{"type":"Point","coordinates":[-0.442754722,49.176954722]}},{"type":"Feature","id":"LFRK-6957e8c754627a47c253","properties":{"airport":"LFRK","name":"X","layer":"Labels","category":"Taxiways","object_type":"Label","style_id":"label.taxiways","source_group":"LFRK Taxiways","vsmr_group_ids":[],"geometry_role":"text_label","text-field":"X"},"geometry":{"type":"Point","coordinates":[-0.453362222,49.171515556]}},{"type":"Feature","id":"LFRK-6c34d61717ed397183c9","properties":{"airport":"LFRK","name":"X","layer":"Labels","category":"Taxiways","object_type":"Label","style_id":"label.taxiways","source_group":"LFRK Taxiways","vsmr_group_ids":[],"geometry_role":"text_label","text-field":"X"},"geometry":{"type":"Point","coordinates":[-0.450756111,49.172841111]}},{"type":"Feature","id":"LFRK-4843739616f7be97c58c","properties":{"airport":"LFRK","name":"X","layer":"Labels","category":"Taxiways","object_type":"Label","style_id":"label.taxiways","source_group":"LFRK Taxiways","vsmr_group_ids":[],"geometry_role":"text_label","text-field":"X"},"geometry":{"type":"Point","coordinates":[-0.448941389,49.173786667]}},{"type":"Feature","id":"LFRK-73d18afda4194db10581","properties":{"airport":"LFRK","name":"X","layer":"Labels","category":"Taxiways","object_type":"Label","style_id":"label.taxiways","source_group":"LFRK Taxiways","vsmr_group_ids":[],"geometry_role":"text_label","text-field":"X"},"geometry":{"type":"Point","coordinates":[-0.443428611,49.176591944]}},{"type":"Feature","id":"LFRK-c43f5b7877bb042cc21f","properties":{"airport":"LFRK","name":"X","layer":"Labels","category":"Taxiways","object_type":"Label","style_id":"label.taxiways","source_group":"LFRK Taxiways","vsmr_group_ids":[],"geometry_role":"text_label","text-field":"X"},"geometry":{"type":"Point","coordinates":[-0.452958889,49.171725278]}},{"type":"Feature","id":"LFRK-6b680abede00a1a90a67","properties":{"airport":"LFRK","name":"X","layer":"Labels","category":"Taxiways","object_type":"Label","style_id":"label.taxiways","source_group":"LFRK Taxiways","vsmr_group_ids":[],"geometry_role":"text_label","text-field":"X"},"geometry":{"type":"Point","coordinates":[-0.451285556,49.172590556]}},{"type":"Feature","id":"LFRK-7565a96cc8cda38e3dab","properties":{"airport":"LFRK","name":"X","layer":"Labels","category":"Taxiways","object_type":"Label","style_id":"label.taxiways","source_group":"LFRK Taxiways","vsmr_group_ids":[],"geometry_role":"text_label","text-field":"X"},"geometry":{"type":"Point","coordinates":[-0.448499167,49.174017222]}},{"type":"Feature","id":"LFRK-a9e6ee2c2424e5908b46","properties":{"airport":"LFRK","name":"X","layer":"Labels","category":"Taxiways","object_type":"Label","style_id":"label.taxiways","source_group":"LFRK Taxiways","vsmr_group_ids":[],"geometry_role":"text_label","text-field":"X"},"geometry":{"type":"Point","coordinates":[-0.444293889,49.176193056]}}]}
