{"type":"FeatureCollection","name":"LFRL AVISO","bbox":[-4.452333333,48.27725,-4.437861111,48.28625],"metadata":{"schema":"vSMR AVISO","schema_version":2,"geometry_mode":"shared","airport":"LFRL","coordinate_reference_system":"WGS84","coordinate_order":"longitude, latitude","default_color_palette":"dark","color_palettes":["dark","light"],"background_colors":{"dark":"#434A4F","light":"#434A4F"},"runways":[{"ends":["13","31"],"headings":[129,309],"thresholds":[[-4.447260833,48.284382778],[-4.439296944,48.280225]]},{"ends":["05","23"],"headings":[52,232],"thresholds":[[-4.450952778,48.278624722],[-4.439216944,48.284938889]]}],"saved_active_runways":[],"saved_active_airport_modes":[],"airport_reference":[-4.443610833,48.282499722],"feature_count":1,"style_count":1,"layer_counts":{"Guidance lines":1},"category_counts":{"Runways":1},"geometry_source":"local GNG","geometry_source_url":"","geometry_license":"GPL-3.0"},"styles":{"line.runwayconcrete.555555":{"name":"Runways","layer":"Guidance lines","object_type":"Line","paint":{"stroke":"#111318","stroke-opacity":1,"stroke-width":1,"palette-overrides":{"light":{"stroke":"#555555"}}},"feature_count":1}},"vsmr_groups":[],"features":[{"type":"Feature","id":"LFRL-c6c0c2033480bd87dde4","properties":{"airport":"LFRL","name":"LFRL Groundlayout","layer":"Guidance lines","category":"Runways","object_type":"Line","style_id":"line.runwayconcrete.555555","source_group":"LFRL Groundlayout","vsmr_group_ids":[],"geometry_role":"linework"},"geometry":{"type":"MultiLineString","coordinates":[[[-4.449666667,48.27725],[-4.437861111,48.283555556]],[[-4.452333333,48.279944444],[-4.449666667,48.27725]],[[-4.440527778,48.28625],[-4.437861111,48.283555556]]]}}]}
