{"type":"FeatureCollection","name":"LFRM AVISO","bbox":[0.193235833,47.940804722,0.206713611,47.956453333],"metadata":{"schema":"vSMR AVISO","schema_version":2,"geometry_mode":"shared","airport":"LFRM","coordinate_reference_system":"WGS84","coordinate_order":"longitude, latitude","default_color_palette":"dark","color_palettes":["dark","light"],"background_colors":{"dark":"#434A4F","light":"#434A4F"},"runways":[{"ends":["02R","20L"],"headings":[19,199],"thresholds":[[0.200449722,47.944477778],[0.204982778,47.952682778]]},{"ends":["02","20"],"headings":[19,199],"thresholds":[[0.197988889,47.941852778],[0.203321944,47.951521944]]}],"saved_active_runways":[],"saved_active_airport_modes":[],"airport_reference":[0.201666944,47.948610833],"feature_count":43,"style_count":12,"layer_counts":{"Airfield surfaces":8,"Buildings and structures":15,"Guidance lines":1,"Labels":12,"Surface markings":3,"Terrain":4},"category_counts":{"Buildings":15,"Gates":3,"Gras Surface 2":3,"Grass":1,"Grass runways":1,"Hard Surface 2":1,"Hard Surface 3":4,"Hard Surface 4":1,"Runway Border":1,"Runways":1,"Stopbars":3,"Taxiways":9},"geometry_source":"local GNG","geometry_source_url":"","geometry_license":"GPL-3.0"},"styles":{"polygon.grassurface.00512f":{"name":"Grass","layer":"Terrain","object_type":"Area","paint":{"fill":"#010D19","fill-opacity":1,"palette-overrides":{"light":{"fill":"#00512F"}}},"feature_count":1},"polygon.hardsurface4.969393":{"name":"Hard Surface 4","layer":"Airfield surfaces","object_type":"Area","paint":{"fill":"#152841","fill-opacity":1,"palette-overrides":{"light":{"fill":"#969393"}}},"feature_count":1},"polygon.hardsurface3.8a807f":{"name":"Hard Surface 3","layer":"Airfield surfaces","object_type":"Area","paint":{"fill":"#222D3C","fill-opacity":1,"palette-overrides":{"light":{"fill":"#8A807F"}}},"feature_count":4},"polygon.grassurface2.339933":{"name":"Gras Surface 2","layer":"Terrain","object_type":"Area","paint":{"fill":"#339933","fill-opacity":1,"palette-overrides":{"light":{"fill":"#339933"}}},"feature_count":3},"polygon.hardsurface2.595e5b":{"name":"Hard Surface 2","layer":"Airfield surfaces","object_type":"Area","paint":{"fill":"#2F3949","fill-opacity":1,"palette-overrides":{"light":{"fill":"#595E5B"}}},"feature_count":1},"polygon.runwaygrass.008000":{"name":"Grass runways","layer":"Airfield surfaces","object_type":"Area","paint":{"fill":"#859A77","fill-opacity":1,"palette-overrides":{"light":{"fill":"#008000"}}},"feature_count":1},"polygon.runwayconcrete.555555":{"name":"Runways","layer":"Airfield surfaces","object_type":"Area","paint":{"fill":"#111318","fill-opacity":1,"palette-overrides":{"light":{"fill":"#555555"}}},"feature_count":1},"polygon.building.394446":{"name":"Buildings","layer":"Buildings and structures","object_type":"Area","paint":{"fill":"#475570","fill-opacity":1,"palette-overrides":{"light":{"fill":"#394446"}}},"feature_count":15},"polygon.stopbar.7e0000":{"name":"Stopbars","layer":"Surface markings","object_type":"Area","paint":{"fill":"#7E0000","fill-opacity":1,"palette-overrides":{"light":{"fill":"#7E0000"}}},"feature_count":3},"line.runwayborder.808080":{"name":"Runway Border","layer":"Guidance lines","object_type":"Line","paint":{"stroke":"#808080","stroke-opacity":1,"stroke-width":1,"palette-overrides":{"light":{"stroke":"#808080"}}},"feature_count":1},"label.gates":{"name":"Gates","layer":"Labels","object_type":"Label","paint":{"text-color":"#CCCCCC","text-font":"Arial","text-size":12,"text-halo-color":"#000000","text-halo-width":1,"text-anchor":"center","zoomLevel":9},"feature_count":3},"label.taxiways":{"name":"Taxiways","layer":"Labels","object_type":"Label","paint":{"text-color":"#CCCCCC","text-font":"Arial","text-size":12,"text-halo-color":"#000000","text-halo-width":1,"text-anchor":"center","zoomLevel":7},"feature_count":9}},"vsmr_groups":[],"features":[{"type":"Feature","id":"LFRM-e3109b9b3f2e1fde47d2","properties":{"airport":"LFRM","name":"LFRM AVISO","layer":"Terrain","category":"Grass","object_type":"Area","style_id":"polygon.grassurface.00512f","source_group":"LFRM AVISO","vsmr_group_ids":[],"geometry_role":"filled_region"},"geometry":{"type":"Polygon","coordinates":[[[0.203337778,47.946240833],[0.205251944,47.949194444],[0.205545833,47.949615],[0.206385556,47.951060278],[0.206376944,47.952774444],[0.206383333,47.952928889],[0.206500833,47.9540175],[0.206713611,47.956115278],[0.2065525,47.956261667],[0.205447222,47.956402778],[0.205199722,47.956430833],[0.204771667,47.956453333],[0.203642778,47.956265278],[0.202718333,47.956181667],[0.2017825,47.956105833],[0.201379722,47.956035556],[0.200628333,47.955895278],[0.200313611,47.955816389],[0.200204444,47.955639444],[0.200406111,47.955375278],[0.200479444,47.955279444],[0.2005425,47.955046111],[0.2003325,47.954689167],[0.200025278,47.954439167],[0.199165833,47.9542375],[0.198394167,47.954035833],[0.197894722,47.953755278],[0.197196667,47.9530075],[0.19619,47.951226944],[0.1957125,47.950208333],[0.194572778,47.947887222],[0.193842778,47.946302222],[0.193588333,47.945706389],[0.193243333,47.944505833],[0.193235833,47.944387778],[0.193346111,47.944107222],[0.193434444,47.943846667],[0.193550556,47.943641944],[0.193712222,47.943465],[0.193991389,47.943263056],[0.194645278,47.942953333],[0.195754444,47.942579167],[0.1958425,47.942406944],[0.195901389,47.942200556],[0.195989444,47.942097222],[0.196099722,47.941993889],[0.196371389,47.941860833],[0.196900278,47.941693611],[0.197583611,47.9414525],[0.198025556,47.941242778],[0.198451389,47.940962222],[0.198715833,47.940824444],[0.198914167,47.940804722],[0.199178611,47.940814722],[0.199450556,47.940888333],[0.199597222,47.941026111],[0.199788333,47.941267222],[0.200001389,47.941916944],[0.200167778,47.942320278],[0.2004025,47.942654167],[0.200666389,47.942876944],[0.201135833,47.943243889],[0.201601389,47.943708333],[0.202053889,47.944269167],[0.203337778,47.946240833]]]}},{"type":"Feature","id":"LFRM-8ee25eff804e89205051","properties":{"airport":"LFRM","name":"LFRM AVISO","layer":"Airfield surfaces","category":"Hard Surface 4","object_type":"Area","style_id":"polygon.hardsurface4.969393","source_group":"LFRM AVISO","vsmr_group_ids":[],"geometry_role":"filled_region"},"geometry":{"type":"Polygon","coordinates":[[[0.196865833,47.947204722],[0.196855556,47.947189167],[0.196623611,47.947245833],[0.196545278,47.947108056],[0.196438333,47.947111389],[0.196536111,47.946883611],[0.197037778,47.946769722],[0.197298611,47.947271944],[0.196865833,47.947204722]]]}},{"type":"Feature","id":"LFRM-51996d97096492dde4b8","properties":{"airport":"LFRM","name":"LFRM AVISO","layer":"Airfield surfaces","category":"Hard Surface 3","object_type":"Area","style_id":"polygon.hardsurface3.8a807f","source_group":"LFRM AVISO","vsmr_group_ids":[],"geometry_role":"filled_region"},"geometry":{"type":"Polygon","coordinates":[[[0.199798611,47.950834167],[0.200487778,47.952071944],[0.199806667,47.95224],[0.199125833,47.950996944],[0.199798611,47.950834167]]]}},{"type":"Feature","id":"LFRM-a9e8dc60dc9ab8fc000f","properties":{"airport":"LFRM","name":"LFRM AVISO","layer":"Airfield surfaces","category":"Hard Surface 3","object_type":"Area","style_id":"polygon.hardsurface3.8a807f","source_group":"LFRM AVISO","vsmr_group_ids":[],"geometry_role":"filled_region"},"geometry":{"type":"Polygon","coordinates":[[[0.196417778,47.948676667],[0.196440278,47.948702222],[0.196479167,47.948724722],[0.196520833,47.948738611],[0.196563333,47.948746944],[0.196603056,47.948749722],[0.196647222,47.948746389],[0.196698056,47.948736944],[0.198709444,47.948341944],[0.198848889,47.948315],[0.198885,47.948305556],[0.198908333,47.948295556],[0.198933889,47.948282222],[0.1989775,47.948371944],[0.198960556,47.948371111],[0.198936111,47.948370556],[0.198905278,47.948373333],[0.198864722,47.948380556],[0.1987775,47.948396944],[0.198636111,47.948423333],[0.196589722,47.948831111],[0.196544722,47.948843333],[0.196526667,47.948854722],[0.196516389,47.948869444],[0.196516111,47.948880278],[0.196765833,47.949400556],[0.196321389,47.949492222],[0.196079444,47.948959722],[0.196196667,47.948826111],[0.195788611,47.947964167],[0.196043611,47.947908611],[0.196396944,47.948633611],[0.196417778,47.948676667]]]}},{"type":"Feature","id":"LFRM-c3783c29744238f04ca2","properties":{"airport":"LFRM","name":"LFRM AVISO","layer":"Airfield surfaces","category":"Hard Surface 3","object_type":"Area","style_id":"polygon.hardsurface3.8a807f","source_group":"LFRM AVISO","vsmr_group_ids":[],"geometry_role":"filled_region"},"geometry":{"type":"Polygon","coordinates":[[[0.196841667,47.947987778],[0.196759444,47.947833333],[0.196738889,47.947819444],[0.196715278,47.947810556],[0.196684444,47.947806667],[0.196653611,47.947808611],[0.19662,47.947816667],[0.196534722,47.947839167],[0.196395278,47.947583611],[0.1966625,47.947518611],[0.196861667,47.947887778],[0.1969525,47.947911667],[0.1975875,47.947753889],[0.197610833,47.947746389],[0.197621944,47.947739167],[0.197639722,47.947706667],[0.197570833,47.947575556],[0.197464167,47.947602222],[0.197005556,47.946732222],[0.196810833,47.946561389],[0.19673,47.946301111],[0.196282778,47.945485833],[0.196120278,47.945192222],[0.195805833,47.944531667],[0.195786667,47.944494167],[0.195856667,47.944492778],[0.196616667,47.944564167],[0.196990833,47.945243611],[0.197005833,47.945268611],[0.197033056,47.945306667],[0.197063611,47.945338333],[0.197088611,47.945356389],[0.197122778,47.945374722],[0.197268889,47.945635278],[0.197263056,47.945650278],[0.197260556,47.9456725],[0.197259444,47.945705],[0.197265278,47.945731111],[0.197276111,47.945754722],[0.1981625,47.947362778],[0.198190833,47.947414167],[0.198211667,47.947431389],[0.198245,47.947446111],[0.198271667,47.947455],[0.198379444,47.947649722],[0.197703611,47.947824167],[0.197680556,47.947780278],[0.196841667,47.947987778]]]}},{"type":"Feature","id":"LFRM-ccbfad132690bffcab78","properties":{"airport":"LFRM","name":"LFRM AVISO","layer":"Airfield surfaces","category":"Hard Surface 3","object_type":"Area","style_id":"polygon.hardsurface3.8a807f","source_group":"LFRM AVISO","vsmr_group_ids":[],"geometry_role":"filled_region"},"geometry":{"type":"Polygon","coordinates":[[[0.200888611,47.9558075],[0.200801667,47.955800833],[0.200806667,47.955722778],[0.200819167,47.955712778],[0.200840278,47.955698611],[0.200856389,47.955695278],[0.200879722,47.955696111],[0.200953056,47.955700278],[0.200976389,47.955575833],[0.200697778,47.955553056],[0.200703056,47.955495278],[0.202308056,47.955601667],[0.202323056,47.9555825],[0.202323056,47.955566111],[0.202308611,47.955475556],[0.202294167,47.955387222],[0.202282778,47.955329167],[0.202265,47.955266944],[0.202244167,47.955203333],[0.202187222,47.955025556],[0.202158056,47.954926389],[0.202125,47.954815278],[0.202107222,47.954734444],[0.202103333,47.9546875],[0.202109167,47.954641667],[0.202120833,47.954592222],[0.202144444,47.954545],[0.202173611,47.954504722],[0.202193056,47.954478611],[0.20231,47.954525556],[0.202284722,47.954562222],[0.202259444,47.9546025],[0.202243889,47.954644444],[0.20224,47.9546875],[0.202241944,47.954735833],[0.202261389,47.954815278],[0.202403889,47.955304167],[0.202445556,47.955451944],[0.202479722,47.955574444],[0.202485556,47.955600556],[0.202454444,47.955839722],[0.202585833,47.955849722],[0.202571389,47.955980278],[0.200891111,47.955875556],[0.200888611,47.9558075]]]}},{"type":"Feature","id":"LFRM-9bf30efb285ee51ea4cd","properties":{"airport":"LFRM","name":"LFRM AVISO","layer":"Terrain","category":"Gras Surface 2","object_type":"Area","style_id":"polygon.grassurface2.339933","source_group":"LFRM AVISO","vsmr_group_ids":[],"geometry_role":"filled_region"},"geometry":{"type":"Polygon","coordinates":[[[0.200075556,47.944814444],[0.200175556,47.944999444],[0.199969722,47.9450525],[0.19987,47.944871389],[0.200075556,47.944814444]]]}},{"type":"Feature","id":"LFRM-80b67b6172cc38425e18","properties":{"airport":"LFRM","name":"LFRM AVISO","layer":"Terrain","category":"Gras Surface 2","object_type":"Area","style_id":"polygon.grassurface2.339933","source_group":"LFRM AVISO","vsmr_group_ids":[],"geometry_role":"filled_region"},"geometry":{"type":"Polygon","coordinates":[[[0.2026575,47.949502778],[0.202730833,47.949634722],[0.202525278,47.949691944],[0.202448889,47.94956],[0.2026575,47.949502778]]]}},{"type":"Feature","id":"LFRM-0a5a0d2fa1e0ccdb73e1","properties":{"airport":"LFRM","name":"LFRM AVISO","layer":"Terrain","category":"Gras Surface 2","object_type":"Area","style_id":"polygon.grassurface2.339933","source_group":"LFRM AVISO","vsmr_group_ids":[],"geometry_role":"filled_region"},"geometry":{"type":"Polygon","coordinates":[[[0.205095833,47.949791667],[0.205048056,47.949693611],[0.20553,47.949593333],[0.205953889,47.950303056],[0.205354444,47.9503975],[0.205260278,47.950145556],[0.20427,47.950362222],[0.204091389,47.95005],[0.205095833,47.949791667]]]}},{"type":"Feature","id":"LFRM-d9a4ef4fcc16b833957e","properties":{"airport":"LFRM","name":"LFRM AVISO","layer":"Airfield surfaces","category":"Hard Surface 2","object_type":"Area","style_id":"polygon.hardsurface2.595e5b","source_group":"LFRM AVISO","vsmr_group_ids":[],"geometry_role":"filled_region"},"geometry":{"type":"Polygon","coordinates":[[[0.197940278,47.945396111],[0.197890556,47.945419444],[0.197845556,47.945449444],[0.197805833,47.945488333],[0.197781111,47.945533889],[0.197769444,47.945572778],[0.197764444,47.945608333],[0.197766111,47.945649444],[0.197780833,47.945686111],[0.197804167,47.945732778],[0.197871667,47.945849722],[0.198895833,47.947737778],[0.199878611,47.949505278],[0.200131667,47.949978889],[0.200156389,47.950004167],[0.200193056,47.950036667],[0.200236389,47.9500675],[0.200295833,47.950089722],[0.200342778,47.950102778],[0.200396667,47.950106667],[0.200440278,47.950104167],[0.200498611,47.950095833],[0.200575278,47.950080556],[0.201326111,47.949892778],[0.201378611,47.949982778],[0.200575,47.950184722],[0.20049,47.950212222],[0.200438056,47.950238056],[0.200399444,47.950275556],[0.200379444,47.950306667],[0.200374167,47.950347778],[0.200384722,47.950386944],[0.200425278,47.950451111],[0.202385,47.9540675],[0.2024175,47.954119722],[0.202459722,47.954155278],[0.202509167,47.954189167],[0.202558056,47.954208889],[0.202601111,47.954216389],[0.202644722,47.954219167],[0.202694444,47.954212222],[0.202754444,47.954197778],[0.203214167,47.954081111],[0.203381389,47.954040278],[0.203585556,47.953990833],[0.203637222,47.954077778],[0.202797778,47.9542875],[0.202646389,47.9543275],[0.202553611,47.954359444],[0.202483056,47.954391667],[0.202423889,47.954425556],[0.202366667,47.954472778],[0.202309444,47.954528056],[0.202191667,47.95448],[0.202260556,47.95439],[0.202299167,47.954329167],[0.202311667,47.9543],[0.202317778,47.9542625],[0.202314167,47.954231667],[0.202303056,47.954201667],[0.202268611,47.954140556],[0.200884444,47.951623333],[0.200836389,47.951543611],[0.200797778,47.951500556],[0.200758889,47.951469167],[0.200713611,47.951445278],[0.200668056,47.951430278],[0.200623889,47.951421944],[0.200579444,47.951418333],[0.200541667,47.951423889],[0.200498333,47.951433889],[0.200427778,47.951451667],[0.200176111,47.951515278],[0.200105556,47.951389167],[0.200125833,47.951384167],[0.200168056,47.951373889],[0.200230278,47.951359722],[0.200461389,47.951299444],[0.200508889,47.951280278],[0.2005375,47.951261667],[0.200563056,47.951234444],[0.200579167,47.951209722],[0.200589444,47.951183611],[0.200587222,47.951155833],[0.200580278,47.951128056],[0.200558333,47.951084167],[0.200054722,47.950170833],[0.199981667,47.950032778],[0.199981667,47.949985],[0.199897222,47.949836944],[0.199140556,47.948461944],[0.199119444,47.948433333],[0.199094444,47.948411667],[0.199073056,47.948396389],[0.199048056,47.948386111],[0.199022222,47.948378889],[0.198999722,47.948373611],[0.198976111,47.948371389],[0.198932222,47.948283611],[0.198944722,47.948271944],[0.198959444,47.948254167],[0.198969722,47.948239444],[0.198974722,47.948225],[0.198977222,47.94821],[0.198976389,47.948194167],[0.198973056,47.948171944],[0.198965833,47.948154167],[0.198953611,47.948128889],[0.198756667,47.947767222],[0.198732222,47.947725556],[0.198715833,47.947704444],[0.1986875,47.947683056],[0.198646944,47.947661389],[0.198595278,47.947645833],[0.198539167,47.947634722],[0.198473056,47.947627778],[0.1984575,47.947628333],[0.198424722,47.947636944],[0.198377222,47.947650278],[0.198269444,47.947453889],[0.198280833,47.947456111],[0.198305278,47.947460278],[0.198333889,47.947460278],[0.198359167,47.9474575],[0.198385556,47.947451111],[0.198409722,47.947441944],[0.198431667,47.947429167],[0.198452778,47.947415833],[0.198465278,47.947396944],[0.198473889,47.947375556],[0.198475833,47.947351667],[0.198470278,47.947328611],[0.198056111,47.946575278],[0.197575556,47.945701944],[0.197545,47.9456525],[0.197506944,47.945615278],[0.197468889,47.945591389],[0.197435833,47.94558],[0.197404444,47.945575],[0.197365556,47.945576667],[0.197331667,47.945584444],[0.197304722,47.945595833],[0.197286944,47.945611667],[0.1972675,47.945637778],[0.197120278,47.945373611],[0.197153889,47.94539],[0.197179444,47.945395278],[0.197285556,47.9453975],[0.197326944,47.945395278],[0.197403056,47.945379722],[0.198575833,47.945088056],[0.198636944,47.945211389],[0.197940278,47.945396111]]]}},{"type":"Feature","id":"LFRM-1bb9cee737c70c7aee11","properties":{"airport":"LFRM","name":"LFRM AVISO","layer":"Airfield surfaces","category":"Grass runways","object_type":"Area","style_id":"polygon.runwaygrass.008000","source_group":"LFRM AVISO","vsmr_group_ids":[],"geometry_role":"filled_region"},"geometry":{"type":"Polygon","coordinates":[[[0.200961667,47.944354167],[0.205494167,47.952565833],[0.204483333,47.952823611],[0.199947778,47.944608056],[0.200961667,47.944354167]]]}},{"type":"Feature","id":"LFRM-0a471e9d35c4eedd4ea8","properties":{"airport":"LFRM","name":"LFRM AVISO","layer":"Airfield surfaces","category":"Runways","object_type":"Area","style_id":"polygon.runwayconcrete.555555","source_group":"LFRM AVISO","vsmr_group_ids":[],"geometry_role":"filled_region"},"geometry":{"type":"Polygon","coordinates":[[[0.198188889,47.941814722],[0.204787778,47.953783333],[0.203629444,47.954079722],[0.203581944,47.953991944],[0.204149444,47.953845],[0.204199722,47.953829167],[0.204229444,47.953819444],[0.204250833,47.953808056],[0.204266667,47.953791944],[0.204280556,47.953776389],[0.204290833,47.953758056],[0.204298333,47.953736389],[0.204301111,47.953716944],[0.204303056,47.953698889],[0.204299167,47.953678333],[0.204283333,47.953645833],[0.202238056,47.949938889],[0.202213889,47.949912778],[0.202189722,47.949898611],[0.2021625,47.949884722],[0.202134722,47.949871667],[0.202098333,47.949858611],[0.202054444,47.949849167],[0.202008056,47.949843056],[0.201961389,47.949844722],[0.201905556,47.949853611],[0.201373333,47.949984722],[0.201321111,47.949893611],[0.2017725,47.949780556],[0.201824722,47.949766667],[0.201868611,47.949751111],[0.201910556,47.949733611],[0.201941111,47.949716944],[0.201971944,47.949691944],[0.201988611,47.949671389],[0.202007222,47.949640833],[0.202014722,47.949601944],[0.202012778,47.949565833],[0.201996944,47.949511111],[0.19958,47.945121111],[0.199550278,47.945101111],[0.199515,47.945081944],[0.199471111,47.945066389],[0.199421944,47.945053889],[0.199368889,47.945048056],[0.199311944,47.945050556],[0.199260556,47.945057778],[0.198628333,47.945214167],[0.198560833,47.945091389],[0.199189722,47.944935],[0.19924,47.944919444],[0.199281944,47.944903333],[0.199311667,47.944883889],[0.199333056,47.944866944],[0.19935,47.944849444],[0.199358333,47.944826389],[0.199365833,47.944799167],[0.199369444,47.944772222],[0.199364722,47.944731667],[0.197806389,47.941904722],[0.198188889,47.941814722]]]}},{"type":"Feature","id":"LFRM-f67425996996dcb3d6eb","properties":{"airport":"LFRM","name":"LFRM AVISO","layer":"Buildings and structures","category":"Buildings","object_type":"Area","style_id":"polygon.building.394446","source_group":"LFRM AVISO","vsmr_group_ids":[],"geometry_role":"filled_region"},"geometry":{"type":"Polygon","coordinates":[[[0.205593056,47.950466389],[0.205616389,47.950530556],[0.205538056,47.950546111],[0.205513333,47.950480278],[0.205593056,47.950466389]]]}},{"type":"Feature","id":"LFRM-cd6d035f251d8b943905","properties":{"airport":"LFRM","name":"LFRM AVISO","layer":"Buildings and structures","category":"Buildings","object_type":"Area","style_id":"polygon.building.394446","source_group":"LFRM AVISO","vsmr_group_ids":[],"geometry_role":"filled_region"},"geometry":{"type":"Polygon","coordinates":[[[0.2056575,47.950328333],[0.205677222,47.950385],[0.205616111,47.950396667],[0.205632778,47.950448056],[0.205508333,47.950469444],[0.205468056,47.950364167],[0.2056575,47.950328333]]]}},{"type":"Feature","id":"LFRM-df7d531e1bc3dde42572","properties":{"airport":"LFRM","name":"LFRM AVISO","layer":"Buildings and structures","category":"Buildings","object_type":"Area","style_id":"polygon.building.394446","source_group":"LFRM AVISO","vsmr_group_ids":[],"geometry_role":"filled_region"},"geometry":{"type":"Polygon","coordinates":[[[0.205768889,47.949603611],[0.206051667,47.950116389],[0.205848889,47.950165],[0.205561944,47.949656111],[0.205768889,47.949603611]]]}},{"type":"Feature","id":"LFRM-4389fa49a721c61d521c","properties":{"airport":"LFRM","name":"LFRM AVISO","layer":"Buildings and structures","category":"Buildings","object_type":"Area","style_id":"polygon.building.394446","source_group":"LFRM AVISO","vsmr_group_ids":[],"geometry_role":"filled_region"},"geometry":{"type":"Polygon","coordinates":[[[0.195807778,47.944510556],[0.196176389,47.945188889],[0.195900833,47.945253333],[0.195535,47.944576667],[0.195807778,47.944510556]]]}},{"type":"Feature","id":"LFRM-843e00a407650360b1f0","properties":{"airport":"LFRM","name":"LFRM AVISO","layer":"Buildings and structures","category":"Buildings","object_type":"Area","style_id":"polygon.building.394446","source_group":"LFRM AVISO","vsmr_group_ids":[],"geometry_role":"filled_region"},"geometry":{"type":"Polygon","coordinates":[[[0.196311111,47.945445833],[0.196679722,47.946124444],[0.196407222,47.946190556],[0.196038611,47.945512222],[0.196311111,47.945445833]]]}},{"type":"Feature","id":"LFRM-1dd52378573911219ca5","properties":{"airport":"LFRM","name":"LFRM AVISO","layer":"Buildings and structures","category":"Buildings","object_type":"Area","style_id":"polygon.building.394446","source_group":"LFRM AVISO","vsmr_group_ids":[],"geometry_role":"filled_region"},"geometry":{"type":"Polygon","coordinates":[[[0.1966625,47.946446667],[0.196595556,47.94632],[0.1967375,47.946283056],[0.196765556,47.946306667],[0.1967875,47.946331667],[0.196801944,47.946358333],[0.196810278,47.946385556],[0.196811111,47.946413889],[0.196800556,47.9464175],[0.196845833,47.946501667],[0.196819722,47.946508611],[0.196910556,47.946675833],[0.196975,47.946661667],[0.197013611,47.946735278],[0.196922778,47.946755278],[0.196906944,47.946738889],[0.196507222,47.946833611],[0.196340278,47.946526389],[0.1966625,47.946446667]]]}},{"type":"Feature","id":"LFRM-2d4d10d9cd7c3abe2ffd","properties":{"airport":"LFRM","name":"LFRM AVISO","layer":"Buildings and structures","category":"Buildings","object_type":"Area","style_id":"polygon.building.394446","source_group":"LFRM AVISO","vsmr_group_ids":[],"geometry_role":"filled_region"},"geometry":{"type":"Polygon","coordinates":[[[0.196329444,47.947397778],[0.196315,47.947366111],[0.196204722,47.947393333],[0.196164167,47.947319444],[0.196319722,47.947278333],[0.196375,47.947384722],[0.19656,47.947340278],[0.196660556,47.947521667],[0.196389444,47.947588889],[0.196290556,47.9474075],[0.196329444,47.947397778]]]}},{"type":"Feature","id":"LFRM-5ad9648aa092a3bf3ea6","properties":{"airport":"LFRM","name":"LFRM AVISO","layer":"Buildings and structures","category":"Buildings","object_type":"Area","style_id":"polygon.building.394446","source_group":"LFRM AVISO","vsmr_group_ids":[],"geometry_role":"filled_region"},"geometry":{"type":"Polygon","coordinates":[[[0.197333333,47.947346944],[0.197474444,47.947605833],[0.1972075,47.947666944],[0.197067222,47.947411111],[0.197333333,47.947346944]]]}},{"type":"Feature","id":"LFRM-cf3d42f2b61d3d0801ed","properties":{"airport":"LFRM","name":"LFRM AVISO","layer":"Buildings and structures","category":"Buildings","object_type":"Area","style_id":"polygon.building.394446","source_group":"LFRM AVISO","vsmr_group_ids":[],"geometry_role":"filled_region"},"geometry":{"type":"Polygon","coordinates":[[[0.195798889,47.947970278],[0.195883611,47.948146389],[0.195624167,47.948201667],[0.195545,47.948026944],[0.195798889,47.947970278]]]}},{"type":"Feature","id":"LFRM-42b07312d3b9db719c1d","properties":{"airport":"LFRM","name":"LFRM AVISO","layer":"Buildings and structures","category":"Buildings","object_type":"Area","style_id":"polygon.building.394446","source_group":"LFRM AVISO","vsmr_group_ids":[],"geometry_role":"filled_region"},"geometry":{"type":"Polygon","coordinates":[[[0.195904722,47.948188889],[0.195963889,47.948318889],[0.195736667,47.948368056],[0.195675278,47.948238333],[0.195904722,47.948188889]]]}},{"type":"Feature","id":"LFRM-84db717c222429bdb912","properties":{"airport":"LFRM","name":"LFRM AVISO","layer":"Buildings and structures","category":"Buildings","object_type":"Area","style_id":"polygon.building.394446","source_group":"LFRM AVISO","vsmr_group_ids":[],"geometry_role":"filled_region"},"geometry":{"type":"Polygon","coordinates":[[[0.195976944,47.948361944],[0.196059167,47.948536389],[0.195806389,47.948589444],[0.195726111,47.948418611],[0.195976944,47.948361944]]]}},{"type":"Feature","id":"LFRM-f7a4622c6d35dfb9eab3","properties":{"airport":"LFRM","name":"LFRM AVISO","layer":"Buildings and structures","category":"Buildings","object_type":"Area","style_id":"polygon.building.394446","source_group":"LFRM AVISO","vsmr_group_ids":[],"geometry_role":"filled_region"},"geometry":{"type":"Polygon","coordinates":[[[0.196082778,47.948579167],[0.196163889,47.948752778],[0.195906667,47.948805833],[0.195824167,47.948634167],[0.196082778,47.948579167]]]}},{"type":"Feature","id":"LFRM-0dd51226803617a61a0f","properties":{"airport":"LFRM","name":"LFRM AVISO","layer":"Buildings and structures","category":"Buildings","object_type":"Area","style_id":"polygon.building.394446","source_group":"LFRM AVISO","vsmr_group_ids":[],"geometry_role":"filled_region"},"geometry":{"type":"Polygon","coordinates":[[[0.196186389,47.948793889],[0.196250833,47.948935],[0.196024722,47.948981944],[0.195957778,47.9488425],[0.196186389,47.948793889]]]}},{"type":"Feature","id":"LFRM-070723dc9b31c56183e5","properties":{"airport":"LFRM","name":"LFRM AVISO","layer":"Buildings and structures","category":"Buildings","object_type":"Area","style_id":"polygon.building.394446","source_group":"LFRM AVISO","vsmr_group_ids":[],"geometry_role":"filled_region"},"geometry":{"type":"Polygon","coordinates":[[[0.196145833,47.949086111],[0.196223889,47.949259722],[0.195965833,47.949312778],[0.195889167,47.94914],[0.196145833,47.949086111]]]}},{"type":"Feature","id":"LFRM-7cf7cd5271db7e8c9869","properties":{"airport":"LFRM","name":"LFRM AVISO","layer":"Buildings and structures","category":"Buildings","object_type":"Area","style_id":"polygon.building.394446","source_group":"LFRM AVISO","vsmr_group_ids":[],"geometry_role":"filled_region"},"geometry":{"type":"Polygon","coordinates":[[[0.196246389,47.949311944],[0.196324444,47.949485833],[0.196070278,47.949536389],[0.195988333,47.949364444],[0.196246389,47.949311944]]]}},{"type":"Feature","id":"LFRM-ee0b1f30ce714a573a7f","properties":{"airport":"LFRM","name":"LFRM AVISO","layer":"Surface markings","category":"Stopbars","object_type":"Area","style_id":"polygon.stopbar.7e0000","source_group":"LFRM AVISO","vsmr_group_ids":[],"geometry_role":"filled_region"},"geometry":{"type":"Polygon","coordinates":[[[0.198581944,47.945086389],[0.198650278,47.945209722],[0.1986225,47.945216111],[0.198552778,47.945093611],[0.198581944,47.945086389]]]}},{"type":"Feature","id":"LFRM-9a3b89406d639a494cb3","properties":{"airport":"LFRM","name":"LFRM AVISO","layer":"Surface markings","category":"Stopbars","object_type":"Area","style_id":"polygon.stopbar.7e0000","source_group":"LFRM AVISO","vsmr_group_ids":[],"geometry_role":"filled_region"},"geometry":{"type":"Polygon","coordinates":[[[0.201343611,47.949887222],[0.201393889,47.94998],[0.201364722,47.949986389],[0.201315278,47.949895278],[0.201343611,47.949887222]]]}},{"type":"Feature","id":"LFRM-681b5b0bfca6358722f1","properties":{"airport":"LFRM","name":"LFRM AVISO","layer":"Surface markings","category":"Stopbars","object_type":"Area","style_id":"polygon.stopbar.7e0000","source_group":"LFRM AVISO","vsmr_group_ids":[],"geometry_role":"filled_region"},"geometry":{"type":"Polygon","coordinates":[[[0.203604444,47.953985278],[0.203652778,47.954073889],[0.203623611,47.954081389],[0.203575278,47.953993333],[0.203604444,47.953985278]]]}},{"type":"Feature","id":"LFRM-61ad3aa2666df6d72176","properties":{"airport":"LFRM","name":"Terminal","layer":"Labels","category":"Gates","object_type":"Label","style_id":"label.gates","source_group":"LFRM Gates","vsmr_group_ids":[],"geometry_role":"text_label","text-field":"Terminal"},"geometry":{"type":"Point","coordinates":[0.19582,47.946695]}},{"type":"Feature","id":"LFRM-a72bbb7b9fee61227248","properties":{"airport":"LFRM","name":"Parking J","layer":"Labels","category":"Gates","object_type":"Label","style_id":"label.gates","source_group":"LFRM Gates","vsmr_group_ids":[],"geometry_role":"text_label","text-field":"Parking J"},"geometry":{"type":"Point","coordinates":[0.198649167,47.951791667]}},{"type":"Feature","id":"LFRM-78258dd3b22196a2f2fb","properties":{"airport":"LFRM","name":"Parking NORD","layer":"Labels","category":"Gates","object_type":"Label","style_id":"label.gates","source_group":"LFRM Gates","vsmr_group_ids":[],"geometry_role":"text_label","text-field":"Parking NORD"},"geometry":{"type":"Point","coordinates":[0.201667222,47.95576]}},{"type":"Feature","id":"LFRM-8ae91597cb4eb4b02ee8","properties":{"airport":"LFRM","name":"LFRM Groundlayout AVISO","layer":"Guidance lines","category":"Runway Border","object_type":"Line","style_id":"line.runwayborder.808080","source_group":"LFRM Groundlayout AVISO","vsmr_group_ids":[],"geometry_role":"linework"},"geometry":{"type":"MultiLineString","coordinates":[[[0.204578333,47.953835],[0.204557222,47.953751944],[0.204623056,47.953823889]],[[0.204420278,47.953501111],[0.204326389,47.953331667]],[[0.204304444,47.953337222],[0.204278889,47.953246944],[0.204348333,47.953326389]],[[0.204140278,47.952995278],[0.204046111,47.952825]],[[0.204025,47.952831944],[0.203999444,47.952739167],[0.204068889,47.952820833]],[[0.203861667,47.952489167],[0.2037675,47.952319167]],[[0.203746389,47.952325556],[0.203719722,47.952233889],[0.203790833,47.952314167]],[[0.203580833,47.951983333],[0.203488889,47.951813611]],[[0.203466389,47.951820556],[0.203441667,47.951729167],[0.203511389,47.951809167]],[[0.203140556,47.951575],[0.203518611,47.951480278]]]}},{"type":"Feature","id":"LFRM-ff97a51037a92ed6c3f8","properties":{"airport":"LFRM","name":"02","layer":"Labels","category":"Taxiways","object_type":"Label","style_id":"label.taxiways","source_group":"LFRM Taxiways","vsmr_group_ids":[],"geometry_role":"text_label","text-field":"02"},"geometry":{"type":"Point","coordinates":[0.198143333,47.942120278]}},{"type":"Feature","id":"LFRM-6225aabda144f7b452af","properties":{"airport":"LFRM","name":"20","layer":"Labels","category":"Taxiways","object_type":"Label","style_id":"label.taxiways","source_group":"LFRM Taxiways","vsmr_group_ids":[],"geometry_role":"text_label","text-field":"20"},"geometry":{"type":"Point","coordinates":[0.20318,47.951263611]}},{"type":"Feature","id":"LFRM-1f5c145601475224c332","properties":{"airport":"LFRM","name":"A","layer":"Labels","category":"Taxiways","object_type":"Label","style_id":"label.taxiways","source_group":"LFRM Taxiways","vsmr_group_ids":[],"geometry_role":"text_label","text-field":"A"},"geometry":{"type":"Point","coordinates":[0.1984725,47.9447725]}},{"type":"Feature","id":"LFRM-bbd6cc702c61ffd40ef4","properties":{"airport":"LFRM","name":"B","layer":"Labels","category":"Taxiways","object_type":"Label","style_id":"label.taxiways","source_group":"LFRM Taxiways","vsmr_group_ids":[],"geometry_role":"text_label","text-field":"B"},"geometry":{"type":"Point","coordinates":[0.201215,47.949646389]}},{"type":"Feature","id":"LFRM-15610d8527f080b939da","properties":{"airport":"LFRM","name":"C","layer":"Labels","category":"Taxiways","object_type":"Label","style_id":"label.taxiways","source_group":"LFRM Taxiways","vsmr_group_ids":[],"geometry_role":"text_label","text-field":"C"},"geometry":{"type":"Point","coordinates":[0.203481944,47.953785833]}},{"type":"Feature","id":"LFRM-57d339a216fe8e5d4493","properties":{"airport":"LFRM","name":"P1","layer":"Labels","category":"Taxiways","object_type":"Label","style_id":"label.taxiways","source_group":"LFRM Taxiways","vsmr_group_ids":[],"geometry_role":"text_label","text-field":"P1"},"geometry":{"type":"Point","coordinates":[0.198508889,47.946388889]}},{"type":"Feature","id":"LFRM-cd10e2643ff4e1e1bfec","properties":{"airport":"LFRM","name":"P2","layer":"Labels","category":"Taxiways","object_type":"Label","style_id":"label.taxiways","source_group":"LFRM Taxiways","vsmr_group_ids":[],"geometry_role":"text_label","text-field":"P2"},"geometry":{"type":"Point","coordinates":[0.199532778,47.948201389]}},{"type":"Feature","id":"LFRM-7792d36986561aa93773","properties":{"airport":"LFRM","name":"P3","layer":"Labels","category":"Taxiways","object_type":"Label","style_id":"label.taxiways","source_group":"LFRM Taxiways","vsmr_group_ids":[],"geometry_role":"text_label","text-field":"P3"},"geometry":{"type":"Point","coordinates":[0.2009225,47.950675278]}},{"type":"Feature","id":"LFRM-c151ad2947849cd71465","properties":{"airport":"LFRM","name":"P4","layer":"Labels","category":"Taxiways","object_type":"Label","style_id":"label.taxiways","source_group":"LFRM Taxiways","vsmr_group_ids":[],"geometry_role":"text_label","text-field":"P4"},"geometry":{"type":"Point","coordinates":[0.202019444,47.952781667]}}]}
