{"type":"FeatureCollection","name":"LFRN AVISO","bbox":[-1.749514444,48.060964722,-1.715745,48.076474167],"metadata":{"schema":"vSMR AVISO","schema_version":2,"geometry_mode":"shared","airport":"LFRN","coordinate_reference_system":"WGS84","coordinate_order":"longitude, latitude","default_color_palette":"dark","color_palettes":["dark","light"],"background_colors":{"dark":"#434A4F","light":"#434A4F"},"runways":[{"ends":["14L","32R"],"headings":[142,322],"thresholds":[[-1.738521944,48.069266944],[-1.733993889,48.065371944]]},{"ends":["14","32"],"headings":[142,322],"thresholds":[[-1.740496944,48.069924722],[-1.733524722,48.063921944]]},{"ends":["10","28"],"headings":[101,281],"thresholds":[[-1.745157778,48.073563889],[-1.718368889,48.070182778]]}],"saved_active_runways":[],"saved_active_airport_modes":[],"airport_reference":[-1.732221944,48.071943889],"feature_count":85,"style_count":12,"layer_counts":{"Airfield surfaces":27,"Buildings and structures":17,"Guidance lines":2,"Labels":37,"Terrain":2},"category_counts":{"Buildings":17,"Gates":22,"Grass":1,"Grass runways":2,"Hard Surface 2":2,"Hard Surface 3":6,"Runway Border":15,"Runways":3,"Taxiways":16,"Terrain 1":1},"geometry_source":"local GNG","geometry_source_url":"","geometry_license":"GPL-3.0"},"styles":{"polygon.grassurface.00512f":{"name":"Grass","layer":"Terrain","object_type":"Area","paint":{"fill":"#010D19","fill-opacity":1,"palette-overrides":{"light":{"fill":"#00512F"}}},"feature_count":1},"polygon.hardsurface2.595e5b":{"name":"Hard Surface 2","layer":"Airfield surfaces","object_type":"Area","paint":{"fill":"#2F3949","fill-opacity":1,"palette-overrides":{"light":{"fill":"#595E5B"}}},"feature_count":2},"polygon.hardsurface3.8a807f":{"name":"Hard Surface 3","layer":"Airfield surfaces","object_type":"Area","paint":{"fill":"#222D3C","fill-opacity":1,"palette-overrides":{"light":{"fill":"#8A807F"}}},"feature_count":6},"polygon.terrain1.574242":{"name":"Terrain 1","layer":"Terrain","object_type":"Area","paint":{"fill":"#574242","fill-opacity":1,"palette-overrides":{"light":{"fill":"#574242"}}},"feature_count":1},"polygon.runwaygrass.008000":{"name":"Grass runways","layer":"Airfield surfaces","object_type":"Area","paint":{"fill":"#859A77","fill-opacity":1,"palette-overrides":{"light":{"fill":"#008000"}}},"feature_count":2},"polygon.runwayconcrete.555555":{"name":"Runways","layer":"Airfield surfaces","object_type":"Area","paint":{"fill":"#111318","fill-opacity":1,"palette-overrides":{"light":{"fill":"#555555"}}},"feature_count":3},"polygon.building.394446":{"name":"Buildings","layer":"Buildings and structures","object_type":"Area","paint":{"fill":"#475570","fill-opacity":1,"palette-overrides":{"light":{"fill":"#394446"}}},"feature_count":17},"polygon.runwayborder.808080":{"name":"Runway Border","layer":"Airfield surfaces","object_type":"Area","paint":{"fill":"#808080","fill-opacity":1,"palette-overrides":{"light":{"fill":"#808080"}}},"feature_count":14},"line.taxiway.c0b631":{"name":"Taxiways","layer":"Guidance lines","object_type":"Line","paint":{"stroke":"#4E5A69","stroke-opacity":1,"stroke-width":1,"palette-overrides":{"light":{"stroke":"#C0B631"}}},"feature_count":1},"line.runwayborder.808080":{"name":"Runway Border","layer":"Guidance lines","object_type":"Line","paint":{"stroke":"#808080","stroke-opacity":1,"stroke-width":1,"palette-overrides":{"light":{"stroke":"#808080"}}},"feature_count":1},"label.gates":{"name":"Gates","layer":"Labels","object_type":"Label","paint":{"text-color":"#CCCCCC","text-font":"Arial","text-size":12,"text-halo-color":"#000000","text-halo-width":1,"text-anchor":"center","zoomLevel":9},"feature_count":22},"label.taxiways":{"name":"Taxiways","layer":"Labels","object_type":"Label","paint":{"text-color":"#CCCCCC","text-font":"Arial","text-size":12,"text-halo-color":"#000000","text-halo-width":1,"text-anchor":"center","zoomLevel":7},"feature_count":15}},"vsmr_groups":[],"features":[{"type":"Feature","id":"LFRN-5cd4b8c270571fd86e2b","properties":{"airport":"LFRN","name":"LFRN AVISO","layer":"Terrain","category":"Grass","object_type":"Area","style_id":"polygon.grassurface.00512f","source_group":"LFRN AVISO","vsmr_group_ids":[],"geometry_role":"filled_region"},"geometry":{"type":"Polygon","coordinates":[[[-1.742798611,48.0764675],[-1.743204722,48.0760625],[-1.744234167,48.076474167],[-1.747998333,48.074518333],[-1.748372222,48.074285],[-1.7486375,48.074088056],[-1.748827778,48.073910278],[-1.748985556,48.073750556],[-1.749155,48.073555278],[-1.749263611,48.073398056],[-1.749378056,48.073204167],[-1.749514444,48.072878333],[-1.747555278,48.072447778],[-1.7471025,48.072344444],[-1.745836389,48.071947222],[-1.745155556,48.071091111],[-1.745070278,48.070989167],[-1.739958056,48.066740278],[-1.738066944,48.065384167],[-1.737273889,48.064958611],[-1.735018333,48.062995278],[-1.735603333,48.062646667],[-1.735400833,48.062457222],[-1.735558611,48.062360278],[-1.734733889,48.061680556],[-1.733472222,48.060964722],[-1.733402778,48.060976389],[-1.733177222,48.061186111],[-1.731430556,48.062013056],[-1.730971944,48.062176389],[-1.728579722,48.063092222],[-1.7275825,48.063533611],[-1.725707222,48.064389722],[-1.725145,48.064716111],[-1.724194167,48.065469167],[-1.722242778,48.067075],[-1.721524722,48.067758056],[-1.720871944,48.068644722],[-1.7207275,48.068869167],[-1.718744167,48.068485833],[-1.717946389,48.068516111],[-1.717755278,48.068983333],[-1.717072222,48.069506667],[-1.716176667,48.069830556],[-1.715989722,48.0699125],[-1.715849722,48.070076944],[-1.715758056,48.070328611],[-1.715745,48.070566667],[-1.715793889,48.070813611],[-1.717113611,48.0718175],[-1.717371389,48.071998611],[-1.717735278,48.072245556],[-1.718716111,48.072606111],[-1.719177222,48.072730278],[-1.723139444,48.074088611],[-1.723949444,48.074348333],[-1.724882222,48.074458889],[-1.727721667,48.074603333],[-1.727981944,48.074446111],[-1.728130278,48.073915278],[-1.731949167,48.074384444],[-1.731968333,48.074257778],[-1.742360278,48.075555556],[-1.741970556,48.076262222],[-1.742798611,48.0764675]]]}},{"type":"Feature","id":"LFRN-20ff44db14f37106ed94","properties":{"airport":"LFRN","name":"LFRN AVISO","layer":"Airfield surfaces","category":"Hard Surface 2","object_type":"Area","style_id":"polygon.hardsurface2.595e5b","source_group":"LFRN AVISO","vsmr_group_ids":[],"geometry_role":"filled_region"},"geometry":{"type":"Polygon","coordinates":[[[-1.724631389,48.069758056],[-1.724738333,48.069696389],[-1.724847778,48.069648056],[-1.724971111,48.069621944],[-1.725129722,48.0696075],[-1.725300278,48.069621389],[-1.730722222,48.070305278],[-1.730741389,48.070321389],[-1.730765278,48.070359444],[-1.73079,48.070393056],[-1.730848333,48.070588889],[-1.730858333,48.070651111],[-1.730853889,48.070683333],[-1.7307975,48.070920556],[-1.730899444,48.070931944],[-1.730956389,48.070681667],[-1.730958333,48.07066],[-1.730951667,48.070615278],[-1.730903056,48.070436944],[-1.730883056,48.070368611],[-1.730879444,48.070340833],[-1.730890556,48.070325833],[-1.734268333,48.070754722],[-1.734553056,48.070795],[-1.734741389,48.070855],[-1.73491,48.070955833],[-1.735272778,48.071307778],[-1.735347778,48.071385556],[-1.735375833,48.071423611],[-1.735396944,48.071464722],[-1.735416111,48.071518056],[-1.735686111,48.071415278],[-1.73544,48.071171389],[-1.735168889,48.070903611],[-1.735048056,48.070793056],[-1.734902778,48.070716111],[-1.734743889,48.070655556],[-1.734490833,48.070616667],[-1.731016667,48.070175556],[-1.730774167,48.070136111],[-1.730641111,48.070085],[-1.730535,48.069996389],[-1.730465,48.069886389],[-1.730447778,48.069772222],[-1.730669444,48.069106111],[-1.730625556,48.069100556],[-1.7310825,48.067438889],[-1.731185278,48.067212222],[-1.731296944,48.067098056],[-1.732315556,48.066428056],[-1.732784167,48.066125833],[-1.733561667,48.065578611],[-1.7334675,48.065513611],[-1.732975556,48.065825278],[-1.732896944,48.06583],[-1.732807222,48.065810833],[-1.732720833,48.065765556],[-1.731928333,48.065075556],[-1.732030278,48.065023611],[-1.7320125,48.0650075],[-1.732088889,48.064967778],[-1.731711389,48.064641667],[-1.731650278,48.064672778],[-1.731623333,48.064651111],[-1.731507222,48.064714167],[-1.730880556,48.064186667],[-1.730778056,48.064072222],[-1.730738889,48.063976667],[-1.730756389,48.0638525],[-1.730964167,48.063069722],[-1.731037222,48.062956944],[-1.731167222,48.062834722],[-1.731313889,48.062720556],[-1.731471667,48.062637222],[-1.732138611,48.062309722],[-1.732235,48.062268611],[-1.732296944,48.062248056],[-1.732376944,48.062246944],[-1.732476944,48.062255278],[-1.732569444,48.062291111],[-1.733254722,48.0626275],[-1.733506944,48.062738889],[-1.733685278,48.062800556],[-1.733763333,48.062816389],[-1.733869444,48.0628175],[-1.734243611,48.062798611],[-1.734338889,48.062783889],[-1.734475278,48.062749167],[-1.734370556,48.062662222],[-1.734336111,48.062672778],[-1.734247778,48.062688889],[-1.734095,48.062705556],[-1.733787222,48.062715833],[-1.7337225,48.062709722],[-1.733634167,48.062686667],[-1.733529722,48.062643056],[-1.732576667,48.062171944],[-1.732508889,48.062141389],[-1.7324075,48.062132222],[-1.732308889,48.062133333],[-1.732221389,48.0621425],[-1.732138056,48.062161667],[-1.732052778,48.062189444],[-1.731344722,48.062562778],[-1.731150556,48.062676111],[-1.731001667,48.062815278],[-1.730898333,48.062931667],[-1.7308325,48.063053333],[-1.730555833,48.064067222],[-1.73052,48.064181944],[-1.730451111,48.064243611],[-1.730338611,48.064276111],[-1.730208611,48.064274722],[-1.730041944,48.064213056],[-1.729999722,48.064326111],[-1.730252222,48.064485833],[-1.730333889,48.064586111],[-1.730375,48.064678056],[-1.730353333,48.064806944],[-1.730511667,48.064823056],[-1.730623333,48.064383611],[-1.730705556,48.064348889],[-1.730768889,48.064343611],[-1.730858333,48.064378333],[-1.732534444,48.065821944],[-1.732598056,48.065893889],[-1.732612778,48.065956111],[-1.732598056,48.066020833],[-1.732566111,48.066071667],[-1.730294722,48.067569722],[-1.7300175,48.067393056],[-1.729504444,48.067725833],[-1.729446944,48.0676825],[-1.729005278,48.067990556],[-1.729295556,48.06821],[-1.729396111,48.068249444],[-1.729684444,48.068282778],[-1.729766111,48.068160556],[-1.729884167,48.068045278],[-1.7300275,48.067933056],[-1.730521389,48.067613056],[-1.730625833,48.067572778],[-1.730739167,48.067573889],[-1.730821944,48.067620833],[-1.73085,48.067695833],[-1.730847778,48.067778611],[-1.730488611,48.069028889],[-1.730468611,48.069059167],[-1.730436667,48.069072778],[-1.730246667,48.069054167],[-1.729990556,48.069863056],[-1.723136389,48.069009167],[-1.722134444,48.0690675],[-1.722112222,48.069185278],[-1.722103889,48.069199444],[-1.722011111,48.0692075],[-1.721873056,48.069228611],[-1.721638611,48.069278889],[-1.721508056,48.069323611],[-1.721388611,48.069388056],[-1.721309167,48.069454722],[-1.721233889,48.069536111],[-1.721184444,48.069600556],[-1.721127778,48.069699722],[-1.721522222,48.069749722],[-1.721564444,48.069697778],[-1.721632222,48.069629167],[-1.721717222,48.069573889],[-1.721825,48.069523611],[-1.721923333,48.069495556],[-1.722319167,48.069431389],[-1.722603611,48.069403333],[-1.722971944,48.069390556],[-1.723250556,48.0694],[-1.723443611,48.069416111],[-1.723571944,48.069429444],[-1.724205,48.069510833],[-1.724251111,48.069534167],[-1.724293333,48.069585556],[-1.724316944,48.069628056],[-1.724320833,48.069694722],[-1.724301944,48.069752778],[-1.724262778,48.069817222],[-1.724097778,48.070023056],[-1.724316389,48.070104722],[-1.724573611,48.069808611],[-1.724631389,48.069758056]]]}},{"type":"Feature","id":"LFRN-102fc501f464b2c95fb8","properties":{"airport":"LFRN","name":"LFRN AVISO","layer":"Airfield surfaces","category":"Hard Surface 2","object_type":"Area","style_id":"polygon.hardsurface2.595e5b","source_group":"LFRN AVISO","vsmr_group_ids":[],"geometry_role":"filled_region"},"geometry":{"type":"Polygon","coordinates":[[[-1.723327778,48.071708889],[-1.7232875,48.0718325],[-1.723257222,48.071906389],[-1.723207778,48.071959722],[-1.723163611,48.0720075],[-1.723086111,48.0720625],[-1.723003889,48.072102778],[-1.722915556,48.072135556],[-1.722828333,48.072158333],[-1.722748333,48.072168333],[-1.722650278,48.072173889],[-1.722555833,48.072175],[-1.724236667,48.072391944],[-1.7241175,48.0723575],[-1.724026667,48.072328056],[-1.723938611,48.072293889],[-1.723851389,48.072256389],[-1.723771944,48.072213889],[-1.723710556,48.072165556],[-1.723656667,48.072104167],[-1.723632778,48.072071944],[-1.723613333,48.072023611],[-1.723603056,48.071958056],[-1.723601389,48.071913889],[-1.723608611,48.071878889],[-1.723664167,48.071673333],[-1.723346944,48.071631944],[-1.723327778,48.071708889]]]}},{"type":"Feature","id":"LFRN-f23dd360a575a10f9a89","properties":{"airport":"LFRN","name":"LFRN AVISO","layer":"Airfield surfaces","category":"Hard Surface 3","object_type":"Area","style_id":"polygon.hardsurface3.8a807f","source_group":"LFRN AVISO","vsmr_group_ids":[],"geometry_role":"filled_region"},"geometry":{"type":"Polygon","coordinates":[[[-1.721960278,48.072121389],[-1.72164,48.072379444],[-1.721623056,48.072421111],[-1.7214825,48.072949722],[-1.725184722,48.073432222],[-1.725446389,48.072535],[-1.722579444,48.072173889],[-1.722003333,48.072103611],[-1.721960278,48.072121389]]]}},{"type":"Feature","id":"LFRN-eb6f38242c489a11b446","properties":{"airport":"LFRN","name":"LFRN AVISO","layer":"Airfield surfaces","category":"Hard Surface 3","object_type":"Area","style_id":"polygon.hardsurface3.8a807f","source_group":"LFRN AVISO","vsmr_group_ids":[],"geometry_role":"filled_region"},"geometry":{"type":"Polygon","coordinates":[[[-1.723151111,48.069028611],[-1.729938611,48.069887222],[-1.729982222,48.069890278],[-1.730009444,48.069885833],[-1.730034167,48.069871389],[-1.730045,48.06985],[-1.730231944,48.069178889],[-1.722484167,48.068208333],[-1.722284444,48.068903611],[-1.722186111,48.068892778],[-1.722131944,48.06908],[-1.723121667,48.069028333],[-1.723151111,48.069028611]]]}},{"type":"Feature","id":"LFRN-eb68a1ba8dbd556683db","properties":{"airport":"LFRN","name":"LFRN AVISO","layer":"Airfield surfaces","category":"Hard Surface 3","object_type":"Area","style_id":"polygon.hardsurface3.8a807f","source_group":"LFRN AVISO","vsmr_group_ids":[],"geometry_role":"filled_region"},"geometry":{"type":"Polygon","coordinates":[[[-1.730328056,48.064856111],[-1.730281389,48.0649025],[-1.730225,48.064950833],[-1.729547222,48.0654],[-1.729321389,48.065235556],[-1.729266667,48.065268056],[-1.729120278,48.065156944],[-1.728904722,48.065301667],[-1.729056111,48.065401667],[-1.7291075,48.065370278],[-1.729345556,48.065535833],[-1.729304167,48.06556],[-1.729265556,48.065564444],[-1.729217222,48.065557222],[-1.7290525,48.065465],[-1.728526667,48.065807222],[-1.728575556,48.065836111],[-1.728646111,48.065992222],[-1.72836,48.066175833],[-1.727789722,48.066544167],[-1.728329722,48.066911667],[-1.729123889,48.066408333],[-1.729021111,48.066334444],[-1.729513333,48.066005833],[-1.729586111,48.0660525],[-1.729668889,48.066004722],[-1.729702222,48.066023333],[-1.729838056,48.065961944],[-1.730343889,48.066295556],[-1.730253333,48.066358333],[-1.730645833,48.066631389],[-1.730742778,48.066680278],[-1.730836389,48.066684167],[-1.730918889,48.066665556],[-1.732109444,48.065881667],[-1.731590278,48.065433611],[-1.731516111,48.065481667],[-1.731021389,48.065161389],[-1.731133889,48.065088889],[-1.730923611,48.064957778],[-1.730826389,48.064910556],[-1.730661667,48.064891667],[-1.730565556,48.064899444],[-1.730526389,48.0648975],[-1.730505,48.064880556],[-1.730515556,48.064805833],[-1.73036,48.064785833],[-1.730328056,48.064856111]]]}},{"type":"Feature","id":"LFRN-1824bd7faa5ec2662aa6","properties":{"airport":"LFRN","name":"LFRN AVISO","layer":"Airfield surfaces","category":"Hard Surface 3","object_type":"Area","style_id":"polygon.hardsurface3.8a807f","source_group":"LFRN AVISO","vsmr_group_ids":[],"geometry_role":"filled_region"},"geometry":{"type":"Polygon","coordinates":[[[-1.728512778,48.063175],[-1.728214167,48.063329722],[-1.727854444,48.063553611],[-1.729421944,48.064619167],[-1.729853889,48.064346389],[-1.729914167,48.064316944],[-1.729967222,48.064311944],[-1.730023056,48.064330556],[-1.730071667,48.064228611],[-1.728512778,48.063175]]]}},{"type":"Feature","id":"LFRN-b463258e0100e8a90e14","properties":{"airport":"LFRN","name":"LFRN AVISO","layer":"Airfield surfaces","category":"Hard Surface 3","object_type":"Area","style_id":"polygon.hardsurface3.8a807f","source_group":"LFRN AVISO","vsmr_group_ids":[],"geometry_role":"filled_region"},"geometry":{"type":"Polygon","coordinates":[[[-1.734568889,48.062710278],[-1.734726667,48.062635556],[-1.734853056,48.062735278],[-1.735359444,48.062464722],[-1.734588889,48.061824167],[-1.734522778,48.061857778],[-1.734502222,48.061838611],[-1.734048056,48.062081667],[-1.734074722,48.062108056],[-1.733923611,48.062193611],[-1.733995833,48.062249722],[-1.734068056,48.062208333],[-1.734536667,48.062595278],[-1.734445556,48.06264],[-1.734343611,48.06267],[-1.734453889,48.062755],[-1.734475556,48.062748889],[-1.734513056,48.062735556],[-1.734568889,48.062710278]]]}},{"type":"Feature","id":"LFRN-49683b761fcab1acf8b1","properties":{"airport":"LFRN","name":"LFRN AVISO","layer":"Airfield surfaces","category":"Hard Surface 3","object_type":"Area","style_id":"polygon.hardsurface3.8a807f","source_group":"LFRN AVISO","vsmr_group_ids":[],"geometry_role":"filled_region"},"geometry":{"type":"Polygon","coordinates":[[[-1.729285556,48.067871389],[-1.729386667,48.06791],[-1.729510833,48.0679175],[-1.729613056,48.067900278],[-1.729718056,48.067853056],[-1.730217222,48.067520278],[-1.730014444,48.067389167],[-1.729511944,48.06772],[-1.728806111,48.067245556],[-1.728066389,48.067739722],[-1.728123889,48.067805],[-1.7283275,48.067949722],[-1.728398056,48.067991111],[-1.728461667,48.068008611],[-1.728512222,48.067969444],[-1.728569167,48.067944167],[-1.728635278,48.067924167],[-1.728736667,48.067925833],[-1.728856111,48.067950833],[-1.728950556,48.067973333],[-1.7290075,48.067995833],[-1.729235,48.067835278],[-1.729285556,48.067871389]]]}},{"type":"Feature","id":"LFRN-af0bd34ff70e3712fc7f","properties":{"airport":"LFRN","name":"LFRN AVISO","layer":"Terrain","category":"Terrain 1","object_type":"Area","style_id":"polygon.terrain1.574242","source_group":"LFRN AVISO","vsmr_group_ids":[],"geometry_role":"filled_region"},"geometry":{"type":"Polygon","coordinates":[[[-1.740096389,48.070031667],[-1.740005833,48.070089444],[-1.743046389,48.072700833],[-1.743096944,48.072756389],[-1.743132778,48.072815278],[-1.743129722,48.072874167],[-1.743093333,48.072927778],[-1.743024722,48.0729875],[-1.742928056,48.073046389],[-1.742837778,48.073086667],[-1.743307778,48.073156111],[-1.743354167,48.073034444],[-1.743369444,48.072983889],[-1.74338,48.072938889],[-1.743374444,48.072886389],[-1.743333056,48.072801111],[-1.743241111,48.072715556],[-1.740404722,48.070284444],[-1.740389167,48.070248056],[-1.740330556,48.069990278],[-1.740136667,48.069822778],[-1.740096389,48.070031667]]]}},{"type":"Feature","id":"LFRN-220aab46a16ddf17f9bb","properties":{"airport":"LFRN","name":"LFRN AVISO","layer":"Airfield surfaces","category":"Grass runways","object_type":"Area","style_id":"polygon.runwaygrass.008000","source_group":"LFRN AVISO","vsmr_group_ids":[],"geometry_role":"filled_region"},"geometry":{"type":"Polygon","coordinates":[[[-1.734244444,48.064315],[-1.734277222,48.064283056],[-1.734402222,48.064212222],[-1.734578056,48.064105],[-1.734616111,48.064066389],[-1.734638611,48.064005833],[-1.734671111,48.063884167],[-1.734647778,48.063729722],[-1.734333611,48.062994167],[-1.734275,48.062865833],[-1.734284722,48.062827778],[-1.7343075,48.062789444],[-1.734216944,48.0628],[-1.734041944,48.062807778],[-1.734047222,48.062889167],[-1.734113611,48.063042778],[-1.734372778,48.063639167],[-1.734438889,48.063789167],[-1.734464722,48.063891944],[-1.734428333,48.063983889],[-1.734234722,48.064100278],[-1.734114167,48.064158333],[-1.7340725,48.064165278],[-1.734024722,48.064165833],[-1.734227222,48.064345833],[-1.734244444,48.064315]]]}},{"type":"Feature","id":"LFRN-e51ca7d5e91b82d54fa9","properties":{"airport":"LFRN","name":"LFRN AVISO","layer":"Airfield surfaces","category":"Grass runways","object_type":"Area","style_id":"polygon.runwaygrass.008000","source_group":"LFRN AVISO","vsmr_group_ids":[],"geometry_role":"filled_region"},"geometry":{"type":"Polygon","coordinates":[[[-1.733730833,48.065516667],[-1.738254722,48.069409444],[-1.738783333,48.069134444],[-1.7342475,48.065241389],[-1.733730833,48.065516667]]]}},{"type":"Feature","id":"LFRN-d238bd564d4263bef03b","properties":{"airport":"LFRN","name":"LFRN AVISO","layer":"Airfield surfaces","category":"Runways","object_type":"Area","style_id":"polygon.runwayconcrete.555555","source_group":"LFRN AVISO","vsmr_group_ids":[],"geometry_role":"filled_region"},"geometry":{"type":"Polygon","coordinates":[[[-1.718307778,48.070378889],[-1.718288889,48.070469167],[-1.718289722,48.070558611],[-1.718317222,48.070648333],[-1.718366667,48.070736667],[-1.718438056,48.0708175],[-1.718519722,48.070879722],[-1.718625556,48.070939444],[-1.718724722,48.070976389],[-1.718841944,48.070998889],[-1.718936111,48.070997222],[-1.7205375,48.0706675],[-1.722868889,48.070962222],[-1.72299,48.070991389],[-1.723068333,48.071021389],[-1.723145833,48.071054722],[-1.723224444,48.071098889],[-1.723288333,48.071153333],[-1.723331944,48.071204444],[-1.723358333,48.071260833],[-1.723376389,48.071321389],[-1.723376667,48.071457778],[-1.723341111,48.071654444],[-1.723657778,48.071694722],[-1.723716389,48.071508611],[-1.723763056,48.071424167],[-1.723818056,48.071345556],[-1.723901667,48.071280833],[-1.723985833,48.071240833],[-1.724073333,48.071211667],[-1.724176389,48.071184444],[-1.724331667,48.071158056],[-1.7243975,48.071158611],[-1.724524722,48.071168333],[-1.746034444,48.073885833],[-1.746149444,48.0734875],[-1.746178611,48.07338],[-1.746188889,48.073326389],[-1.746188889,48.073277222],[-1.746174444,48.073208889],[-1.746142222,48.073132778],[-1.746098333,48.073065833],[-1.7460275,48.072994722],[-1.745939444,48.072929444],[-1.745831944,48.0728775],[-1.745715833,48.072847778],[-1.745616111,48.072839167],[-1.745518333,48.072847778],[-1.743946111,48.073216111],[-1.736884444,48.072325],[-1.736642222,48.072248889],[-1.736449167,48.072157222],[-1.735684444,48.071413889],[-1.735417222,48.071516667],[-1.735426944,48.071548889],[-1.7354325,48.071616667],[-1.73542,48.071701389],[-1.735391111,48.071767222],[-1.735333611,48.071837222],[-1.735269722,48.071894444],[-1.735174722,48.071951667],[-1.735079722,48.072001667],[-1.735013611,48.072021389],[-1.734874722,48.072036667],[-1.734738333,48.072042778],[-1.734631111,48.072038611],[-1.730915,48.071571111],[-1.730873056,48.071553889],[-1.730818333,48.0715225],[-1.73078,48.071483889],[-1.730772222,48.071448889],[-1.730899444,48.070930278],[-1.730798333,48.070918333],[-1.730682222,48.071418611],[-1.730672222,48.071445833],[-1.730649722,48.071468333],[-1.730610278,48.071488056],[-1.730550278,48.071503889],[-1.730460833,48.071513333],[-1.724239722,48.070728611],[-1.724162778,48.070704167],[-1.724104722,48.070678056],[-1.724052778,48.070639167],[-1.7240225,48.070589444],[-1.724011389,48.070555833],[-1.724031389,48.070448889],[-1.724042222,48.070423611],[-1.724317222,48.070103611],[-1.724098889,48.070021944],[-1.723786389,48.070398611],[-1.723682778,48.070506389],[-1.723631111,48.070549167],[-1.723571111,48.070582222],[-1.723500833,48.070601667],[-1.723410278,48.070611389],[-1.723322222,48.070611111],[-1.721836389,48.070422222],[-1.721738611,48.070394167],[-1.721634722,48.070355833],[-1.721543611,48.070292778],[-1.721481667,48.070209722],[-1.721448889,48.070135278],[-1.721438056,48.070001111],[-1.7214475,48.069908889],[-1.721466944,48.069849444],[-1.721496944,48.069790278],[-1.721521389,48.069749167],[-1.721129722,48.0696975],[-1.721014722,48.069925833],[-1.720976389,48.069988333],[-1.720930278,48.070050278],[-1.720868056,48.070119167],[-1.720776944,48.070173333],[-1.7206725,48.070213889],[-1.720564167,48.070236667],[-1.720388056,48.070240278],[-1.71841,48.069998889],[-1.718307778,48.070378889]]]}},{"type":"Feature","id":"LFRN-19005610da5a4c6804a4","properties":{"airport":"LFRN","name":"LFRN AVISO","layer":"Airfield surfaces","category":"Runways","object_type":"Area","style_id":"polygon.runwayconcrete.555555","source_group":"LFRN AVISO","vsmr_group_ids":[],"geometry_role":"filled_region"},"geometry":{"type":"Polygon","coordinates":[[[-1.733308333,48.063958056],[-1.734247222,48.064771389],[-1.734312778,48.064831111],[-1.734326944,48.064883889],[-1.734310833,48.064934444],[-1.734246667,48.064993889],[-1.733466667,48.065515],[-1.733559722,48.065579444],[-1.734342222,48.065073056],[-1.734423333,48.065045556],[-1.734514722,48.0650475],[-1.734616389,48.065088056],[-1.740343889,48.070014444],[-1.740647778,48.069848333],[-1.733618333,48.0638025],[-1.733308333,48.063958056]]]}},{"type":"Feature","id":"LFRN-856d46a4152e963b81cb","properties":{"airport":"LFRN","name":"LFRN AVISO","layer":"Airfield surfaces","category":"Runways","object_type":"Area","style_id":"polygon.runwayconcrete.555555","source_group":"LFRN AVISO","vsmr_group_ids":[],"geometry_role":"filled_region"},"geometry":{"type":"Polygon","coordinates":[[[-1.732439722,48.064775556],[-1.732085278,48.064463056],[-1.731668611,48.064676667],[-1.732031111,48.064986389],[-1.732439722,48.064775556]]]}},{"type":"Feature","id":"LFRN-efee64627e055b75c568","properties":{"airport":"LFRN","name":"LFRN AVISO","layer":"Buildings and structures","category":"Buildings","object_type":"Area","style_id":"polygon.building.394446","source_group":"LFRN AVISO","vsmr_group_ids":[],"geometry_role":"filled_region"},"geometry":{"type":"Polygon","coordinates":[[[-1.725145556,48.073881667],[-1.725394167,48.073914167],[-1.725381111,48.073961389],[-1.727151944,48.074186944],[-1.727236389,48.0739125],[-1.725206389,48.073657778],[-1.725145556,48.073881667]]]}},{"type":"Feature","id":"LFRN-cf28cf45a4ba52016257","properties":{"airport":"LFRN","name":"LFRN AVISO","layer":"Buildings and structures","category":"Buildings","object_type":"Area","style_id":"polygon.building.394446","source_group":"LFRN AVISO","vsmr_group_ids":[],"geometry_role":"filled_region"},"geometry":{"type":"Polygon","coordinates":[[[-1.724458056,48.073477222],[-1.723784167,48.073391389],[-1.723751667,48.073545833],[-1.724416111,48.073626111],[-1.724458056,48.073477222]]]}},{"type":"Feature","id":"LFRN-3151516186246d51123c","properties":{"airport":"LFRN","name":"LFRN AVISO","layer":"Buildings and structures","category":"Buildings","object_type":"Area","style_id":"polygon.building.394446","source_group":"LFRN AVISO","vsmr_group_ids":[],"geometry_role":"filled_region"},"geometry":{"type":"Polygon","coordinates":[[[-1.722075833,48.068166111],[-1.721963611,48.068585],[-1.722230556,48.068615833],[-1.722333611,48.068193611],[-1.722075833,48.068166111]]]}},{"type":"Feature","id":"LFRN-b1403d32d3bc18d97f45","properties":{"airport":"LFRN","name":"LFRN AVISO","layer":"Buildings and structures","category":"Buildings","object_type":"Area","style_id":"polygon.building.394446","source_group":"LFRN AVISO","vsmr_group_ids":[],"geometry_role":"filled_region"},"geometry":{"type":"Polygon","coordinates":[[[-1.72233,48.067769167],[-1.722246667,48.068086111],[-1.722821944,48.0681625],[-1.722903889,48.067846111],[-1.72233,48.067769167]]]}},{"type":"Feature","id":"LFRN-4538fb963ba0e9699b4e","properties":{"airport":"LFRN","name":"LFRN AVISO","layer":"Buildings and structures","category":"Buildings","object_type":"Area","style_id":"polygon.building.394446","source_group":"LFRN AVISO","vsmr_group_ids":[],"geometry_role":"filled_region"},"geometry":{"type":"Polygon","coordinates":[[[-1.725182222,48.068011667],[-1.725064167,48.068421667],[-1.726728611,48.068631389],[-1.726842222,48.068225278],[-1.725182222,48.068011667]]]}},{"type":"Feature","id":"LFRN-55da7f7584a492a059d2","properties":{"airport":"LFRN","name":"LFRN AVISO","layer":"Buildings and structures","category":"Buildings","object_type":"Area","style_id":"polygon.building.394446","source_group":"LFRN AVISO","vsmr_group_ids":[],"geometry_role":"filled_region"},"geometry":{"type":"Polygon","coordinates":[[[-1.727082222,48.068396111],[-1.7270225,48.068601389],[-1.727260556,48.068631389],[-1.727320278,48.068425278],[-1.727082222,48.068396111]]]}},{"type":"Feature","id":"LFRN-4c13891d0ec1b591a14c","properties":{"airport":"LFRN","name":"LFRN AVISO","layer":"Buildings and structures","category":"Buildings","object_type":"Area","style_id":"polygon.building.394446","source_group":"LFRN AVISO","vsmr_group_ids":[],"geometry_role":"filled_region"},"geometry":{"type":"Polygon","coordinates":[[[-1.7277875,48.068646667],[-1.727818611,48.068520278],[-1.727691389,48.068505556],[-1.727681111,48.068550556],[-1.727648333,48.068546111],[-1.727638333,48.0685825],[-1.727486667,48.0685625],[-1.727459444,48.068658056],[-1.727423056,48.068653333],[-1.727404167,48.068721667],[-1.727506667,48.068734444],[-1.72751,48.068722778],[-1.727892222,48.068769722],[-1.727921944,48.068661944],[-1.7277875,48.068646667]]]}},{"type":"Feature","id":"LFRN-3f16268f3c5e0fa22d9e","properties":{"airport":"LFRN","name":"LFRN AVISO","layer":"Buildings and structures","category":"Buildings","object_type":"Area","style_id":"polygon.building.394446","source_group":"LFRN AVISO","vsmr_group_ids":[],"geometry_role":"filled_region"},"geometry":{"type":"Polygon","coordinates":[[[-1.728363889,48.068533889],[-1.728301389,48.068756389],[-1.7285425,48.068785556],[-1.728564167,48.068704444],[-1.728848056,48.068738611],[-1.728883889,48.068598611],[-1.728363889,48.068533889]]]}},{"type":"Feature","id":"LFRN-f14b7a91129db5877b31","properties":{"airport":"LFRN","name":"LFRN AVISO","layer":"Buildings and structures","category":"Buildings","object_type":"Area","style_id":"polygon.building.394446","source_group":"LFRN AVISO","vsmr_group_ids":[],"geometry_role":"filled_region"},"geometry":{"type":"Polygon","coordinates":[[[-1.729148611,48.068686667],[-1.729118056,48.068800556],[-1.729080556,48.068795278],[-1.729067222,48.068837222],[-1.729872222,48.06894],[-1.729915278,48.068784722],[-1.729148611,48.068686667]]]}},{"type":"Feature","id":"LFRN-0d1745537f68b930ae79","properties":{"airport":"LFRN","name":"LFRN AVISO","layer":"Buildings and structures","category":"Buildings","object_type":"Area","style_id":"polygon.building.394446","source_group":"LFRN AVISO","vsmr_group_ids":[],"geometry_role":"filled_region"},"geometry":{"type":"Polygon","coordinates":[[[-1.730345,48.068722222],[-1.730356944,48.068685278],[-1.730156389,48.068659167],[-1.730133333,48.068704722],[-1.730120833,48.068703056],[-1.730045,48.068862222],[-1.730029722,48.068860556],[-1.730002222,48.068920278],[-1.730058333,48.068927778],[-1.730061389,48.068918056],[-1.730273333,48.0689475],[-1.730335556,48.068721667],[-1.730345,48.068722222]]]}},{"type":"Feature","id":"LFRN-9972ced727cdb199bc2a","properties":{"airport":"LFRN","name":"LFRN AVISO","layer":"Buildings and structures","category":"Buildings","object_type":"Area","style_id":"polygon.building.394446","source_group":"LFRN AVISO","vsmr_group_ids":[],"geometry_role":"filled_region"},"geometry":{"type":"Polygon","coordinates":[[[-1.728642778,48.067412222],[-1.728768056,48.067244722],[-1.72904,48.067150833],[-1.729155833,48.066986111],[-1.729428889,48.066898333],[-1.72956,48.066720556],[-1.729105,48.066411111],[-1.728837778,48.066495833],[-1.728698333,48.066663333],[-1.728450556,48.066751389],[-1.728315556,48.066918889],[-1.728048889,48.067006667],[-1.727918889,48.0671775],[-1.727656667,48.067265278],[-1.727536111,48.067433056],[-1.728008333,48.067741944],[-1.728260556,48.067670556],[-1.728390278,48.067496667],[-1.728642778,48.067412222]]]}},{"type":"Feature","id":"LFRN-7b047824ac4991039f8f","properties":{"airport":"LFRN","name":"LFRN AVISO","layer":"Buildings and structures","category":"Buildings","object_type":"Area","style_id":"polygon.building.394446","source_group":"LFRN AVISO","vsmr_group_ids":[],"geometry_role":"filled_region"},"geometry":{"type":"Polygon","coordinates":[[[-1.729688889,48.066023056],[-1.729287222,48.066284444],[-1.72941,48.066361389],[-1.7296875,48.066178611],[-1.729933056,48.066341944],[-1.730033611,48.066266111],[-1.729688889,48.066023056]]]}},{"type":"Feature","id":"LFRN-88856c04c50013378cfb","properties":{"airport":"LFRN","name":"LFRN AVISO","layer":"Buildings and structures","category":"Buildings","object_type":"Area","style_id":"polygon.building.394446","source_group":"LFRN AVISO","vsmr_group_ids":[],"geometry_role":"filled_region"},"geometry":{"type":"Polygon","coordinates":[[[-1.729074722,48.065163889],[-1.729136389,48.065121667],[-1.7290625,48.065071667],[-1.7290425,48.065082778],[-1.728871111,48.064968333],[-1.728823056,48.065000833],[-1.728744167,48.064951111],[-1.728560833,48.065071944],[-1.728911389,48.065304167],[-1.729104167,48.065181667],[-1.729074722,48.065163889]]]}},{"type":"Feature","id":"LFRN-40f4b2cb1b42212a0b50","properties":{"airport":"LFRN","name":"LFRN AVISO","layer":"Buildings and structures","category":"Buildings","object_type":"Area","style_id":"polygon.building.394446","source_group":"LFRN AVISO","vsmr_group_ids":[],"geometry_role":"filled_region"},"geometry":{"type":"Polygon","coordinates":[[[-1.729290278,48.064455556],[-1.729035278,48.0643625],[-1.728918333,48.064190556],[-1.72865,48.064097222],[-1.728523333,48.063925],[-1.728255,48.063834167],[-1.728119167,48.063653889],[-1.727841667,48.063582222],[-1.727394722,48.063880556],[-1.727517778,48.064056667],[-1.727776389,48.064149722],[-1.727896667,48.064321944],[-1.728149167,48.064410833],[-1.728291389,48.064586944],[-1.728543889,48.064673889],[-1.728670278,48.064851944],[-1.728940833,48.064919444],[-1.729403611,48.064618889],[-1.729290278,48.064455556]]]}},{"type":"Feature","id":"LFRN-c7770b2c5e0889d57ed8","properties":{"airport":"LFRN","name":"LFRN AVISO","layer":"Buildings and structures","category":"Buildings","object_type":"Area","style_id":"polygon.building.394446","source_group":"LFRN AVISO","vsmr_group_ids":[],"geometry_role":"filled_region"},"geometry":{"type":"Polygon","coordinates":[[[-1.735321389,48.062489722],[-1.734855278,48.062741389],[-1.735016944,48.062871944],[-1.735495,48.062625556],[-1.735321389,48.062489722]]]}},{"type":"Feature","id":"LFRN-ba2c8ef39b4af450f33c","properties":{"airport":"LFRN","name":"LFRN AVISO","layer":"Buildings and structures","category":"Buildings","object_type":"Area","style_id":"polygon.building.394446","source_group":"LFRN AVISO","vsmr_group_ids":[],"geometry_role":"filled_region"},"geometry":{"type":"Polygon","coordinates":[[[-1.734741667,48.061736389],[-1.734561944,48.061829167],[-1.735086667,48.062266389],[-1.735260833,48.0621775],[-1.734741667,48.061736389]]]}},{"type":"Feature","id":"LFRN-87fbaa687e9fa432457d","properties":{"airport":"LFRN","name":"LFRN AVISO","layer":"Buildings and structures","category":"Buildings","object_type":"Area","style_id":"polygon.building.394446","source_group":"LFRN AVISO","vsmr_group_ids":[],"geometry_role":"filled_region"},"geometry":{"type":"Polygon","coordinates":[[[-1.733949167,48.061952222],[-1.734073056,48.0620525],[-1.734484167,48.061838889],[-1.734363056,48.061722222],[-1.733949167,48.061952222]]]}},{"type":"Feature","id":"LFRN-21c52f711c7f93259a8c","properties":{"airport":"LFRN","name":"LFRN AVISO","layer":"Airfield surfaces","category":"Runway Border","object_type":"Area","style_id":"polygon.runwayborder.808080","source_group":"LFRN AVISO","vsmr_group_ids":[],"geometry_role":"filled_region"},"geometry":{"type":"Polygon","coordinates":[[[-1.732035556,48.064666111],[-1.732021944,48.064673611],[-1.732065556,48.064712778],[-1.732035278,48.064727778],[-1.731991111,48.064689444],[-1.731976111,48.064696111],[-1.732075833,48.064783333],[-1.732089444,48.064776111],[-1.732045,48.064737222],[-1.732076111,48.064721944],[-1.732121111,48.06476],[-1.732134167,48.064753056],[-1.732035556,48.064666111]]]}},{"type":"Feature","id":"LFRN-a939d6e9786da77d8433","properties":{"airport":"LFRN","name":"LFRN AVISO","layer":"Airfield surfaces","category":"Runway Border","object_type":"Area","style_id":"polygon.runwayborder.808080","source_group":"LFRN AVISO","vsmr_group_ids":[],"geometry_role":"filled_region"},"geometry":{"type":"Polygon","coordinates":[[[-1.732184167,48.064799444],[-1.732208056,48.064777222],[-1.7322225,48.064749722],[-1.732228056,48.064721944],[-1.732221944,48.064695],[-1.732203889,48.064668611],[-1.732173889,48.064644167],[-1.732134722,48.064624444],[-1.732084444,48.064612778],[-1.7320325,48.064613056],[-1.731973889,48.064625833],[-1.731934167,48.064646389],[-1.731900556,48.064679444],[-1.731888333,48.064711667],[-1.731890556,48.064746111],[-1.731906111,48.064778611],[-1.731934722,48.064805278],[-1.731975556,48.064824167],[-1.732016944,48.064836667],[-1.732067778,48.064839444],[-1.732118889,48.0648325],[-1.732112222,48.064823889],[-1.732067778,48.06483],[-1.732020556,48.064826944],[-1.731981389,48.064816111],[-1.731943611,48.0647975],[-1.731920833,48.064775833],[-1.7319025,48.064744722],[-1.731901944,48.064714722],[-1.731912222,48.064683611],[-1.731943889,48.064651944],[-1.731980556,48.064633889],[-1.732030278,48.064621389],[-1.73208,48.064621944],[-1.732127778,48.064631667],[-1.732163333,48.064648333],[-1.732192778,48.064671944],[-1.732209167,48.064696667],[-1.732213333,48.064721389],[-1.732209722,48.064748056],[-1.732195833,48.064773611],[-1.732171667,48.064795],[-1.732148333,48.06481],[-1.732112222,48.064823611],[-1.732119167,48.0648325],[-1.732156944,48.0648175],[-1.732184167,48.064799444]]]}},{"type":"Feature","id":"LFRN-266ab376febcc9ed510f","properties":{"airport":"LFRN","name":"LFRN AVISO","layer":"Airfield surfaces","category":"Runway Border","object_type":"Area","style_id":"polygon.runwayborder.808080","source_group":"LFRN AVISO","vsmr_group_ids":[],"geometry_role":"filled_region"},"geometry":{"type":"Polygon","coordinates":[[[-1.719251667,48.070226111],[-1.719185,48.070216667],[-1.719180556,48.070232222],[-1.719205278,48.070235833],[-1.719198333,48.070258889],[-1.719163056,48.070255],[-1.719084167,48.070204167],[-1.7190125,48.070195556],[-1.718996667,48.070247778],[-1.719039167,48.070253333],[-1.719050278,48.070216111],[-1.719075833,48.070219167],[-1.7191575,48.070270278],[-1.719236667,48.070278889],[-1.719251667,48.070226111]]]}},{"type":"Feature","id":"LFRN-78355d4473bcc7235298","properties":{"airport":"LFRN","name":"LFRN AVISO","layer":"Airfield surfaces","category":"Runway Border","object_type":"Area","style_id":"polygon.runwayborder.808080","source_group":"LFRN AVISO","vsmr_group_ids":[],"geometry_role":"filled_region"},"geometry":{"type":"Polygon","coordinates":[[[-1.719226667,48.070318889],[-1.719133333,48.070306944],[-1.719117222,48.070319444],[-1.719107778,48.070303611],[-1.718984167,48.070288889],[-1.718970278,48.070341944],[-1.719014444,48.0703475],[-1.719023056,48.070308889],[-1.719100278,48.070318889],[-1.719094167,48.070341944],[-1.719018056,48.070332778],[-1.719014444,48.070347778],[-1.719091944,48.070358056],[-1.719109444,48.070346667],[-1.719119722,48.070361944],[-1.719122222,48.070361944],[-1.719132222,48.0703225],[-1.719177778,48.070328611],[-1.719171389,48.070351667],[-1.719126389,48.070345556],[-1.719122222,48.070361944],[-1.719210278,48.070373611],[-1.719226667,48.070318889]]]}},{"type":"Feature","id":"LFRN-6862fba080deed67c9a8","properties":{"airport":"LFRN","name":"LFRN AVISO","layer":"Airfield surfaces","category":"Runway Border","object_type":"Area","style_id":"polygon.runwayborder.808080","source_group":"LFRN AVISO","vsmr_group_ids":[],"geometry_role":"filled_region"},"geometry":{"type":"Polygon","coordinates":[[[-1.722234444,48.070511111],[-1.722213889,48.0705925],[-1.722809167,48.070669167],[-1.722831389,48.070586944],[-1.722234444,48.070511111]]]}},{"type":"Feature","id":"LFRN-ef2af6ded2b3bc3fee6a","properties":{"airport":"LFRN","name":"LFRN AVISO","layer":"Airfield surfaces","category":"Runway Border","object_type":"Area","style_id":"polygon.runwayborder.808080","source_group":"LFRN AVISO","vsmr_group_ids":[],"geometry_role":"filled_region"},"geometry":{"type":"Polygon","coordinates":[[[-1.722167778,48.070752222],[-1.722145278,48.070832222],[-1.722739722,48.070906667],[-1.722763889,48.070827222],[-1.722167778,48.070752222]]]}},{"type":"Feature","id":"LFRN-a6478070532fee15f462","properties":{"airport":"LFRN","name":"LFRN AVISO","layer":"Airfield surfaces","category":"Runway Border","object_type":"Area","style_id":"polygon.runwayborder.808080","source_group":"LFRN AVISO","vsmr_group_ids":[],"geometry_role":"filled_region"},"geometry":{"type":"Polygon","coordinates":[[[-1.74126,48.073160278],[-1.741237222,48.073240833],[-1.741831944,48.073315833],[-1.741854722,48.073235],[-1.74126,48.073160278]]]}},{"type":"Feature","id":"LFRN-fd14f60feae4fb678dd9","properties":{"airport":"LFRN","name":"LFRN AVISO","layer":"Airfield surfaces","category":"Runway Border","object_type":"Area","style_id":"polygon.runwayborder.808080","source_group":"LFRN AVISO","vsmr_group_ids":[],"geometry_role":"filled_region"},"geometry":{"type":"Polygon","coordinates":[[[-1.741327222,48.072921667],[-1.741305,48.073002222],[-1.741899167,48.0730775],[-1.741921667,48.072995833],[-1.741327222,48.072921667]]]}},{"type":"Feature","id":"LFRN-7cbe30c08bc708a8822f","properties":{"airport":"LFRN","name":"LFRN AVISO","layer":"Airfield surfaces","category":"Runway Border","object_type":"Area","style_id":"polygon.runwayborder.808080","source_group":"LFRN AVISO","vsmr_group_ids":[],"geometry_role":"filled_region"},"geometry":{"type":"Polygon","coordinates":[[[-1.744510278,48.073525278],[-1.744271111,48.073495833],[-1.7442675,48.073509167],[-1.744275,48.073516667],[-1.744306111,48.073520556],[-1.744307778,48.073515278],[-1.744505833,48.073540833],[-1.744510278,48.073525278]]]}},{"type":"Feature","id":"LFRN-b76da09f4f64f4d8d4b7","properties":{"airport":"LFRN","name":"LFRN AVISO","layer":"Airfield surfaces","category":"Runway Border","object_type":"Area","style_id":"polygon.runwayborder.808080","source_group":"LFRN AVISO","vsmr_group_ids":[],"geometry_role":"filled_region"},"geometry":{"type":"Polygon","coordinates":[[[-1.744337222,48.073408333],[-1.744333611,48.073423333],[-1.744489167,48.073444167],[-1.744482222,48.073467778],[-1.744325556,48.0734475],[-1.744337222,48.073408611],[-1.744295,48.073402778],[-1.744281389,48.073456667],[-1.744520833,48.073487778],[-1.744536944,48.073433611],[-1.744337222,48.073408333]]]}},{"type":"Feature","id":"LFRN-dac3b395d3a3c3ebcbbb","properties":{"airport":"LFRN","name":"LFRN AVISO","layer":"Airfield surfaces","category":"Runway Border","object_type":"Area","style_id":"polygon.runwayborder.808080","source_group":"LFRN AVISO","vsmr_group_ids":[],"geometry_role":"filled_region"},"geometry":{"type":"Polygon","coordinates":[[[-1.739894167,48.069487222],[-1.739876667,48.069496944],[-1.739878056,48.069507222],[-1.739896111,48.0695225],[-1.7399025,48.069519444],[-1.740025278,48.069626111],[-1.740043889,48.069615833],[-1.739894167,48.069487222]]]}},{"type":"Feature","id":"LFRN-2efbc2dc27a3025c9167","properties":{"airport":"LFRN","name":"LFRN AVISO","layer":"Airfield surfaces","category":"Runway Border","object_type":"Area","style_id":"polygon.runwayborder.808080","source_group":"LFRN AVISO","vsmr_group_ids":[],"geometry_role":"filled_region"},"geometry":{"type":"Polygon","coordinates":[[[-1.740123611,48.0695325],[-1.740139444,48.069523889],[-1.740113056,48.069503056],[-1.740097778,48.069511111],[-1.740051389,48.069469167],[-1.740032222,48.069478611],[-1.740079722,48.069520556],[-1.740054167,48.069533611],[-1.739989444,48.069438889],[-1.739970278,48.069449444],[-1.740053889,48.069568611],[-1.740105833,48.069541389],[-1.740136667,48.069568611],[-1.740155278,48.069559167],[-1.740123611,48.0695325]]]}},{"type":"Feature","id":"LFRN-1ec0de064df1d9e7bb06","properties":{"airport":"LFRN","name":"LFRN AVISO","layer":"Airfield surfaces","category":"Runway Border","object_type":"Area","style_id":"polygon.runwayborder.808080","source_group":"LFRN AVISO","vsmr_group_ids":[],"geometry_role":"filled_region"},"geometry":{"type":"Polygon","coordinates":[[[-1.734029722,48.064308889],[-1.734019167,48.064300833],[-1.734026111,48.064263333],[-1.733970556,48.064259444],[-1.733931111,48.064225556],[-1.733978889,48.064201389],[-1.733951667,48.064178611],[-1.733886944,48.064212222],[-1.73396,48.064275],[-1.733999444,48.064277222],[-1.733994722,48.064305278],[-1.734036667,48.064341667],[-1.734101389,48.064308056],[-1.734075278,48.064285278],[-1.734029722,48.064308889]]]}},{"type":"Feature","id":"LFRN-65c5b41b54ea3222f9a7","properties":{"airport":"LFRN","name":"LFRN AVISO","layer":"Airfield surfaces","category":"Runway Border","object_type":"Area","style_id":"polygon.runwayborder.808080","source_group":"LFRN AVISO","vsmr_group_ids":[],"geometry_role":"filled_region"},"geometry":{"type":"Polygon","coordinates":[[[-1.733916944,48.064367778],[-1.733893333,48.064348611],[-1.733883333,48.064274722],[-1.733838889,48.064236389],[-1.733773611,48.064270278],[-1.733800278,48.064293611],[-1.733846944,48.064269167],[-1.73386,48.064281111],[-1.73387,48.064354722],[-1.733923889,48.064398889],[-1.733989444,48.064366389],[-1.733963333,48.064343611],[-1.733916944,48.064367778]]]}},{"type":"Feature","id":"LFRN-6c535a8d50a44a7ff4e4","properties":{"airport":"LFRN","name":"1","layer":"Labels","category":"Gates","object_type":"Label","style_id":"label.gates","source_group":"LFRN Gates","vsmr_group_ids":[],"geometry_role":"text_label","text-field":"1"},"geometry":{"type":"Point","coordinates":[-1.722141111,48.072518889]}},{"type":"Feature","id":"LFRN-e5830bb6f85a727fe3ae","properties":{"airport":"LFRN","name":"2","layer":"Labels","category":"Gates","object_type":"Label","style_id":"label.gates","source_group":"LFRN Gates","vsmr_group_ids":[],"geometry_role":"text_label","text-field":"2"},"geometry":{"type":"Point","coordinates":[-1.723287222,48.072606111]}},{"type":"Feature","id":"LFRN-eef15d3410ecadda2d7a","properties":{"airport":"LFRN","name":"3","layer":"Labels","category":"Gates","object_type":"Label","style_id":"label.gates","source_group":"LFRN Gates","vsmr_group_ids":[],"geometry_role":"text_label","text-field":"3"},"geometry":{"type":"Point","coordinates":[-1.723988333,48.072761389]}},{"type":"Feature","id":"LFRN-d9b0e95dbcb835b62eaa","properties":{"airport":"LFRN","name":"4","layer":"Labels","category":"Gates","object_type":"Label","style_id":"label.gates","source_group":"LFRN Gates","vsmr_group_ids":[],"geometry_role":"text_label","text-field":"4"},"geometry":{"type":"Point","coordinates":[-1.725087222,48.072848333]}},{"type":"Feature","id":"LFRN-a90bcd0b7b32e4689660","properties":{"airport":"LFRN","name":"H","layer":"Labels","category":"Gates","object_type":"Label","style_id":"label.gates","source_group":"LFRN Gates","vsmr_group_ids":[],"geometry_role":"text_label","text-field":"H"},"geometry":{"type":"Point","coordinates":[-1.7225875,48.068913611]}},{"type":"Feature","id":"LFRN-16618f96f2a291513b29","properties":{"airport":"LFRN","name":"C6","layer":"Labels","category":"Gates","object_type":"Label","style_id":"label.gates","source_group":"LFRN Gates","vsmr_group_ids":[],"geometry_role":"text_label","text-field":"C6"},"geometry":{"type":"Point","coordinates":[-1.722848056,48.068952222]}},{"type":"Feature","id":"LFRN-5831abd3fcb03cad5dd3","properties":{"airport":"LFRN","name":"C5","layer":"Labels","category":"Gates","object_type":"Label","style_id":"label.gates","source_group":"LFRN Gates","vsmr_group_ids":[],"geometry_role":"text_label","text-field":"C5"},"geometry":{"type":"Point","coordinates":[-1.723653333,48.06903]}},{"type":"Feature","id":"LFRN-aff4f977626e34376e5f","properties":{"airport":"LFRN","name":"C4","layer":"Labels","category":"Gates","object_type":"Label","style_id":"label.gates","source_group":"LFRN Gates","vsmr_group_ids":[],"geometry_role":"text_label","text-field":"C4"},"geometry":{"type":"Point","coordinates":[-1.724423056,48.069123333]}},{"type":"Feature","id":"LFRN-043b2dea36adcd18d6f7","properties":{"airport":"LFRN","name":"C3","layer":"Labels","category":"Gates","object_type":"Label","style_id":"label.gates","source_group":"LFRN Gates","vsmr_group_ids":[],"geometry_role":"text_label","text-field":"C3"},"geometry":{"type":"Point","coordinates":[-1.72524,48.069208611]}},{"type":"Feature","id":"LFRN-bc7fa8c4dbd9b84bb79e","properties":{"airport":"LFRN","name":"C2","layer":"Labels","category":"Gates","object_type":"Label","style_id":"label.gates","source_group":"LFRN Gates","vsmr_group_ids":[],"geometry_role":"text_label","text-field":"C2"},"geometry":{"type":"Point","coordinates":[-1.726056944,48.069325278]}},{"type":"Feature","id":"LFRN-5217946d8fe20edc53c1","properties":{"airport":"LFRN","name":"C1","layer":"Labels","category":"Gates","object_type":"Label","style_id":"label.gates","source_group":"LFRN Gates","vsmr_group_ids":[],"geometry_role":"text_label","text-field":"C1"},"geometry":{"type":"Point","coordinates":[-1.726850556,48.069433889]}},{"type":"Feature","id":"LFRN-1237f2399c5d778bb01e","properties":{"airport":"LFRN","name":"B1","layer":"Labels","category":"Gates","object_type":"Label","style_id":"label.gates","source_group":"LFRN Gates","vsmr_group_ids":[],"geometry_role":"text_label","text-field":"B1"},"geometry":{"type":"Point","coordinates":[-1.72897,48.069651389]}},{"type":"Feature","id":"LFRN-b3fba53d933650ed329e","properties":{"airport":"LFRN","name":"B2","layer":"Labels","category":"Gates","object_type":"Label","style_id":"label.gates","source_group":"LFRN Gates","vsmr_group_ids":[],"geometry_role":"text_label","text-field":"B2"},"geometry":{"type":"Point","coordinates":[-1.729112222,48.0691775]}},{"type":"Feature","id":"LFRN-888642d33ff473272af1","properties":{"airport":"LFRN","name":"B3","layer":"Labels","category":"Gates","object_type":"Label","style_id":"label.gates","source_group":"LFRN Gates","vsmr_group_ids":[],"geometry_role":"text_label","text-field":"B3"},"geometry":{"type":"Point","coordinates":[-1.72794,48.069527222]}},{"type":"Feature","id":"LFRN-27a3fec4f2ecdebfff50","properties":{"airport":"LFRN","name":"B4","layer":"Labels","category":"Gates","object_type":"Label","style_id":"label.gates","source_group":"LFRN Gates","vsmr_group_ids":[],"geometry_role":"text_label","text-field":"B4"},"geometry":{"type":"Point","coordinates":[-1.728093889,48.069045556]}},{"type":"Feature","id":"LFRN-d641d560fc1590d16ea1","properties":{"airport":"LFRN","name":"A1","layer":"Labels","category":"Gates","object_type":"Label","style_id":"label.gates","source_group":"LFRN Gates","vsmr_group_ids":[],"geometry_role":"text_label","text-field":"A1"},"geometry":{"type":"Point","coordinates":[-1.729880833,48.069828333]}},{"type":"Feature","id":"LFRN-bf6eb5cbf8843adbcd9b","properties":{"airport":"LFRN","name":"A2","layer":"Labels","category":"Gates","object_type":"Label","style_id":"label.gates","source_group":"LFRN Gates","vsmr_group_ids":[],"geometry_role":"text_label","text-field":"A2"},"geometry":{"type":"Point","coordinates":[-1.729899722,48.069666944]}},{"type":"Feature","id":"LFRN-a96b6b983c83548c8b30","properties":{"airport":"LFRN","name":"A3","layer":"Labels","category":"Gates","object_type":"Label","style_id":"label.gates","source_group":"LFRN Gates","vsmr_group_ids":[],"geometry_role":"text_label","text-field":"A3"},"geometry":{"type":"Point","coordinates":[-1.729985,48.069399722]}},{"type":"Feature","id":"LFRN-bd2e10f7680fb4fc8a3c","properties":{"airport":"LFRN","name":"A4","layer":"Labels","category":"Gates","object_type":"Label","style_id":"label.gates","source_group":"LFRN Gates","vsmr_group_ids":[],"geometry_role":"text_label","text-field":"A4"},"geometry":{"type":"Point","coordinates":[-1.730032222,48.069225833]}},{"type":"Feature","id":"LFRN-54592cf7ae1401625158","properties":{"airport":"LFRN","name":"P. Aviation Générale","layer":"Labels","category":"Gates","object_type":"Label","style_id":"label.gates","source_group":"LFRN Gates","vsmr_group_ids":[],"geometry_role":"text_label","text-field":"P. Aviation Générale"},"geometry":{"type":"Point","coordinates":[-1.728875278,48.067639444]}},{"type":"Feature","id":"LFRN-2ea1c7cc4709f9a9a935","properties":{"airport":"LFRN","name":"P. MIL","layer":"Labels","category":"Gates","object_type":"Label","style_id":"label.gates","source_group":"LFRN Gates","vsmr_group_ids":[],"geometry_role":"text_label","text-field":"P. MIL"},"geometry":{"type":"Point","coordinates":[-1.730673333,48.065738056]}},{"type":"Feature","id":"LFRN-5605b93706165104106e","properties":{"airport":"LFRN","name":"P. Sud","layer":"Labels","category":"Gates","object_type":"Label","style_id":"label.gates","source_group":"LFRN Gates","vsmr_group_ids":[],"geometry_role":"text_label","text-field":"P. Sud"},"geometry":{"type":"Point","coordinates":[-1.734603333,48.062271389]}},{"type":"Feature","id":"LFRN-cccaf5651bed44e850f3","properties":{"airport":"LFRN","name":"LFRN Groundlayout AVISO","layer":"Guidance lines","category":"Taxiways","object_type":"Line","style_id":"line.taxiway.c0b631","source_group":"LFRN Groundlayout AVISO","vsmr_group_ids":[],"geometry_role":"linework"},"geometry":{"type":"MultiLineString","coordinates":[[[-1.721564444,48.0729325],[-1.722920556,48.0723025]],[[-1.723202222,48.072665278],[-1.722410278,48.073034444]],[[-1.723282222,48.073154167],[-1.723895833,48.072870278]],[[-1.724334444,48.073278333],[-1.725065278,48.072935833]],[[-1.722786111,48.068272778],[-1.722640833,48.068798333]],[[-1.723623889,48.068376944],[-1.722943611,48.068835]],[[-1.724438333,48.068473056],[-1.723723611,48.068961667]],[[-1.72524,48.068573333],[-1.724528889,48.069054722]],[[-1.726043889,48.068670278],[-1.725336944,48.0691525]],[[-1.726836111,48.068776667],[-1.726118333,48.069263611]],[[-1.7276325,48.068881111],[-1.726917222,48.069366944]],[[-1.727724444,48.069078611],[-1.728473611,48.069173056]],[[-1.727628056,48.069406111],[-1.728404444,48.069503333]],[[-1.728693056,48.069198056],[-1.729441111,48.069293611]],[[-1.728598056,48.069530833],[-1.729350556,48.069620278]],[[-1.729543333,48.069738056],[-1.730286667,48.069825556]],[[-1.729587222,48.069570556],[-1.730343333,48.069663889]],[[-1.729638333,48.069402222],[-1.730384444,48.069495556]],[[-1.729678056,48.06924],[-1.730423889,48.069331389]]]}},{"type":"Feature","id":"LFRN-ec1ed1e00fb278acfba4","properties":{"airport":"LFRN","name":"LFRN Groundlayout AVISO","layer":"Guidance lines","category":"Runway Border","object_type":"Line","style_id":"line.runwayborder.808080","source_group":"LFRN Groundlayout AVISO","vsmr_group_ids":[],"geometry_role":"linework"},"geometry":{"type":"MultiLineString","coordinates":[[[-1.745083889,48.073765],[-1.745194722,48.073368611]],[[-1.745464444,48.073624722],[-1.745336944,48.073591944],[-1.745473333,48.073593333]],[[-1.745733611,48.0736425],[-1.745466944,48.073608611]]]}},{"type":"Feature","id":"LFRN-822ea158869cd2b794fa","properties":{"airport":"LFRN","name":"A","layer":"Labels","category":"Taxiways","object_type":"Label","style_id":"label.taxiways","source_group":"LFRN Taxiways","vsmr_group_ids":[],"geometry_role":"text_label","text-field":"A"},"geometry":{"type":"Point","coordinates":[-1.721312222,48.069708889]}},{"type":"Feature","id":"LFRN-70c0c8f91f44f1cbc549","properties":{"airport":"LFRN","name":"B","layer":"Labels","category":"Taxiways","object_type":"Label","style_id":"label.taxiways","source_group":"LFRN Taxiways","vsmr_group_ids":[],"geometry_role":"text_label","text-field":"B"},"geometry":{"type":"Point","coordinates":[-1.724182778,48.070146667]}},{"type":"Feature","id":"LFRN-85644d45ef716adc4807","properties":{"airport":"LFRN","name":"C","layer":"Labels","category":"Taxiways","object_type":"Label","style_id":"label.taxiways","source_group":"LFRN Taxiways","vsmr_group_ids":[],"geometry_role":"text_label","text-field":"C"},"geometry":{"type":"Point","coordinates":[-1.730903333,48.070876389]}},{"type":"Feature","id":"LFRN-4c2507ece51f210e6445","properties":{"airport":"LFRN","name":"D","layer":"Labels","category":"Taxiways","object_type":"Label","style_id":"label.taxiways","source_group":"LFRN Taxiways","vsmr_group_ids":[],"geometry_role":"text_label","text-field":"D"},"geometry":{"type":"Point","coordinates":[-1.7357325,48.071766944]}},{"type":"Feature","id":"LFRN-30e051a51aca22fe5dd5","properties":{"airport":"LFRN","name":"F","layer":"Labels","category":"Taxiways","object_type":"Label","style_id":"label.taxiways","source_group":"LFRN Taxiways","vsmr_group_ids":[],"geometry_role":"text_label","text-field":"F"},"geometry":{"type":"Point","coordinates":[-1.723470833,48.071708611]}},{"type":"Feature","id":"LFRN-c26f41d155dbb80335cc","properties":{"airport":"LFRN","name":"G","layer":"Labels","category":"Taxiways","object_type":"Label","style_id":"label.taxiways","source_group":"LFRN Taxiways","vsmr_group_ids":[],"geometry_role":"text_label","text-field":"G"},"geometry":{"type":"Point","coordinates":[-1.731103611,48.068351389]}},{"type":"Feature","id":"LFRN-adba43ad910929dfa864","properties":{"airport":"LFRN","name":"G","layer":"Labels","category":"Taxiways","object_type":"Label","style_id":"label.taxiways","source_group":"LFRN Taxiways","vsmr_group_ids":[],"geometry_role":"text_label","text-field":"G"},"geometry":{"type":"Point","coordinates":[-1.732416667,48.066585]}},{"type":"Feature","id":"LFRN-ecdee61d317a430fffd2","properties":{"airport":"LFRN","name":"G","layer":"Labels","category":"Taxiways","object_type":"Label","style_id":"label.taxiways","source_group":"LFRN Taxiways","vsmr_group_ids":[],"geometry_role":"text_label","text-field":"G"},"geometry":{"type":"Point","coordinates":[-1.733662778,48.065709167]}},{"type":"Feature","id":"LFRN-db05cb9689833238cf31","properties":{"airport":"LFRN","name":"H","layer":"Labels","category":"Taxiways","object_type":"Label","style_id":"label.taxiways","source_group":"LFRN Taxiways","vsmr_group_ids":[],"geometry_role":"text_label","text-field":"H"},"geometry":{"type":"Point","coordinates":[-1.732461111,48.065315]}},{"type":"Feature","id":"LFRN-6458b10e43c5a71d5000","properties":{"airport":"LFRN","name":"H","layer":"Labels","category":"Taxiways","object_type":"Label","style_id":"label.taxiways","source_group":"LFRN Taxiways","vsmr_group_ids":[],"geometry_role":"text_label","text-field":"H"},"geometry":{"type":"Point","coordinates":[-1.731945833,48.062592778]}},{"type":"Feature","id":"LFRN-7fec00960733959ad7ef","properties":{"airport":"LFRN","name":"H","layer":"Labels","category":"Taxiways","object_type":"Label","style_id":"label.taxiways","source_group":"LFRN Taxiways","vsmr_group_ids":[],"geometry_role":"text_label","text-field":"H"},"geometry":{"type":"Point","coordinates":[-1.731146111,48.063984167]}},{"type":"Feature","id":"LFRN-14c46563bf4b2eff9344","properties":{"airport":"LFRN","name":"J","layer":"Labels","category":"Taxiways","object_type":"Label","style_id":"label.taxiways","source_group":"LFRN Taxiways","vsmr_group_ids":[],"geometry_role":"text_label","text-field":"J"},"geometry":{"type":"Point","coordinates":[-1.734797222,48.063528056]}},{"type":"Feature","id":"LFRN-9381ade102de93567b67","properties":{"airport":"LFRN","name":"X","layer":"Labels","category":"Taxiways","object_type":"Label","style_id":"label.taxiways","source_group":"LFRN Taxiways","vsmr_group_ids":[],"geometry_role":"text_label","text-field":"X"},"geometry":{"type":"Point","coordinates":[-1.7408125,48.070712222]}},{"type":"Feature","id":"LFRN-f4ed3b767cd085ce981d","properties":{"airport":"LFRN","name":"X","layer":"Labels","category":"Taxiways","object_type":"Label","style_id":"label.taxiways","source_group":"LFRN Taxiways","vsmr_group_ids":[],"geometry_role":"text_label","text-field":"X"},"geometry":{"type":"Point","coordinates":[-1.741646944,48.071419444]}},{"type":"Feature","id":"LFRN-aa9f85e2080ae7b5b4e3","properties":{"airport":"LFRN","name":"X","layer":"Labels","category":"Taxiways","object_type":"Label","style_id":"label.taxiways","source_group":"LFRN Taxiways","vsmr_group_ids":[],"geometry_role":"text_label","text-field":"X"},"geometry":{"type":"Point","coordinates":[-1.742759722,48.072354444]}}]}
