{"type":"FeatureCollection","name":"LFRO AVISO","bbox":[-3.482805833,48.750643333,-3.461823889,48.757784167],"metadata":{"schema":"vSMR AVISO","schema_version":2,"geometry_mode":"shared","airport":"LFRO","coordinate_reference_system":"WGS84","coordinate_order":"longitude, latitude","default_color_palette":"dark","color_palettes":["dark","light"],"background_colors":{"dark":"#434A4F","light":"#434A4F"},"runways":[{"ends":["11","29"],"headings":[109,289],"thresholds":[[-3.479752778,48.755996944],[-3.463699722,48.752635833]]}],"saved_active_runways":[],"saved_active_airport_modes":[],"airport_reference":[-3.471943889,48.754443889],"feature_count":24,"style_count":9,"layer_counts":{"Guidance lines":7,"Labels":17},"category_counts":{"Apron Surface":1,"Centerlines":1,"Gates":15,"Labels":1,"Runways":1,"Stopbars":1,"TWR-CTR":1,"Taxiways":3},"geometry_source":"local GNG/KMZ","geometry_source_url":"","geometry_license":"GPL-3.0"},"styles":{"line.runwayconcrete.555555":{"name":"Runways","layer":"Guidance lines","object_type":"Line","paint":{"stroke":"#111318","stroke-opacity":1,"stroke-width":1,"palette-overrides":{"light":{"stroke":"#555555"}}},"feature_count":1},"line.taxiway.c0b631":{"name":"Taxiways","layer":"Guidance lines","object_type":"Line","paint":{"stroke":"#4E5A69","stroke-opacity":1,"stroke-width":1,"palette-overrides":{"light":{"stroke":"#C0B631"}}},"feature_count":1},"line.apronsurface.808080":{"name":"Apron Surface","layer":"Guidance lines","object_type":"Line","paint":{"stroke":"#808080","stroke-opacity":1,"stroke-width":1,"palette-overrides":{"light":{"stroke":"#808080"}}},"feature_count":1},"line.stopbar.7e0000":{"name":"Stopbars","layer":"Guidance lines","object_type":"Line","paint":{"stroke":"#7E0000","stroke-opacity":1,"stroke-width":1,"palette-overrides":{"light":{"stroke":"#7E0000"}}},"feature_count":1},"line.centerlines.ffff00":{"name":"Centerlines","layer":"Guidance lines","object_type":"Line","paint":{"stroke":"#FFFF00","stroke-opacity":1,"stroke-width":1,"palette-overrides":{"light":{"stroke":"#FFFF00"}}},"feature_count":1},"line.twr-ctr.000000":{"name":"TWR-CTR","layer":"Guidance lines","object_type":"Line","paint":{"stroke":"#000000","stroke-opacity":1,"stroke-width":1,"palette-overrides":{"light":{"stroke":"#000000"}}},"feature_count":1},"line.labels.808080":{"name":"Labels","layer":"Guidance lines","object_type":"Line","paint":{"stroke":"#808080","stroke-opacity":1,"stroke-width":1,"palette-overrides":{"light":{"stroke":"#808080"}}},"feature_count":1},"label.gates":{"name":"Gates","layer":"Labels","object_type":"Label","paint":{"text-color":"#CCCCCC","text-font":"Arial","text-size":12,"text-halo-color":"#000000","text-halo-width":1,"text-anchor":"center","zoomLevel":9},"feature_count":15},"label.taxiways":{"name":"Taxiways","layer":"Labels","object_type":"Label","paint":{"text-color":"#CCCCCC","text-font":"Arial","text-size":12,"text-halo-color":"#000000","text-halo-width":1,"text-anchor":"center","zoomLevel":7},"feature_count":2}},"vsmr_groups":[],"features":[{"type":"Feature","id":"LFRO-a545b86148fdfb47ecd1","properties":{"airport":"LFRO","name":"TWR","layer":"Labels","category":"Gates","object_type":"Label","style_id":"label.gates","source_group":"LFRO Gates","vsmr_group_ids":[],"geometry_role":"text_label","text-field":"TWR"},"geometry":{"type":"Point","coordinates":[-3.470862222,48.756937222]}},{"type":"Feature","id":"LFRO-98b09f56f06b6be5f15a","properties":{"airport":"LFRO","name":"Terminal","layer":"Labels","category":"Gates","object_type":"Label","style_id":"label.gates","source_group":"LFRO Gates","vsmr_group_ids":[],"geometry_role":"text_label","text-field":"Terminal"},"geometry":{"type":"Point","coordinates":[-3.470936667,48.756509722]}},{"type":"Feature","id":"LFRO-df0e54d86c03680968e1","properties":{"airport":"LFRO","name":"ACB","layer":"Labels","category":"Gates","object_type":"Label","style_id":"label.gates","source_group":"LFRO Gates","vsmr_group_ids":[],"geometry_role":"text_label","text-field":"ACB"},"geometry":{"type":"Point","coordinates":[-3.463164167,48.750643333]}},{"type":"Feature","id":"LFRO-258478a5612518c5db9c","properties":{"airport":"LFRO","name":"Hangars","layer":"Labels","category":"Gates","object_type":"Label","style_id":"label.gates","source_group":"LFRO Gates","vsmr_group_ids":[],"geometry_role":"text_label","text-field":"Hangars"},"geometry":{"type":"Point","coordinates":[-3.471992222,48.757784167]}},{"type":"Feature","id":"LFRO-33b785180a36b2f0f8d4","properties":{"airport":"LFRO","name":"1","layer":"Labels","category":"Gates","object_type":"Label","style_id":"label.gates","source_group":"LFRO Gates","vsmr_group_ids":[],"geometry_role":"text_label","text-field":"1"},"geometry":{"type":"Point","coordinates":[-3.4716,48.756667778]}},{"type":"Feature","id":"LFRO-549696fb4bc513ce7ff6","properties":{"airport":"LFRO","name":"L1","layer":"Labels","category":"Gates","object_type":"Label","style_id":"label.gates","source_group":"LFRO Gates","vsmr_group_ids":[],"geometry_role":"text_label","text-field":"L1"},"geometry":{"type":"Point","coordinates":[-3.4704775,48.756518889]}},{"type":"Feature","id":"LFRO-71fdb94b02bdff1c6d8f","properties":{"airport":"LFRO","name":"L2","layer":"Labels","category":"Gates","object_type":"Label","style_id":"label.gates","source_group":"LFRO Gates","vsmr_group_ids":[],"geometry_role":"text_label","text-field":"L2"},"geometry":{"type":"Point","coordinates":[-3.470276944,48.756476667]}},{"type":"Feature","id":"LFRO-2852e80f47039056ad34","properties":{"airport":"LFRO","name":"L3","layer":"Labels","category":"Gates","object_type":"Label","style_id":"label.gates","source_group":"LFRO Gates","vsmr_group_ids":[],"geometry_role":"text_label","text-field":"L3"},"geometry":{"type":"Point","coordinates":[-3.470080833,48.756439444]}},{"type":"Feature","id":"LFRO-37dc8c8da38c666c92fa","properties":{"airport":"LFRO","name":"L4","layer":"Labels","category":"Gates","object_type":"Label","style_id":"label.gates","source_group":"LFRO Gates","vsmr_group_ids":[],"geometry_role":"text_label","text-field":"L4"},"geometry":{"type":"Point","coordinates":[-3.47014,48.7562575]}},{"type":"Feature","id":"LFRO-2f304cee8d41a5b77fb3","properties":{"airport":"LFRO","name":"L5","layer":"Labels","category":"Gates","object_type":"Label","style_id":"label.gates","source_group":"LFRO Gates","vsmr_group_ids":[],"geometry_role":"text_label","text-field":"L5"},"geometry":{"type":"Point","coordinates":[-3.470191944,48.756134444]}},{"type":"Feature","id":"LFRO-0918f9b33a8959f5ac79","properties":{"airport":"LFRO","name":"L6","layer":"Labels","category":"Gates","object_type":"Label","style_id":"label.gates","source_group":"LFRO Gates","vsmr_group_ids":[],"geometry_role":"text_label","text-field":"L6"},"geometry":{"type":"Point","coordinates":[-3.470273889,48.755949167]}},{"type":"Feature","id":"LFRO-b3148a7b6b1d1570406f","properties":{"airport":"LFRO","name":"2A","layer":"Labels","category":"Gates","object_type":"Label","style_id":"label.gates","source_group":"LFRO Gates","vsmr_group_ids":[],"geometry_role":"text_label","text-field":"2A"},"geometry":{"type":"Point","coordinates":[-3.470543056,48.756352778]}},{"type":"Feature","id":"LFRO-76367671520275e9567e","properties":{"airport":"LFRO","name":"2B","layer":"Labels","category":"Gates","object_type":"Label","style_id":"label.gates","source_group":"LFRO Gates","vsmr_group_ids":[],"geometry_role":"text_label","text-field":"2B"},"geometry":{"type":"Point","coordinates":[-3.470371111,48.75639]}},{"type":"Feature","id":"LFRO-a90fb9caca060af49ba4","properties":{"airport":"LFRO","name":"2C","layer":"Labels","category":"Gates","object_type":"Label","style_id":"label.gates","source_group":"LFRO Gates","vsmr_group_ids":[],"geometry_role":"text_label","text-field":"2C"},"geometry":{"type":"Point","coordinates":[-3.470616111,48.756199444]}},{"type":"Feature","id":"LFRO-3b2e1f04ef66ad6bfeb7","properties":{"airport":"LFRO","name":"2B","layer":"Labels","category":"Gates","object_type":"Label","style_id":"label.gates","source_group":"LFRO Gates","vsmr_group_ids":[],"geometry_role":"text_label","text-field":"2B"},"geometry":{"type":"Point","coordinates":[-3.470661389,48.75599]}},{"type":"Feature","id":"LFRO-dd6c247594b70da0954e","properties":{"airport":"LFRO","name":"LFRO Groundlayout","layer":"Guidance lines","category":"Runways","object_type":"Line","style_id":"line.runwayconcrete.555555","source_group":"LFRO Groundlayout","vsmr_group_ids":[],"geometry_role":"linework"},"geometry":{"type":"MultiLineString","coordinates":[[[-3.461823889,48.752456389],[-3.4620025,48.752070556]],[[-3.4722,48.754632222],[-3.4826125,48.75681],[-3.482805833,48.756430833],[-3.4624675,48.752178611]]]}},{"type":"Feature","id":"LFRO-2ec8678bb98b4dd06c5e","properties":{"airport":"LFRO","name":"LFRO Groundlayout","layer":"Guidance lines","category":"Taxiways","object_type":"Line","style_id":"line.taxiway.c0b631","source_group":"LFRO Groundlayout","vsmr_group_ids":[],"geometry_role":"linework"},"geometry":{"type":"MultiLineString","coordinates":[[[-3.465280556,48.751755833],[-3.465291389,48.751784444],[-3.465291389,48.751802778],[-3.465285278,48.751821944],[-3.465272222,48.751836944],[-3.465252778,48.751851389],[-3.465226111,48.751866389],[-3.465198333,48.7518775],[-3.465173056,48.751885556],[-3.465140556,48.751893611],[-3.465109167,48.751895],[-3.463719722,48.751751111],[-3.464021111,48.751491667]],[[-3.472188611,48.754629167],[-3.472116944,48.754631389],[-3.472086389,48.754639167],[-3.472058611,48.754643889],[-3.472028889,48.754653056],[-3.472008056,48.754663333],[-3.471983611,48.754678333],[-3.471969722,48.754693333],[-3.471952222,48.754711667],[-3.471938333,48.754738056],[-3.471382778,48.755868056]],[[-3.471600556,48.754505833],[-3.471643056,48.754520556],[-3.471673889,48.754537778],[-3.471700833,48.7545525],[-3.471725833,48.754568889],[-3.471741111,48.754579722],[-3.471755278,48.754597778],[-3.471764722,48.754615556],[-3.471768333,48.754629722],[-3.471767222,48.754648333],[-3.471763611,48.754669444],[-3.471756389,48.754688889],[-3.471745833,48.754709167],[-3.471188333,48.755841111]],[[-3.462474167,48.752176389],[-3.462426389,48.752159722],[-3.462395833,48.7521375],[-3.462370833,48.752114167],[-3.462351389,48.752091667],[-3.462349444,48.752063611],[-3.462345833,48.752036667],[-3.462361944,48.752010833],[-3.462381667,48.751983889],[-3.462411667,48.751954444],[-3.462461667,48.751920556],[-3.462507778,48.751895833],[-3.462568333,48.751867778],[-3.4626325,48.751843056],[-3.462838611,48.751786944],[-3.462922222,48.751793889],[-3.463000556,48.751802222],[-3.466379167,48.752152222],[-3.466489444,48.751931389]],[[-3.462005833,48.752069167],[-3.462053333,48.751986667],[-3.462093889,48.751948611],[-3.462127778,48.751915278],[-3.462191944,48.751881667],[-3.462483056,48.751736667],[-3.462560833,48.751685278],[-3.462611667,48.751676389],[-3.462648889,48.7516475],[-3.462696389,48.751629722],[-3.462740278,48.751613889],[-3.462797778,48.751589444],[-3.462851944,48.751560556],[-3.462899444,48.751518056],[-3.46293,48.751484722],[-3.462973889,48.751223611]],[[-3.463881389,48.751436389],[-3.4638,48.75152],[-3.463741389,48.7515725],[-3.463695833,48.751615],[-3.4636275,48.7516625],[-3.463582778,48.751683056],[-3.463507778,48.751705833],[-3.463458333,48.751715833],[-3.463399444,48.751715833],[-3.463061111,48.751679722],[-3.463109444,48.751225278]]]}},{"type":"Feature","id":"LFRO-330df649ac0cc01e1ee0","properties":{"airport":"LFRO","name":"LFRO Groundlayout","layer":"Guidance lines","category":"Apron Surface","object_type":"Line","style_id":"line.apronsurface.808080","source_group":"LFRO Groundlayout","vsmr_group_ids":[],"geometry_role":"linework"},"geometry":{"type":"MultiLineString","coordinates":[[[-3.4638825,48.751435833],[-3.463910556,48.751399167],[-3.463924444,48.751380556],[-3.463936389,48.7513625],[-3.463943889,48.751342222],[-3.463944722,48.751313056],[-3.463948889,48.751200833],[-3.463930833,48.751172222],[-3.463899444,48.751145],[-3.463869167,48.751118056],[-3.463789444,48.751072778],[-3.463729167,48.751047222],[-3.463619444,48.751009722],[-3.463503611,48.750970833],[-3.463407778,48.750937222],[-3.463299444,48.750908333],[-3.463271389,48.750903333],[-3.463243611,48.750905833],[-3.463206944,48.750915833],[-3.463167778,48.75093],[-3.463148611,48.750940833],[-3.463136111,48.7509575],[-3.463109167,48.751224722]],[[-3.471383333,48.755867222],[-3.471380556,48.755889444],[-3.4713825,48.755910556],[-3.471388611,48.755933611],[-3.471397778,48.755953333],[-3.471408611,48.75597],[-3.471423056,48.755987778],[-3.471437778,48.756000833],[-3.471456944,48.7560175],[-3.471473611,48.756031667],[-3.471495833,48.756042222],[-3.471528889,48.756052778],[-3.471854444,48.756118333],[-3.471947778,48.756139444],[-3.471977222,48.756149722],[-3.472026111,48.756163889],[-3.472071667,48.756185278],[-3.472113889,48.756207778],[-3.472160833,48.756234722],[-3.472193333,48.756256944],[-3.472228889,48.756285833],[-3.472263056,48.756314722],[-3.472293889,48.756342778],[-3.472319722,48.756370556],[-3.472344167,48.756397222],[-3.472371667,48.756434722],[-3.472395,48.756474444],[-3.472417222,48.756534444],[-3.472426944,48.756587778],[-3.472434167,48.756636389],[-3.472441667,48.756683056],[-3.472434167,48.756735],[-3.472433611,48.756759167],[-3.47247,48.756764722],[-3.472503611,48.756766389],[-3.472312778,48.757298333],[-3.472330556,48.757311944],[-3.472111389,48.757751111],[-3.471552778,48.757622778],[-3.471623056,48.757455],[-3.471873333,48.757508333],[-3.472030556,48.757197222],[-3.472038889,48.757176667],[-3.472016111,48.757157778],[-3.471987778,48.757138611],[-3.471955,48.757129444],[-3.471987778,48.757061944],[-3.472031667,48.757072778],[-3.472082778,48.756960833],[-3.471788889,48.756892778],[-3.471799444,48.756866667],[-3.471812778,48.756846389],[-3.471816667,48.756828056],[-3.471811389,48.756807778],[-3.471788889,48.756795556],[-3.471758333,48.756784167],[-3.471624167,48.756757778],[-3.471604167,48.756759722],[-3.471594722,48.7567675],[-3.471586944,48.756785],[-3.471565556,48.756835833],[-3.471523056,48.756826111],[-3.471529722,48.756801667],[-3.470994722,48.756678333],[-3.471083889,48.756495833],[-3.4706175,48.756393889],[-3.470524167,48.756554167],[-3.469980833,48.756444444],[-3.470269444,48.755869444],[-3.470529167,48.755923333],[-3.470652778,48.755951944],[-3.470754722,48.75597],[-3.470829167,48.755980833],[-3.470898056,48.755985556],[-3.470949167,48.755981944],[-3.470998056,48.755975833],[-3.471043611,48.755966389],[-3.471078056,48.755951944],[-3.471105278,48.755935278],[-3.471136389,48.755913611],[-3.471158056,48.755892222],[-3.471187778,48.755838611]],[[-3.46649,48.75193],[-3.466678889,48.751533056],[-3.4654925,48.751267222],[-3.465497778,48.751248611],[-3.463058333,48.75072],[-3.463023056,48.750751389],[-3.462840833,48.750731667],[-3.462663611,48.750719167],[-3.462569444,48.750734167],[-3.462512778,48.750751389],[-3.462516667,48.750798611],[-3.462705,48.750818611],[-3.462799444,48.750823611],[-3.462916111,48.750838611],[-3.462950278,48.750855833],[-3.462982222,48.750872778],[-3.463006389,48.750898056],[-3.462973611,48.751223611]],[[-3.465278611,48.751754167],[-3.465243889,48.751705278],[-3.465199444,48.751670833],[-3.4651375,48.751631667],[-3.464901944,48.751502778],[-3.464745833,48.751443889],[-3.464636944,48.751401389],[-3.464545278,48.751378333],[-3.464463333,48.751366944],[-3.464384167,48.751365278],[-3.464317222,48.751373611],[-3.464257778,48.751386667],[-3.464188333,48.751403056],[-3.464136389,48.751425833],[-3.464079167,48.751453611],[-3.46402,48.751491667]]]}},{"type":"Feature","id":"LFRO-a61478d9349eb9c27987","properties":{"airport":"LFRO","name":"LFRO Groundlayout","layer":"Guidance lines","category":"Stopbars","object_type":"Line","style_id":"line.stopbar.7e0000","source_group":"LFRO Groundlayout","vsmr_group_ids":[],"geometry_role":"linework"},"geometry":{"type":"MultiLineString","coordinates":[[[-3.463105278,48.751260278],[-3.462968056,48.751255556]],[[-3.471466944,48.755694444],[-3.471280556,48.755654444]],[[-3.472418056,48.756547778],[-3.472190556,48.756585556]],[[-3.466469167,48.75197],[-3.465292222,48.751799167]],[[-3.463928333,48.751570278],[-3.463805,48.751514722]]]}},{"type":"Feature","id":"LFRO-2e29a84c2db2f7d8882f","properties":{"airport":"LFRO","name":"LFRO Groundlayout","layer":"Guidance lines","category":"Centerlines","object_type":"Line","style_id":"line.centerlines.ffff00","source_group":"LFRO Groundlayout","vsmr_group_ids":[],"geometry_role":"linework"},"geometry":{"type":"MultiLineString","coordinates":[[[-3.470885,48.755986111],[-3.470863889,48.756030556],[-3.470851944,48.756018333],[-3.470537222,48.756189722]],[[-3.470488889,48.756463611],[-3.470418889,48.756506667]],[[-3.470511667,48.756480556],[-3.470470556,48.756450556]],[[-3.470286389,48.7564225],[-3.470215,48.756465556]],[[-3.470303333,48.756434444],[-3.470274444,48.7564125]],[[-3.470093333,48.756384722],[-3.4700375,48.756413611]],[[-3.470109722,48.756395556],[-3.470079722,48.756373056]],[[-3.470150833,48.756233056],[-3.470093611,48.756224722]],[[-3.470145278,48.756242778],[-3.470156111,48.756216667]],[[-3.470209444,48.756108056],[-3.470163056,48.756097222]],[[-3.470221667,48.756092778],[-3.470206667,48.756121667]],[[-3.470299444,48.755935833],[-3.470253056,48.755926389]],[[-3.470290556,48.755948611],[-3.470304722,48.755917222]],[[-3.471593333,48.756651944],[-3.471635833,48.756566667]],[[-3.470480278,48.756345278],[-3.470510556,48.756275278]],[[-3.470389722,48.756396944],[-3.470427222,48.756323056]],[[-3.470666667,48.755968611],[-3.4707325,48.756023611]]]}},{"type":"Feature","id":"LFRO-6a65585aea70240dfa35","properties":{"airport":"LFRO","name":"LFRO Groundlayout","layer":"Guidance lines","category":"TWR-CTR","object_type":"Line","style_id":"line.twr-ctr.000000","source_group":"LFRO Groundlayout","vsmr_group_ids":[],"geometry_role":"linework"},"geometry":{"type":"LineString","coordinates":[[-3.470838889,48.75686],[-3.470822778,48.756861667],[-3.470809444,48.756856389],[-3.4708,48.756846944],[-3.470799444,48.756836111],[-3.470806111,48.756828056],[-3.4708175,48.756822778],[-3.470832778,48.756820556],[-3.470845,48.756823611],[-3.470854167,48.756829722],[-3.470862222,48.75684],[-3.470856944,48.756850556],[-3.470838889,48.75686]]}},{"type":"Feature","id":"LFRO-4f3a7bc84bb25fe468f9","properties":{"airport":"LFRO","name":"LFRO Groundlayout","layer":"Guidance lines","category":"Labels","object_type":"Line","style_id":"line.labels.808080","source_group":"LFRO Groundlayout","vsmr_group_ids":[],"geometry_role":"linework"},"geometry":{"type":"MultiLineString","coordinates":[[[-3.479146944,48.755823056],[-3.4791375,48.755839167],[-3.478944444,48.755798889],[-3.478941389,48.755804167],[-3.478910833,48.755796944],[-3.478903333,48.755789722],[-3.478911944,48.755773611],[-3.479146944,48.755823056]],[[-3.464318056,48.752850556],[-3.464283611,48.752800833],[-3.464315,48.752805556],[-3.464337778,48.7528375],[-3.464376111,48.752845278],[-3.464395,48.752806944],[-3.464541944,48.752839722],[-3.464514444,48.752891389],[-3.464318056,48.752850556]],[[-3.46449,48.752845833],[-3.464480556,48.752866667],[-3.464420833,48.752853611],[-3.464429444,48.752833333],[-3.46449,48.752845833]],[[-3.464473611,48.752786389],[-3.464402222,48.752729444],[-3.464380833,48.752725278],[-3.464363611,48.752761389],[-3.464321111,48.752751667],[-3.464345556,48.752699444],[-3.464415556,48.752712778],[-3.464488333,48.752769722],[-3.464522222,48.752776389],[-3.464531667,48.752756944],[-3.464512778,48.752751667],[-3.464518333,48.752735],[-3.464584167,48.75275],[-3.464558333,48.752803333],[-3.464473611,48.752786389]],[[-3.479108333,48.755901389],[-3.479100556,48.755918333],[-3.478906944,48.7558775],[-3.478905,48.755882778],[-3.478871944,48.755876667],[-3.478866389,48.755868333],[-3.478874722,48.755853056],[-3.479108333,48.755901389]]]}},{"type":"Feature","id":"LFRO-ddb30951454a993f9d4a","properties":{"airport":"LFRO","name":"N","layer":"Labels","category":"Taxiways","object_type":"Label","style_id":"label.taxiways","source_group":"LFRO Taxiways","vsmr_group_ids":[],"geometry_role":"text_label","text-field":"N"},"geometry":{"type":"Point","coordinates":[-3.471254722,48.755435556]}},{"type":"Feature","id":"LFRO-4a5cabfe857631104a55","properties":{"airport":"LFRO","name":"S","layer":"Labels","category":"Taxiways","object_type":"Label","style_id":"label.taxiways","source_group":"LFRO Taxiways","vsmr_group_ids":[],"geometry_role":"text_label","text-field":"S"},"geometry":{"type":"Point","coordinates":[-3.462763333,48.752019167]}}]}
