{"type":"FeatureCollection","name":"LFRQ AVISO","bbox":[-4.187322778,47.962664167,-4.151093056,47.977283611],"metadata":{"schema":"vSMR AVISO","schema_version":2,"geometry_mode":"shared","airport":"LFRQ","coordinate_reference_system":"WGS84","coordinate_order":"longitude, latitude","default_color_palette":"dark","color_palettes":["dark","light"],"background_colors":{"dark":"#434A4F","light":"#434A4F"},"runways":[{"ends":["09","27"],"headings":[94,274],"thresholds":[[-4.183935833,47.975605833],[-4.1566,47.974482778]]}],"saved_active_runways":[],"saved_active_airport_modes":[],"airport_reference":[-4.167777778,47.975],"feature_count":36,"style_count":11,"layer_counts":{"Airfield surfaces":5,"Buildings and structures":8,"Guidance lines":2,"Labels":19,"Terrain":2},"category_counts":{"Buildings":8,"Gates":9,"Grass":1,"Grass runways":1,"Hard Surface 1":2,"Hard Surface 2":1,"Runway Border":1,"Runways":1,"Taxiways":11,"Terrain 1":1},"geometry_source":"local GNG","geometry_source_url":"","geometry_license":"GPL-3.0"},"styles":{"polygon.grassurface.00512f":{"name":"Grass","layer":"Terrain","object_type":"Area","paint":{"fill":"#010D19","fill-opacity":1,"palette-overrides":{"light":{"fill":"#00512F"}}},"feature_count":1},"polygon.terrain1.574242":{"name":"Terrain 1","layer":"Terrain","object_type":"Area","paint":{"fill":"#574242","fill-opacity":1,"palette-overrides":{"light":{"fill":"#574242"}}},"feature_count":1},"polygon.hardsurface1.969393":{"name":"Hard Surface 1","layer":"Airfield surfaces","object_type":"Area","paint":{"fill":"#152841","fill-opacity":1,"palette-overrides":{"light":{"fill":"#969393"}}},"feature_count":2},"polygon.hardsurface2.595e5b":{"name":"Hard Surface 2","layer":"Airfield surfaces","object_type":"Area","paint":{"fill":"#2F3949","fill-opacity":1,"palette-overrides":{"light":{"fill":"#595E5B"}}},"feature_count":1},"polygon.runwaygrass.008000":{"name":"Grass runways","layer":"Airfield surfaces","object_type":"Area","paint":{"fill":"#859A77","fill-opacity":1,"palette-overrides":{"light":{"fill":"#008000"}}},"feature_count":1},"polygon.runwayconcrete.555555":{"name":"Runways","layer":"Airfield surfaces","object_type":"Area","paint":{"fill":"#111318","fill-opacity":1,"palette-overrides":{"light":{"fill":"#555555"}}},"feature_count":1},"polygon.building.394446":{"name":"Buildings","layer":"Buildings and structures","object_type":"Area","paint":{"fill":"#475570","fill-opacity":1,"palette-overrides":{"light":{"fill":"#394446"}}},"feature_count":8},"line.runwayborder.808080":{"name":"Runway Border","layer":"Guidance lines","object_type":"Line","paint":{"stroke":"#808080","stroke-opacity":1,"stroke-width":1,"palette-overrides":{"light":{"stroke":"#808080"}}},"feature_count":1},"line.taxiway.c0b631":{"name":"Taxiways","layer":"Guidance lines","object_type":"Line","paint":{"stroke":"#4E5A69","stroke-opacity":1,"stroke-width":1,"palette-overrides":{"light":{"stroke":"#C0B631"}}},"feature_count":1},"label.gates":{"name":"Gates","layer":"Labels","object_type":"Label","paint":{"text-color":"#CCCCCC","text-font":"Arial","text-size":12,"text-halo-color":"#000000","text-halo-width":1,"text-anchor":"center","zoomLevel":9},"feature_count":9},"label.taxiways":{"name":"Taxiways","layer":"Labels","object_type":"Label","paint":{"text-color":"#CCCCCC","text-font":"Arial","text-size":12,"text-halo-color":"#000000","text-halo-width":1,"text-anchor":"center","zoomLevel":7},"feature_count":10}},"vsmr_groups":[],"features":[{"type":"Feature","id":"LFRQ-198fd91110d124785800","properties":{"airport":"LFRQ","name":"LFRQ AVISO","layer":"Terrain","category":"Grass","object_type":"Area","style_id":"polygon.grassurface.00512f","source_group":"LFRQ AVISO","vsmr_group_ids":[],"geometry_role":"filled_region"},"geometry":{"type":"Polygon","coordinates":[[[-4.187000833,47.975525],[-4.186926389,47.9752225],[-4.1868525,47.975126667],[-4.186708333,47.975061389],[-4.186503889,47.975023056],[-4.183739444,47.974880556],[-4.183594167,47.974817778],[-4.183501389,47.974695278],[-4.183266667,47.974481111],[-4.182906111,47.974334722],[-4.182459167,47.974229167],[-4.1768975,47.97394],[-4.176560833,47.973786667],[-4.176312778,47.97356],[-4.176168611,47.973330278],[-4.175859167,47.972853611],[-4.17529,47.972167222],[-4.1742425,47.971328889],[-4.174236667,47.97124],[-4.175014167,47.970777222],[-4.175599167,47.9707575],[-4.1760625,47.970811944],[-4.176486944,47.970759722],[-4.176965,47.970589167],[-4.177904167,47.970343056],[-4.178867778,47.970143333],[-4.179861944,47.970024444],[-4.180365833,47.969675833],[-4.180722222,47.9692475],[-4.181073889,47.968626667],[-4.181065833,47.968157778],[-4.1785925,47.965962222],[-4.177833611,47.965471389],[-4.177068333,47.965019444],[-4.175996111,47.964472778],[-4.174496111,47.963724444],[-4.172997222,47.962941667],[-4.172670278,47.962712778],[-4.172461944,47.962664167],[-4.1721775,47.962781944],[-4.171243056,47.963910278],[-4.170031389,47.965151944],[-4.168155556,47.966597778],[-4.166190278,47.968016944],[-4.164084722,47.969145556],[-4.161600278,47.970208611],[-4.159438889,47.971085],[-4.157871111,47.971366667],[-4.155915833,47.971427778],[-4.154455556,47.971378889],[-4.1528325,47.971765278],[-4.151797222,47.972474722],[-4.151113056,47.973385556],[-4.151093056,47.973879722],[-4.151851389,47.974443889],[-4.15313,47.974826111],[-4.154143611,47.975243333],[-4.155065278,47.975636111],[-4.1591725,47.975873889],[-4.164643611,47.976137222],[-4.183569167,47.976993889],[-4.184675278,47.977127222],[-4.185663889,47.977105556],[-4.185790278,47.977278056],[-4.186626111,47.977283611],[-4.187091944,47.976453056],[-4.187270278,47.976084444],[-4.187322778,47.975541389],[-4.187000833,47.975525]]]}},{"type":"Feature","id":"LFRQ-e35b86f7221292489f41","properties":{"airport":"LFRQ","name":"LFRQ AVISO","layer":"Terrain","category":"Terrain 1","object_type":"Area","style_id":"polygon.terrain1.574242","source_group":"LFRQ AVISO","vsmr_group_ids":[],"geometry_role":"filled_region"},"geometry":{"type":"Polygon","coordinates":[[[-4.168591944,47.974748056],[-4.1685375,47.974703611],[-4.168516111,47.974655833],[-4.1685325,47.974611389],[-4.176348056,47.966414444],[-4.175853056,47.966193889],[-4.172745556,47.969453333],[-4.1727025,47.969485556],[-4.172646667,47.969504722],[-4.172584722,47.969520556],[-4.172536944,47.969520556],[-4.172479444,47.969513056],[-4.172500278,47.969722222],[-4.167957222,47.974483611],[-4.167891944,47.974542222],[-4.167744444,47.974625833],[-4.167666111,47.974663333],[-4.167574444,47.974688889],[-4.167485,47.974705556],[-4.16729,47.97474],[-4.168835278,47.9748425],[-4.168591944,47.974748056]]]}},{"type":"Feature","id":"LFRQ-24f6d2e36b52569e0d8b","properties":{"airport":"LFRQ","name":"LFRQ AVISO","layer":"Airfield surfaces","category":"Hard Surface 1","object_type":"Area","style_id":"polygon.hardsurface1.969393","source_group":"LFRQ AVISO","vsmr_group_ids":[],"geometry_role":"filled_region"},"geometry":{"type":"Polygon","coordinates":[[[-4.1732875,47.973766389],[-4.173360278,47.973696111],[-4.173466111,47.973631944],[-4.173603611,47.973604167],[-4.173808333,47.9736125],[-4.174311944,47.973458056],[-4.174483056,47.973294444],[-4.174735,47.973435],[-4.174647222,47.973460278],[-4.174676111,47.973506389],[-4.174460833,47.973576111],[-4.174648611,47.973850833],[-4.175263889,47.973675833],[-4.175105833,47.973427222],[-4.175029444,47.9734425],[-4.174980278,47.973366389],[-4.174808611,47.973408333],[-4.174595278,47.973281944],[-4.174954722,47.973166389],[-4.174985,47.973147222],[-4.175026111,47.973131944],[-4.175056389,47.973095833],[-4.175011944,47.973036944],[-4.174949722,47.973034167],[-4.174644722,47.972617778],[-4.1747125,47.972431667],[-4.174515833,47.972383889],[-4.1745025,47.972307222],[-4.174577778,47.972170833],[-4.174539722,47.972141389],[-4.174700833,47.971966944],[-4.173997778,47.971361389],[-4.1739175,47.971435833],[-4.173600278,47.971294722],[-4.173674444,47.971221111],[-4.173389444,47.971094167],[-4.173228333,47.971251389],[-4.173286944,47.971280278],[-4.173306944,47.971295833],[-4.173325,47.971328889],[-4.173364444,47.971379722],[-4.173373611,47.971393889],[-4.1733725,47.971403889],[-4.173235278,47.971473333],[-4.172808333,47.971281111],[-4.1727725,47.971172778],[-4.172773889,47.971153333],[-4.172844722,47.971079722],[-4.172920278,47.971109722],[-4.173071111,47.970952778],[-4.172919444,47.9708775],[-4.1726725,47.971131111],[-4.172631389,47.971198889],[-4.172377222,47.971092222],[-4.172294722,47.971049444],[-4.172238333,47.970991389],[-4.172180556,47.970914722],[-4.172166111,47.970834722],[-4.172177222,47.970781944],[-4.173132778,47.969768056],[-4.172139722,47.969373889],[-4.172100833,47.969348056],[-4.172073889,47.969321389],[-4.172056667,47.969293056],[-4.17205,47.969259722],[-4.172052778,47.969226389],[-4.172065,47.969203056],[-4.172155,47.969110833],[-4.171899167,47.968997222],[-4.171510833,47.969400556],[-4.1717725,47.969507778],[-4.171807222,47.96947],[-4.171844167,47.9694425],[-4.171898611,47.969420833],[-4.171955278,47.969409444],[-4.172019167,47.969409167],[-4.172069722,47.969420278],[-4.1724125,47.969564167],[-4.172456389,47.969596111],[-4.172479722,47.96963],[-4.172490556,47.969671667],[-4.172481667,47.969712222],[-4.172463889,47.969748889],[-4.172434167,47.969786389],[-4.171251944,47.971035833],[-4.171746944,47.971231944],[-4.171793333,47.971208889],[-4.1718425,47.971186389],[-4.171902222,47.971169444],[-4.1719775,47.971157778],[-4.172053056,47.971154167],[-4.17213,47.971163056],[-4.172208333,47.971179167],[-4.172510278,47.971310278],[-4.17298,47.971519444],[-4.173044722,47.971558333],[-4.173089722,47.971600278],[-4.173125556,47.971645],[-4.173151111,47.9717],[-4.173150833,47.971766944],[-4.173100556,47.972295278],[-4.172966667,47.972329444],[-4.172966667,47.972422222],[-4.173081389,47.972450833],[-4.172963056,47.973818889],[-4.173262222,47.973831944],[-4.1732875,47.973766389]]]}},{"type":"Feature","id":"LFRQ-69cff08ac993a33bf108","properties":{"airport":"LFRQ","name":"LFRQ AVISO","layer":"Airfield surfaces","category":"Hard Surface 1","object_type":"Area","style_id":"polygon.hardsurface1.969393","source_group":"LFRQ AVISO","vsmr_group_ids":[],"geometry_role":"filled_region"},"geometry":{"type":"Polygon","coordinates":[[[-4.175663056,47.974276944],[-4.1756775,47.974235833],[-4.175694722,47.974201111],[-4.175725278,47.974173056],[-4.175763056,47.974153333],[-4.175813333,47.974136944],[-4.175920556,47.974114722],[-4.175939167,47.974107778],[-4.175947222,47.974091389],[-4.175946111,47.974076944],[-4.175851667,47.973853889],[-4.175960278,47.973831667],[-4.175891944,47.973712778],[-4.175310833,47.973888889],[-4.175424167,47.974053056],[-4.175535556,47.974265],[-4.175511667,47.974439444],[-4.175638056,47.974447222],[-4.175663056,47.974276944]]]}},{"type":"Feature","id":"LFRQ-021009de3ee6933fd140","properties":{"airport":"LFRQ","name":"LFRQ AVISO","layer":"Airfield surfaces","category":"Hard Surface 2","object_type":"Area","style_id":"polygon.hardsurface2.595e5b","source_group":"LFRQ AVISO","vsmr_group_ids":[],"geometry_role":"filled_region"},"geometry":{"type":"Polygon","coordinates":[[[-4.174446944,47.972133333],[-4.173625,47.971485],[-4.17343,47.973653333],[-4.173465,47.973631944],[-4.173601111,47.973604444],[-4.173808056,47.973612778],[-4.174311667,47.973457778],[-4.174518333,47.973260278],[-4.174127778,47.972687778],[-4.17432,47.972558889],[-4.174291667,47.972292222],[-4.174446944,47.972133333]]]}},{"type":"Feature","id":"LFRQ-3aa1958e1ca9b6a90330","properties":{"airport":"LFRQ","name":"LFRQ AVISO","layer":"Airfield surfaces","category":"Grass runways","object_type":"Area","style_id":"polygon.runwaygrass.008000","source_group":"LFRQ AVISO","vsmr_group_ids":[],"geometry_role":"filled_region"},"geometry":{"type":"Polygon","coordinates":[[[-4.172789167,47.972340556],[-4.172463611,47.971774722],[-4.171957222,47.9719225],[-4.171836944,47.972029444],[-4.1719175,47.972571944],[-4.172967778,47.972422222],[-4.172968056,47.972329444],[-4.172789167,47.972340556]]]}},{"type":"Feature","id":"LFRQ-fa7b119098d47ed350a3","properties":{"airport":"LFRQ","name":"LFRQ AVISO","layer":"Airfield surfaces","category":"Runways","object_type":"Area","style_id":"polygon.runwayconcrete.555555","source_group":"LFRQ AVISO","vsmr_group_ids":[],"geometry_role":"filled_region"},"geometry":{"type":"Polygon","coordinates":[[[-4.185354167,47.975456667],[-4.185346944,47.975435278],[-4.185326389,47.975395833],[-4.185289167,47.975357222],[-4.1852475,47.975320278],[-4.185206667,47.975289722],[-4.185149722,47.975263333],[-4.185079722,47.975245278],[-4.185022778,47.9752375],[-4.184980833,47.975241389],[-4.184618056,47.975365556],[-4.184502222,47.975394167],[-4.184383056,47.975412778],[-4.184266111,47.975418611],[-4.175729444,47.975065556],[-4.175684722,47.975056389],[-4.1756475,47.975035278],[-4.175616944,47.974996389],[-4.1756025,47.974952222],[-4.175640278,47.974439167],[-4.175511389,47.974434722],[-4.175473889,47.974924444],[-4.175451944,47.974960833],[-4.175419167,47.974999722],[-4.175362222,47.975034167],[-4.175306111,47.975050833],[-4.173750833,47.974983333],[-4.173632222,47.974961667],[-4.173515,47.974928611],[-4.1734175,47.974873611],[-4.173333889,47.974816111],[-4.173255833,47.974735278],[-4.173215833,47.974663889],[-4.173196111,47.974598889],[-4.173194167,47.974538611],[-4.173269444,47.973815],[-4.172963611,47.973800556],[-4.172904444,47.974501111],[-4.172881111,47.974581667],[-4.172843056,47.974656667],[-4.172792778,47.974723333],[-4.172713889,47.974785833],[-4.172607222,47.974849722],[-4.172473333,47.974896667],[-4.172363889,47.974915833],[-4.172250556,47.974926111],[-4.156603889,47.974284722],[-4.156573889,47.974684444],[-4.156568889,47.974736389],[-4.156589167,47.974778889],[-4.156641111,47.974833889],[-4.1567125,47.97488],[-4.156812222,47.974908333],[-4.156917778,47.974918333],[-4.156981389,47.974902778],[-4.1574125,47.974760833],[-4.15763,47.974722778],[-4.183896944,47.975803056],[-4.186152222,47.975900278],[-4.186189722,47.9754925],[-4.185354167,47.975456667]]]}},{"type":"Feature","id":"LFRQ-3bec9855924c86644c7b","properties":{"airport":"LFRQ","name":"LFRQ AVISO","layer":"Buildings and structures","category":"Buildings","object_type":"Area","style_id":"polygon.building.394446","source_group":"LFRQ AVISO","vsmr_group_ids":[],"geometry_role":"filled_region"},"geometry":{"type":"Polygon","coordinates":[[[-4.175255,47.973709167],[-4.175336667,47.973834444],[-4.176011667,47.973636667],[-4.175918889,47.973506944],[-4.175255,47.973709167]]]}},{"type":"Feature","id":"LFRQ-f7d5704e32deb460d875","properties":{"airport":"LFRQ","name":"LFRQ AVISO","layer":"Buildings and structures","category":"Buildings","object_type":"Area","style_id":"polygon.building.394446","source_group":"LFRQ AVISO","vsmr_group_ids":[],"geometry_role":"filled_region"},"geometry":{"type":"Polygon","coordinates":[[[-4.175005278,47.973429167],[-4.175165278,47.973681667],[-4.175471667,47.973594167],[-4.175308333,47.973340278],[-4.175005278,47.973429167]]]}},{"type":"Feature","id":"LFRQ-d9a19189a042c43252ff","properties":{"airport":"LFRQ","name":"LFRQ AVISO","layer":"Buildings and structures","category":"Buildings","object_type":"Area","style_id":"polygon.building.394446","source_group":"LFRQ AVISO","vsmr_group_ids":[],"geometry_role":"filled_region"},"geometry":{"type":"Polygon","coordinates":[[[-4.174603889,47.972613056],[-4.174572222,47.972564722],[-4.1744075,47.972614167],[-4.174442222,47.972663333],[-4.174308611,47.972706111],[-4.174661111,47.973198056],[-4.17481,47.973154167],[-4.174788889,47.9731175],[-4.174979167,47.973060278],[-4.174663056,47.972597778],[-4.174603889,47.972613056]]]}},{"type":"Feature","id":"LFRQ-3a1b1df1dd91f71a13a2","properties":{"airport":"LFRQ","name":"LFRQ AVISO","layer":"Buildings and structures","category":"Buildings","object_type":"Area","style_id":"polygon.building.394446","source_group":"LFRQ AVISO","vsmr_group_ids":[],"geometry_role":"filled_region"},"geometry":{"type":"Polygon","coordinates":[[[-4.174511944,47.971695],[-4.174302222,47.971528611],[-4.174228611,47.971538056],[-4.174080278,47.9714125],[-4.173848889,47.971542222],[-4.173903889,47.971582778],[-4.173858611,47.971606389],[-4.174245833,47.971911667],[-4.174289444,47.971886111],[-4.174343056,47.971925278],[-4.174415,47.971886389],[-4.174619722,47.972042778],[-4.17477,47.971958889],[-4.174479722,47.971733333],[-4.174511944,47.971695]]]}},{"type":"Feature","id":"LFRQ-2a35d79be326b4c28958","properties":{"airport":"LFRQ","name":"LFRQ AVISO","layer":"Buildings and structures","category":"Buildings","object_type":"Area","style_id":"polygon.building.394446","source_group":"LFRQ AVISO","vsmr_group_ids":[],"geometry_role":"filled_region"},"geometry":{"type":"Polygon","coordinates":[[[-4.174432778,47.972269722],[-4.174458889,47.972276944],[-4.174419444,47.972319167],[-4.174531111,47.972369722],[-4.174630278,47.972264722],[-4.174503333,47.972207778],[-4.174432778,47.972269722]]]}},{"type":"Feature","id":"LFRQ-3f6dee2d6bd203143799","properties":{"airport":"LFRQ","name":"LFRQ AVISO","layer":"Buildings and structures","category":"Buildings","object_type":"Area","style_id":"polygon.building.394446","source_group":"LFRQ AVISO","vsmr_group_ids":[],"geometry_role":"filled_region"},"geometry":{"type":"Polygon","coordinates":[[[-4.172896389,47.971114444],[-4.173227778,47.971263056],[-4.173399722,47.971101111],[-4.173068889,47.970946944],[-4.172896389,47.971114444]]]}},{"type":"Feature","id":"LFRQ-daa9ece72a1f567d745b","properties":{"airport":"LFRQ","name":"LFRQ AVISO","layer":"Buildings and structures","category":"Buildings","object_type":"Area","style_id":"polygon.building.394446","source_group":"LFRQ AVISO","vsmr_group_ids":[],"geometry_role":"filled_region"},"geometry":{"type":"Polygon","coordinates":[[[-4.171407222,47.969093333],[-4.171708889,47.969214722],[-4.171904722,47.969001944],[-4.171627222,47.968885],[-4.171407222,47.969093333]]]}},{"type":"Feature","id":"LFRQ-899a73e1034157d3fb9f","properties":{"airport":"LFRQ","name":"LFRQ AVISO","layer":"Buildings and structures","category":"Buildings","object_type":"Area","style_id":"polygon.building.394446","source_group":"LFRQ AVISO","vsmr_group_ids":[],"geometry_role":"filled_region"},"geometry":{"type":"Polygon","coordinates":[[[-4.171424167,47.969155556],[-4.171305278,47.969278611],[-4.171536111,47.969378611],[-4.171660278,47.969253056],[-4.171424167,47.969155556]]]}},{"type":"Feature","id":"LFRQ-9c3d1267787a254e235a","properties":{"airport":"LFRQ","name":"H","layer":"Labels","category":"Gates","object_type":"Label","style_id":"label.gates","source_group":"LFRQ Gates","vsmr_group_ids":[],"geometry_role":"text_label","text-field":"H"},"geometry":{"type":"Point","coordinates":[-4.174824167,47.973628056]}},{"type":"Feature","id":"LFRQ-929fbe242b594893c51c","properties":{"airport":"LFRQ","name":"ACB","layer":"Labels","category":"Gates","object_type":"Label","style_id":"label.gates","source_group":"LFRQ Gates","vsmr_group_ids":[],"geometry_role":"text_label","text-field":"ACB"},"geometry":{"type":"Point","coordinates":[-4.175620833,47.973754722]}},{"type":"Feature","id":"LFRQ-2606a26927753cd30552","properties":{"airport":"LFRQ","name":"Terminal","layer":"Labels","category":"Gates","object_type":"Label","style_id":"label.gates","source_group":"LFRQ Gates","vsmr_group_ids":[],"geometry_role":"text_label","text-field":"Terminal"},"geometry":{"type":"Point","coordinates":[-4.174829167,47.972936667]}},{"type":"Feature","id":"LFRQ-32a0b61228ab33cd3c37","properties":{"airport":"LFRQ","name":"TWR","layer":"Labels","category":"Gates","object_type":"Label","style_id":"label.gates","source_group":"LFRQ Gates","vsmr_group_ids":[],"geometry_role":"text_label","text-field":"TWR"},"geometry":{"type":"Point","coordinates":[-4.174668333,47.972308889]}},{"type":"Feature","id":"LFRQ-01280a9e450177ef5e10","properties":{"airport":"LFRQ","name":"Hangars","layer":"Labels","category":"Gates","object_type":"Label","style_id":"label.gates","source_group":"LFRQ Gates","vsmr_group_ids":[],"geometry_role":"text_label","text-field":"Hangars"},"geometry":{"type":"Point","coordinates":[-4.171566111,47.969137222]}},{"type":"Feature","id":"LFRQ-43d3286fc0b84cea8075","properties":{"airport":"LFRQ","name":"Securite Civile","layer":"Labels","category":"Gates","object_type":"Label","style_id":"label.gates","source_group":"LFRQ Gates","vsmr_group_ids":[],"geometry_role":"text_label","text-field":"Securite Civile"},"geometry":{"type":"Point","coordinates":[-4.175361944,47.973493611]}},{"type":"Feature","id":"LFRQ-1a4dd6a83e58e6d3a4ce","properties":{"airport":"LFRQ","name":"Fuel","layer":"Labels","category":"Gates","object_type":"Label","style_id":"label.gates","source_group":"LFRQ Gates","vsmr_group_ids":[],"geometry_role":"text_label","text-field":"Fuel"},"geometry":{"type":"Point","coordinates":[-4.173542778,47.9712575]}},{"type":"Feature","id":"LFRQ-13a22852c3ec1972eeea","properties":{"airport":"LFRQ","name":"Fret","layer":"Labels","category":"Gates","object_type":"Label","style_id":"label.gates","source_group":"LFRQ Gates","vsmr_group_ids":[],"geometry_role":"text_label","text-field":"Fret"},"geometry":{"type":"Point","coordinates":[-4.173835556,47.971361389]}},{"type":"Feature","id":"LFRQ-d5548cc732d5c585c6de","properties":{"airport":"LFRQ","name":"Hangars","layer":"Labels","category":"Gates","object_type":"Label","style_id":"label.gates","source_group":"LFRQ Gates","vsmr_group_ids":[],"geometry_role":"text_label","text-field":"Hangars"},"geometry":{"type":"Point","coordinates":[-4.174231667,47.971376944]}},{"type":"Feature","id":"LFRQ-1dbd4129e6065947ea10","properties":{"airport":"LFRQ","name":"LFRQ Groundlayout AVISO","layer":"Guidance lines","category":"Runway Border","object_type":"Line","style_id":"line.runwayborder.808080","source_group":"LFRQ Groundlayout AVISO","vsmr_group_ids":[],"geometry_role":"linework"},"geometry":{"type":"MultiLineString","coordinates":[[[-4.183896944,47.975801667],[-4.183933056,47.975406389]],[[-4.18438,47.975638889],[-4.184249722,47.975618333],[-4.184382222,47.9756075]],[[-4.184651667,47.975634444],[-4.184381389,47.975622778]],[[-4.185181389,47.975671667],[-4.185051667,47.975650833],[-4.185185556,47.975640556]],[[-4.185315,47.975661111],[-4.185181389,47.975656111]]]}},{"type":"Feature","id":"LFRQ-cf80f3902cef3cbe3a37","properties":{"airport":"LFRQ","name":"LFRQ Groundlayout AVISO","layer":"Guidance lines","category":"Taxiways","object_type":"Line","style_id":"line.taxiway.c0b631","source_group":"LFRQ Groundlayout AVISO","vsmr_group_ids":[],"geometry_role":"linework"},"geometry":{"type":"MultiLineString","coordinates":[[[-4.185315,47.975863889],[-4.185352778,47.975456667]],[[-4.185431111,47.975528056],[-4.185340556,47.9755825]],[[-4.185403889,47.975800278],[-4.185326667,47.975741667]],[[-4.185805833,47.975815],[-4.185617778,47.975674167],[-4.185828889,47.975546944]],[[-4.186126389,47.975771111],[-4.186019167,47.975689722],[-4.186139167,47.975616944]]]}},{"type":"Feature","id":"LFRQ-23f2ffa760086464e2fd","properties":{"airport":"LFRQ","name":"C","layer":"Labels","category":"Taxiways","object_type":"Label","style_id":"label.taxiways","source_group":"LFRQ Taxiways","vsmr_group_ids":[],"geometry_role":"text_label","text-field":"C"},"geometry":{"type":"Point","coordinates":[-4.175916389,47.974495]}},{"type":"Feature","id":"LFRQ-d244db10f6ee30dc3196","properties":{"airport":"LFRQ","name":"B","layer":"Labels","category":"Taxiways","object_type":"Label","style_id":"label.taxiways","source_group":"LFRQ Taxiways","vsmr_group_ids":[],"geometry_role":"text_label","text-field":"B"},"geometry":{"type":"Point","coordinates":[-4.173520833,47.973923611]}},{"type":"Feature","id":"LFRQ-910755d153996480e808","properties":{"airport":"LFRQ","name":"E","layer":"Labels","category":"Taxiways","object_type":"Label","style_id":"label.taxiways","source_group":"LFRQ Taxiways","vsmr_group_ids":[],"geometry_role":"text_label","text-field":"E"},"geometry":{"type":"Point","coordinates":[-4.172404167,47.969405556]}},{"type":"Feature","id":"LFRQ-9f0066374959ebbc47d4","properties":{"airport":"LFRQ","name":"X","layer":"Labels","category":"Taxiways","object_type":"Label","style_id":"label.taxiways","source_group":"LFRQ Taxiways","vsmr_group_ids":[],"geometry_role":"text_label","text-field":"X"},"geometry":{"type":"Point","coordinates":[-4.168638889,47.974283611]}},{"type":"Feature","id":"LFRQ-754a2f535fb7377d5155","properties":{"airport":"LFRQ","name":"X","layer":"Labels","category":"Taxiways","object_type":"Label","style_id":"label.taxiways","source_group":"LFRQ Taxiways","vsmr_group_ids":[],"geometry_role":"text_label","text-field":"X"},"geometry":{"type":"Point","coordinates":[-4.169286667,47.973548056]}},{"type":"Feature","id":"LFRQ-c5337eed2c77b1b4877f","properties":{"airport":"LFRQ","name":"X","layer":"Labels","category":"Taxiways","object_type":"Label","style_id":"label.taxiways","source_group":"LFRQ Taxiways","vsmr_group_ids":[],"geometry_role":"text_label","text-field":"X"},"geometry":{"type":"Point","coordinates":[-4.169885833,47.972958611]}},{"type":"Feature","id":"LFRQ-b025ac393bb229d51693","properties":{"airport":"LFRQ","name":"X","layer":"Labels","category":"Taxiways","object_type":"Label","style_id":"label.taxiways","source_group":"LFRQ Taxiways","vsmr_group_ids":[],"geometry_role":"text_label","text-field":"X"},"geometry":{"type":"Point","coordinates":[-4.1711425,47.971633333]}},{"type":"Feature","id":"LFRQ-97f4ec09d3ef0e19d092","properties":{"airport":"LFRQ","name":"X","layer":"Labels","category":"Taxiways","object_type":"Label","style_id":"label.taxiways","source_group":"LFRQ Taxiways","vsmr_group_ids":[],"geometry_role":"text_label","text-field":"X"},"geometry":{"type":"Point","coordinates":[-4.173578611,47.969046389]}},{"type":"Feature","id":"LFRQ-dc2973ce241efa862abf","properties":{"airport":"LFRQ","name":"X","layer":"Labels","category":"Taxiways","object_type":"Label","style_id":"label.taxiways","source_group":"LFRQ Taxiways","vsmr_group_ids":[],"geometry_role":"text_label","text-field":"X"},"geometry":{"type":"Point","coordinates":[-4.1744775,47.968203056]}},{"type":"Feature","id":"LFRQ-377266fd06acee7dcdaf","properties":{"airport":"LFRQ","name":"X","layer":"Labels","category":"Taxiways","object_type":"Label","style_id":"label.taxiways","source_group":"LFRQ Taxiways","vsmr_group_ids":[],"geometry_role":"text_label","text-field":"X"},"geometry":{"type":"Point","coordinates":[-4.175405556,47.967169722]}}]}
