{"type":"FeatureCollection","name":"LFRS AVISO","bbox":[-1.622782247010152,47.13904725177413,-1.59634410148442,47.16614147625522],"metadata":{"schema":"vSMR AVISO","schema_version":2,"geometry_mode":"shared","airport":"LFRS","coordinate_reference_system":"WGS84","coordinate_order":"longitude, latitude","default_color_palette":"dark","color_palettes":["dark","light"],"background_colors":{"dark":"#434A4F","light":"#434A4F"},"runways":[{"ends":["03","21"],"headings":[28,208],"thresholds":[[-1.619543889,47.141602778],[-1.603793889,47.162288889]]}],"saved_active_runways":[],"saved_active_airport_modes":[],"airport_reference":[-1.607777778,47.156943889],"feature_count":133,"style_count":14,"layer_counts":{"Airfield surfaces":18,"Buildings and structures":14,"Guidance lines":36,"Labels":55,"Operational restrictions":1,"Surface markings":6,"Terrain":3},"category_counts":{"Buildings":14,"Danger Area":1,"Gates":42,"Grass":3,"Hard Surface 2":1,"Hard Surface 3":4,"Runway Border":17,"Runways":1,"Stopbars":6,"Taxiway Orange":4,"Taxiways":40},"geometry_source":"local GNG/KMZ","geometry_source_url":"","geometry_license":"GPL-3.0"},"styles":{"polygon.grassurface.00512f":{"name":"Grass","layer":"Terrain","object_type":"Area","paint":{"fill":"#010D19","fill-opacity":1,"palette-overrides":{"light":{"fill":"#00512F"}}},"feature_count":3},"polygon.terrain1.574242":{"name":"Terrain 1","layer":"Terrain","object_type":"Area","paint":{"fill":"#574242","fill-opacity":1,"palette-overrides":{"light":{"fill":"#574242"}}},"feature_count":0},"polygon.hardsurface3.8a807f":{"name":"Hard Surface 3","layer":"Airfield surfaces","object_type":"Area","paint":{"fill":"#222D3C","fill-opacity":1,"palette-overrides":{"light":{"fill":"#8A807F"}}},"feature_count":4},"polygon.hardsurface2.595e5b":{"name":"Hard Surface 2","layer":"Airfield surfaces","object_type":"Area","paint":{"fill":"#2F3949","fill-opacity":1,"palette-overrides":{"light":{"fill":"#595E5B"}}},"feature_count":1},"polygon.runwayconcrete.555555":{"name":"Runways","layer":"Airfield surfaces","object_type":"Area","paint":{"fill":"#111318","fill-opacity":1,"palette-overrides":{"light":{"fill":"#555555"}}},"feature_count":1},"polygon.stopbar.7e0000":{"name":"Stopbars","layer":"Surface markings","object_type":"Area","paint":{"fill":"#7E0000","fill-opacity":1,"palette-overrides":{"light":{"fill":"#7E0000"}}},"feature_count":6},"polygon.taxiwayorange.cc6d00":{"name":"Taxiway Orange","layer":"Airfield surfaces","object_type":"Area","paint":{"fill":"#CC8B00","fill-opacity":1,"palette-overrides":{"light":{"fill":"#CC6D00"}}},"feature_count":4},"polygon.building.394446":{"name":"Buildings","layer":"Buildings and structures","object_type":"Area","paint":{"fill":"#475570","fill-opacity":1,"palette-overrides":{"light":{"fill":"#394446"}}},"feature_count":14},"polygon.runwayborder.808080":{"name":"Runway Border","layer":"Airfield surfaces","object_type":"Area","paint":{"fill":"#808080","fill-opacity":1,"palette-overrides":{"light":{"fill":"#808080"}}},"feature_count":8},"line.runwayborder.808080":{"name":"Runway Border","layer":"Guidance lines","object_type":"Line","paint":{"stroke":"#808080","stroke-opacity":1,"stroke-width":1,"palette-overrides":{"light":{"stroke":"#808080"}}},"feature_count":9},"line.taxiway.c0b631":{"name":"Taxiways","layer":"Guidance lines","object_type":"Line","paint":{"stroke":"#4E5A69","stroke-opacity":1,"stroke-width":1,"palette-overrides":{"light":{"stroke":"#C0B631"}}},"feature_count":27},"label.gates":{"name":"Gates","layer":"Labels","object_type":"Label","paint":{"text-color":"#CCCCCC","text-font":"Arial","text-size":12,"text-halo-color":"#000000","text-halo-width":1,"text-anchor":"center","zoomLevel":9},"feature_count":42},"label.taxiways":{"name":"Taxiways","layer":"Labels","object_type":"Label","paint":{"text-color":"#CCCCCC","text-font":"Arial","text-size":12,"text-halo-color":"#000000","text-halo-width":1,"text-anchor":"center","zoomLevel":7},"feature_count":13},"polygon.dangerarea.280908":{"name":"Danger Area","layer":"Operational restrictions","object_type":"Area","paint":{"fill":"#280908","fill-opacity":1,"palette-overrides":{"light":{"fill":"#280908"}}},"feature_count":1}},"vsmr_groups":[],"features":[{"type":"Feature","id":"LFRS-28425b4f98fce5aad20f","properties":{"airport":"LFRS","name":"COLOR_GrasSurface","layer":"Terrain","category":"Grass","object_type":"Area","style_id":"polygon.grassurface.00512f","source_group":"COLOR_GrasSurface","vsmr_group_ids":[],"geometry_role":"filled_region"},"geometry":{"type":"Polygon","coordinates":[[[-1.599688121837595,47.16614147625522],[-1.603426352821488,47.16553248004026],[-1.604796308190314,47.1639174141199],[-1.60572646354849,47.16267438045244],[-1.606388911796257,47.16303550141381],[-1.609604461486613,47.16277120342879],[-1.610538494830213,47.16329188183985],[-1.610950832864949,47.16372847150939],[-1.611535693605937,47.16394266317397],[-1.612211119256316,47.16385294310768],[-1.612671116483595,47.16393659208961],[-1.613119525807737,47.16391186496388],[-1.613636006993796,47.16385516167707],[-1.61432058882345,47.163711601152],[-1.615261099978906,47.16346187045846],[-1.616257851007981,47.16312851361594],[-1.617239110547554,47.16275865889328],[-1.617923723987043,47.1623365100397],[-1.618685798461178,47.16192241338359],[-1.619438898659011,47.16136093945677],[-1.62055015229695,47.16029628338103],[-1.620820921241276,47.15997104676798],[-1.619762417604504,47.16009826316812],[-1.613673552145304,47.15844390282667],[-1.611886273920186,47.15590871235955],[-1.614573775589303,47.15148799477132],[-1.614548342237778,47.15144245170099],[-1.617687376819206,47.14737091813848],[-1.618526852391722,47.14723728587992],[-1.622026528935283,47.14263072394709],[-1.621220633607612,47.1423494957345],[-1.621698672261134,47.14172178950088],[-1.622782247010152,47.14080941422507],[-1.621594964276654,47.14018219260252],[-1.621682329517555,47.13939283439307],[-1.621570942701814,47.13923812454501],[-1.62101324753072,47.13904725177413],[-1.619987199458345,47.13935868822432],[-1.619551490408535,47.14020189811],[-1.618332428986946,47.13999427902549],[-1.618061317340723,47.14062972686536],[-1.617850827762236,47.14091114388101],[-1.617774874861427,47.1409286707407],[-1.617537736891577,47.14088542316826],[-1.617270921097368,47.14087426802136],[-1.617055260094522,47.14089650627235],[-1.616610751727617,47.14109483065633],[-1.616525046436643,47.14110397607428],[-1.616333522394607,47.14100168185742],[-1.616205034494937,47.14100454184273],[-1.616009632699483,47.14129804361002],[-1.616011523157903,47.14143168433623],[-1.616035680998371,47.14148107001478],[-1.616161867047711,47.14161719363042],[-1.613408370568067,47.14519765821984],[-1.611170831329235,47.14812868786351],[-1.610684998519962,47.14819086980088],[-1.610082081411943,47.14828927948396],[-1.609639570097882,47.14837393555829],[-1.609182409120727,47.14846519567369],[-1.608783129928608,47.14856162481223],[-1.608325557310523,47.14868104989966],[-1.607928875709546,47.14880052487928],[-1.607196054076659,47.14904242395798],[-1.606555622706364,47.149298783636],[-1.605948605908437,47.14956358430438],[-1.605311988114696,47.14986280099068],[-1.604707739189211,47.15020380703844],[-1.603879858175398,47.15074600291045],[-1.603126594913852,47.1513339089762],[-1.602547196589104,47.15187110477854],[-1.602327562980983,47.15209451100557],[-1.601541981564465,47.1518901014808],[-1.600644918627092,47.15198495745554],[-1.600349966090338,47.15190084188368],[-1.599328226721146,47.15369808983352],[-1.599221709411853,47.15394953272089],[-1.599512342309991,47.15415650249712],[-1.599752038815095,47.15443611375113],[-1.599860666198814,47.15469389820954],[-1.599897257017389,47.15494158279591],[-1.599862843871296,47.15528083418168],[-1.599771145837999,47.15557023648103],[-1.599644879736035,47.15582913980207],[-1.598979544907654,47.15704287914072],[-1.599003084951108,47.15713873833966],[-1.598260474705402,47.15851288540807],[-1.598058151714491,47.15990867682212],[-1.596924332744539,47.16180860116071],[-1.59647904591526,47.16260334442385],[-1.59637281244481,47.16282095363802],[-1.59634410148442,47.16295540171055],[-1.596353579320576,47.16301455427577],[-1.596444388685124,47.16312695317082],[-1.597053375833004,47.16352958257173],[-1.597456372827959,47.16388596122506],[-1.598897005872907,47.16553762718633],[-1.599223992313651,47.16583174680092],[-1.599688121837595,47.16614147625522]]]}},{"type":"Feature","id":"LFRS-871fb3bd8f15a850fd49","properties":{"airport":"LFRS","name":"COLOR_DangerArea","layer":"Operational restrictions","category":"Danger Area","object_type":"Area","style_id":"polygon.dangerarea.280908","source_group":"COLOR_DangerArea","vsmr_group_ids":[],"geometry_role":"filled_region"},"geometry":{"type":"Polygon","coordinates":[[[-1.607896825080325,47.15728097940563],[-1.614440194888682,47.16045863187756],[-1.614498434984858,47.16050171948375],[-1.614521468885365,47.1605517243579],[-1.614532643706453,47.16060996818554],[-1.614513881474615,47.16067168759049],[-1.614441147324442,47.16075633467999],[-1.614406711816667,47.16078738564358],[-1.614429638069214,47.16079723835147],[-1.614391378073322,47.16082699344301],[-1.614305597750567,47.16087519090968],[-1.614189011915501,47.16091873076426],[-1.613817603741265,47.16098817684645],[-1.610941148117365,47.16154341172235],[-1.610708790736159,47.16157645287801],[-1.610545308822733,47.1615853697089],[-1.610389714356641,47.16157335253444],[-1.608394152798083,47.16126517040095],[-1.608300348344698,47.16123674535908],[-1.608305206949866,47.16119280865862],[-1.608287726116955,47.16115463482971],[-1.608233887777858,47.16110953783242],[-1.608152544259257,47.16107827642602],[-1.607844874617983,47.16101761173055],[-1.607805786570484,47.16100220498725],[-1.60752129339053,47.16084690723063],[-1.607329737281236,47.160772688646],[-1.607139036794494,47.1607118028972],[-1.606891719952618,47.16065738489732],[-1.606447953247765,47.16055556767775],[-1.60614947495946,47.16049349698994],[-1.606083352694376,47.16047057571474],[-1.606023618198017,47.16043443256318],[-1.605961320763966,47.1603686096599],[-1.605904561049067,47.16030039636945],[-1.605855704378368,47.16016937899626],[-1.60582638132827,47.15997043034635],[-1.605116598211269,47.16088125817323],[-1.605414742302055,47.1606998248845],[-1.605565460706052,47.16064643101314],[-1.605711171047695,47.16062833401497],[-1.605835482756272,47.16062486454783],[-1.60595111031462,47.16063863395418],[-1.606059588357648,47.1606645019146],[-1.606128809637546,47.16069509918051],[-1.606205641687348,47.16075968260678],[-1.606220803964332,47.16080325384236],[-1.606153254486991,47.16092683924411],[-1.606879332960236,47.16108887718036],[-1.607098697825259,47.16113784522052],[-1.60795608889537,47.16127079557629],[-1.608190817613623,47.16132616379912],[-1.609588937300687,47.16154737730979],[-1.609652370956485,47.16154347827343],[-1.609965121225417,47.16159087540877],[-1.610057972535748,47.16162708369113],[-1.610129251908012,47.16167792970487],[-1.610170738241051,47.16173652516827],[-1.610186041370225,47.1618090071043],[-1.61018601984882,47.16193051138584],[-1.610165346898069,47.16217668200486],[-1.610131372478252,47.16227937806378],[-1.61013144800052,47.16232715743789],[-1.610157595808549,47.1623623623765],[-1.610194842416767,47.16238930273838],[-1.610263581498274,47.1623893057032],[-1.610317190506336,47.16241069929069],[-1.61032185244688,47.16241545366458],[-1.610395269435368,47.16242256878488],[-1.610488429283214,47.16242252941214],[-1.610578070612834,47.16240905359646],[-1.610640948652049,47.16236946453456],[-1.610691047467685,47.1623179971526],[-1.610716738979003,47.16224671121356],[-1.610747273416372,47.16216662059324],[-1.610814590627168,47.16205950355416],[-1.610887308470434,47.16196977031885],[-1.610960027577221,47.16191023765825],[-1.611087343707139,47.16181167203809],[-1.611160535187286,47.16173998237284],[-1.61119643997327,47.16166461017935],[-1.611231728994236,47.16156958757367],[-1.614321950305098,47.16096472634044],[-1.614590469267203,47.16091558484796],[-1.614671023005793,47.16092023144402],[-1.614727896276515,47.16093410373175],[-1.615477996638759,47.16020644448296],[-1.614932865860451,47.15993571303677],[-1.614815017571414,47.16002436844994],[-1.614724543237189,47.16006519846113],[-1.614617835241999,47.16007908671494],[-1.614530401018548,47.16007434224567],[-1.608110358993556,47.1569563679306],[-1.607896825080325,47.15728097940563]]]}},{"type":"Feature","id":"LFRS-9fc1820616a243f7c93d","properties":{"airport":"LFRS","name":"COLOR_HardSurface3","layer":"Airfield surfaces","category":"Hard Surface 3","object_type":"Area","style_id":"polygon.hardsurface3.8a807f","source_group":"COLOR_HardSurface3","vsmr_group_ids":[],"geometry_role":"filled_region"},"geometry":{"type":"Polygon","coordinates":[[[-1.606629655771032,47.15413734882381],[-1.606588013702869,47.15412249366076],[-1.606545960994493,47.15409569899028],[-1.606514136811974,47.15406077256569],[-1.606491516319875,47.15402657410151],[-1.606485963164109,47.15399236547376],[-1.606493753878783,47.15396982570949],[-1.606522387238986,47.15392642315446],[-1.606747813827791,47.15363835874446],[-1.605884775449339,47.15332425577401],[-1.605860418294396,47.1533520479158],[-1.605337606888149,47.15316379341935],[-1.604932311731453,47.15370051233999],[-1.60504380182512,47.15374075599259],[-1.605092306110588,47.15375799177346],[-1.605128335571923,47.1537749498858],[-1.605153924232963,47.15379319206726],[-1.605172462830959,47.15381099584712],[-1.606467366834883,47.1542690186588],[-1.606514278001334,47.15429265623926],[-1.606629655771032,47.15413734882381]]]}},{"type":"Feature","id":"LFRS-946f66ace30eb382271f","properties":{"airport":"LFRS","name":"COLOR_HardSurface3","layer":"Airfield surfaces","category":"Hard Surface 3","object_type":"Area","style_id":"polygon.hardsurface3.8a807f","source_group":"COLOR_HardSurface3","vsmr_group_ids":[],"geometry_role":"filled_region"},"geometry":{"type":"Polygon","coordinates":[[[-1.604813661852781,47.15508513284163],[-1.605302336450638,47.1544546751945],[-1.602298855148072,47.15338427656321],[-1.602226943043021,47.15335841063227],[-1.60219704362479,47.15335430693655],[-1.602183114672568,47.15336241310094],[-1.602071437763268,47.15351952722518],[-1.602001701967071,47.15359893911329],[-1.601921849948753,47.15367865687584],[-1.601836648340574,47.1537499994124],[-1.601707122422363,47.15384736733049],[-1.601682847398193,47.15386754416183],[-1.601648676790569,47.15388993663966],[-1.601594783300958,47.15391089952007],[-1.601501128230659,47.15393993748588],[-1.601462508972388,47.15395864017692],[-1.601434983564065,47.1539795144048],[-1.601413026263977,47.15401381238728],[-1.601197578501566,47.15436069230296],[-1.600979218030502,47.15465153338926],[-1.60089933278829,47.15474151101255],[-1.600816166852272,47.15484347803688],[-1.600686258991634,47.15501128885648],[-1.60065794881599,47.15504884651568],[-1.600238200684757,47.15591240336141],[-1.600171239582724,47.15605702512199],[-1.600158318932974,47.15611689823677],[-1.60016012717445,47.15618351636482],[-1.600187722341891,47.1562657783312],[-1.600227925166561,47.15634040996204],[-1.600277873594405,47.1563946832715],[-1.600336217858285,47.15643824592195],[-1.600394279430954,47.15647569431825],[-1.601021124497088,47.15677828806575],[-1.601158679632421,47.1568461763221],[-1.601198321689997,47.15683808498061],[-1.60274195550286,47.15757845539655],[-1.602627466170206,47.15822033226031],[-1.602186269129674,47.15867305906774],[-1.602240453479471,47.15887090028907],[-1.601481618457712,47.1598672368418],[-1.601827619472401,47.15999818197027],[-1.601939690146482,47.16003430579602],[-1.601993659056024,47.1600448222516],[-1.602011667127917,47.16005242788142],[-1.602089044300267,47.16009977546641],[-1.602164624033698,47.16015170860252],[-1.60444881215168,47.15746209121512],[-1.602516928931333,47.15598997167631],[-1.603155411956204,47.15523239578799],[-1.604813661852781,47.15508513284163]]]}},{"type":"Feature","id":"LFRS-70881e63909107da6839","properties":{"airport":"LFRS","name":"COLOR_HardSurface3","layer":"Airfield surfaces","category":"Hard Surface 3","object_type":"Area","style_id":"polygon.hardsurface3.8a807f","source_group":"COLOR_HardSurface3","vsmr_group_ids":[],"geometry_role":"filled_region"},"geometry":{"type":"Polygon","coordinates":[[[-1.601653022838641,47.16007252611342],[-1.601571545383897,47.16004429270896],[-1.600958703969751,47.15982610170983],[-1.600885692335953,47.15984582767145],[-1.600813668344752,47.1598471736367],[-1.600748039213462,47.15983486889462],[-1.600700561766838,47.15981793786103],[-1.599555729508135,47.16132356817372],[-1.599729024160453,47.16138717447862],[-1.599982116579636,47.16106560230841],[-1.600193377321896,47.16113807843576],[-1.60037414712811,47.16090327943951],[-1.600434980909232,47.16092266395826],[-1.60070777647305,47.16055847377933],[-1.60127362944457,47.16076393412532],[-1.601441908020883,47.16070805182029],[-1.601564363533393,47.16053421745768],[-1.601619978409667,47.16053906470845],[-1.601678186290183,47.16054583841407],[-1.601745647282885,47.16055886198191],[-1.601793612222485,47.16057217267095],[-1.601834406170145,47.16058467626594],[-1.601970983156755,47.16041851323795],[-1.60191914933594,47.16038739405501],[-1.601854123153061,47.1603512465572],[-1.601805477037006,47.16032120368439],[-1.601760413683437,47.1602899173687],[-1.601563703579502,47.16020470531253],[-1.601653022838641,47.16007252611342]]]}},{"type":"Feature","id":"LFRS-9433002ab8e5a18cefe8","properties":{"airport":"LFRS","name":"COLOR_HardSurface3","layer":"Airfield surfaces","category":"Hard Surface 3","object_type":"Area","style_id":"polygon.hardsurface3.8a807f","source_group":"COLOR_HardSurface3","vsmr_group_ids":[],"geometry_role":"filled_region"},"geometry":{"type":"Polygon","coordinates":[[[-1.601618276104181,47.16085941408392],[-1.601480127689343,47.16080031657467],[-1.601348361535135,47.16083825389503],[-1.60052244626511,47.16192018059745],[-1.600740331961675,47.16199652754631],[-1.601618276104181,47.16085941408392]]]}},{"type":"Feature","id":"LFRS-7216a4de3ecefc4da532","properties":{"airport":"LFRS","name":"COLOR_HardSurface2","layer":"Airfield surfaces","category":"Hard Surface 2","object_type":"Area","style_id":"polygon.hardsurface2.595e5b","source_group":"COLOR_HardSurface2","vsmr_group_ids":[],"geometry_role":"filled_region"},"geometry":{"type":"Polygon","coordinates":[[[-1.61697724418441,47.14158444576153],[-1.616909005042123,47.1416067925892],[-1.616798082316439,47.1416495604057],[-1.616700191558169,47.14170105028309],[-1.616615852109704,47.14175423558019],[-1.61654204657505,47.14182130239152],[-1.616472959225569,47.14189792973055],[-1.607172705503894,47.15411867397032],[-1.607141761004501,47.15414484247048],[-1.607074089637551,47.15418610925008],[-1.607031843245467,47.15420199181599],[-1.606982772017106,47.15420796490932],[-1.606922007536699,47.15420704361554],[-1.606834841021253,47.15419370706993],[-1.606627964622891,47.15413667008963],[-1.606511524489466,47.15429152491161],[-1.606744347416224,47.15441069054285],[-1.606783450441811,47.15443978815458],[-1.606811412741906,47.15447753786388],[-1.606818642292664,47.15452220033598],[-1.606808347050436,47.15456916222005],[-1.606792189431453,47.15460778327559],[-1.606750893438688,47.15467276551252],[-1.606545864424771,47.15494273871528],[-1.606089908799885,47.15545204884525],[-1.606005691742687,47.15553215517795],[-1.605908812838648,47.15559947285913],[-1.605837319102816,47.15563157257155],[-1.605712390761964,47.15566393597336],[-1.605598976756257,47.15568141938423],[-1.605510522612458,47.15567597132291],[-1.605403538420582,47.15565333722311],[-1.605219501458023,47.15558349471807],[-1.604934018239338,47.15545425977196],[-1.604645033717336,47.15530788659992],[-1.604823019189956,47.15507375132373],[-1.604541621419781,47.15497341809611],[-1.604392387989457,47.15492253956926],[-1.604247817778695,47.15488407935462],[-1.604095894713446,47.15485750370527],[-1.603923094207422,47.15484251737823],[-1.603754978785489,47.15484650398529],[-1.60359681096228,47.15486078399422],[-1.603429964076892,47.15488361234947],[-1.603245362454304,47.15491530855486],[-1.603113091838144,47.15494960371102],[-1.602970025531902,47.1550051795553],[-1.602826623549514,47.15508228363101],[-1.602717344853781,47.15514817051234],[-1.602594490832185,47.15522755606195],[-1.60252104614944,47.15527705518862],[-1.602412883838942,47.1553663820603],[-1.602322556023844,47.15547858004277],[-1.60225940794259,47.15558526820325],[-1.602224293394031,47.15568672950854],[-1.602213584420283,47.15576992729997],[-1.602220248167877,47.15587112635397],[-1.602236411076409,47.15596539176484],[-1.602263731771805,47.15605932214206],[-1.602300188407405,47.15612628787977],[-1.602364848152963,47.15619679139293],[-1.60244697045653,47.15626117144731],[-1.602544772386645,47.15631127069831],[-1.602649017356291,47.1563708037633],[-1.602803474672568,47.15647048980497],[-1.603001614389682,47.15660898514689],[-1.603662775754918,47.1571196393049],[-1.603707508175776,47.15715806285772],[-1.603748647594457,47.15719963360568],[-1.603796036005952,47.15726050283072],[-1.603835053995831,47.15732208032917],[-1.603860742545299,47.15737378377568],[-1.603882356521318,47.1574363843248],[-1.603898664038844,47.15750229559428],[-1.603905283589302,47.15756098274582],[-1.603904369310759,47.15765111650391],[-1.603891514903121,47.15775026137967],[-1.603865586826755,47.15784686728097],[-1.603823270569387,47.15793957331201],[-1.603777709088838,47.15801435320166],[-1.603722217924415,47.15808976911742],[-1.602157267572998,47.16014703823281],[-1.602407543252569,47.16032855304659],[-1.602420946021933,47.1603409905477],[-1.602421743211507,47.1603537859931],[-1.602369521709675,47.16042272278358],[-1.602360345159565,47.16043044143441],[-1.602326231752376,47.16044178960174],[-1.602265066031138,47.16045118209772],[-1.60219049440891,47.16045199701085],[-1.602102253397253,47.16044233730572],[-1.602023357744412,47.16042788731082],[-1.601981924042563,47.16041701075045],[-1.601952351212508,47.16040755352801],[-1.601819565243607,47.16058077501204],[-1.601873470538815,47.16060458844627],[-1.601925793320083,47.16063312089189],[-1.601966873517386,47.1606592761451],[-1.601985159586505,47.16067265654844],[-1.601986532193703,47.16067865210862],[-1.601972543582644,47.16069698267203],[-1.601913770035794,47.16075883194255],[-1.601833899457014,47.16081491653113],[-1.601695364537518,47.1608920379636],[-1.601616637809271,47.16085915757542],[-1.601383777592562,47.16116190739607],[-1.601906870280487,47.16088053057145],[-1.601926090155199,47.16087041811979],[-1.601948628593155,47.16087054413704],[-1.601965498686647,47.16087708129915],[-1.601983030607872,47.16089235588006],[-1.60198748439597,47.16091216388378],[-1.601982892086368,47.16093342767969],[-1.601960387220157,47.16096578787609],[-1.600600628460618,47.16274359282238],[-1.600891882485226,47.16283780268605],[-1.600927726860544,47.16277780450019],[-1.600985257978204,47.16268816038891],[-1.603088891992367,47.15992559488515],[-1.603128707848209,47.15988549530362],[-1.603189268156547,47.15984411819079],[-1.603270615927077,47.15980492047728],[-1.603339782489295,47.15978289258542],[-1.603415781271282,47.15976488569049],[-1.603457631060117,47.15975961961046],[-1.603506153079939,47.15975665531945],[-1.603575981067351,47.15975916733041],[-1.603646052606482,47.15976610811015],[-1.603775414604636,47.15979410585103],[-1.604239856603495,47.15993806331065],[-1.604345393719142,47.15977868995672],[-1.604033200258209,47.15966713594283],[-1.603924825746894,47.15962013076629],[-1.603788998244758,47.15954804987449],[-1.603730812515823,47.15950454432667],[-1.603706443626687,47.15947933652881],[-1.603683741864107,47.15944537179491],[-1.603647178571553,47.15937322756216],[-1.60363237991958,47.15930963348254],[-1.603638114269874,47.15923556937202],[-1.603658506671312,47.1591821714454],[-1.603693193293276,47.15912931809748],[-1.60432238262697,47.15830387898901],[-1.604353969217923,47.1582632190664],[-1.604396440389693,47.15822395447634],[-1.604475324255942,47.15816835515645],[-1.604552511749159,47.15812706016172],[-1.604633304828785,47.15810251016418],[-1.604701607235746,47.15808902873681],[-1.604763999880127,47.15808351561459],[-1.604836514792801,47.15808466503947],[-1.604897188765068,47.15809298282998],[-1.605018817602919,47.15811921703202],[-1.605127293932078,47.15815232606534],[-1.605473932216644,47.15831900532952],[-1.605592865967003,47.15814912688204],[-1.605547851643624,47.15813326176701],[-1.605416782755901,47.15807871672343],[-1.605319244541655,47.15802976365943],[-1.605198166902021,47.15794906566045],[-1.605087412459624,47.15786718037855],[-1.605016971721631,47.15780797694094],[-1.604984031361871,47.15776955580652],[-1.604957365651831,47.15772398937425],[-1.60494031116279,47.15766032460138],[-1.604936519238735,47.15760582201909],[-1.604942154946806,47.15756708074906],[-1.604991645568906,47.1574334379789],[-1.605017681177635,47.15738976159363],[-1.605250210881607,47.15708654473928],[-1.605655328463858,47.15667119659743],[-1.605704147849711,47.15662580504006],[-1.6057478337353,47.15659870381749],[-1.605845318062881,47.15655389021988],[-1.605948232258007,47.15652408635015],[-1.606060053483755,47.15650748761902],[-1.606152662040958,47.15649944795219],[-1.606281133695193,47.15649838177217],[-1.606324939718612,47.15650222196974],[-1.606361540091564,47.15651149559866],[-1.606720040522216,47.15667982900084],[-1.606925675619756,47.15640372963761],[-1.60655269678341,47.15623095475462],[-1.606427121401447,47.15616420514564],[-1.606366006882881,47.15610645369527],[-1.606337357679941,47.15606872508303],[-1.606317134303658,47.15602943340772],[-1.606294340924104,47.15596619502885],[-1.606291712452663,47.15589932998427],[-1.606309355414475,47.1558215326187],[-1.606339516506029,47.15575218972198],[-1.606526114021718,47.15542893940846],[-1.606672762199929,47.15521727510116],[-1.611531229593677,47.14883682561626],[-1.611576096588676,47.14879097115688],[-1.611727916111879,47.14867459855066],[-1.611816517216442,47.14861722407851],[-1.611902177666126,47.14857358234067],[-1.611999226807869,47.14854114647821],[-1.612088057964779,47.14851877753692],[-1.612418583552768,47.14844688649486],[-1.612610924747889,47.14841182127309],[-1.612757940430007,47.14839071122906],[-1.612882562883474,47.1483774263341],[-1.612979460136865,47.14837370316999],[-1.613035811689719,47.14837336849226],[-1.612927218750378,47.14810825518783],[-1.611942059754548,47.14829847382282],[-1.616348729847225,47.14250582575765],[-1.61646325185693,47.14235950528957],[-1.616585267165217,47.14222351150991],[-1.616804311962348,47.14200583969208],[-1.616835634691038,47.14197825154879],[-1.616937849562515,47.14190217363882],[-1.61700243074154,47.14186198078767],[-1.617061749914863,47.14183285685954],[-1.617127701142083,47.14181238190435],[-1.61697724418441,47.14158444576153]]]}},{"type":"Feature","id":"LFRS-176ca8ce9544152c5125","properties":{"airport":"LFRS","name":"COLOR_GrasSurface","layer":"Terrain","category":"Grass","object_type":"Area","style_id":"polygon.grassurface.00512f","source_group":"COLOR_GrasSurface","vsmr_group_ids":[],"geometry_role":"filled_region"},"geometry":{"type":"Polygon","coordinates":[[[-1.604195031623378,47.15694207331158],[-1.604367216191951,47.15701014810843],[-1.60444757846141,47.15702839986651],[-1.60453227400324,47.15703966471857],[-1.604618063418701,47.15703863016382],[-1.604701087975031,47.15703295056202],[-1.604806670541061,47.15700451714769],[-1.604893781240415,47.1569652952116],[-1.604961317176898,47.15691619499377],[-1.605318065571564,47.15645929451066],[-1.605370920437578,47.15634958562789],[-1.605381099461851,47.15624637690854],[-1.605362890175822,47.15614645170413],[-1.605302598102668,47.15604402603149],[-1.605184270549572,47.15594150260129],[-1.604999432931721,47.15584533159459],[-1.604171119577674,47.15544407425774],[-1.604052691178227,47.15539139943181],[-1.603976064449485,47.15536622365406],[-1.60383947086751,47.15533974471065],[-1.603701390193375,47.15533339930956],[-1.603555791485105,47.15534732598076],[-1.603419942427752,47.15537801586596],[-1.603286764042132,47.15543354280484],[-1.603157597977508,47.15551912805497],[-1.60306377061266,47.15560582559744],[-1.60300070656047,47.15570127828123],[-1.602961967615858,47.1557928249696],[-1.602949543431357,47.15589625545984],[-1.60295717425483,47.15597444104802],[-1.602980759943112,47.15603940843008],[-1.603012617650984,47.15609254147383],[-1.603078579899567,47.15614671721229],[-1.603688574311909,47.15660107844003],[-1.604058236801867,47.1568600935643],[-1.604195031623378,47.15694207331158]]]}},{"type":"Feature","id":"LFRS-5e5624b5ce7ac9397530","properties":{"airport":"LFRS","name":"COLOR_RunwayConcrete","layer":"Airfield surfaces","category":"Runways","object_type":"Area","style_id":"polygon.runwayconcrete.555555","source_group":"COLOR_RunwayConcrete","vsmr_group_ids":[],"geometry_role":"filled_region"},"geometry":{"type":"Polygon","coordinates":[[[-1.619795605143711,47.14169756586238],[-1.619279901737083,47.14151633175197],[-1.619273772605341,47.14152242409065],[-1.618826545456536,47.14135958155705],[-1.618726694733487,47.14132889166809],[-1.618586647849697,47.1413023289145],[-1.618458750976055,47.14129017347392],[-1.618315385181289,47.14128929641662],[-1.618157903403391,47.14130575194822],[-1.617961739933733,47.14134754899601],[-1.617002660093507,47.14157741198868],[-1.61710787136745,47.14181827794447],[-1.617256196469681,47.14177567049055],[-1.617919647665802,47.14161878955476],[-1.618095790267996,47.14159428112624],[-1.618154373144486,47.14159048391795],[-1.61820921790417,47.14159878597438],[-1.618293053645539,47.14162516432824],[-1.61839561102139,47.14167285568312],[-1.618466237435637,47.14172743204143],[-1.618547746278193,47.1418086525493],[-1.618580579756999,47.14186439684239],[-1.618604538350548,47.14194130657806],[-1.618639969887682,47.14210400532659],[-1.618661646205543,47.14230603637206],[-1.618649957866906,47.14234421962045],[-1.614679372777956,47.14756357919565],[-1.6145952730682,47.14763159520496],[-1.614493951721607,47.1476917946466],[-1.614333413398552,47.14775482286993],[-1.613901222455548,47.1478993494705],[-1.613614092047508,47.147975391788],[-1.613236165095215,47.14804921177932],[-1.612919216249177,47.14810965896963],[-1.613029745376707,47.1483736132398],[-1.613075000506251,47.14837238516527],[-1.613149645293322,47.14838229577244],[-1.613261730887718,47.14841094669322],[-1.613326349580045,47.14843566811717],[-1.613413624581661,47.14848242216124],[-1.613475955396431,47.14852834696454],[-1.613534025396929,47.14857822209703],[-1.61358309716287,47.14864364556275],[-1.613617657624612,47.14870882340876],[-1.61362875575071,47.14876514119116],[-1.613618433940683,47.14885863814024],[-1.613582754959554,47.14900113104297],[-1.607905284622032,47.15645794751853],[-1.607868760265013,47.15648743875047],[-1.607788437718989,47.1565174876461],[-1.607693771234158,47.15653935297932],[-1.60759857817784,47.15655175490477],[-1.607489760022913,47.15654823891767],[-1.607374940133047,47.15653438696671],[-1.607250496125459,47.15650974086245],[-1.60712837070766,47.15647827838998],[-1.606986229704802,47.15643107830635],[-1.606918056272553,47.15639865156739],[-1.606707088287951,47.15667464750405],[-1.606843765120632,47.15674814453324],[-1.606983706935529,47.15683576541442],[-1.607092172561989,47.15691944947983],[-1.607173922556813,47.15699600963409],[-1.607235475237505,47.15706848727962],[-1.607277536817694,47.15713945040763],[-1.607298912783132,47.15719170073437],[-1.607301260664231,47.15725062290349],[-1.606721667168364,47.15801161457791],[-1.606633512430065,47.15806067378687],[-1.606447293852546,47.15812641774946],[-1.606264149159595,47.15817214670965],[-1.606039535987503,47.15820110257934],[-1.605857213335408,47.1581980454153],[-1.605698523251684,47.15817572273085],[-1.605585869314885,47.15814677729085],[-1.605460391446769,47.15831246194295],[-1.605614037542595,47.15839167288759],[-1.605713045381613,47.15844954733662],[-1.605788455058595,47.15850948852299],[-1.605853230460488,47.15857838658577],[-1.605904464919803,47.15866436847821],[-1.605947114738689,47.15876853450916],[-1.605960842911578,47.15884601722704],[-1.60596434707225,47.15891493200633],[-1.605949090226603,47.15899283273077],[-1.605920405244343,47.15907052395638],[-1.605369203720289,47.15979706309135],[-1.605096492275963,47.1598857475836],[-1.604966484355783,47.15990972506616],[-1.604814925388817,47.15991291603171],[-1.604679141509886,47.15989400813199],[-1.604556305024343,47.1598556459072],[-1.604343521355428,47.15977724852709],[-1.604222975876309,47.15993303034813],[-1.604478336256061,47.16002582201564],[-1.604567676931239,47.16006442094793],[-1.604646048800163,47.16011399181171],[-1.604704088083363,47.16016859632148],[-1.604751221726282,47.16022437976957],[-1.604792129201379,47.16030902505798],[-1.604812183208134,47.16038606278148],[-1.604819427318865,47.16045427600474],[-1.604806936746889,47.16053237128806],[-1.602879819343603,47.16306183451709],[-1.602810310873933,47.16313399169278],[-1.602734439535022,47.16317751129557],[-1.602472097543491,47.16328134425725],[-1.602091265107465,47.16340295215929],[-1.601882462126989,47.16346152958994],[-1.60185871195491,47.16353335989177],[-1.601859817512495,47.16361379781286],[-1.601872565971724,47.16368027728475],[-1.60190284362265,47.16374070566317],[-1.60195123908203,47.16380088605028],[-1.60201019179679,47.16385700169273],[-1.602089141489933,47.1639072437226],[-1.602199027332208,47.16395340654659],[-1.602033693452611,47.16416974035734],[-1.601980788651641,47.16419526227658],[-1.601891644591718,47.16422268853637],[-1.601767464963068,47.16425200974846],[-1.601660266805767,47.16426352620867],[-1.601545562796975,47.16426688539102],[-1.601431992144093,47.16425409758395],[-1.601303956466443,47.16421469300961],[-1.601211379204577,47.16416946867548],[-1.601105919230044,47.16409418981419],[-1.601050532758764,47.1640261551658],[-1.601023020786554,47.16397238310903],[-1.600773317015953,47.16337042592128],[-1.600752142383046,47.16331038962427],[-1.600741404197086,47.16325032755256],[-1.600741711759521,47.16319911463145],[-1.600746667845123,47.16314594391259],[-1.600762329048837,47.16309639750746],[-1.600893775739999,47.16283385141871],[-1.600608077138382,47.16273369547855],[-1.600475341237712,47.16291044853059],[-1.600418633484838,47.16300333791274],[-1.600386879606152,47.16308642549875],[-1.600370567860457,47.16318303104806],[-1.600371190033151,47.16324705254063],[-1.600388443940923,47.16332767030625],[-1.600424968406076,47.1634287765655],[-1.6007179995062,47.16414736343755],[-1.600770307401286,47.16423436073081],[-1.60084507928498,47.16432463559574],[-1.600918161781165,47.16438961980938],[-1.601024557279157,47.16446039135343],[-1.601126551580941,47.16450792062985],[-1.602161412707463,47.16487146873062],[-1.619795605143711,47.14169756586238]]]}},{"type":"Feature","id":"LFRS-3c1b0d5329ce928eb347","properties":{"airport":"LFRS","name":"COLOR_Stopbar","layer":"Surface markings","category":"Stopbars","object_type":"Area","style_id":"polygon.stopbar.7e0000","source_group":"COLOR_Stopbar","vsmr_group_ids":[],"geometry_role":"filled_region"},"geometry":{"type":"Polygon","coordinates":[[[-1.617003729186631,47.14157704798992],[-1.616975484177899,47.14158474274264],[-1.617101884609571,47.14182070576742],[-1.617130511516346,47.14181182025015],[-1.617003729186631,47.14157704798992]]]}},{"type":"Feature","id":"LFRS-8c2cedd859a10b8a97fa","properties":{"airport":"LFRS","name":"COLOR_Stopbar","layer":"Surface markings","category":"Stopbars","object_type":"Area","style_id":"polygon.stopbar.7e0000","source_group":"COLOR_Stopbar","vsmr_group_ids":[],"geometry_role":"filled_region"},"geometry":{"type":"Polygon","coordinates":[[[-1.612943861688756,47.14810524018791],[-1.612915053168427,47.14811067183107],[-1.613024105436023,47.14837261291797],[-1.613055159767369,47.14837259886863],[-1.612943861688756,47.14810524018791]]]}},{"type":"Feature","id":"LFRS-997091530fb81067e88e","properties":{"airport":"LFRS","name":"COLOR_Stopbar","layer":"Surface markings","category":"Stopbars","object_type":"Area","style_id":"polygon.stopbar.7e0000","source_group":"COLOR_Stopbar","vsmr_group_ids":[],"geometry_role":"filled_region"},"geometry":{"type":"Polygon","coordinates":[[[-1.606911419844596,47.15639534672123],[-1.606701955415674,47.15667082885307],[-1.606726565748295,47.15668396263098],[-1.606935218557776,47.15640797918121],[-1.606911419844596,47.15639534672123]]]}},{"type":"Feature","id":"LFRS-4fc3d50d68c488019126","properties":{"airport":"LFRS","name":"COLOR_Stopbar","layer":"Surface markings","category":"Stopbars","object_type":"Area","style_id":"polygon.stopbar.7e0000","source_group":"COLOR_Stopbar","vsmr_group_ids":[],"geometry_role":"filled_region"},"geometry":{"type":"Polygon","coordinates":[[[-1.605579824236028,47.15814458028871],[-1.605454220772338,47.15830956122652],[-1.605480364906405,47.1583230269329],[-1.605609202051688,47.15815268645149],[-1.605579824236028,47.15814458028871]]]}},{"type":"Feature","id":"LFRS-55c41c6a5dd8b8fe943f","properties":{"airport":"LFRS","name":"COLOR_Stopbar","layer":"Surface markings","category":"Stopbars","object_type":"Area","style_id":"polygon.stopbar.7e0000","source_group":"COLOR_Stopbar","vsmr_group_ids":[],"geometry_role":"filled_region"},"geometry":{"type":"Polygon","coordinates":[[[-1.604364076610856,47.15978534659517],[-1.604338521955264,47.15977518294057],[-1.604218839246281,47.15993137418966],[-1.604245515303244,47.15994069866423],[-1.604364076610856,47.15978534659517]]]}},{"type":"Feature","id":"LFRS-1909cf58465cad4cf6c3","properties":{"airport":"LFRS","name":"COLOR_Stopbar","layer":"Surface markings","category":"Stopbars","object_type":"Area","style_id":"polygon.stopbar.7e0000","source_group":"COLOR_Stopbar","vsmr_group_ids":[],"geometry_role":"filled_region"},"geometry":{"type":"Polygon","coordinates":[[[-1.600896272702396,47.16283021189865],[-1.600611430640458,47.16272946066279],[-1.600596821304078,47.162748198516],[-1.600886169902069,47.16284905483985],[-1.600896272702396,47.16283021189865]]]}},{"type":"Feature","id":"LFRS-88a7a28838c694d3c644","properties":{"airport":"LFRS","name":"COLOR_TaxiwayOrange","layer":"Airfield surfaces","category":"Taxiway Orange","object_type":"Area","style_id":"polygon.taxiwayorange.cc6d00","source_group":"COLOR_TaxiwayOrange","vsmr_group_ids":[],"geometry_role":"filled_region"},"geometry":{"type":"Polygon","coordinates":[[[-1.603706999295458,47.15947986762503],[-1.60369050968619,47.15945478148563],[-1.603457828304168,47.15976010885183],[-1.603492922505463,47.15975704802063],[-1.603706999295458,47.15947986762503]]]}},{"type":"Feature","id":"LFRS-565e3449482abbe32009","properties":{"airport":"LFRS","name":"COLOR_TaxiwayOrange","layer":"Airfield surfaces","category":"Taxiway Orange","object_type":"Area","style_id":"polygon.taxiwayorange.cc6d00","source_group":"COLOR_TaxiwayOrange","vsmr_group_ids":[],"geometry_role":"filled_region"},"geometry":{"type":"Polygon","coordinates":[[[-1.605012010004644,47.15780323553707],[-1.604995707422809,47.15778371300291],[-1.604763689055011,47.15808439479652],[-1.60480033056202,47.15808447197364],[-1.605012010004644,47.15780323553707]]]}},{"type":"Feature","id":"LFRS-149a4dd878cf55782cad","properties":{"airport":"LFRS","name":"COLOR_TaxiwayOrange","layer":"Airfield surfaces","category":"Taxiway Orange","object_type":"Area","style_id":"polygon.taxiwayorange.cc6d00","source_group":"COLOR_TaxiwayOrange","vsmr_group_ids":[],"geometry_role":"filled_region"},"geometry":{"type":"Polygon","coordinates":[[[-1.60633644402444,47.15606618038619],[-1.60632289238418,47.15604008768064],[-1.605953153538,47.15652463838536],[-1.605991287816215,47.15651677283098],[-1.60633644402444,47.15606618038619]]]}},{"type":"Feature","id":"LFRS-259efeb55649160af816","properties":{"airport":"LFRS","name":"COLOR_TaxiwayOrange","layer":"Airfield surfaces","category":"Taxiway Orange","object_type":"Area","style_id":"polygon.taxiwayorange.cc6d00","source_group":"COLOR_TaxiwayOrange","vsmr_group_ids":[],"geometry_role":"filled_region"},"geometry":{"type":"Polygon","coordinates":[[[-1.612267983928577,47.1482360019289],[-1.612230500265873,47.14824207991703],[-1.612002180604946,47.14854048522461],[-1.612044217153048,47.14853036308081],[-1.612267983928577,47.1482360019289]]]}},{"type":"Feature","id":"LFRS-e7076d0a37a4f28890dd","properties":{"airport":"LFRS","name":"COLOR_Building","layer":"Buildings and structures","category":"Buildings","object_type":"Area","style_id":"polygon.building.394446","source_group":"COLOR_Building","vsmr_group_ids":[],"geometry_role":"filled_region"},"geometry":{"type":"Polygon","coordinates":[[[-1.600705813389105,47.15983708407881],[-1.600459312982239,47.15975063508732],[-1.599322433959066,47.16124719617509],[-1.599569709208343,47.16133127761074],[-1.600705813389105,47.15983708407881]]]}},{"type":"Feature","id":"LFRS-76841fba638a48377c13","properties":{"airport":"LFRS","name":"COLOR_Building","layer":"Buildings and structures","category":"Buildings","object_type":"Area","style_id":"polygon.building.394446","source_group":"COLOR_Building","vsmr_group_ids":[],"geometry_role":"filled_region"},"geometry":{"type":"Polygon","coordinates":[[[-1.601752168641858,47.15947679980629],[-1.601636511089682,47.15943629015379],[-1.601485999364129,47.15963917169081],[-1.601596932950576,47.15967896476081],[-1.601752168641858,47.15947679980629]]]}},{"type":"Feature","id":"LFRS-55029df6e310e394c14a","properties":{"airport":"LFRS","name":"COLOR_Building","layer":"Buildings and structures","category":"Buildings","object_type":"Area","style_id":"polygon.building.394446","source_group":"COLOR_Building","vsmr_group_ids":[],"geometry_role":"filled_region"},"geometry":{"type":"Polygon","coordinates":[[[-1.601220312914629,47.15677964223138],[-1.601262103828168,47.15673756791858],[-1.601211924095679,47.15671196154171],[-1.601127753862606,47.156785839585],[-1.601192919687112,47.15681825301565],[-1.601198574329407,47.15681196852405],[-1.601493389989731,47.15695618248429],[-1.601380117457767,47.15706736877235],[-1.601338118277044,47.15704597574934],[-1.601330170125517,47.1570537903311],[-1.601263853731361,47.15702210159974],[-1.601273673200818,47.15701291511888],[-1.601090445128044,47.15692264881444],[-1.601018139043734,47.15699089073954],[-1.600983117651248,47.15697222735054],[-1.600833713280303,47.15712430534731],[-1.600737264065718,47.15707821801324],[-1.600674374993608,47.15713591981722],[-1.600743909275101,47.15716992189342],[-1.600709744938081,47.1572014122622],[-1.600597337876233,47.15714756517094],[-1.600682316522173,47.15706408201973],[-1.600624258237033,47.15704034754768],[-1.60047322954554,47.15718719888626],[-1.600526882294464,47.15721278765662],[-1.600558476310637,47.1571809698004],[-1.600576973553375,47.15719103286672],[-1.600593213519876,47.1571740929412],[-1.600744002363917,47.15724995326628],[-1.600655296583097,47.15733417870551],[-1.602256603350292,47.15811884924861],[-1.602229775807654,47.15814445913686],[-1.602347784930028,47.15820379767967],[-1.602285940979608,47.15825884099473],[-1.60217995551804,47.15821539856454],[-1.601723550591778,47.15881709301147],[-1.601805985217863,47.15884847507451],[-1.60178672249032,47.15887665576352],[-1.601959104857101,47.1589384135221],[-1.601773042983973,47.15918932223573],[-1.601897314816307,47.15923523619462],[-1.601983452014072,47.15912183968643],[-1.602017938442235,47.15913360763937],[-1.602060770736287,47.15907489934897],[-1.602041080304711,47.15906820277084],[-1.602051770597872,47.15905370326311],[-1.602040293033064,47.15904980333212],[-1.602096082730395,47.15896860299541],[-1.602161609967832,47.15899193979609],[-1.60263759167548,47.15836429126667],[-1.602588311976239,47.15834560959038],[-1.602583809271599,47.15835214532775],[-1.602545173242893,47.158335790071],[-1.602567263364005,47.15831236098442],[-1.602606294137578,47.1583387134441],[-1.602657231572089,47.15828521431591],[-1.602683462359511,47.15829379208561],[-1.602873196896413,47.15804310108069],[-1.602898947794527,47.15800530770414],[-1.602866855623876,47.1579953461487],[-1.602923042860309,47.15792049543251],[-1.602856488248438,47.15788778082105],[-1.603007019004927,47.1577435343631],[-1.603119885688886,47.1577895864894],[-1.603154879838155,47.15775587993504],[-1.603102948097097,47.15772692653389],[-1.603128512683345,47.15770549831949],[-1.602759480601712,47.15753105384051],[-1.602766250768349,47.15752432402076],[-1.602757400143436,47.15752008255379],[-1.602793858785861,47.15748677834974],[-1.602743883239001,47.15746172591744],[-1.602708645182228,47.15749598117329],[-1.602701211400928,47.15749287946446],[-1.602690927574307,47.15750258509496],[-1.602165297424771,47.15724136482517],[-1.602018797831245,47.15738226508218],[-1.601405931185532,47.15708086658532],[-1.601549533162252,47.15693938587346],[-1.601220312914629,47.15677964223138]]]}},{"type":"Feature","id":"LFRS-6b8ce9a771fee2d2f5cd","properties":{"airport":"LFRS","name":"COLOR_GrasSurface","layer":"Terrain","category":"Grass","object_type":"Area","style_id":"polygon.grassurface.00512f","source_group":"COLOR_GrasSurface","vsmr_group_ids":[],"geometry_role":"filled_region"},"geometry":{"type":"Polygon","coordinates":[[[-1.602540634865879,47.15829768752716],[-1.602440894601961,47.15824740805949],[-1.602381838033166,47.1583001350044],[-1.602484251268168,47.1583504450216],[-1.602540634865879,47.15829768752716]]]}},{"type":"Feature","id":"LFRS-60298df76bb4e8a8c83d","properties":{"airport":"LFRS","name":"COLOR_Building","layer":"Buildings and structures","category":"Buildings","object_type":"Area","style_id":"polygon.building.394446","source_group":"COLOR_Building","vsmr_group_ids":[],"geometry_role":"filled_region"},"geometry":{"type":"Polygon","coordinates":[[[-1.601851584734966,47.15731315646883],[-1.601972856442342,47.15719798425798],[-1.602143581158346,47.15728193819566],[-1.602174738515101,47.15724585187679],[-1.602010137377361,47.15716732712509],[-1.602018553743705,47.15715874486472],[-1.601956027026341,47.15712850936622],[-1.601947608876344,47.15713749210327],[-1.601534691702771,47.15693225640547],[-1.601508927019824,47.15696369895562],[-1.601721614702669,47.15706975245866],[-1.60159757363762,47.1571880027758],[-1.601622885714454,47.15720189002793],[-1.601750811534641,47.15708233046688],[-1.601879691049601,47.15714714141127],[-1.601753942768793,47.15726432057227],[-1.60178324584296,47.15727946149678],[-1.601902490620672,47.15716301304315],[-1.601919364292772,47.15717112348509],[-1.60180222188248,47.157283830693],[-1.601851584734966,47.15731315646883]]]}},{"type":"Feature","id":"LFRS-9678b62ca5263cba9d8b","properties":{"airport":"LFRS","name":"COLOR_Building","layer":"Buildings and structures","category":"Buildings","object_type":"Area","style_id":"polygon.building.394446","source_group":"COLOR_Building","vsmr_group_ids":[],"geometry_role":"filled_region"},"geometry":{"type":"Polygon","coordinates":[[[-1.602664585576544,47.15823345520629],[-1.603301427159582,47.15846384844552],[-1.60349592488267,47.1582060246683],[-1.603393178054304,47.15806151821527],[-1.603210151921175,47.15799866100818],[-1.602975822886259,47.15801686478606],[-1.602854623166539,47.15797105574541],[-1.602664585576544,47.15823345520629]]]}},{"type":"Feature","id":"LFRS-c05eb05dec8ea971a78b","properties":{"airport":"LFRS","name":"COLOR_Building","layer":"Buildings and structures","category":"Buildings","object_type":"Area","style_id":"polygon.building.394446","source_group":"COLOR_Building","vsmr_group_ids":[],"geometry_role":"filled_region"},"geometry":{"type":"Polygon","coordinates":[[[-1.600585882607,47.15653936876546],[-1.600648567039564,47.15648068388898],[-1.600629813344767,47.15647162332403],[-1.60062913923442,47.15645136783426],[-1.600460483968327,47.15636609320563],[-1.600436457566639,47.15638725619375],[-1.600465398956523,47.15640107639061],[-1.600416921451613,47.15644510647612],[-1.600516712487517,47.15649448361795],[-1.600507595400202,47.156503957216],[-1.600585882607,47.15653936876546]]]}},{"type":"Feature","id":"LFRS-83fd06ddf795a991456c","properties":{"airport":"LFRS","name":"COLOR_Building","layer":"Buildings and structures","category":"Buildings","object_type":"Area","style_id":"polygon.building.394446","source_group":"COLOR_Building","vsmr_group_ids":[],"geometry_role":"filled_region"},"geometry":{"type":"Polygon","coordinates":[[[-1.600713937379465,47.15474401153216],[-1.600599183082251,47.15471504794216],[-1.600409641123862,47.1550553982655],[-1.600525350664641,47.15508557733456],[-1.600713937379465,47.15474401153216]]]}},{"type":"Feature","id":"LFRS-923264c71bce7ab10971","properties":{"airport":"LFRS","name":"COLOR_Building","layer":"Buildings and structures","category":"Buildings","object_type":"Area","style_id":"polygon.building.394446","source_group":"COLOR_Building","vsmr_group_ids":[],"geometry_role":"filled_region"},"geometry":{"type":"Polygon","coordinates":[[[-1.600712930451884,47.1542617080118],[-1.600511444221224,47.15420789057833],[-1.6003137491391,47.15454217833487],[-1.6003061914683,47.15455872488388],[-1.600306144386002,47.15457221685175],[-1.600311141617001,47.15458672341386],[-1.600323987855025,47.15460099232872],[-1.600338593109211,47.15460945071277],[-1.600355285957284,47.15461499999706],[-1.600371925989187,47.15461668953557],[-1.600391170633085,47.15461477565965],[-1.600518192455885,47.15458974603992],[-1.600712930451884,47.1542617080118]]]}},{"type":"Feature","id":"LFRS-80b256338b5e88cf367a","properties":{"airport":"LFRS","name":"COLOR_Building","layer":"Buildings and structures","category":"Buildings","object_type":"Area","style_id":"polygon.building.394446","source_group":"COLOR_Building","vsmr_group_ids":[],"geometry_role":"filled_region"},"geometry":{"type":"Polygon","coordinates":[[[-1.600708416833335,47.15400270393766],[-1.600262197731447,47.15388354481615],[-1.600270552421407,47.15386682427733],[-1.60014970818437,47.15383598150106],[-1.600103077140194,47.15391675546768],[-1.600225722703739,47.1539495799157],[-1.600170408482665,47.15404384044726],[-1.600613681535739,47.15416552157023],[-1.600708416833335,47.15400270393766]]]}},{"type":"Feature","id":"LFRS-7991b6f4609bc636cf7e","properties":{"airport":"LFRS","name":"COLOR_Building","layer":"Buildings and structures","category":"Buildings","object_type":"Area","style_id":"polygon.building.394446","source_group":"COLOR_Building","vsmr_group_ids":[],"geometry_role":"filled_region"},"geometry":{"type":"Polygon","coordinates":[[[-1.601895074622827,47.1521324323246],[-1.601523423230805,47.15203107481651],[-1.601351468922962,47.15233202702289],[-1.601127437444464,47.15226809793964],[-1.600389537622818,47.15354273449571],[-1.600614267745939,47.15360386920845],[-1.60068936475558,47.15347516677338],[-1.601056517201416,47.15357565365677],[-1.601895074622827,47.1521324323246]]]}},{"type":"Feature","id":"LFRS-2ff1b71661ee3a6d816d","properties":{"airport":"LFRS","name":"COLOR_Building","layer":"Buildings and structures","category":"Buildings","object_type":"Area","style_id":"polygon.building.394446","source_group":"COLOR_Building","vsmr_group_ids":[],"geometry_role":"filled_region"},"geometry":{"type":"Polygon","coordinates":[[[-1.604526595066879,47.15174264429594],[-1.60456187832966,47.15171995242728],[-1.604589329232401,47.1516974130488],[-1.604612316745144,47.15167697070026],[-1.604602441807906,47.15166695027716],[-1.604610179017709,47.1516598305854],[-1.604639925823678,47.15167114413995],[-1.604660670595038,47.1516450515533],[-1.604668119740799,47.15164384341405],[-1.604702410495814,47.15160120807663],[-1.604686801107023,47.15156989569955],[-1.604695351922798,47.15154997426478],[-1.604704564192065,47.1515201196058],[-1.604711692223311,47.15146969396911],[-1.604670159123911,47.15146907909471],[-1.604700948781205,47.15142513992588],[-1.604771287499125,47.15144846702287],[-1.604844455709216,47.15134976114964],[-1.604669701883076,47.15128857856335],[-1.604647574738629,47.15131891291162],[-1.604602217558457,47.15130296967884],[-1.604547550481262,47.15137090598493],[-1.604664832575269,47.15141205417977],[-1.604631853677766,47.15145468489463],[-1.604619252104911,47.1514440476057],[-1.604593476136011,47.15142972934157],[-1.604578683816082,47.15143740073096],[-1.604558704010313,47.15145001313576],[-1.604536576184831,47.15146538152534],[-1.604512335852339,47.15148209068137],[-1.604490722345845,47.15150069176658],[-1.604469540754864,47.15151881770662],[-1.604462129052312,47.15151627884668],[-1.604454210937548,47.15152552738836],[-1.604433367729828,47.1515495409011],[-1.604387854834286,47.15153330621451],[-1.604412151001724,47.1515005013017],[-1.604265944286709,47.15144842945752],[-1.604290438072139,47.15141604478315],[-1.604438956651554,47.15146752550033],[-1.60449938133606,47.15138684351695],[-1.6043542101842,47.15133485361758],[-1.604364471638327,47.15132162626618],[-1.604266538640945,47.15128666457304],[-1.604146735936378,47.15144196215175],[-1.604075527192087,47.15141668443547],[-1.604106954315331,47.15137315563561],[-1.604052549435929,47.15135171039076],[-1.604018351748178,47.15139763853752],[-1.603983712450417,47.15138381045324],[-1.604081654635729,47.15125844836169],[-1.603947347918842,47.15121290342475],[-1.60369006766546,47.15155239939312],[-1.603821548141866,47.1515982191638],[-1.603967534243943,47.15140082239442],[-1.604005378805807,47.15141443524214],[-1.603958665706928,47.15147216756348],[-1.604013964124164,47.15149092995371],[-1.604061461873767,47.15143364685666],[-1.604132005926866,47.1514589891221],[-1.603924346813032,47.15173598941708],[-1.604024322118166,47.1517696814518],[-1.604031740365283,47.15175952194226],[-1.604177465770885,47.15180859749388],[-1.60423785270327,47.15172954925897],[-1.604091079081104,47.15167740412884],[-1.604113906402966,47.15164435576222],[-1.604262995848216,47.15169616924612],[-1.604323762089155,47.15161524963224],[-1.604178962636437,47.15156324871126],[-1.604202133265352,47.15153015887348],[-1.604350950950177,47.15158069401198],[-1.604375254790797,47.15154966324386],[-1.604421891959055,47.15156635245648],[-1.604403822833239,47.1515893705987],[-1.604411561380612,47.15159162424585],[-1.60440433322198,47.15160400896828],[-1.60439095078781,47.15163151653655],[-1.604381714412305,47.15165608558446],[-1.604374083224064,47.15168305233993],[-1.604369978095886,47.15170643078221],[-1.60436958811394,47.15172736609362],[-1.604388486578733,47.1517273831484],[-1.604410442030609,47.15172866346542],[-1.604430729570857,47.15173170511775],[-1.604447806826687,47.1517381927174],[-1.604464828542463,47.15175189627431],[-1.604483845634145,47.1517674464336],[-1.604526595066879,47.15174264429594]]]}},{"type":"Feature","id":"LFRS-140a8f332bd032ab832f","properties":{"airport":"LFRS","name":"COLOR_Building","layer":"Buildings and structures","category":"Buildings","object_type":"Area","style_id":"polygon.building.394446","source_group":"COLOR_Building","vsmr_group_ids":[],"geometry_role":"filled_region"},"geometry":{"type":"Polygon","coordinates":[[[-1.605588702946215,47.15164336208695],[-1.605204913992987,47.15215382663013],[-1.606068174086935,47.15245647464079],[-1.606119482538663,47.15246548420538],[-1.606166095586484,47.15246546533661],[-1.606208704861033,47.15246138426089],[-1.606250703671382,47.15245201331444],[-1.606286185943673,47.15243864949947],[-1.606315762895121,47.15242341261313],[-1.606342778075134,47.15240495102322],[-1.606367242115617,47.15238324639849],[-1.606389973084115,47.15234697803671],[-1.606566951103884,47.15198489326659],[-1.605588702946215,47.15164336208695]]]}},{"type":"Feature","id":"LFRS-8d6960b348dda33cba4e","properties":{"airport":"LFRS","name":"COLOR_Building","layer":"Buildings and structures","category":"Buildings","object_type":"Area","style_id":"polygon.building.394446","source_group":"COLOR_Building","vsmr_group_ids":[],"geometry_role":"filled_region"},"geometry":{"type":"Polygon","coordinates":[[[-1.60675562626262,47.15168411295971],[-1.606789416156573,47.15169674397713],[-1.606840659741529,47.15162895883303],[-1.606807427254936,47.15161592024829],[-1.606822625715106,47.15159678411372],[-1.60662891318483,47.15152997131449],[-1.606545870299392,47.15164180328685],[-1.606738117281316,47.15170913008379],[-1.60675562626262,47.15168411295971]]]}},{"type":"Feature","id":"LFRS-5c7f7876d6495e032827","properties":{"airport":"LFRS","name":"COLOR_Building","layer":"Buildings and structures","category":"Buildings","object_type":"Area","style_id":"polygon.building.394446","source_group":"COLOR_Building","vsmr_group_ids":[],"geometry_role":"filled_region"},"geometry":{"type":"Polygon","coordinates":[[[-1.607516942092119,47.1506859860224],[-1.607296047917827,47.15060924695521],[-1.606968538670984,47.15103862968825],[-1.607190206778564,47.15111439377136],[-1.607516942092119,47.1506859860224]]]}},{"type":"Feature","id":"LFRS-c97a08db47b7277bcb55","properties":{"airport":"LFRS","name":"COLOR_RunwayBorder","layer":"Airfield surfaces","category":"Runway Border","object_type":"Area","style_id":"polygon.runwayborder.808080","source_group":"COLOR_RunwayBorder","vsmr_group_ids":[],"geometry_role":"filled_region"},"geometry":{"type":"Polygon","coordinates":[[[-1.603511641913417,47.16256854797722],[-1.603523060431837,47.1625543615779],[-1.603554462772405,47.16256492394086],[-1.603536808066098,47.16258807079795],[-1.603442498725451,47.16262464538877],[-1.603411557003926,47.16266701658155],[-1.603484122859021,47.16269133561267],[-1.603503752812574,47.16266709904418],[-1.603451147487778,47.16264812422088],[-1.603461344893807,47.16263532733116],[-1.603556473902028,47.16259876764467],[-1.603595545732309,47.16254764087368],[-1.603521110799971,47.16252141726209],[-1.603490010303553,47.16256079408804],[-1.603511641913417,47.16256854797722]]]}},{"type":"Feature","id":"LFRS-a8d92ba4603c444c3ada","properties":{"airport":"LFRS","name":"COLOR_RunwayBorder","layer":"Airfield surfaces","category":"Runway Border","object_type":"Area","style_id":"polygon.runwayborder.808080","source_group":"COLOR_RunwayBorder","vsmr_group_ids":[],"geometry_role":"filled_region"},"geometry":{"type":"Polygon","coordinates":[[[-1.603562093969829,47.1627194493025],[-1.603672993479315,47.16257468422258],[-1.603650701984055,47.16256736496637],[-1.603638926427955,47.16257009710663],[-1.603622347312085,47.16258991854143],[-1.603630192703361,47.16259257300436],[-1.603538493373052,47.16271232825003],[-1.603562093969829,47.1627194493025]]]}},{"type":"Feature","id":"LFRS-ac3cfa35777dbce85c0c","properties":{"airport":"LFRS","name":"COLOR_RunwayBorder","layer":"Airfield surfaces","category":"Runway Border","object_type":"Area","style_id":"polygon.runwayborder.808080","source_group":"COLOR_RunwayBorder","vsmr_group_ids":[],"geometry_role":"filled_region"},"geometry":{"type":"Polygon","coordinates":[[[-1.619348759963913,47.14202266716589],[-1.619272778131807,47.14199662750736],[-1.619163271517661,47.14214213833051],[-1.619236212057639,47.14216865764611],[-1.619256418140985,47.14214274982604],[-1.619204502319344,47.14212427394553],[-1.619276139671434,47.14203057477845],[-1.619306495023426,47.14204045619536],[-1.619233984569914,47.14213475555144],[-1.619256567559373,47.14214272539482],[-1.619348759963913,47.14202266716589]]]}},{"type":"Feature","id":"LFRS-11a909a20e287b296def","properties":{"airport":"LFRS","name":"COLOR_RunwayBorder","layer":"Airfield surfaces","category":"Runway Border","object_type":"Area","style_id":"polygon.runwayborder.808080","source_group":"COLOR_RunwayBorder","vsmr_group_ids":[],"geometry_role":"filled_region"},"geometry":{"type":"Polygon","coordinates":[[[-1.619149596048813,47.14195160929972],[-1.61909565814464,47.14202133422703],[-1.619108619572621,47.14204809797115],[-1.619069515693387,47.14205654108662],[-1.619038726832406,47.14209790954361],[-1.619113044135937,47.14212386309106],[-1.619132975690833,47.14209834624677],[-1.61908088666622,47.14207966354715],[-1.619088841190979,47.14207051076824],[-1.619140572417421,47.14205881951797],[-1.619123823647211,47.14202418288247],[-1.61915295676327,47.14198578971961],[-1.61920423174583,47.14200434772007],[-1.619224165248858,47.14197875354526],[-1.619149596048813,47.14195160929972]]]}},{"type":"Feature","id":"LFRS-7aa0ea8c1701e513d3c0","properties":{"airport":"LFRS","name":"COLOR_RunwayBorder","layer":"Airfield surfaces","category":"Runway Border","object_type":"Area","style_id":"polygon.runwayborder.808080","source_group":"COLOR_RunwayBorder","vsmr_group_ids":[],"geometry_role":"filled_region"},"geometry":{"type":"Polygon","coordinates":[[[-1.605981714370489,47.15976971885991],[-1.605873623023236,47.15973206674372],[-1.605598882419319,47.16009284705791],[-1.605706312155696,47.16013078008272],[-1.605981714370489,47.15976971885991]]]}},{"type":"Feature","id":"LFRS-bf18489f12f266d5de2f","properties":{"airport":"LFRS","name":"COLOR_RunwayBorder","layer":"Airfield surfaces","category":"Runway Border","object_type":"Area","style_id":"polygon.runwayborder.808080","source_group":"COLOR_RunwayBorder","vsmr_group_ids":[],"geometry_role":"filled_region"},"geometry":{"type":"Polygon","coordinates":[[[-1.605666496145907,47.15965802417207],[-1.605558205108999,47.15961907731374],[-1.60528203914775,47.15998142983794],[-1.605391012215449,47.16001965220246],[-1.605666496145907,47.15965802417207]]]}},{"type":"Feature","id":"LFRS-84b8c752247b62f05976","properties":{"airport":"LFRS","name":"COLOR_RunwayBorder","layer":"Airfield surfaces","category":"Runway Border","object_type":"Area","style_id":"polygon.runwayborder.808080","source_group":"COLOR_RunwayBorder","vsmr_group_ids":[],"geometry_role":"filled_region"},"geometry":{"type":"Polygon","coordinates":[[[-1.617659905440824,47.14443060183539],[-1.617550218105869,47.1443922469343],[-1.617276060211682,47.14475455274139],[-1.61738387121083,47.14479301196686],[-1.617659905440824,47.14443060183539]]]}},{"type":"Feature","id":"LFRS-4c615684096e328ac4b3","properties":{"airport":"LFRS","name":"COLOR_RunwayBorder","layer":"Airfield surfaces","category":"Runway Border","object_type":"Area","style_id":"polygon.runwayborder.808080","source_group":"COLOR_RunwayBorder","vsmr_group_ids":[],"geometry_role":"filled_region"},"geometry":{"type":"Polygon","coordinates":[[[-1.617343869301845,47.14431818683525],[-1.61723594049855,47.14428099664415],[-1.616960361893105,47.14464334883392],[-1.617066375805893,47.14468070586568],[-1.617343869301845,47.14431818683525]]]}},{"type":"Feature","id":"LFRS-ff33130dd1460956adf0","properties":{"airport":"LFRS","name":"COLOR_RunwayBorder","layer":"Guidance lines","category":"Runway Border","object_type":"Line","style_id":"line.runwayborder.808080","source_group":"COLOR_RunwayBorder","vsmr_group_ids":[],"geometry_role":"linework"},"geometry":{"type":"LineString","coordinates":[[-1.602013789837825,47.16462511197999],[-1.602136882066345,47.16446413685433]]}},{"type":"Feature","id":"LFRS-0842d49f904fbb319f03","properties":{"airport":"LFRS","name":"COLOR_RunwayBorder","layer":"Guidance lines","category":"Runway Border","object_type":"Line","style_id":"line.runwayborder.808080","source_group":"COLOR_RunwayBorder","vsmr_group_ids":[],"geometry_role":"linework"},"geometry":{"type":"LineString","coordinates":[[-1.602178452818496,47.16447983989801],[-1.60219727001137,47.16438476960176],[-1.60209357521471,47.16445141451835]]}},{"type":"Feature","id":"LFRS-18e306fc8a4d4980215f","properties":{"airport":"LFRS","name":"COLOR_RunwayBorder","layer":"Guidance lines","category":"Runway Border","object_type":"Line","style_id":"line.runwayborder.808080","source_group":"COLOR_RunwayBorder","vsmr_group_ids":[],"geometry_role":"linework"},"geometry":{"type":"LineString","coordinates":[[-1.602317640035498,47.16422606401142],[-1.602441339628436,47.16406455034299]]}},{"type":"Feature","id":"LFRS-926a00621d9c6c0200d4","properties":{"airport":"LFRS","name":"COLOR_RunwayBorder","layer":"Guidance lines","category":"Runway Border","object_type":"Line","style_id":"line.runwayborder.808080","source_group":"COLOR_RunwayBorder","vsmr_group_ids":[],"geometry_role":"linework"},"geometry":{"type":"LineString","coordinates":[[-1.602483660911584,47.16408136288651],[-1.602502793503555,47.16398553860584],[-1.602395629821277,47.16405175017732]]}},{"type":"Feature","id":"LFRS-74a18013775db3392ccb","properties":{"airport":"LFRS","name":"COLOR_RunwayBorder","layer":"Guidance lines","category":"Runway Border","object_type":"Line","style_id":"line.runwayborder.808080","source_group":"COLOR_RunwayBorder","vsmr_group_ids":[],"geometry_role":"linework"},"geometry":{"type":"LineString","coordinates":[[-1.602622036483885,47.1638273572709],[-1.602744633071167,47.16366639752543]]}},{"type":"Feature","id":"LFRS-a561166422881383d24e","properties":{"airport":"LFRS","name":"COLOR_RunwayBorder","layer":"Guidance lines","category":"Runway Border","object_type":"Line","style_id":"line.runwayborder.808080","source_group":"COLOR_RunwayBorder","vsmr_group_ids":[],"geometry_role":"linework"},"geometry":{"type":"LineString","coordinates":[[-1.60278674916434,47.16368195357175],[-1.602806365068671,47.16358658864572],[-1.602700179651022,47.1636530667985]]}},{"type":"Feature","id":"LFRS-89bc43d2058573af0b24","properties":{"airport":"LFRS","name":"COLOR_RunwayBorder","layer":"Guidance lines","category":"Runway Border","object_type":"Line","style_id":"line.runwayborder.808080","source_group":"COLOR_RunwayBorder","vsmr_group_ids":[],"geometry_role":"linework"},"geometry":{"type":"LineString","coordinates":[[-1.602926432295841,47.16342776888796],[-1.60305020472162,47.16326640551292]]}},{"type":"Feature","id":"LFRS-b1d8a24d5e64e802486d","properties":{"airport":"LFRS","name":"COLOR_RunwayBorder","layer":"Guidance lines","category":"Runway Border","object_type":"Line","style_id":"line.runwayborder.808080","source_group":"COLOR_RunwayBorder","vsmr_group_ids":[],"geometry_role":"linework"},"geometry":{"type":"LineString","coordinates":[[-1.603092026608783,47.16328305497196],[-1.603111382295437,47.16318588301988],[-1.603006491290605,47.16325205347297]]}},{"type":"Feature","id":"LFRS-646256fb212bbd731b83","properties":{"airport":"LFRS","name":"COLOR_RunwayBorder","layer":"Guidance lines","category":"Runway Border","object_type":"Line","style_id":"line.runwayborder.808080","source_group":"COLOR_RunwayBorder","vsmr_group_ids":[],"geometry_role":"linework"},"geometry":{"type":"LineString","coordinates":[[-1.603451010901725,47.16317705453972],[-1.602932354687099,47.16299263528941]]}},{"type":"Feature","id":"LFRS-07fe721757c508dee52e","properties":{"airport":"LFRS","name":"COLOR_Taxiway","layer":"Guidance lines","category":"Taxiways","object_type":"Line","style_id":"line.taxiway.c0b631","source_group":"COLOR_Taxiway","vsmr_group_ids":[],"geometry_role":"linework"},"geometry":{"type":"LineString","coordinates":[[-1.602722913813345,47.15999557180609],[-1.601783083546624,47.15966391501929]]}},{"type":"Feature","id":"LFRS-4b36cf6c2f4a2978a9c2","properties":{"airport":"LFRS","name":"COLOR_Taxiway","layer":"Guidance lines","category":"Taxiways","object_type":"Line","style_id":"line.taxiway.c0b631","source_group":"COLOR_Taxiway","vsmr_group_ids":[],"geometry_role":"linework"},"geometry":{"type":"LineString","coordinates":[[-1.602995764070593,47.15963808393634],[-1.602058282945793,47.15930553351052]]}},{"type":"Feature","id":"LFRS-fd55da9d4c0b80609704","properties":{"airport":"LFRS","name":"COLOR_Taxiway","layer":"Guidance lines","category":"Taxiways","object_type":"Line","style_id":"line.taxiway.c0b631","source_group":"COLOR_Taxiway","vsmr_group_ids":[],"geometry_role":"linework"},"geometry":{"type":"LineString","coordinates":[[-1.603314666537177,47.15922091498657],[-1.602374033072758,47.15888875406451]]}},{"type":"Feature","id":"LFRS-48afc8db68b76121b7a0","properties":{"airport":"LFRS","name":"COLOR_Taxiway","layer":"Guidance lines","category":"Taxiways","object_type":"Line","style_id":"line.taxiway.c0b631","source_group":"COLOR_Taxiway","vsmr_group_ids":[],"geometry_role":"linework"},"geometry":{"type":"LineString","coordinates":[[-1.603588127497503,47.15886254952868],[-1.602645300329725,47.15852809855146]]}},{"type":"Feature","id":"LFRS-c4a7ae4825c132f21ba9","properties":{"airport":"LFRS","name":"COLOR_Taxiway","layer":"Guidance lines","category":"Taxiways","object_type":"Line","style_id":"line.taxiway.c0b631","source_group":"COLOR_Taxiway","vsmr_group_ids":[],"geometry_role":"linework"},"geometry":{"type":"LineString","coordinates":[[-1.604018833500126,47.15798566763623],[-1.603235970457284,47.15757772659986]]}},{"type":"Feature","id":"LFRS-021f77a6e790603de3d3","properties":{"airport":"LFRS","name":"COLOR_Taxiway","layer":"Guidance lines","category":"Taxiways","object_type":"Line","style_id":"line.taxiway.c0b631","source_group":"COLOR_Taxiway","vsmr_group_ids":[],"geometry_role":"linework"},"geometry":{"type":"LineString","coordinates":[[-1.604040598649968,47.15731927304626],[-1.602814756686042,47.15733780970222]]}},{"type":"Feature","id":"LFRS-563bd5c0966f8d4f0b77","properties":{"airport":"LFRS","name":"COLOR_Taxiway","layer":"Guidance lines","category":"Taxiways","object_type":"Line","style_id":"line.taxiway.c0b631","source_group":"COLOR_Taxiway","vsmr_group_ids":[],"geometry_role":"linework"},"geometry":{"type":"LineString","coordinates":[[-1.603140710844456,47.15682475567514],[-1.602480324235359,47.15728486468724]]}},{"type":"Feature","id":"LFRS-fe7e54358ab2d51cd233","properties":{"airport":"LFRS","name":"COLOR_Taxiway","layer":"Guidance lines","category":"Taxiways","object_type":"Line","style_id":"line.taxiway.c0b631","source_group":"COLOR_Taxiway","vsmr_group_ids":[],"geometry_role":"linework"},"geometry":{"type":"LineString","coordinates":[[-1.602592548107794,47.15642906966706],[-1.601935661125385,47.15705309279992]]}},{"type":"Feature","id":"LFRS-2e24331251793f50952a","properties":{"airport":"LFRS","name":"COLOR_Taxiway","layer":"Guidance lines","category":"Taxiways","object_type":"Line","style_id":"line.taxiway.c0b631","source_group":"COLOR_Taxiway","vsmr_group_ids":[],"geometry_role":"linework"},"geometry":{"type":"LineString","coordinates":[[-1.602152154311633,47.15623327168574],[-1.601143896323084,47.15666226127153]]}},{"type":"Feature","id":"LFRS-eed6e7c7f45e1c5d1152","properties":{"airport":"LFRS","name":"COLOR_Taxiway","layer":"Guidance lines","category":"Taxiways","object_type":"Line","style_id":"line.taxiway.c0b631","source_group":"COLOR_Taxiway","vsmr_group_ids":[],"geometry_role":"linework"},"geometry":{"type":"LineString","coordinates":[[-1.601496928680831,47.15616163703039],[-1.600880083073039,47.15657404800213]]}},{"type":"Feature","id":"LFRS-1b660089ca16af64b10a","properties":{"airport":"LFRS","name":"COLOR_Taxiway","layer":"Guidance lines","category":"Taxiways","object_type":"Line","style_id":"line.taxiway.c0b631","source_group":"COLOR_Taxiway","vsmr_group_ids":[],"geometry_role":"linework"},"geometry":{"type":"LineString","coordinates":[[-1.601294774297448,47.15593884178259],[-1.600931972472945,47.15659405175226]]}},{"type":"Feature","id":"LFRS-887168a9e53ad832c3d3","properties":{"airport":"LFRS","name":"COLOR_Taxiway","layer":"Guidance lines","category":"Taxiways","object_type":"Line","style_id":"line.taxiway.c0b631","source_group":"COLOR_Taxiway","vsmr_group_ids":[],"geometry_role":"linework"},"geometry":{"type":"LineString","coordinates":[[-1.600293541217903,47.15621972167583],[-1.600904372583052,47.1557960793385]]}},{"type":"Feature","id":"LFRS-64807ed12911d79903f4","properties":{"airport":"LFRS","name":"COLOR_Taxiway","layer":"Guidance lines","category":"Taxiways","object_type":"Line","style_id":"line.taxiway.c0b631","source_group":"COLOR_Taxiway","vsmr_group_ids":[],"geometry_role":"linework"},"geometry":{"type":"LineString","coordinates":[[-1.601182840883311,47.15480678429061],[-1.600869386317207,47.15521637246546]]}},{"type":"Feature","id":"LFRS-de82c511d67be8ce83b5","properties":{"airport":"LFRS","name":"COLOR_Taxiway","layer":"Guidance lines","category":"Taxiways","object_type":"Line","style_id":"line.taxiway.c0b631","source_group":"COLOR_Taxiway","vsmr_group_ids":[],"geometry_role":"linework"},"geometry":{"type":"LineString","coordinates":[[-1.601712447673204,47.15498982442659],[-1.601395203911203,47.15540416029651]]}},{"type":"Feature","id":"LFRS-34816a84ec33ff32bc77","properties":{"airport":"LFRS","name":"COLOR_Taxiway","layer":"Guidance lines","category":"Taxiways","object_type":"Line","style_id":"line.taxiway.c0b631","source_group":"COLOR_Taxiway","vsmr_group_ids":[],"geometry_role":"linework"},"geometry":{"type":"LineString","coordinates":[[-1.602327786051025,47.155056902542],[-1.601921408125505,47.15559152680711]]}},{"type":"Feature","id":"LFRS-5a54aa1136c870e9b562","properties":{"airport":"LFRS","name":"COLOR_Taxiway","layer":"Guidance lines","category":"Taxiways","object_type":"Line","style_id":"line.taxiway.c0b631","source_group":"COLOR_Taxiway","vsmr_group_ids":[],"geometry_role":"linework"},"geometry":{"type":"LineString","coordinates":[[-1.602646285709652,47.15496920125663],[-1.602928606169413,47.15460322558675]]}},{"type":"Feature","id":"LFRS-ded08efda094fe941824","properties":{"airport":"LFRS","name":"COLOR_Taxiway","layer":"Guidance lines","category":"Taxiways","object_type":"Line","style_id":"line.taxiway.c0b631","source_group":"COLOR_Taxiway","vsmr_group_ids":[],"geometry_role":"linework"},"geometry":{"type":"LineString","coordinates":[[-1.602120806514555,47.15478258716625],[-1.602416868749583,47.15439455308641]]}},{"type":"Feature","id":"LFRS-b43f43add3befef3810c","properties":{"airport":"LFRS","name":"COLOR_Taxiway","layer":"Guidance lines","category":"Taxiways","object_type":"Line","style_id":"line.taxiway.c0b631","source_group":"COLOR_Taxiway","vsmr_group_ids":[],"geometry_role":"linework"},"geometry":{"type":"LineString","coordinates":[[-1.601594405437837,47.15459517573701],[-1.601894108841792,47.15420421111803]]}},{"type":"Feature","id":"LFRS-0562cf773569ebda6005","properties":{"airport":"LFRS","name":"COLOR_Taxiway","layer":"Guidance lines","category":"Taxiways","object_type":"Line","style_id":"line.taxiway.c0b631","source_group":"COLOR_Taxiway","vsmr_group_ids":[],"geometry_role":"linework"},"geometry":{"type":"LineString","coordinates":[[-1.602120267836273,47.1539061164035],[-1.602440135742795,47.15348779768473]]}},{"type":"Feature","id":"LFRS-c7c6b1273992ef968097","properties":{"airport":"LFRS","name":"COLOR_Taxiway","layer":"Guidance lines","category":"Taxiways","object_type":"Line","style_id":"line.taxiway.c0b631","source_group":"COLOR_Taxiway","vsmr_group_ids":[],"geometry_role":"linework"},"geometry":{"type":"LineString","coordinates":[[-1.602715164298895,47.15391516107075],[-1.602915535050286,47.15365394474299]]}},{"type":"Feature","id":"LFRS-c17e68db5ec3dc29ceab","properties":{"airport":"LFRS","name":"COLOR_Taxiway","layer":"Guidance lines","category":"Taxiways","object_type":"Line","style_id":"line.taxiway.c0b631","source_group":"COLOR_Taxiway","vsmr_group_ids":[],"geometry_role":"linework"},"geometry":{"type":"LineString","coordinates":[[-1.603190229860044,47.1540852118154],[-1.603387759721662,47.15382346081512]]}},{"type":"Feature","id":"LFRS-4958c35004260e07c049","properties":{"airport":"LFRS","name":"COLOR_Taxiway","layer":"Guidance lines","category":"Taxiways","object_type":"Line","style_id":"line.taxiway.c0b631","source_group":"COLOR_Taxiway","vsmr_group_ids":[],"geometry_role":"linework"},"geometry":{"type":"LineString","coordinates":[[-1.603601200734296,47.15433288186569],[-1.603860448432105,47.15399221641052]]}},{"type":"Feature","id":"LFRS-5ec7c1b8e56de3d771cd","properties":{"airport":"LFRS","name":"COLOR_Taxiway","layer":"Guidance lines","category":"Taxiways","object_type":"Line","style_id":"line.taxiway.c0b631","source_group":"COLOR_Taxiway","vsmr_group_ids":[],"geometry_role":"linework"},"geometry":{"type":"LineString","coordinates":[[-1.603896943157956,47.15481919693326],[-1.604380281886497,47.15418632380247]]}},{"type":"Feature","id":"LFRS-6f5cf0b83566ad8e57c9","properties":{"airport":"LFRS","name":"COLOR_Taxiway","layer":"Guidance lines","category":"Taxiways","object_type":"Line","style_id":"line.taxiway.c0b631","source_group":"COLOR_Taxiway","vsmr_group_ids":[],"geometry_role":"linework"},"geometry":{"type":"LineString","coordinates":[[-1.604332358474928,47.1551751456344],[-1.604419729967329,47.15418667055887]]}},{"type":"Feature","id":"LFRS-c388069f6a3f3d0577c7","properties":{"airport":"LFRS","name":"COLOR_Taxiway","layer":"Guidance lines","category":"Taxiways","object_type":"Line","style_id":"line.taxiway.c0b631","source_group":"COLOR_Taxiway","vsmr_group_ids":[],"geometry_role":"linework"},"geometry":{"type":"LineString","coordinates":[[-1.604477889344313,47.15501703123718],[-1.604918051776486,47.15444239137565]]}},{"type":"Feature","id":"LFRS-4364fe4800534e7338b3","properties":{"airport":"LFRS","name":"COLOR_Taxiway","layer":"Guidance lines","category":"Taxiways","object_type":"Line","style_id":"line.taxiway.c0b631","source_group":"COLOR_Taxiway","vsmr_group_ids":[],"geometry_role":"linework"},"geometry":{"type":"LineString","coordinates":[[-1.605279921989911,47.15357553716183],[-1.605556956938242,47.15344915145516]]}},{"type":"Feature","id":"LFRS-bf4621a176e1d6318237","properties":{"airport":"LFRS","name":"COLOR_Taxiway","layer":"Guidance lines","category":"Taxiways","object_type":"Line","style_id":"line.taxiway.c0b631","source_group":"COLOR_Taxiway","vsmr_group_ids":[],"geometry_role":"linework"},"geometry":{"type":"LineString","coordinates":[[-1.606317466937068,47.1539242460084],[-1.606114987027529,47.15350599480765]]}},{"type":"Feature","id":"LFRS-bda808623f1c5c1c9ddc","properties":{"airport":"LFRS","name":"TWR","layer":"Labels","category":"Gates","object_type":"Label","style_id":"label.gates","source_group":"LFRS Gates","vsmr_group_ids":[],"geometry_role":"text_label","text-field":"TWR"},"geometry":{"type":"Point","coordinates":[-1.604558056,47.151616944]}},{"type":"Feature","id":"LFRS-7b9e81a6dfb6fa796191","properties":{"airport":"LFRS","name":"X","layer":"Labels","category":"Gates","object_type":"Label","style_id":"label.gates","source_group":"LFRS Gates","vsmr_group_ids":[],"geometry_role":"text_label","text-field":"X"},"geometry":{"type":"Point","coordinates":[-1.610140556,47.158155556]}},{"type":"Feature","id":"LFRS-b231bc4dbf2363ec06d6","properties":{"airport":"LFRS","name":"X","layer":"Labels","category":"Gates","object_type":"Label","style_id":"label.gates","source_group":"LFRS Gates","vsmr_group_ids":[],"geometry_role":"text_label","text-field":"X"},"geometry":{"type":"Point","coordinates":[-1.611725833,47.158910278]}},{"type":"Feature","id":"LFRS-61b72134be5e2a435108","properties":{"airport":"LFRS","name":"X","layer":"Labels","category":"Gates","object_type":"Label","style_id":"label.gates","source_group":"LFRS Gates","vsmr_group_ids":[],"geometry_role":"text_label","text-field":"X"},"geometry":{"type":"Point","coordinates":[-1.614229444,47.160153056]}},{"type":"Feature","id":"LFRS-ac42d74744992cb27910","properties":{"airport":"LFRS","name":"M1","layer":"Labels","category":"Gates","object_type":"Label","style_id":"label.gates","source_group":"LFRS Gates","vsmr_group_ids":[],"geometry_role":"text_label","text-field":"M1"},"geometry":{"type":"Point","coordinates":[-1.606428333,47.153698611]}},{"type":"Feature","id":"LFRS-0c5e2b423bb2e883d1fd","properties":{"airport":"LFRS","name":"M2","layer":"Labels","category":"Gates","object_type":"Label","style_id":"label.gates","source_group":"LFRS Gates","vsmr_group_ids":[],"geometry_role":"text_label","text-field":"M2"},"geometry":{"type":"Point","coordinates":[-1.605309444,47.153449444]}},{"type":"Feature","id":"LFRS-74fd8e5ebf8be05c0a16","properties":{"airport":"LFRS","name":"Park I","layer":"Labels","category":"Gates","object_type":"Label","style_id":"label.gates","source_group":"LFRS Gates","vsmr_group_ids":[],"geometry_role":"text_label","text-field":"Park I"},"geometry":{"type":"Point","coordinates":[-1.601041389,47.161451111]}},{"type":"Feature","id":"LFRS-fcb46628f6dd820d05b7","properties":{"airport":"LFRS","name":"Park N","layer":"Labels","category":"Gates","object_type":"Label","style_id":"label.gates","source_group":"LFRS Gates","vsmr_group_ids":[],"geometry_role":"text_label","text-field":"Park N"},"geometry":{"type":"Point","coordinates":[-1.600335,47.160731111]}},{"type":"Feature","id":"LFRS-8af146176d593183a34b","properties":{"airport":"LFRS","name":"K1","layer":"Labels","category":"Gates","object_type":"Label","style_id":"label.gates","source_group":"LFRS Gates","vsmr_group_ids":[],"geometry_role":"text_label","text-field":"K1"},"geometry":{"type":"Point","coordinates":[-1.601166111,47.160544444]}},{"type":"Feature","id":"LFRS-b561a6808bcea8fce44c","properties":{"airport":"LFRS","name":"Park J","layer":"Labels","category":"Gates","object_type":"Label","style_id":"label.gates","source_group":"LFRS Gates","vsmr_group_ids":[],"geometry_role":"text_label","text-field":"Park J"},"geometry":{"type":"Point","coordinates":[-1.601143611,47.160035833]}},{"type":"Feature","id":"LFRS-f5c990a4cd4e3e8501bc","properties":{"airport":"LFRS","name":"Park H","layer":"Labels","category":"Gates","object_type":"Label","style_id":"label.gates","source_group":"LFRS Gates","vsmr_group_ids":[],"geometry_role":"text_label","text-field":"Park H"},"geometry":{"type":"Point","coordinates":[-1.601433056,47.160903611]}},{"type":"Feature","id":"LFRS-e40906930c46e9074472","properties":{"airport":"LFRS","name":"Hall 4","layer":"Labels","category":"Gates","object_type":"Label","style_id":"label.gates","source_group":"LFRS Gates","vsmr_group_ids":[],"geometry_role":"text_label","text-field":"Hall 4"},"geometry":{"type":"Point","coordinates":[-1.602186111,47.158588056]}},{"type":"Feature","id":"LFRS-ced4aa87bccfafb8d8c1","properties":{"airport":"LFRS","name":"L5","layer":"Labels","category":"Gates","object_type":"Label","style_id":"label.gates","source_group":"LFRS Gates","vsmr_group_ids":[],"geometry_role":"text_label","text-field":"L5"},"geometry":{"type":"Point","coordinates":[-1.601849167,47.159812222]}},{"type":"Feature","id":"LFRS-511fec021a87b26cc3e7","properties":{"airport":"LFRS","name":"L4","layer":"Labels","category":"Gates","object_type":"Label","style_id":"label.gates","source_group":"LFRS Gates","vsmr_group_ids":[],"geometry_role":"text_label","text-field":"L4"},"geometry":{"type":"Point","coordinates":[-1.602146111,47.159429167]}},{"type":"Feature","id":"LFRS-895c0e357fdb8950de77","properties":{"airport":"LFRS","name":"L3","layer":"Labels","category":"Gates","object_type":"Label","style_id":"label.gates","source_group":"LFRS Gates","vsmr_group_ids":[],"geometry_role":"text_label","text-field":"L3"},"geometry":{"type":"Point","coordinates":[-1.602457778,47.159016944]}},{"type":"Feature","id":"LFRS-bd79e71d57dedcc8a596","properties":{"airport":"LFRS","name":"L2","layer":"Labels","category":"Gates","object_type":"Label","style_id":"label.gates","source_group":"LFRS Gates","vsmr_group_ids":[],"geometry_role":"text_label","text-field":"L2"},"geometry":{"type":"Point","coordinates":[-1.60275,47.158659722]}},{"type":"Feature","id":"LFRS-68505a05ce87499c7b5a","properties":{"airport":"LFRS","name":"Terminal","layer":"Labels","category":"Gates","object_type":"Label","style_id":"label.gates","source_group":"LFRS Gates","vsmr_group_ids":[],"geometry_role":"text_label","text-field":"Terminal"},"geometry":{"type":"Point","coordinates":[-1.6020325,47.157685]}},{"type":"Feature","id":"LFRS-51786766a90f16588d42","properties":{"airport":"LFRS","name":"1","layer":"Labels","category":"Gates","object_type":"Label","style_id":"label.gates","source_group":"LFRS Gates","vsmr_group_ids":[],"geometry_role":"text_label","text-field":"1"},"geometry":{"type":"Point","coordinates":[-1.603022222,47.157523611]}},{"type":"Feature","id":"LFRS-024f181dd2ea3bc88939","properties":{"airport":"LFRS","name":"2","layer":"Labels","category":"Gates","object_type":"Label","style_id":"label.gates","source_group":"LFRS Gates","vsmr_group_ids":[],"geometry_role":"text_label","text-field":"2"},"geometry":{"type":"Point","coordinates":[-1.602829167,47.157393611]}},{"type":"Feature","id":"LFRS-08873a19bd9cdc42b2f1","properties":{"airport":"LFRS","name":"3","layer":"Labels","category":"Gates","object_type":"Label","style_id":"label.gates","source_group":"LFRS Gates","vsmr_group_ids":[],"geometry_role":"text_label","text-field":"3"},"geometry":{"type":"Point","coordinates":[-1.602428056,47.157218333]}},{"type":"Feature","id":"LFRS-78f7a98cc3c6ef9771c7","properties":{"airport":"LFRS","name":"4","layer":"Labels","category":"Gates","object_type":"Label","style_id":"label.gates","source_group":"LFRS Gates","vsmr_group_ids":[],"geometry_role":"text_label","text-field":"4"},"geometry":{"type":"Point","coordinates":[-1.601883611,47.156971667]}},{"type":"Feature","id":"LFRS-ce357d5ff5ac9a9b502f","properties":{"airport":"LFRS","name":"5","layer":"Labels","category":"Gates","object_type":"Label","style_id":"label.gates","source_group":"LFRS Gates","vsmr_group_ids":[],"geometry_role":"text_label","text-field":"5"},"geometry":{"type":"Point","coordinates":[-1.601383889,47.156689167]}},{"type":"Feature","id":"LFRS-c331958ecfd43fbb2172","properties":{"airport":"LFRS","name":"5A","layer":"Labels","category":"Gates","object_type":"Label","style_id":"label.gates","source_group":"LFRS Gates","vsmr_group_ids":[],"geometry_role":"text_label","text-field":"5A"},"geometry":{"type":"Point","coordinates":[-1.601398611,47.156341667]}},{"type":"Feature","id":"LFRS-0889fa6131b264d676fe","properties":{"airport":"LFRS","name":"6","layer":"Labels","category":"Gates","object_type":"Label","style_id":"label.gates","source_group":"LFRS Gates","vsmr_group_ids":[],"geometry_role":"text_label","text-field":"6"},"geometry":{"type":"Point","coordinates":[-1.601015278,47.156214722]}},{"type":"Feature","id":"LFRS-0166fe92a57146cdbee8","properties":{"airport":"LFRS","name":"7","layer":"Labels","category":"Gates","object_type":"Label","style_id":"label.gates","source_group":"LFRS Gates","vsmr_group_ids":[],"geometry_role":"text_label","text-field":"7"},"geometry":{"type":"Point","coordinates":[-1.600438333,47.15628]}},{"type":"Feature","id":"LFRS-6922fd037f75f5247fa8","properties":{"airport":"LFRS","name":"8","layer":"Labels","category":"Gates","object_type":"Label","style_id":"label.gates","source_group":"LFRS Gates","vsmr_group_ids":[],"geometry_role":"text_label","text-field":"8"},"geometry":{"type":"Point","coordinates":[-1.6010325,47.154802222]}},{"type":"Feature","id":"LFRS-1f36d41d7f1a9a614867","properties":{"airport":"LFRS","name":"9","layer":"Labels","category":"Gates","object_type":"Label","style_id":"label.gates","source_group":"LFRS Gates","vsmr_group_ids":[],"geometry_role":"text_label","text-field":"9"},"geometry":{"type":"Point","coordinates":[-1.601804444,47.155000833]}},{"type":"Feature","id":"LFRS-72109aae490f6da2ab27","properties":{"airport":"LFRS","name":"10","layer":"Labels","category":"Gates","object_type":"Label","style_id":"label.gates","source_group":"LFRS Gates","vsmr_group_ids":[],"geometry_role":"text_label","text-field":"10"},"geometry":{"type":"Point","coordinates":[-1.602195833,47.155073333]}},{"type":"Feature","id":"LFRS-3a0baff49d4e1fad7500","properties":{"airport":"LFRS","name":"11","layer":"Labels","category":"Gates","object_type":"Label","style_id":"label.gates","source_group":"LFRS Gates","vsmr_group_ids":[],"geometry_role":"text_label","text-field":"11"},"geometry":{"type":"Point","coordinates":[-1.602557222,47.154877222]}},{"type":"Feature","id":"LFRS-a748c0cf750156817c66","properties":{"airport":"LFRS","name":"12","layer":"Labels","category":"Gates","object_type":"Label","style_id":"label.gates","source_group":"LFRS Gates","vsmr_group_ids":[],"geometry_role":"text_label","text-field":"12"},"geometry":{"type":"Point","coordinates":[-1.602081944,47.154700556]}},{"type":"Feature","id":"LFRS-f9e303f7ae51bb3b03dc","properties":{"airport":"LFRS","name":"14","layer":"Labels","category":"Gates","object_type":"Label","style_id":"label.gates","source_group":"LFRS Gates","vsmr_group_ids":[],"geometry_role":"text_label","text-field":"14"},"geometry":{"type":"Point","coordinates":[-1.601475278,47.154519167]}},{"type":"Feature","id":"LFRS-6a1b2a11ca78d92e588e","properties":{"airport":"LFRS","name":"15","layer":"Labels","category":"Gates","object_type":"Label","style_id":"label.gates","source_group":"LFRS Gates","vsmr_group_ids":[],"geometry_role":"text_label","text-field":"15"},"geometry":{"type":"Point","coordinates":[-1.602165278,47.153729167]}},{"type":"Feature","id":"LFRS-4fe190ba2260b3bfd24a","properties":{"airport":"LFRS","name":"16","layer":"Labels","category":"Gates","object_type":"Label","style_id":"label.gates","source_group":"LFRS Gates","vsmr_group_ids":[],"geometry_role":"text_label","text-field":"16"},"geometry":{"type":"Point","coordinates":[-1.602656111,47.15389]}},{"type":"Feature","id":"LFRS-a591c509f9cd32d55122","properties":{"airport":"LFRS","name":"17","layer":"Labels","category":"Gates","object_type":"Label","style_id":"label.gates","source_group":"LFRS Gates","vsmr_group_ids":[],"geometry_role":"text_label","text-field":"17"},"geometry":{"type":"Point","coordinates":[-1.603119444,47.154066667]}},{"type":"Feature","id":"LFRS-7dc55f2ae84484367f39","properties":{"airport":"LFRS","name":"18","layer":"Labels","category":"Gates","object_type":"Label","style_id":"label.gates","source_group":"LFRS Gates","vsmr_group_ids":[],"geometry_role":"text_label","text-field":"18"},"geometry":{"type":"Point","coordinates":[-1.603737222,47.154368056]}},{"type":"Feature","id":"LFRS-f998c46b43c5e036827a","properties":{"airport":"LFRS","name":"19","layer":"Labels","category":"Gates","object_type":"Label","style_id":"label.gates","source_group":"LFRS Gates","vsmr_group_ids":[],"geometry_role":"text_label","text-field":"19"},"geometry":{"type":"Point","coordinates":[-1.603943056,47.154651111]}},{"type":"Feature","id":"LFRS-cbf6e139115008b2d32e","properties":{"airport":"LFRS","name":"19A","layer":"Labels","category":"Gates","object_type":"Label","style_id":"label.gates","source_group":"LFRS Gates","vsmr_group_ids":[],"geometry_role":"text_label","text-field":"19A"},"geometry":{"type":"Point","coordinates":[-1.604596944,47.154444722]}},{"type":"Feature","id":"LFRS-748541b1ac0e02fb2130","properties":{"airport":"LFRS","name":"20","layer":"Labels","category":"Gates","object_type":"Label","style_id":"label.gates","source_group":"LFRS Gates","vsmr_group_ids":[],"geometry_role":"text_label","text-field":"20"},"geometry":{"type":"Point","coordinates":[-1.604695278,47.154986111]}},{"type":"Feature","id":"LFRS-c79ffed346365dc133ee","properties":{"airport":"LFRS","name":"VN","layer":"Labels","category":"Gates","object_type":"Label","style_id":"label.gates","source_group":"LFRS Gates","vsmr_group_ids":[],"geometry_role":"text_label","text-field":"VN"},"geometry":{"type":"Point","coordinates":[-1.600771944,47.155441111]}},{"type":"Feature","id":"LFRS-b097078783f9f5c344f2","properties":{"airport":"LFRS","name":"VS","layer":"Labels","category":"Gates","object_type":"Label","style_id":"label.gates","source_group":"LFRS Gates","vsmr_group_ids":[],"geometry_role":"text_label","text-field":"VS"},"geometry":{"type":"Point","coordinates":[-1.6019125,47.1540075]}},{"type":"Feature","id":"LFRS-2f4e1aa09209c136f115","properties":{"airport":"LFRS","name":"Hangars","layer":"Labels","category":"Gates","object_type":"Label","style_id":"label.gates","source_group":"LFRS Gates","vsmr_group_ids":[],"geometry_role":"text_label","text-field":"Hangars"},"geometry":{"type":"Point","coordinates":[-1.599561111,47.160368056]}},{"type":"Feature","id":"LFRS-52c1c5ea898dff3286e5","properties":{"airport":"LFRS","name":"Fret","layer":"Labels","category":"Gates","object_type":"Label","style_id":"label.gates","source_group":"LFRS Gates","vsmr_group_ids":[],"geometry_role":"text_label","text-field":"Fret"},"geometry":{"type":"Point","coordinates":[-1.601081944,47.152901111]}},{"type":"Feature","id":"LFRS-df1648e9415d40d94e3d","properties":{"airport":"LFRS","name":"F","layer":"Labels","category":"Taxiways","object_type":"Label","style_id":"label.taxiways","source_group":"LFRS Taxiways","vsmr_group_ids":[],"geometry_role":"text_label","text-field":"F"},"geometry":{"type":"Point","coordinates":[-1.601037222,47.162990278]}},{"type":"Feature","id":"LFRS-cf3b8034b595a374e882","properties":{"airport":"LFRS","name":"R5","layer":"Labels","category":"Taxiways","object_type":"Label","style_id":"label.taxiways","source_group":"LFRS Taxiways","vsmr_group_ids":[],"geometry_role":"text_label","text-field":"R5"},"geometry":{"type":"Point","coordinates":[-1.602173889,47.161463333]}},{"type":"Feature","id":"LFRS-421945f778982be64f21","properties":{"airport":"LFRS","name":"E","layer":"Labels","category":"Taxiways","object_type":"Label","style_id":"label.taxiways","source_group":"LFRS Taxiways","vsmr_group_ids":[],"geometry_role":"text_label","text-field":"E"},"geometry":{"type":"Point","coordinates":[-1.6041925,47.160038056]}},{"type":"Feature","id":"LFRS-5e7fb6498b6cb33ad5d2","properties":{"airport":"LFRS","name":"R4","layer":"Labels","category":"Taxiways","object_type":"Label","style_id":"label.taxiways","source_group":"LFRS Taxiways","vsmr_group_ids":[],"geometry_role":"text_label","text-field":"R4"},"geometry":{"type":"Point","coordinates":[-1.604285278,47.158749722]}},{"type":"Feature","id":"LFRS-2f7a219cd8363f30ab9b","properties":{"airport":"LFRS","name":"D","layer":"Labels","category":"Taxiways","object_type":"Label","style_id":"label.taxiways","source_group":"LFRS Taxiways","vsmr_group_ids":[],"geometry_role":"text_label","text-field":"D"},"geometry":{"type":"Point","coordinates":[-1.605329167,47.158409722]}},{"type":"Feature","id":"LFRS-a50e4c14e0830d48f204","properties":{"airport":"LFRS","name":"R3","layer":"Labels","category":"Taxiways","object_type":"Label","style_id":"label.taxiways","source_group":"LFRS Taxiways","vsmr_group_ids":[],"geometry_role":"text_label","text-field":"R3"},"geometry":{"type":"Point","coordinates":[-1.605615278,47.157045278]}},{"type":"Feature","id":"LFRS-37d32ac52f192bf7a2cb","properties":{"airport":"LFRS","name":"C","layer":"Labels","category":"Taxiways","object_type":"Label","style_id":"label.taxiways","source_group":"LFRS Taxiways","vsmr_group_ids":[],"geometry_role":"text_label","text-field":"C"},"geometry":{"type":"Point","coordinates":[-1.606566389,47.156771389]}},{"type":"Feature","id":"LFRS-83accc8ad88abd7d980f","properties":{"airport":"LFRS","name":"R2","layer":"Labels","category":"Taxiways","object_type":"Label","style_id":"label.taxiways","source_group":"LFRS Taxiways","vsmr_group_ids":[],"geometry_role":"text_label","text-field":"R2"},"geometry":{"type":"Point","coordinates":[-1.609714722,47.151806944]}},{"type":"Feature","id":"LFRS-244a323c8317c3468591","properties":{"airport":"LFRS","name":"B","layer":"Labels","category":"Taxiways","object_type":"Label","style_id":"label.taxiways","source_group":"LFRS Taxiways","vsmr_group_ids":[],"geometry_role":"text_label","text-field":"B"},"geometry":{"type":"Point","coordinates":[-1.6130825,47.148579444]}},{"type":"Feature","id":"LFRS-754d9c8bc98b39cbc250","properties":{"airport":"LFRS","name":"R1","layer":"Labels","category":"Taxiways","object_type":"Label","style_id":"label.taxiways","source_group":"LFRS Taxiways","vsmr_group_ids":[],"geometry_role":"text_label","text-field":"R1"},"geometry":{"type":"Point","coordinates":[-1.614486389,47.145525]}},{"type":"Feature","id":"LFRS-7dc65fe864d2760a7ee4","properties":{"airport":"LFRS","name":"A","layer":"Labels","category":"Taxiways","object_type":"Label","style_id":"label.taxiways","source_group":"LFRS Taxiways","vsmr_group_ids":[],"geometry_role":"text_label","text-field":"A"},"geometry":{"type":"Point","coordinates":[-1.617362222,47.141958611]}},{"type":"Feature","id":"LFRS-f870b272883b31250d44","properties":{"airport":"LFRS","name":"RD","layer":"Labels","category":"Taxiways","object_type":"Label","style_id":"label.taxiways","source_group":"LFRS Taxiways","vsmr_group_ids":[],"geometry_role":"text_label","text-field":"RD"},"geometry":{"type":"Point","coordinates":[-1.603889444,47.1564125]}},{"type":"Feature","id":"LFRS-0648eb2b13e8eee603bf","properties":{"airport":"LFRS","name":"RC","layer":"Labels","category":"Taxiways","object_type":"Label","style_id":"label.taxiways","source_group":"LFRS Taxiways","vsmr_group_ids":[],"geometry_role":"text_label","text-field":"RC"},"geometry":{"type":"Point","coordinates":[-1.604501389,47.1557975]}}]}
