{"type":"FeatureCollection","name":"LFRT AVISO","bbox":[-2.856770833,48.534118889,-2.851095833,48.537801389],"metadata":{"schema":"vSMR AVISO","schema_version":2,"geometry_mode":"shared","airport":"LFRT","coordinate_reference_system":"WGS84","coordinate_order":"longitude, latitude","default_color_palette":"dark","color_palettes":["dark","light"],"background_colors":{"dark":"#434A4F","light":"#434A4F"},"runways":[{"ends":["06","24"],"headings":[59,239],"thresholds":[[-2.867380833,48.533141944],[-2.841843889,48.543388889]]}],"saved_active_runways":[],"saved_active_airport_modes":[],"airport_reference":[-2.856666944,48.5375],"feature_count":15,"style_count":2,"layer_counts":{"Labels":15},"category_counts":{"Gates":12,"Taxiways":3},"geometry_source":"local GNG","geometry_source_url":"","geometry_license":"GPL-3.0"},"styles":{"label.gates":{"name":"Gates","layer":"Labels","object_type":"Label","paint":{"text-color":"#CCCCCC","text-font":"Arial","text-size":12,"text-halo-color":"#000000","text-halo-width":1,"text-anchor":"center","zoomLevel":9},"feature_count":12},"label.taxiways":{"name":"Taxiways","layer":"Labels","object_type":"Label","paint":{"text-color":"#CCCCCC","text-font":"Arial","text-size":12,"text-halo-color":"#000000","text-halo-width":1,"text-anchor":"center","zoomLevel":7},"feature_count":3}},"vsmr_groups":[],"features":[{"type":"Feature","id":"LFRT-7cc2bd3596ddbc1cc9b7","properties":{"airport":"LFRT","name":"TWR","layer":"Labels","category":"Gates","object_type":"Label","style_id":"label.gates","source_group":"LFRT Gates","vsmr_group_ids":[],"geometry_role":"text_label","text-field":"TWR"},"geometry":{"type":"Point","coordinates":[-2.853314444,48.535455556]}},{"type":"Feature","id":"LFRT-ecb0332ecaaac88b0bab","properties":{"airport":"LFRT","name":"P","layer":"Labels","category":"Gates","object_type":"Label","style_id":"label.gates","source_group":"LFRT Gates","vsmr_group_ids":[],"geometry_role":"text_label","text-field":"P"},"geometry":{"type":"Point","coordinates":[-2.856770833,48.534525]}},{"type":"Feature","id":"LFRT-d3fed17ef5674dde46ce","properties":{"airport":"LFRT","name":"P","layer":"Labels","category":"Gates","object_type":"Label","style_id":"label.gates","source_group":"LFRT Gates","vsmr_group_ids":[],"geometry_role":"text_label","text-field":"P"},"geometry":{"type":"Point","coordinates":[-2.851420278,48.536786944]}},{"type":"Feature","id":"LFRT-124b1a796f31ae138ee3","properties":{"airport":"LFRT","name":"Terminal","layer":"Labels","category":"Gates","object_type":"Label","style_id":"label.gates","source_group":"LFRT Gates","vsmr_group_ids":[],"geometry_role":"text_label","text-field":"Terminal"},"geometry":{"type":"Point","coordinates":[-2.854967222,48.5347525]}},{"type":"Feature","id":"LFRT-25c8846f660fe735f383","properties":{"airport":"LFRT","name":"ACB","layer":"Labels","category":"Gates","object_type":"Label","style_id":"label.gates","source_group":"LFRT Gates","vsmr_group_ids":[],"geometry_role":"text_label","text-field":"ACB"},"geometry":{"type":"Point","coordinates":[-2.851095833,48.536460278]}},{"type":"Feature","id":"LFRT-2fcc788b2e132ae0102e","properties":{"airport":"LFRT","name":"Hangar","layer":"Labels","category":"Gates","object_type":"Label","style_id":"label.gates","source_group":"LFRT Gates","vsmr_group_ids":[],"geometry_role":"text_label","text-field":"Hangar"},"geometry":{"type":"Point","coordinates":[-2.856484167,48.534118889]}},{"type":"Feature","id":"LFRT-1585624a7453f13386af","properties":{"airport":"LFRT","name":"1","layer":"Labels","category":"Gates","object_type":"Label","style_id":"label.gates","source_group":"LFRT Gates","vsmr_group_ids":[],"geometry_role":"text_label","text-field":"1"},"geometry":{"type":"Point","coordinates":[-2.854767778,48.535425556]}},{"type":"Feature","id":"LFRT-404df7635e566cae0713","properties":{"airport":"LFRT","name":"2","layer":"Labels","category":"Gates","object_type":"Label","style_id":"label.gates","source_group":"LFRT Gates","vsmr_group_ids":[],"geometry_role":"text_label","text-field":"2"},"geometry":{"type":"Point","coordinates":[-2.855230278,48.535190278]}},{"type":"Feature","id":"LFRT-8ba5084553332c116be8","properties":{"airport":"LFRT","name":"3","layer":"Labels","category":"Gates","object_type":"Label","style_id":"label.gates","source_group":"LFRT Gates","vsmr_group_ids":[],"geometry_role":"text_label","text-field":"3"},"geometry":{"type":"Point","coordinates":[-2.855844167,48.535023611]}},{"type":"Feature","id":"LFRT-ee583062d826a2753bb6","properties":{"airport":"LFRT","name":"A","layer":"Labels","category":"Gates","object_type":"Label","style_id":"label.gates","source_group":"LFRT Gates","vsmr_group_ids":[],"geometry_role":"text_label","text-field":"A"},"geometry":{"type":"Point","coordinates":[-2.855844167,48.535605]}},{"type":"Feature","id":"LFRT-1c98b03712749a248cf6","properties":{"airport":"LFRT","name":"B","layer":"Labels","category":"Gates","object_type":"Label","style_id":"label.gates","source_group":"LFRT Gates","vsmr_group_ids":[],"geometry_role":"text_label","text-field":"B"},"geometry":{"type":"Point","coordinates":[-2.856014444,48.5355375]}},{"type":"Feature","id":"LFRT-1170899ab4daa4711e0a","properties":{"airport":"LFRT","name":"C","layer":"Labels","category":"Gates","object_type":"Label","style_id":"label.gates","source_group":"LFRT Gates","vsmr_group_ids":[],"geometry_role":"text_label","text-field":"C"},"geometry":{"type":"Point","coordinates":[-2.856273611,48.535444167]}},{"type":"Feature","id":"LFRT-d8c73f582534dba120bc","properties":{"airport":"LFRT","name":"A","layer":"Labels","category":"Taxiways","object_type":"Label","style_id":"label.taxiways","source_group":"LFRT Taxiways","vsmr_group_ids":[],"geometry_role":"text_label","text-field":"A"},"geometry":{"type":"Point","coordinates":[-2.852429167,48.537801389]}},{"type":"Feature","id":"LFRT-0fdb1b8d867573f847c5","properties":{"airport":"LFRT","name":"C","layer":"Labels","category":"Taxiways","object_type":"Label","style_id":"label.taxiways","source_group":"LFRT Taxiways","vsmr_group_ids":[],"geometry_role":"text_label","text-field":"C"},"geometry":{"type":"Point","coordinates":[-2.8540325,48.536803611]}},{"type":"Feature","id":"LFRT-ed3925d4d7557b0a84c8","properties":{"airport":"LFRT","name":"B","layer":"Labels","category":"Taxiways","object_type":"Label","style_id":"label.taxiways","source_group":"LFRT Taxiways","vsmr_group_ids":[],"geometry_role":"text_label","text-field":"B"},"geometry":{"type":"Point","coordinates":[-2.856143333,48.536401667]}}]}
