{"type":"FeatureCollection","name":"LFRU AVISO","bbox":[-3.823125278,48.597593889,-3.807012222,48.609003333],"metadata":{"schema":"vSMR AVISO","schema_version":2,"geometry_mode":"shared","airport":"LFRU","coordinate_reference_system":"WGS84","coordinate_order":"longitude, latitude","default_color_palette":"dark","color_palettes":["dark","light"],"background_colors":{"dark":"#434A4F","light":"#434A4F"},"runways":[{"ends":["15","33"],"headings":[153,333],"thresholds":[[-3.816160833,48.606699722],[-3.810793889,48.599977778]]},{"ends":["09","27"],"headings":[90,270],"thresholds":[[-3.816160833,48.602230833],[-3.809938889,48.602285833]]},{"ends":["04","22"],"headings":[41,221],"thresholds":[[-3.821718889,48.598666944],[-3.808825,48.608827778]]}],"saved_active_runways":[],"saved_active_airport_modes":[],"airport_reference":[-3.816666944,48.600832778],"feature_count":15,"style_count":9,"layer_counts":{"Guidance lines":7,"Labels":8},"category_counts":{"Apron Surface":1,"Centerlines":1,"Gates":5,"Grass runways":1,"Labels":1,"Runways":1,"Stopbars":1,"Taxiways":4},"geometry_source":"local GNG","geometry_source_url":"","geometry_license":"GPL-3.0"},"styles":{"line.runwayconcrete.555555":{"name":"Runways","layer":"Guidance lines","object_type":"Line","paint":{"stroke":"#111318","stroke-opacity":1,"stroke-width":1,"palette-overrides":{"light":{"stroke":"#555555"}}},"feature_count":1},"line.runwaygrass.008000":{"name":"Grass runways","layer":"Guidance lines","object_type":"Line","paint":{"stroke":"#859A77","stroke-opacity":1,"stroke-width":1,"palette-overrides":{"light":{"stroke":"#008000"}}},"feature_count":1},"line.taxiway.c0b631":{"name":"Taxiways","layer":"Guidance lines","object_type":"Line","paint":{"stroke":"#4E5A69","stroke-opacity":1,"stroke-width":1,"palette-overrides":{"light":{"stroke":"#C0B631"}}},"feature_count":1},"line.apronsurface.808080":{"name":"Apron Surface","layer":"Guidance lines","object_type":"Line","paint":{"stroke":"#808080","stroke-opacity":1,"stroke-width":1,"palette-overrides":{"light":{"stroke":"#808080"}}},"feature_count":1},"line.stopbar.7e0000":{"name":"Stopbars","layer":"Guidance lines","object_type":"Line","paint":{"stroke":"#7E0000","stroke-opacity":1,"stroke-width":1,"palette-overrides":{"light":{"stroke":"#7E0000"}}},"feature_count":1},"line.centerlines.ffff00":{"name":"Centerlines","layer":"Guidance lines","object_type":"Line","paint":{"stroke":"#FFFF00","stroke-opacity":1,"stroke-width":1,"palette-overrides":{"light":{"stroke":"#FFFF00"}}},"feature_count":1},"line.labels.808080":{"name":"Labels","layer":"Guidance lines","object_type":"Line","paint":{"stroke":"#808080","stroke-opacity":1,"stroke-width":1,"palette-overrides":{"light":{"stroke":"#808080"}}},"feature_count":1},"label.gates":{"name":"Gates","layer":"Labels","object_type":"Label","paint":{"text-color":"#CCCCCC","text-font":"Arial","text-size":12,"text-halo-color":"#000000","text-halo-width":1,"text-anchor":"center","zoomLevel":9},"feature_count":5},"label.taxiways":{"name":"Taxiways","layer":"Labels","object_type":"Label","paint":{"text-color":"#CCCCCC","text-font":"Arial","text-size":12,"text-halo-color":"#000000","text-halo-width":1,"text-anchor":"center","zoomLevel":7},"feature_count":3}},"vsmr_groups":[],"features":[{"type":"Feature","id":"LFRU-9a7bcca0647d39f4eac5","properties":{"airport":"LFRU","name":"TWR","layer":"Labels","category":"Gates","object_type":"Label","style_id":"label.gates","source_group":"LFRU Gates","vsmr_group_ids":[],"geometry_role":"text_label","text-field":"TWR"},"geometry":{"type":"Point","coordinates":[-3.816626944,48.600066667]}},{"type":"Feature","id":"LFRU-cde92f452952777f4725","properties":{"airport":"LFRU","name":"Terminal","layer":"Labels","category":"Gates","object_type":"Label","style_id":"label.gates","source_group":"LFRU Gates","vsmr_group_ids":[],"geometry_role":"text_label","text-field":"Terminal"},"geometry":{"type":"Point","coordinates":[-3.816705278,48.599928889]}},{"type":"Feature","id":"LFRU-91eb226bc977b19d40bb","properties":{"airport":"LFRU","name":"Hangars","layer":"Labels","category":"Gates","object_type":"Label","style_id":"label.gates","source_group":"LFRU Gates","vsmr_group_ids":[],"geometry_role":"text_label","text-field":"Hangars"},"geometry":{"type":"Point","coordinates":[-3.814798611,48.599767222]}},{"type":"Feature","id":"LFRU-2c99c9886ebc8de0ba82","properties":{"airport":"LFRU","name":"Hangars ULM","layer":"Labels","category":"Gates","object_type":"Label","style_id":"label.gates","source_group":"LFRU Gates","vsmr_group_ids":[],"geometry_role":"text_label","text-field":"Hangars ULM"},"geometry":{"type":"Point","coordinates":[-3.810288056,48.601289722]}},{"type":"Feature","id":"LFRU-8cd9ca1a7d5c50446245","properties":{"airport":"LFRU","name":"Aire de point fixe A","layer":"Labels","category":"Gates","object_type":"Label","style_id":"label.gates","source_group":"LFRU Gates","vsmr_group_ids":[],"geometry_role":"text_label","text-field":"Aire de point fixe A"},"geometry":{"type":"Point","coordinates":[-3.809986111,48.603778333]}},{"type":"Feature","id":"LFRU-538a30cacca9bfabc6a9","properties":{"airport":"LFRU","name":"LFRU Groundlayout","layer":"Guidance lines","category":"Runways","object_type":"Line","style_id":"line.runwayconcrete.555555","source_group":"LFRU Groundlayout","vsmr_group_ids":[],"geometry_role":"linework"},"geometry":{"type":"MultiLineString","coordinates":[[[-3.819377222,48.600084722],[-3.819463611,48.600116944],[-3.819485278,48.600087222],[-3.819499722,48.600053889],[-3.819512222,48.600025278],[-3.819532222,48.600005],[-3.81955,48.599983611],[-3.819575278,48.599966944],[-3.819595,48.599950278],[-3.8196275,48.599935833],[-3.819665278,48.599919167],[-3.819699722,48.599908611]],[[-3.817445,48.601606389],[-3.814511667,48.603922222]],[[-3.813721944,48.604535556],[-3.812390278,48.60559]],[[-3.811689444,48.606139444],[-3.809231944,48.608089167]],[[-3.808588333,48.608705278],[-3.808992222,48.608939444],[-3.809089167,48.608866111]],[[-3.80986,48.608443056],[-3.814156944,48.605046389]],[[-3.814916389,48.604447778],[-3.819990556,48.600447778],[-3.820060556,48.600423889],[-3.820125278,48.600403333],[-3.820166667,48.600379444],[-3.820223611,48.600345],[-3.820273056,48.600305556],[-3.820324722,48.600257778],[-3.820373889,48.600211389],[-3.820412778,48.600168611],[-3.820451667,48.600134444],[-3.8204775,48.600117222],[-3.820350556,48.599986944],[-3.823125278,48.597818889],[-3.822776111,48.597625278],[-3.822742778,48.597613333],[-3.8227075,48.597608333],[-3.822673889,48.597599167],[-3.822636667,48.597593889],[-3.8225875,48.597593889],[-3.82255,48.597597778],[-3.822508611,48.597609444],[-3.822475278,48.597623889],[-3.822437778,48.597647222],[-3.822412222,48.597666667],[-3.8223925,48.597688889],[-3.822375,48.597712222],[-3.822361111,48.597738333],[-3.822351389,48.597766944],[-3.8223475,48.597798333],[-3.822345556,48.597829444],[-3.822335556,48.597859444],[-3.822327778,48.597882778],[-3.822313889,48.597906111],[-3.822294167,48.5979375],[-3.822276667,48.597962222],[-3.822253056,48.597984167],[-3.8200925,48.599686944]]]}},{"type":"Feature","id":"LFRU-e10f15db529efd17aea6","properties":{"airport":"LFRU","name":"LFRU Groundlayout","layer":"Guidance lines","category":"Grass runways","object_type":"Line","style_id":"line.runwaygrass.008000","source_group":"LFRU Groundlayout","vsmr_group_ids":[],"geometry_role":"linework"},"geometry":{"type":"MultiLineString","coordinates":[[[-3.813719722,48.604534722],[-3.812267778,48.602667222],[-3.809748333,48.602685],[-3.809735556,48.601970556],[-3.811695833,48.601953611]],[[-3.814157222,48.605045833],[-3.815651667,48.606904167],[-3.8166125,48.606566667],[-3.814915833,48.604447778]],[[-3.814507778,48.603925278],[-3.813488889,48.602655],[-3.816133333,48.602628889],[-3.816118056,48.601914444],[-3.812919722,48.601940556],[-3.811255833,48.599854722],[-3.810295833,48.600183889],[-3.8116975,48.601954167]]]}},{"type":"Feature","id":"LFRU-6915df8c84e4c11ea7f6","properties":{"airport":"LFRU","name":"LFRU Groundlayout","layer":"Guidance lines","category":"Taxiways","object_type":"Line","style_id":"line.taxiway.c0b631","source_group":"LFRU Groundlayout","vsmr_group_ids":[],"geometry_role":"linework"},"geometry":{"type":"MultiLineString","coordinates":[[[-3.811687778,48.606140833],[-3.811691111,48.606111389],[-3.811701667,48.606079167],[-3.811705833,48.606054722],[-3.811708889,48.606025556],[-3.811708889,48.606003056],[-3.811706944,48.605978056],[-3.8117025,48.605950833],[-3.811696389,48.605927778],[-3.811688889,48.6059025],[-3.811679444,48.605881667],[-3.811666667,48.605858611],[-3.811650833,48.605839167],[-3.8116225,48.605813889],[-3.811577778,48.605764444],[-3.810131944,48.6049425]],[[-3.809860556,48.608441389],[-3.809849722,48.608453056],[-3.809829167,48.608488056],[-3.809570556,48.609003333],[-3.809091389,48.608865]],[[-3.809228333,48.608091111],[-3.808155278,48.608470556],[-3.8080825,48.608449722],[-3.807951111,48.608388611],[-3.807866389,48.608335556],[-3.807794722,48.608268333],[-3.807726944,48.608195556],[-3.807663611,48.608100556],[-3.807612778,48.608027778],[-3.8076,48.607943889],[-3.807570556,48.607851667],[-3.807540833,48.607767778],[-3.807473333,48.607700833],[-3.8073675,48.607633611],[-3.807253333,48.607597222],[-3.807139167,48.607605556],[-3.807067222,48.607641944],[-3.807029167,48.607689444],[-3.807012222,48.607748333],[-3.807012222,48.607806944],[-3.807054444,48.607837778],[-3.807130556,48.607862778],[-3.807261667,48.607901944],[-3.807342222,48.607941111],[-3.807430833,48.607985833],[-3.807468889,48.608039167],[-3.807515556,48.608123056],[-3.807583056,48.608209722],[-3.807633889,48.608301944],[-3.807714167,48.608360556],[-3.807777778,48.608413889],[-3.807845278,48.608466944],[-3.807917222,48.608503333],[-3.8079975,48.608531389],[-3.808585278,48.608699167]],[[-3.820092778,48.599686667],[-3.820081389,48.599691389],[-3.820071667,48.599694722],[-3.820061944,48.599695278],[-3.820047778,48.599696667],[-3.820029444,48.599695556],[-3.820010556,48.599694722],[-3.819980556,48.599691111],[-3.819955278,48.599688611],[-3.819931389,48.599683056],[-3.8199075,48.599678889],[-3.819888611,48.599673333],[-3.819869722,48.599665],[-3.819844444,48.599656111],[-3.819822778,48.599646389],[-3.819801111,48.599633889],[-3.81978,48.599621389],[-3.819759722,48.599604167],[-3.819733056,48.599581111],[-3.819704444,48.599556667],[-3.819666389,48.5995225],[-3.819639722,48.599502222],[-3.819617778,48.599483333],[-3.819594722,48.599464722],[-3.81957,48.599448889],[-3.8195425,48.599430833],[-3.8195125,48.599411944],[-3.819485833,48.599398611],[-3.819453333,48.599383333],[-3.819410833,48.599371111],[-3.819351667,48.599358333],[-3.818315278,48.599184444],[-3.818285278,48.599178333],[-3.818258611,48.599169444],[-3.818197778,48.599128611]],[[-3.819696389,48.599907222],[-3.819698889,48.599860556],[-3.819701389,48.599818611],[-3.819684167,48.599778333],[-3.819674444,48.599743056],[-3.819650278,48.599701111],[-3.819631944,48.59967],[-3.819618611,48.599645556],[-3.819603056,48.599626389],[-3.819590556,48.59961],[-3.819575,48.59959],[-3.819545833,48.599567222],[-3.819510278,48.599539167],[-3.81948,48.599516111],[-3.819453056,48.599500556],[-3.819416389,48.599479167],[-3.819389444,48.599466667],[-3.819355833,48.599455556],[-3.819324722,48.599449722],[-3.819264167,48.599438611],[-3.818118333,48.599240833]],[[-3.818062778,48.601126389],[-3.817968333,48.601138889],[-3.817888333,48.601148333],[-3.817831111,48.601151667],[-3.817767778,48.601154722],[-3.817721111,48.601156389],[-3.817668611,48.601153056],[-3.817615,48.601148333],[-3.817556389,48.601138056],[-3.817506111,48.601128611],[-3.817457222,48.6011175],[-3.817413056,48.6011025],[-3.817375833,48.601088333],[-3.816688889,48.600710556],[-3.816658611,48.600691667],[-3.816645833,48.600678333],[-3.816639722,48.600667222],[-3.816634167,48.600653889],[-3.816596389,48.600580833],[-3.8165875,48.60055],[-3.816586389,48.60052],[-3.816583611,48.600478333],[-3.816582778,48.600400833]],[[-3.817442778,48.601606667],[-3.817453889,48.601585556],[-3.817453889,48.601559167],[-3.8174525,48.601526389],[-3.817446111,48.601492778],[-3.817436389,48.601468333],[-3.817426944,48.6014325],[-3.8174125,48.601402778],[-3.817401389,48.601376389],[-3.817378889,48.601340556],[-3.817345556,48.601302778],[-3.817303611,48.601264722],[-3.816213611,48.600663611]],[[-3.812395556,48.605585278],[-3.812344444,48.6056175],[-3.812290556,48.605642222],[-3.812239444,48.605658889],[-3.812185,48.605675833],[-3.8121225,48.6056875],[-3.812058611,48.605697222],[-3.812004167,48.6057025],[-3.811946667,48.605701389],[-3.811890556,48.605696111],[-3.811837778,48.605685556],[-3.811797778,48.605676944],[-3.811753056,48.605663333],[-3.811703611,48.6056475],[-3.811652222,48.605624167],[-3.810391667,48.604915],[-3.810358333,48.604892778],[-3.810328056,48.604873611],[-3.810306944,48.604853611],[-3.810281667,48.604830833]]]}},{"type":"Feature","id":"LFRU-bfc666598a95ee976486","properties":{"airport":"LFRU","name":"LFRU Groundlayout","layer":"Guidance lines","category":"Apron Surface","object_type":"Line","style_id":"line.apronsurface.808080","source_group":"LFRU Groundlayout","vsmr_group_ids":[],"geometry_role":"linework"},"geometry":{"type":"MultiLineString","coordinates":[[[-3.810281944,48.604831667],[-3.810265,48.604813333],[-3.810248056,48.604792222],[-3.810236667,48.604775833],[-3.810225,48.60476],[-3.810214167,48.604740278],[-3.810205556,48.604723333],[-3.810198056,48.604703611],[-3.810191944,48.60469],[-3.810187778,48.604671667],[-3.810181667,48.604642778],[-3.810171111,48.604575],[-3.810168056,48.604559722],[-3.810173889,48.604537222],[-3.810180556,48.604514444],[-3.810197778,48.604467778],[-3.810206389,48.604441111],[-3.810215,48.604424722],[-3.810227222,48.604403333],[-3.810241667,48.604373056],[-3.810255,48.604340278],[-3.810265556,48.604308056],[-3.810274167,48.604268611],[-3.8102725,48.604225556],[-3.810265556,48.604191667],[-3.810257222,48.60416],[-3.810238333,48.604127222],[-3.810219444,48.604102222],[-3.810180278,48.604053611],[-3.810146111,48.604020833],[-3.81011,48.603996111],[-3.810069167,48.603973333],[-3.810031389,48.603954167],[-3.809988611,48.603936111],[-3.8099425,48.6039225],[-3.809886111,48.603908889],[-3.809831389,48.603897778],[-3.809775,48.603890833],[-3.809711667,48.603891944],[-3.809650278,48.603897778],[-3.809581944,48.603906667],[-3.809532222,48.6039225],[-3.8094725,48.603937222],[-3.8094125,48.603962222],[-3.809363056,48.603991389],[-3.809323611,48.604011944],[-3.809298056,48.604034444],[-3.809267222,48.604061667],[-3.809248333,48.604093333],[-3.809231389,48.604129444],[-3.809205556,48.604166667],[-3.809193611,48.604204167],[-3.809185,48.6042425],[-3.809193611,48.604291111],[-3.809202222,48.604329444],[-3.809215833,48.604357778],[-3.809236389,48.604395],[-3.809260278,48.604425556],[-3.809298056,48.604463056],[-3.809340556,48.604496944],[-3.809366944,48.604522778],[-3.809406944,48.604541667],[-3.810131667,48.604943611]],[[-3.818199444,48.599129444],[-3.818201111,48.599122222],[-3.818205,48.599114444],[-3.818215278,48.599104167],[-3.818496667,48.598919722],[-3.818531944,48.598918056],[-3.818548889,48.598911667],[-3.818567222,48.598901944],[-3.8186925,48.598786944],[-3.818533889,48.598696111],[-3.817068333,48.599773889],[-3.816648889,48.599535556],[-3.816586944,48.599578889],[-3.816653611,48.599789722],[-3.816608611,48.599831944],[-3.816845,48.599956389],[-3.816731111,48.600045833],[-3.816711667,48.600038333],[-3.816655,48.600087778],[-3.816703611,48.600116667],[-3.816648611,48.600157222],[-3.8165725,48.600106944],[-3.816530556,48.600108056],[-3.816494722,48.600091944],[-3.816530556,48.600061944],[-3.816494722,48.600038333],[-3.816480278,48.6000075],[-3.816549722,48.599951667],[-3.816443056,48.599896111],[-3.816384722,48.599876944],[-3.816344167,48.599861944],[-3.816302222,48.599853333],[-3.816255278,48.599845833],[-3.813646389,48.599841667],[-3.813671111,48.599904444],[-3.813713333,48.599958056],[-3.813766389,48.599988333],[-3.813819167,48.600009444],[-3.813815833,48.600488056],[-3.815345833,48.600513333],[-3.815562222,48.600505],[-3.815759722,48.60051],[-3.815836944,48.60051],[-3.815892222,48.600517222],[-3.815953056,48.60053],[-3.816217222,48.600664722]],[[-3.816584444,48.600402222],[-3.816876389,48.600165833],[-3.816913056,48.60018],[-3.8169375,48.600181944],[-3.816960556,48.600175],[-3.817319722,48.599905833],[-3.817261389,48.599865833],[-3.817417778,48.599755278],[-3.817445278,48.599767222],[-3.817604722,48.599638611],[-3.818120833,48.599241667]]]}},{"type":"Feature","id":"LFRU-9a001c7907e84403c8da","properties":{"airport":"LFRU","name":"LFRU Groundlayout","layer":"Guidance lines","category":"Stopbars","object_type":"Line","style_id":"line.stopbar.7e0000","source_group":"LFRU Groundlayout","vsmr_group_ids":[],"geometry_role":"linework"},"geometry":{"type":"MultiLineString","coordinates":[[[-3.8106575,48.605241389],[-3.8107875,48.605136944]],[[-3.818360556,48.599191944],[-3.818326944,48.599276667]],[[-3.81639,48.600759722],[-3.816600556,48.600588889]]]}},{"type":"Feature","id":"LFRU-cd84d3186ade64a4fd8f","properties":{"airport":"LFRU","name":"LFRU Groundlayout","layer":"Guidance lines","category":"Centerlines","object_type":"Line","style_id":"line.centerlines.ffff00","source_group":"LFRU Groundlayout","vsmr_group_ids":[],"geometry_role":"linework"},"geometry":{"type":"MultiLineString","coordinates":[[[-3.815040833,48.600364444],[-3.814493056,48.600364444]],[[-3.816036389,48.600024722],[-3.815633333,48.600025278]],[[-3.815445833,48.599865],[-3.815446667,48.600098333]],[[-3.815426667,48.599864444],[-3.815425556,48.600098889]],[[-3.815405278,48.599866389],[-3.815405278,48.600099167]],[[-3.814862222,48.599929167],[-3.814863889,48.600108611]],[[-3.814449167,48.600198611],[-3.814449167,48.599881944]],[[-3.814061944,48.599890833],[-3.814061667,48.600197222]]]}},{"type":"Feature","id":"LFRU-508c6559110938832325","properties":{"airport":"LFRU","name":"LFRU Groundlayout","layer":"Guidance lines","category":"Labels","object_type":"Line","style_id":"line.labels.808080","source_group":"LFRU Groundlayout","vsmr_group_ids":[],"geometry_role":"linework"},"geometry":{"type":"MultiLineString","coordinates":[[[-3.809372778,48.608366389],[-3.809317778,48.608411667],[-3.809210278,48.608433611],[-3.809196667,48.608445278],[-3.809242778,48.608470278],[-3.809213056,48.6084925],[-3.809145,48.608455556],[-3.809191944,48.608418056],[-3.809299722,48.608395556],[-3.809321667,48.608377778],[-3.809298333,48.608365833],[-3.809284722,48.608375],[-3.809263333,48.608363611],[-3.809305556,48.608329444],[-3.809372778,48.608366389]],[[-3.821224167,48.599173889],[-3.821158889,48.599136667],[-3.821315556,48.599013333],[-3.8213825,48.599050278],[-3.821224167,48.599173889]],[[-3.821232222,48.599140833],[-3.821206111,48.599126667],[-3.821308889,48.599048056],[-3.821333611,48.599061389],[-3.821232222,48.599140833]],[[-3.821098611,48.599105833],[-3.821076667,48.599092778],[-3.821203333,48.5990325],[-3.821181944,48.599020556],[-3.821131111,48.599058056],[-3.821111111,48.599047778],[-3.821161111,48.599008611],[-3.821145833,48.599000556],[-3.821173889,48.598978056],[-3.821189444,48.598985833],[-3.82122,48.598961111],[-3.821241944,48.598971667],[-3.821209167,48.598996944],[-3.82126,48.599025],[-3.821098611,48.599105833]],[[-3.809485,48.608428056],[-3.809428333,48.608471667],[-3.80932,48.608495556],[-3.8093075,48.608506111],[-3.809352222,48.60853],[-3.809322778,48.608554444],[-3.809256111,48.608515833],[-3.809301389,48.608479722],[-3.809409167,48.6084575],[-3.809433056,48.608438611],[-3.8094075,48.608425556],[-3.809392778,48.608436389],[-3.809373611,48.608426111],[-3.809415,48.608391389],[-3.809485,48.608428056]]]}},{"type":"Feature","id":"LFRU-ba4fd4a615192b58817c","properties":{"airport":"LFRU","name":"C","layer":"Labels","category":"Taxiways","object_type":"Label","style_id":"label.taxiways","source_group":"LFRU Taxiways","vsmr_group_ids":[],"geometry_role":"text_label","text-field":"C"},"geometry":{"type":"Point","coordinates":[-3.810797778,48.605495]}},{"type":"Feature","id":"LFRU-ed8e0b012b7aab5a2cd6","properties":{"airport":"LFRU","name":"A","layer":"Labels","category":"Taxiways","object_type":"Label","style_id":"label.taxiways","source_group":"LFRU Taxiways","vsmr_group_ids":[],"geometry_role":"text_label","text-field":"A"},"geometry":{"type":"Point","coordinates":[-3.816737778,48.601029444]}},{"type":"Feature","id":"LFRU-7a6b605aeeb8a6d5d8eb","properties":{"airport":"LFRU","name":"B","layer":"Labels","category":"Taxiways","object_type":"Label","style_id":"label.taxiways","source_group":"LFRU Taxiways","vsmr_group_ids":[],"geometry_role":"text_label","text-field":"B"},"geometry":{"type":"Point","coordinates":[-3.818488056,48.599345556]}}]}
