{"type":"FeatureCollection","name":"LFRV AVISO","bbox":[-2.730388889,47.716805556,-2.710388889,47.729694444],"metadata":{"schema":"vSMR AVISO","schema_version":2,"geometry_mode":"shared","airport":"LFRV","coordinate_reference_system":"WGS84","coordinate_order":"longitude, latitude","default_color_palette":"dark","color_palettes":["dark","light"],"background_colors":{"dark":"#434A4F","light":"#434A4F"},"runways":[{"ends":["08","26"],"headings":[83,263],"thresholds":[[-2.729941944,47.724141944],[-2.717880833,47.725275]]},{"ends":["04","22"],"headings":[40,220],"thresholds":[[-2.724955833,47.717941944],[-2.712082778,47.728582778]]}],"saved_active_runways":[],"saved_active_airport_modes":[],"airport_reference":[-2.723332778,47.719166944],"feature_count":2,"style_count":2,"layer_counts":{"Guidance lines":2},"category_counts":{"Grass runways":1,"Runways":1},"geometry_source":"local GNG/KMZ","geometry_source_url":"","geometry_license":"GPL-3.0"},"styles":{"line.runwayconcrete.555555":{"name":"Runways","layer":"Guidance lines","object_type":"Line","paint":{"stroke":"#111318","stroke-opacity":1,"stroke-width":1,"palette-overrides":{"light":{"stroke":"#555555"}}},"feature_count":1},"line.runwaygrass.008000":{"name":"Grass runways","layer":"Guidance lines","object_type":"Line","paint":{"stroke":"#859A77","stroke-opacity":1,"stroke-width":1,"palette-overrides":{"light":{"stroke":"#008000"}}},"feature_count":1}},"vsmr_groups":[],"features":[{"type":"Feature","id":"LFRV-7158d8fe33d1504bb451","properties":{"airport":"LFRV","name":"LFRV Groundlayout","layer":"Guidance lines","category":"Runways","object_type":"Line","style_id":"line.runwayconcrete.555555","source_group":"LFRV Groundlayout","vsmr_group_ids":[],"geometry_role":"linework"},"geometry":{"type":"MultiLineString","coordinates":[[[-2.729805556,47.722361111],[-2.717611111,47.723555556]],[[-2.730388889,47.725638889],[-2.729805556,47.722361111]],[[-2.718194444,47.726861111],[-2.717611111,47.723555556]]]}},{"type":"Feature","id":"LFRV-9726fa57dbac66e394e0","properties":{"airport":"LFRV","name":"LFRV Groundlayout","layer":"Guidance lines","category":"Grass runways","object_type":"Line","style_id":"line.runwaygrass.008000","source_group":"LFRV Groundlayout","vsmr_group_ids":[],"geometry_role":"linework"},"geometry":{"type":"MultiLineString","coordinates":[[[-2.726694444,47.719],[-2.713805556,47.729694444]],[[-2.723305556,47.716805556],[-2.710388889,47.7275]],[[-2.726694444,47.719],[-2.723305556,47.716805556]],[[-2.713805556,47.729694444],[-2.710388889,47.7275]]]}}]}
