{"type":"FeatureCollection","name":"LFSC AVISO","bbox":[7.393111111,47.910777778,7.4085,47.932166667],"metadata":{"schema":"vSMR AVISO","schema_version":2,"geometry_mode":"shared","airport":"LFSC","coordinate_reference_system":"WGS84","coordinate_order":"longitude, latitude","default_color_palette":"dark","color_palettes":["dark","light"],"background_colors":{"dark":"#434A4F","light":"#434A4F"},"runways":[],"saved_active_runways":[],"saved_active_airport_modes":[],"feature_count":19,"style_count":1,"layer_counts":{"Labels":19},"category_counts":{"Taxiways":19},"geometry_source":"local GNG/KMZ","geometry_source_url":"","geometry_license":"GPL-3.0"},"styles":{"label.taxiways":{"name":"Taxiways","layer":"Labels","object_type":"Label","paint":{"text-color":"#CCCCCC","text-font":"Arial","text-size":12,"text-halo-color":"#000000","text-halo-width":1,"text-anchor":"center","zoomLevel":7},"feature_count":19}},"vsmr_groups":[],"features":[{"type":"Feature","id":"LFSC-e4b5f7dbc022a94ee078","properties":{"airport":"LFSC","name":"4W","layer":"Labels","category":"Taxiways","object_type":"Label","style_id":"label.taxiways","source_group":"LFSC Taxiways","vsmr_group_ids":[],"geometry_role":"text_label","text-field":"4W"},"geometry":{"type":"Point","coordinates":[7.396055556,47.911472222]}},{"type":"Feature","id":"LFSC-96272fa021cb44fc75c3","properties":{"airport":"LFSC","name":"4W","layer":"Labels","category":"Taxiways","object_type":"Label","style_id":"label.taxiways","source_group":"LFSC Taxiways","vsmr_group_ids":[],"geometry_role":"text_label","text-field":"4W"},"geometry":{"type":"Point","coordinates":[7.397055556,47.91125]}},{"type":"Feature","id":"LFSC-3861ff36dffa8b05893b","properties":{"airport":"LFSC","name":"1W","layer":"Labels","category":"Taxiways","object_type":"Label","style_id":"label.taxiways","source_group":"LFSC Taxiways","vsmr_group_ids":[],"geometry_role":"text_label","text-field":"1W"},"geometry":{"type":"Point","coordinates":[7.404,47.932166667]}},{"type":"Feature","id":"LFSC-137a8f60c50e124571af","properties":{"airport":"LFSC","name":"1W","layer":"Labels","category":"Taxiways","object_type":"Label","style_id":"label.taxiways","source_group":"LFSC Taxiways","vsmr_group_ids":[],"geometry_role":"text_label","text-field":"1W"},"geometry":{"type":"Point","coordinates":[7.404972222,47.932027778]}},{"type":"Feature","id":"LFSC-f0b1e72ce365b2a56cfe","properties":{"airport":"LFSC","name":"A(S)","layer":"Labels","category":"Taxiways","object_type":"Label","style_id":"label.taxiways","source_group":"LFSC Taxiways","vsmr_group_ids":[],"geometry_role":"text_label","text-field":"A(S)"},"geometry":{"type":"Point","coordinates":[7.398888889,47.91425]}},{"type":"Feature","id":"LFSC-e74f56da5f73a6203b6e","properties":{"airport":"LFSC","name":"3W","layer":"Labels","category":"Taxiways","object_type":"Label","style_id":"label.taxiways","source_group":"LFSC Taxiways","vsmr_group_ids":[],"geometry_role":"text_label","text-field":"3W"},"geometry":{"type":"Point","coordinates":[7.398361111,47.917666667]}},{"type":"Feature","id":"LFSC-30b98168029bff7ebc91","properties":{"airport":"LFSC","name":"3W","layer":"Labels","category":"Taxiways","object_type":"Label","style_id":"label.taxiways","source_group":"LFSC Taxiways","vsmr_group_ids":[],"geometry_role":"text_label","text-field":"3W"},"geometry":{"type":"Point","coordinates":[7.399361111,47.9175]}},{"type":"Feature","id":"LFSC-a88781eed3bdba6b979e","properties":{"airport":"LFSC","name":"2W","layer":"Labels","category":"Taxiways","object_type":"Label","style_id":"label.taxiways","source_group":"LFSC Taxiways","vsmr_group_ids":[],"geometry_role":"text_label","text-field":"2W"},"geometry":{"type":"Point","coordinates":[7.401444444,47.925833333]}},{"type":"Feature","id":"LFSC-269fced9f0cf551f99fc","properties":{"airport":"LFSC","name":"2W","layer":"Labels","category":"Taxiways","object_type":"Label","style_id":"label.taxiways","source_group":"LFSC Taxiways","vsmr_group_ids":[],"geometry_role":"text_label","text-field":"2W"},"geometry":{"type":"Point","coordinates":[7.402416667,47.925638889]}},{"type":"Feature","id":"LFSC-c2226a4aaba6a054fbcf","properties":{"airport":"LFSC","name":"5","layer":"Labels","category":"Taxiways","object_type":"Label","style_id":"label.taxiways","source_group":"LFSC Taxiways","vsmr_group_ids":[],"geometry_role":"text_label","text-field":"5"},"geometry":{"type":"Point","coordinates":[7.395388889,47.911583333]}},{"type":"Feature","id":"LFSC-5400aa382b90328e14f8","properties":{"airport":"LFSC","name":"5","layer":"Labels","category":"Taxiways","object_type":"Label","style_id":"label.taxiways","source_group":"LFSC Taxiways","vsmr_group_ids":[],"geometry_role":"text_label","text-field":"5"},"geometry":{"type":"Point","coordinates":[7.393111111,47.911944444]}},{"type":"Feature","id":"LFSC-6930bffebfdeb2d5046d","properties":{"airport":"LFSC","name":"1E","layer":"Labels","category":"Taxiways","object_type":"Label","style_id":"label.taxiways","source_group":"LFSC Taxiways","vsmr_group_ids":[],"geometry_role":"text_label","text-field":"1E"},"geometry":{"type":"Point","coordinates":[7.405833333,47.931861111]}},{"type":"Feature","id":"LFSC-efdf8002d20e1cb19b41","properties":{"airport":"LFSC","name":"1E","layer":"Labels","category":"Taxiways","object_type":"Label","style_id":"label.taxiways","source_group":"LFSC Taxiways","vsmr_group_ids":[],"geometry_role":"text_label","text-field":"1E"},"geometry":{"type":"Point","coordinates":[7.406333333,47.931666667]}},{"type":"Feature","id":"LFSC-27e74f3c3e9f62167d2f","properties":{"airport":"LFSC","name":"1E","layer":"Labels","category":"Taxiways","object_type":"Label","style_id":"label.taxiways","source_group":"LFSC Taxiways","vsmr_group_ids":[],"geometry_role":"text_label","text-field":"1E"},"geometry":{"type":"Point","coordinates":[7.4085,47.931277778]}},{"type":"Feature","id":"LFSC-566c00582d2d6764f9f7","properties":{"airport":"LFSC","name":"4E","layer":"Labels","category":"Taxiways","object_type":"Label","style_id":"label.taxiways","source_group":"LFSC Taxiways","vsmr_group_ids":[],"geometry_role":"text_label","text-field":"4E"},"geometry":{"type":"Point","coordinates":[7.399611111,47.910777778]}},{"type":"Feature","id":"LFSC-67f2df101af79abecee0","properties":{"airport":"LFSC","name":"2E","layer":"Labels","category":"Taxiways","object_type":"Label","style_id":"label.taxiways","source_group":"LFSC Taxiways","vsmr_group_ids":[],"geometry_role":"text_label","text-field":"2E"},"geometry":{"type":"Point","coordinates":[7.404444444,47.92525]}},{"type":"Feature","id":"LFSC-bbd654049551cfa33543","properties":{"airport":"LFSC","name":"3E","layer":"Labels","category":"Taxiways","object_type":"Label","style_id":"label.taxiways","source_group":"LFSC Taxiways","vsmr_group_ids":[],"geometry_role":"text_label","text-field":"3E"},"geometry":{"type":"Point","coordinates":[7.401444444,47.917111111]}},{"type":"Feature","id":"LFSC-146d55ab229086336964","properties":{"airport":"LFSC","name":"A(C)","layer":"Labels","category":"Taxiways","object_type":"Label","style_id":"label.taxiways","source_group":"LFSC Taxiways","vsmr_group_ids":[],"geometry_role":"text_label","text-field":"A(C)"},"geometry":{"type":"Point","coordinates":[7.401583333,47.921444444]}},{"type":"Feature","id":"LFSC-3a6818c68881226a5771","properties":{"airport":"LFSC","name":"A(N)","layer":"Labels","category":"Taxiways","object_type":"Label","style_id":"label.taxiways","source_group":"LFSC Taxiways","vsmr_group_ids":[],"geometry_role":"text_label","text-field":"A(N)"},"geometry":{"type":"Point","coordinates":[7.404305556,47.928722222]}}]}
