{"type":"FeatureCollection","name":"LFSD AVISO","bbox":[5.070112778,47.252046667,5.097009167,47.2814],"metadata":{"schema":"vSMR AVISO","schema_version":2,"geometry_mode":"shared","airport":"LFSD","coordinate_reference_system":"WGS84","coordinate_order":"longitude, latitude","default_color_palette":"dark","color_palettes":["dark","light"],"background_colors":{"dark":"#434A4F","light":"#434A4F"},"runways":[{"ends":["17","35"],"headings":[173,353],"thresholds":[[5.093593889,47.276571944],[5.096366944,47.255068889]]},{"ends":["01","19"],"headings":[13,193],"thresholds":[[5.082885833,47.266293889],[5.087007778,47.276716944]]}],"saved_active_runways":[],"saved_active_airport_modes":[],"airport_reference":[5.094999722,47.265832778],"feature_count":23,"style_count":8,"layer_counts":{"Guidance lines":6,"Labels":17},"category_counts":{"Apron Surface":1,"Gates":5,"Labels":1,"Runways":1,"Stopbars":1,"TWR-CTR":1,"Taxiways":13},"geometry_source":"local GNG/KMZ","geometry_source_url":"","geometry_license":"GPL-3.0"},"styles":{"line.runwayconcrete.555555":{"name":"Runways","layer":"Guidance lines","object_type":"Line","paint":{"stroke":"#111318","stroke-opacity":1,"stroke-width":1,"palette-overrides":{"light":{"stroke":"#555555"}}},"feature_count":1},"line.taxiway.c0b631":{"name":"Taxiways","layer":"Guidance lines","object_type":"Line","paint":{"stroke":"#4E5A69","stroke-opacity":1,"stroke-width":1,"palette-overrides":{"light":{"stroke":"#C0B631"}}},"feature_count":1},"line.apronsurface.808080":{"name":"Apron Surface","layer":"Guidance lines","object_type":"Line","paint":{"stroke":"#808080","stroke-opacity":1,"stroke-width":1,"palette-overrides":{"light":{"stroke":"#808080"}}},"feature_count":1},"line.stopbar.7e0000":{"name":"Stopbars","layer":"Guidance lines","object_type":"Line","paint":{"stroke":"#7E0000","stroke-opacity":1,"stroke-width":1,"palette-overrides":{"light":{"stroke":"#7E0000"}}},"feature_count":1},"line.twr-ctr.000000":{"name":"TWR-CTR","layer":"Guidance lines","object_type":"Line","paint":{"stroke":"#000000","stroke-opacity":1,"stroke-width":1,"palette-overrides":{"light":{"stroke":"#000000"}}},"feature_count":1},"line.labels.808080":{"name":"Labels","layer":"Guidance lines","object_type":"Line","paint":{"stroke":"#808080","stroke-opacity":1,"stroke-width":1,"palette-overrides":{"light":{"stroke":"#808080"}}},"feature_count":1},"label.gates":{"name":"Gates","layer":"Labels","object_type":"Label","paint":{"text-color":"#CCCCCC","text-font":"Arial","text-size":12,"text-halo-color":"#000000","text-halo-width":1,"text-anchor":"center","zoomLevel":9},"feature_count":5},"label.taxiways":{"name":"Taxiways","layer":"Labels","object_type":"Label","paint":{"text-color":"#CCCCCC","text-font":"Arial","text-size":12,"text-halo-color":"#000000","text-halo-width":1,"text-anchor":"center","zoomLevel":7},"feature_count":12}},"vsmr_groups":[],"features":[{"type":"Feature","id":"LFSD-75a399b426241e1ab57b","properties":{"airport":"LFSD","name":"TWR","layer":"Labels","category":"Gates","object_type":"Label","style_id":"label.gates","source_group":"LFSD Gates","vsmr_group_ids":[],"geometry_role":"text_label","text-field":"TWR"},"geometry":{"type":"Point","coordinates":[5.088458056,47.268905]}},{"type":"Feature","id":"LFSD-0e5d3737895a77859b26","properties":{"airport":"LFSD","name":"AVT","layer":"Labels","category":"Gates","object_type":"Label","style_id":"label.gates","source_group":"LFSD Gates","vsmr_group_ids":[],"geometry_role":"text_label","text-field":"AVT"},"geometry":{"type":"Point","coordinates":[5.071920278,47.2788875]}},{"type":"Feature","id":"LFSD-ae55045f897b188eca75","properties":{"airport":"LFSD","name":"Terminal","layer":"Labels","category":"Gates","object_type":"Label","style_id":"label.gates","source_group":"LFSD Gates","vsmr_group_ids":[],"geometry_role":"text_label","text-field":"Terminal"},"geometry":{"type":"Point","coordinates":[5.070112778,47.278304167]}},{"type":"Feature","id":"LFSD-2e538c3d9d4ebfca410f","properties":{"airport":"LFSD","name":"P-Principal","layer":"Labels","category":"Gates","object_type":"Label","style_id":"label.gates","source_group":"LFSD Gates","vsmr_group_ids":[],"geometry_role":"text_label","text-field":"P-Principal"},"geometry":{"type":"Point","coordinates":[5.072210278,47.277923611]}},{"type":"Feature","id":"LFSD-ca5fc85618d1606d1773","properties":{"airport":"LFSD","name":"P","layer":"Labels","category":"Gates","object_type":"Label","style_id":"label.gates","source_group":"LFSD Gates","vsmr_group_ids":[],"geometry_role":"text_label","text-field":"P"},"geometry":{"type":"Point","coordinates":[5.080388333,47.273269722]}},{"type":"Feature","id":"LFSD-86200b5f13eb41177821","properties":{"airport":"LFSD","name":"LFSD Groundlayout","layer":"Guidance lines","category":"Runways","object_type":"Line","style_id":"line.runwayconcrete.555555","source_group":"LFSD Groundlayout","vsmr_group_ids":[],"geometry_role":"linework"},"geometry":{"type":"MultiLineString","coordinates":[[[5.093269167,47.276823611],[5.093159444,47.277680833],[5.093152778,47.277695556],[5.093138611,47.277713611],[5.093129444,47.277725],[5.093113889,47.277734722],[5.093096667,47.277738889],[5.0930875,47.277744167],[5.093050278,47.277988611],[5.092868889,47.280351667],[5.093352778,47.280383056],[5.09399,47.276003056],[5.096721944,47.254688889],[5.096786944,47.254692222],[5.096815833,47.254468611],[5.096811111,47.25441],[5.096794167,47.254383889],[5.096791944,47.254354444],[5.096801389,47.254085278],[5.097009167,47.252076111],[5.096508889,47.252046667],[5.096294722,47.253685556],[5.096263889,47.253811389],[5.096242778,47.253931111],[5.096138333,47.2542675],[5.096090833,47.254433056],[5.096066389,47.254652222],[5.096124167,47.2546775],[5.096075556,47.255025556]],[[5.096006944,47.255620556],[5.094968889,47.263626111]],[[5.094871944,47.264346389],[5.093356667,47.276158056]],[[5.088107222,47.280140833],[5.088202778,47.28041]],[[5.088252778,47.280521111],[5.088605833,47.2814],[5.0890925,47.281358056],[5.088739444,47.280420278]],[[5.088683611,47.2802975],[5.088583056,47.280046111]],[[5.088342778,47.279406944],[5.084569722,47.269886667]],[[5.084496667,47.269706944],[5.082301944,47.264166667],[5.081969444,47.263306111],[5.081453889,47.263408611],[5.081828889,47.264256111]],[[5.0820325,47.264760833],[5.084083056,47.270008889]]]}},{"type":"Feature","id":"LFSD-b02862db6b77b4ec229e","properties":{"airport":"LFSD","name":"LFSD Groundlayout","layer":"Guidance lines","category":"Taxiways","object_type":"Line","style_id":"line.taxiway.c0b631","source_group":"LFSD Groundlayout","vsmr_group_ids":[],"geometry_role":"linework"},"geometry":{"type":"MultiLineString","coordinates":[[[5.088688056,47.280295278],[5.088712222,47.280287222],[5.088741111,47.280265],[5.088765833,47.280229444],[5.088776667,47.280194722],[5.088775278,47.28016],[5.0887675,47.280124444],[5.088748889,47.280076111],[5.088717778,47.279985833],[5.088693056,47.279988889],[5.088662222,47.280004722],[5.088584722,47.280046667]],[[5.096007222,47.2556225],[5.096007222,47.255589444],[5.096001111,47.255548611],[5.095989722,47.255515556],[5.095977222,47.255483056],[5.095964722,47.255455833],[5.095944722,47.255419444],[5.095920833,47.255387222],[5.095884722,47.255344722],[5.095853333,47.255315833],[5.095810833,47.255286111],[5.095778333,47.2552675],[5.095726944,47.255241667],[5.095694444,47.255227222],[5.095664167,47.255218333],[5.095623889,47.255212222],[5.095562222,47.255208333],[5.095241111,47.255187778],[5.094474444,47.255141944],[5.094441944,47.255144444],[5.094414167,47.255146111],[5.094385556,47.255150556],[5.094350278,47.255158056],[5.094285278,47.255171667],[5.094193611,47.255198889],[5.094110556,47.255226667],[5.0940425,47.255255278],[5.093970278,47.255290278],[5.093879444,47.255338611],[5.093831111,47.255373333],[5.093783889,47.255410833],[5.093693889,47.255483889],[5.0936625,47.255513333],[5.093625833,47.255563056],[5.093573333,47.255636111],[5.093548611,47.255689444],[5.093516944,47.255769167],[5.093506389,47.255802222],[5.093497778,47.255868056],[5.093480556,47.255989722],[5.093463333,47.256125278],[5.093423056,47.256425556],[5.093403611,47.256559722],[5.0933725,47.256808056],[5.093346111,47.257012222],[5.093273611,47.257583889],[5.093260556,47.257690278],[5.093163611,47.258460556],[5.093086389,47.259060556],[5.093073889,47.259148611],[5.092963333,47.260002222],[5.092571389,47.263040556],[5.092513889,47.263432778],[5.092518056,47.263483333],[5.092546111,47.263541667],[5.092578889,47.263597778],[5.092638056,47.263645278],[5.092721944,47.263684444],[5.092801111,47.263708611],[5.092883611,47.263715833],[5.093062222,47.263726389],[5.093334167,47.263745556],[5.093519167,47.263758056],[5.094429722,47.2638125],[5.094577778,47.263819167],[5.094665833,47.26381],[5.094754167,47.263790278],[5.094829167,47.263757778],[5.094890556,47.263709722],[5.094946111,47.263656667],[5.094959444,47.263637778],[5.094969167,47.263623889]],[[5.096076667,47.255025],[5.096061667,47.255015278],[5.096050556,47.255015833],[5.096056667,47.255028889],[5.0960425,47.255028889],[5.096031389,47.255026111],[5.095711389,47.254764444],[5.094625833,47.254696111],[5.094535833,47.254689722],[5.094375833,47.254701111],[5.0940925,47.254930556],[5.093494444,47.255449167],[5.093420833,47.255538611],[5.093381944,47.255602778],[5.093353333,47.255666111],[5.093321111,47.255741111],[5.093309444,47.255795556],[5.093296389,47.255858056],[5.093287222,47.255941667],[5.093216944,47.256474444],[5.093126944,47.257195833],[5.092973611,47.258411944],[5.092616111,47.261153889],[5.092352778,47.26315],[5.092304444,47.263500278],[5.092296944,47.263562778],[5.092273056,47.263617778],[5.092249167,47.263680278],[5.092223333,47.263741389],[5.092191944,47.2637875],[5.092149722,47.263836389],[5.092096389,47.263891389],[5.092039444,47.263944167],[5.091975833,47.263996111],[5.0918425,47.264096667],[5.091473056,47.264381389],[5.090632778,47.2650225],[5.089627222,47.265795833],[5.089375278,47.265988889],[5.084546667,47.269681667],[5.084516389,47.269705556],[5.084507222,47.269711389],[5.084502222,47.269711389],[5.084497778,47.269709722],[5.084496389,47.269706667]],[[5.0845725,47.269887222],[5.084574444,47.269867778],[5.0845875,47.269859444],[5.084600278,47.269844444],[5.084659167,47.269800278],[5.084764167,47.269718611],[5.086519444,47.268378889],[5.088115556,47.267155278],[5.092120833,47.264086111],[5.0922,47.264041667],[5.092288611,47.263999722],[5.092386111,47.263960833],[5.092499722,47.263926389],[5.092580278,47.263904722],[5.092647778,47.263889167],[5.092714444,47.263878889],[5.092795,47.263869444],[5.092883333,47.263864167],[5.092995278,47.263863611],[5.093141667,47.263868056],[5.093276389,47.263876111],[5.093451667,47.263886944],[5.093553889,47.263894444],[5.094282222,47.263939167],[5.094363333,47.263948611],[5.094435833,47.2639625],[5.094506111,47.263983056],[5.094573333,47.264009167],[5.094603611,47.264025],[5.094713611,47.264090556],[5.094763611,47.264132778],[5.094798889,47.264177222],[5.094825556,47.264222222],[5.094848889,47.264273889],[5.094861111,47.264315833],[5.094871389,47.264348056]],[[5.082030833,47.264762778],[5.081986389,47.264714722],[5.081933889,47.26467],[5.081871111,47.264631111],[5.0818175,47.264609444],[5.081748889,47.264594722],[5.081670278,47.264586111],[5.081598333,47.264583889],[5.081523056,47.264593889],[5.080840278,47.264704722],[5.080761944,47.264725833],[5.0806775,47.264767222],[5.080610278,47.264811944],[5.080541389,47.264871389],[5.080488056,47.26495],[5.080444167,47.265059444],[5.080444167,47.265113611],[5.080458611,47.265172778],[5.080680556,47.265743889],[5.081428611,47.267645833],[5.082045556,47.269178333],[5.082691111,47.270785556],[5.08274,47.270841111],[5.0827875,47.270870556],[5.082841389,47.270886667],[5.082893333,47.270888056],[5.082960278,47.270877778],[5.083011944,47.270851389],[5.083431111,47.270537778],[5.084039167,47.270070833],[5.084075,47.270045],[5.084088889,47.270031944],[5.084088889,47.270017222],[5.084083889,47.270008333]],[[5.081827778,47.264254167],[5.08129,47.264355833],[5.080832222,47.2644425],[5.080635833,47.264493056],[5.080546944,47.26453],[5.080463889,47.264578611],[5.080402222,47.264625278],[5.0803375,47.2646925],[5.080293611,47.264752778],[5.080259167,47.264822778],[5.080253056,47.264880278],[5.080263056,47.264964167],[5.080283333,47.265054722],[5.080431111,47.265451389],[5.0810825,47.267086389],[5.082008056,47.269470278],[5.082210278,47.269998611],[5.082218056,47.2700375],[5.082205,47.270064167],[5.082178889,47.270097778],[5.082024722,47.270206111]],[[5.083196111,47.271130278],[5.083982222,47.270528333]],[[5.087963889,47.279809167],[5.087024167,47.280402222],[5.086844167,47.28051],[5.0867525,47.280555556],[5.086675556,47.280584444],[5.086586944,47.280611111],[5.086506667,47.280631111],[5.086423333,47.280646667],[5.086326667,47.280658889],[5.086246389,47.280663333],[5.086136667,47.280663056],[5.08604,47.280661944],[5.08594,47.280645833],[5.085833056,47.280626111],[5.085676944,47.280588056],[5.082691944,47.279829722],[5.078855,47.278851944],[5.076235833,47.278185278],[5.076215833,47.278176111],[5.076189167,47.278158056],[5.076146667,47.278112778],[5.076046389,47.278013056],[5.075988611,47.277934167],[5.075955,47.277846667],[5.075928889,47.277778611],[5.075906944,47.277705556]],[[5.088103333,47.280142778],[5.087645833,47.280420278],[5.087690833,47.280471944],[5.087754167,47.280448889],[5.087801667,47.280445278],[5.088033889,47.280427222],[5.088113056,47.280425556],[5.088202778,47.280409444]],[[5.088251111,47.280516667],[5.087804444,47.280550556],[5.0874825,47.2805725],[5.087404722,47.2805725],[5.087377222,47.280588889],[5.087276944,47.280654722],[5.087074722,47.280772778],[5.086971944,47.280819444],[5.086861111,47.280868611],[5.086785278,47.280895],[5.0866875,47.280918889],[5.086571389,47.280941667],[5.086460278,47.280955556],[5.086340833,47.280971389],[5.086261667,47.280976111],[5.086197778,47.2809725],[5.086067778,47.280962778],[5.085906667,47.280947778],[5.085805,47.280938611],[5.085725278,47.280918611],[5.085093333,47.280758333],[5.082714444,47.280154444],[5.077862778,47.278917222],[5.075851111,47.278408611],[5.075612222,47.278354722],[5.075475833,47.278332778],[5.075327222,47.278316389],[5.075210833,47.278319167],[5.075038333,47.278346389],[5.074918056,47.278379167],[5.074781389,47.278417222],[5.074657222,47.278474444],[5.074600833,47.278517778]],[[5.088345278,47.279405278],[5.088386389,47.279415556],[5.088434444,47.27942],[5.088480556,47.279421111],[5.088521944,47.279423333],[5.088568056,47.279409722],[5.088607778,47.279396389],[5.088650833,47.279379722],[5.089138056,47.279073611],[5.090589167,47.278151944]],[[5.091132778,47.277813056],[5.0918,47.277390833],[5.092963611,47.276655556],[5.093039444,47.276603333],[5.093075556,47.276569722],[5.093143056,47.276501944],[5.093196111,47.276440833],[5.093234444,47.276386111],[5.09331,47.276255833],[5.0933375,47.276198611],[5.093355833,47.2761575]],[[5.088740556,47.280420278],[5.088773611,47.280393889],[5.088833889,47.280359444],[5.088875,47.280318333],[5.088904167,47.280274722],[5.088925556,47.280218056],[5.0889275,47.280158611],[5.088917778,47.280093611],[5.088894444,47.280016944],[5.088873889,47.279970556],[5.08886,47.2799275],[5.088858611,47.279899167],[5.088877222,47.279875],[5.088923611,47.279845556],[5.089073889,47.279747778],[5.089231389,47.279653333]],[[5.090064722,47.2789],[5.090531667,47.278598611],[5.090994722,47.2783125],[5.091053333,47.278287778],[5.091111944,47.278268333],[5.091176944,47.278246944],[5.091229167,47.2782275],[5.091432222,47.278173611],[5.091804722,47.278070556],[5.091816111,47.278066944],[5.091833889,47.278056944],[5.091987222,47.277963056],[5.092780556,47.277460833],[5.092794444,47.277448056],[5.092827222,47.277396111],[5.093216111,47.276846389],[5.093223056,47.276836667],[5.093231944,47.276831389],[5.093239167,47.276827778],[5.093246944,47.276826389],[5.093257778,47.276825278],[5.093268333,47.276825833]]]}},{"type":"Feature","id":"LFSD-dd23282251df0f68aeec","properties":{"airport":"LFSD","name":"LFSD Groundlayout","layer":"Guidance lines","category":"Apron Surface","object_type":"Line","style_id":"line.apronsurface.808080","source_group":"LFSD Groundlayout","vsmr_group_ids":[],"geometry_role":"linework"},"geometry":{"type":"MultiLineString","coordinates":[[[5.075906389,47.277699444],[5.075916667,47.277598611],[5.075933056,47.277498889],[5.075961667,47.277418889],[5.075998333,47.27734],[5.076041111,47.277266667],[5.076091944,47.2771975],[5.076138889,47.277145],[5.076377222,47.276965278],[5.076485278,47.276879444],[5.076553611,47.276918889],[5.076709167,47.277272778],[5.076925,47.277322778],[5.077156944,47.277119167],[5.077201667,47.277129722],[5.077320278,47.276845556],[5.076846111,47.276715278],[5.07681,47.276704722],[5.0767875,47.276694167],[5.076759722,47.276676667],[5.077095556,47.2764125],[5.077617222,47.276018889],[5.077676111,47.276052222],[5.077726944,47.276179167],[5.077808333,47.276457778],[5.078657222,47.27619],[5.078530556,47.276035],[5.077932222,47.275842778],[5.077904722,47.275825556],[5.077887778,47.275814167],[5.077906667,47.275795278],[5.078111944,47.275636111],[5.079010556,47.274948889],[5.079060278,47.274973333],[5.07939,47.275267222],[5.079328889,47.275311111],[5.079533056,47.275439444],[5.079584722,47.275404444],[5.079616944,47.2753525],[5.079779167,47.275027778],[5.079710556,47.274846667],[5.079634167,47.274856944],[5.079331111,47.274780556],[5.079283333,47.274750833],[5.079315833,47.274718333],[5.080276667,47.273982778],[5.080320556,47.274005833],[5.0806725,47.274325833],[5.080928333,47.274355833],[5.081198333,47.274131944],[5.081218333,47.27393],[5.080596667,47.273807778],[5.080566667,47.273784722],[5.080558611,47.273768333],[5.080596667,47.27374],[5.082109444,47.272578889],[5.082709444,47.272120278],[5.0839575,47.271160278],[5.084085556,47.270878889],[5.084211944,47.270584444],[5.084319722,47.270591944]],[[5.090587778,47.278151389],[5.090019444,47.278136389],[5.089956389,47.277989444],[5.089993056,47.277676389],[5.090146389,47.277571111],[5.090344167,47.277713889],[5.090401111,47.277746111],[5.090462778,47.277773056],[5.0905275,47.277794444],[5.090594167,47.277808333],[5.090674722,47.277829722],[5.090738056,47.277840556],[5.090793333,47.277850278],[5.090858333,47.277855556],[5.090929444,47.277849167],[5.091003611,47.277835556],[5.091066667,47.277823889],[5.091131944,47.277813611]],[[5.0892325,47.279652778],[5.08956,47.279660833],[5.090033611,47.279353889],[5.090053056,47.279151667],[5.090063889,47.278899722]],[[5.074597222,47.278518611],[5.074656944,47.278624444],[5.0747775,47.278754444],[5.074914167,47.278873333],[5.075089444,47.279018056],[5.075713333,47.278669167],[5.075740556,47.278631944],[5.075822778,47.278635833],[5.075828333,47.278743333],[5.0766575,47.279406111],[5.076359722,47.279563889],[5.076013333,47.279284444],[5.076046111,47.279265],[5.075540556,47.278877778],[5.075112222,47.279132222],[5.074425,47.278628889],[5.074336111,47.278621389],[5.074172778,47.278677778],[5.074090833,47.278569444],[5.074132778,47.278549167],[5.074157222,47.278466389],[5.074128056,47.27845],[5.074081667,47.27844],[5.074018333,47.278479722],[5.073920833,47.278534167],[5.073825556,47.278587222],[5.0737575,47.278615278],[5.073633056,47.278671667],[5.073476944,47.278731111],[5.072942778,47.278944444],[5.072349444,47.2782625],[5.0717825,47.278307222],[5.071543611,47.278472222],[5.071052778,47.278178056],[5.072203056,47.277313333],[5.072519722,47.277286389],[5.072556389,47.277296667],[5.072605556,47.277321667],[5.072882222,47.277476111],[5.072774722,47.277555278],[5.073250833,47.27782],[5.074046667,47.2782375],[5.074159444,47.278258889],[5.074248611,47.278269444],[5.074390278,47.278262222],[5.074503056,47.278246389],[5.074623889,47.278223056],[5.074734167,47.278184167],[5.074831111,47.278128889],[5.075009722,47.278013056],[5.075046389,47.277968611],[5.075062222,47.2779225],[5.075062222,47.277881389],[5.075038611,47.277826111],[5.074999167,47.277772778],[5.074973056,47.277723056],[5.074957222,47.277675],[5.074642778,47.277714722],[5.0744975,47.2776],[5.074697778,47.277208611],[5.074447778,47.276888889],[5.074741111,47.276773056],[5.074781944,47.276821667],[5.074843333,47.276851667],[5.075078889,47.276958333],[5.075160833,47.276875],[5.075181389,47.276821667],[5.075174444,47.276756944],[5.075126667,47.276712778],[5.075041389,47.276666667],[5.074915278,47.276606389],[5.074670278,47.276779167],[5.074475833,47.276588333],[5.074225556,47.276690833],[5.074155,47.276599444],[5.074136389,47.276566389],[5.074097222,47.276536944],[5.073892778,47.276420278],[5.074621111,47.275892778],[5.074640278,47.275914444],[5.0746725,47.275914444],[5.074727778,47.275901389],[5.074770556,47.275883889],[5.074813056,47.275856667],[5.075203333,47.275555556],[5.075143333,47.275505833],[5.075811944,47.274994167],[5.075904167,47.275041111],[5.076178611,47.274836389],[5.076177222,47.274803056],[5.076155,47.274774722],[5.076119167,47.274748611],[5.076254722,47.274660278],[5.076285278,47.274680833],[5.07631,47.274690278],[5.076351667,47.274690278],[5.076393056,47.274667778],[5.076528889,47.2745625],[5.076573056,47.274538333],[5.076626667,47.274640556],[5.077008056,47.274878333],[5.076813333,47.275022222],[5.077193889,47.275262222],[5.077231944,47.275263889],[5.077267778,47.275244167],[5.077339444,47.275193889],[5.077728889,47.274894722],[5.078585556,47.274232222],[5.078226389,47.2740025],[5.078179722,47.273986667],[5.078127222,47.2740025],[5.077955,47.274129167],[5.077396111,47.273780556],[5.078608333,47.272834722],[5.079171389,47.273195],[5.078970278,47.273358611],[5.078988333,47.273398889],[5.079318056,47.273608611],[5.079363333,47.273616944],[5.079433333,47.273586389],[5.0804225,47.272822778],[5.080416111,47.2728],[5.080381389,47.272774444],[5.080034444,47.272574722],[5.079990833,47.272580556],[5.07995,47.272608333],[5.079763611,47.272746667],[5.079200556,47.272408056],[5.082030278,47.270203611]],[[5.082034167,47.27112],[5.08233,47.271299444],[5.082380278,47.271316667],[5.082430556,47.271299444],[5.082484167,47.271256667],[5.082556389,47.271203333],[5.082588056,47.271143611],[5.08261,47.271092222],[5.082613056,47.271028333],[5.082600556,47.270961944],[5.082572222,47.270900278],[5.082521944,47.270851111],[5.082462222,47.2708275],[5.082396111,47.270818889],[5.08233,47.270818889],[5.082266944,47.270836111],[5.082194722,47.270883056],[5.081980556,47.2710475],[5.081980556,47.271075278],[5.08199,47.271100833],[5.082034167,47.27112]],[[5.082129444,47.270531389],[5.082337222,47.270649722],[5.082373611,47.270625],[5.082394444,47.270591389],[5.08241,47.270550833],[5.082402222,47.270505],[5.082381389,47.270468056],[5.082334722,47.270431111],[5.082280278,47.270408056],[5.082236111,47.270394167],[5.082176389,47.270395833],[5.082116667,47.27041],[5.082075,47.270431111],[5.082046389,47.2704575],[5.082043889,47.270482222],[5.082080278,47.270503333],[5.082129444,47.270531389]],[[5.081694722,47.271463611],[5.081705833,47.271451944],[5.081728056,47.271466944],[5.081796111,47.271486389],[5.081888056,47.271511944],[5.081965556,47.271535556],[5.082084167,47.271563611],[5.082122222,47.271543056],[5.082234722,47.271448611],[5.0822425,47.271427222],[5.082237778,47.271406667],[5.082226667,47.271384167],[5.082180833,47.271358333],[5.081916389,47.271195278],[5.081884722,47.271184444],[5.081857778,47.271179167],[5.081830833,47.27118],[5.081799167,47.271189722],[5.081552222,47.271378889],[5.081694722,47.271463611]],[[5.080835278,47.271933889],[5.080727222,47.272018333],[5.080880278,47.272046111],[5.081271944,47.272016944],[5.081226944,47.271986667],[5.081037222,47.271871667],[5.081008889,47.271856389],[5.080974167,47.271853611],[5.080945556,47.271849444],[5.080915,47.271871667],[5.080835278,47.271933889]],[[5.081185556,47.271823056],[5.081431944,47.271971389],[5.081469722,47.271985833],[5.081496111,47.271991389],[5.081523889,47.2719925],[5.081546944,47.271974722],[5.081730833,47.27184],[5.08156,47.271621389],[5.081461667,47.271690556],[5.081430278,47.271676111],[5.081505833,47.271611389],[5.081366389,47.271512222],[5.081326944,47.2715525],[5.081235,47.271621389],[5.081106944,47.271717222],[5.081101944,47.271741667],[5.081108611,47.271764167],[5.081126667,47.271781944],[5.081144722,47.271798611],[5.081185556,47.271823056]],[[5.080301944,47.272588056],[5.080491111,47.272698611],[5.080531667,47.272705],[5.080565278,47.272700278],[5.080591667,47.272691944],[5.08063,47.272675833],[5.081039444,47.272360833],[5.080855,47.272246944],[5.080785556,47.272232222],[5.080641944,47.272242222],[5.080579722,47.272212778],[5.0805175,47.272256667],[5.080448056,47.272248611],[5.080385833,47.272274444],[5.080170278,47.272451667],[5.080160556,47.2724775],[5.080170278,47.272503611],[5.080201389,47.272529722],[5.080301944,47.272588056]],[[5.078896389,47.273752778],[5.079049722,47.273848056],[5.079070833,47.273857778],[5.079097778,47.273850556],[5.079124444,47.27383],[5.079224167,47.273745556],[5.079231111,47.273717778],[5.079231111,47.273697222],[5.079193889,47.273675278],[5.078891111,47.273483333],[5.078814444,47.273483333],[5.078745,47.2735375],[5.078686389,47.273549722],[5.07877,47.273685],[5.078896389,47.273752778]],[[5.078364444,47.273826389],[5.078308889,47.273868611],[5.078315556,47.273896111],[5.078325,47.273916389],[5.078346667,47.273932778],[5.078549722,47.274055833],[5.078557778,47.274047778],[5.0785525,47.274028333],[5.0785525,47.27381],[5.078529444,47.273786944],[5.078484722,47.273751944],[5.078476667,47.273741944],[5.078423889,47.273780556],[5.078364444,47.273826389]],[[5.083195556,47.271130278],[5.083741944,47.271114722],[5.083783889,47.271090833],[5.084021111,47.270551389],[5.083984167,47.270528611]],[[5.075259167,47.276633889],[5.075309167,47.27666],[5.075353889,47.276666111],[5.075387222,47.276666111],[5.075414167,47.276661944],[5.075453889,47.2766375],[5.075698889,47.276445278],[5.075688611,47.276428056],[5.075659167,47.276415],[5.07555,47.276352222],[5.075528333,47.276350556],[5.075128333,47.2764375],[5.075111667,47.276448611],[5.0750875,47.276460833],[5.075078333,47.276485278],[5.075079722,47.276507778],[5.075095,47.276527778],[5.075119444,47.276545278],[5.075169444,47.2765775],[5.075259167,47.276633889]],[[5.076684167,47.275253889],[5.076971667,47.275244167],[5.076731944,47.2750875],[5.076678889,47.2751175],[5.076684167,47.275253889]],[[5.076498333,47.275515833],[5.076649167,47.275614722],[5.076708333,47.275645833],[5.076728333,47.27565],[5.076756111,47.275634444],[5.076927222,47.275507778],[5.076779444,47.275411667],[5.076733056,47.275436667],[5.07669,47.27544],[5.076378611,47.275451389],[5.076498333,47.275515833]],[[5.076323611,47.275645833],[5.076519167,47.275765833],[5.076555833,47.275763889],[5.076587778,47.275762778],[5.076617222,47.275743056],[5.076647778,47.275715278],[5.076638889,47.275695556],[5.076621389,47.275680556],[5.076263889,47.275473611],[5.076240556,47.275466667],[5.076215556,47.275473611],[5.076193611,47.275481389],[5.0761675,47.275513056],[5.0761675,47.275535833],[5.076174722,47.275557778],[5.076211111,47.2755825],[5.076323611,47.275645833]],[[5.07618,47.276081389],[5.076372222,47.275928889],[5.076391944,47.275908611],[5.076386389,47.275880556],[5.076375278,47.275861667],[5.076352778,47.275836389],[5.0760675,47.275669444],[5.076035833,47.275652778],[5.076006111,47.275650278],[5.075981667,47.275654167],[5.075938889,47.275676944],[5.075711389,47.275856667],[5.0756125,47.275780556],[5.075543611,47.275936111],[5.075713056,47.275964167],[5.075683333,47.276024722],[5.076013333,47.276206944],[5.07618,47.276081389]],[[5.074989444,47.275955556],[5.075220833,47.275987222],[5.0752675,47.275941389],[5.075294444,47.275899167],[5.075344167,47.275643333],[5.075325278,47.275623056],[5.075298056,47.275623056],[5.075254722,47.275641667],[5.074918056,47.275895556],[5.074888333,47.275923333],[5.074888333,47.275939722],[5.074923611,47.275948889],[5.074989444,47.275955556]],[[5.075113333,47.27612],[5.075138611,47.276086111],[5.075130556,47.276073056],[5.075115556,47.276066944],[5.075064722,47.276059444],[5.0750525,47.276066111],[5.075040278,47.276081389],[5.075029167,47.276098611],[5.075049444,47.276133056],[5.075059722,47.276141944],[5.075075833,47.276144722],[5.075093056,47.276139722],[5.075103333,47.276130833],[5.075113333,47.27612]]]}},{"type":"Feature","id":"LFSD-6b9e6618f6bbab95473c","properties":{"airport":"LFSD","name":"LFSD Groundlayout","layer":"Guidance lines","category":"Stopbars","object_type":"Line","style_id":"line.stopbar.7e0000","source_group":"LFSD Groundlayout","vsmr_group_ids":[],"geometry_role":"linework"},"geometry":{"type":"MultiLineString","coordinates":[[[5.083325833,47.270618333],[5.083626389,47.270796389]],[[5.095140556,47.255179722],[5.095200556,47.254733056]],[[5.094025278,47.263923056],[5.094041944,47.263789444]],[[5.09223,47.2778075],[5.091726389,47.277439444]],[[5.089358056,47.27925],[5.089199444,47.279133611]],[[5.087268611,47.2805525],[5.087121667,47.280445556]],[[5.085246667,47.269350833],[5.085100833,47.269258611]]]}},{"type":"Feature","id":"LFSD-534766f5c8daa6c56964","properties":{"airport":"LFSD","name":"LFSD Groundlayout","layer":"Guidance lines","category":"TWR-CTR","object_type":"Line","style_id":"line.twr-ctr.000000","source_group":"LFSD Groundlayout","vsmr_group_ids":[],"geometry_role":"linework"},"geometry":{"type":"LineString","coordinates":[[5.088293333,47.268732222],[5.088935556,47.2688775],[5.088985833,47.268784444],[5.088614444,47.268677778],[5.088587778,47.268707222],[5.088330278,47.268652778],[5.088293333,47.268732222]]}},{"type":"Feature","id":"LFSD-2b307396903085f6f60d","properties":{"airport":"LFSD","name":"LFSD Groundlayout","layer":"Guidance lines","category":"Labels","object_type":"Line","style_id":"line.labels.808080","source_group":"LFSD Groundlayout","vsmr_group_ids":[],"geometry_role":"linework"},"geometry":{"type":"MultiLineString","coordinates":[[[5.088275556,47.279779722],[5.088294167,47.279776111],[5.088240833,47.279637222],[5.088246111,47.279635556],[5.088239722,47.279615278],[5.088228889,47.279609167],[5.088210278,47.279613333],[5.088275556,47.279779722]],[[5.088086111,47.279664444],[5.088101111,47.279705833],[5.088133056,47.279699722],[5.0881175,47.279658056],[5.088086111,47.279664444]],[[5.088129167,47.279626389],[5.088051667,47.279639722],[5.088102778,47.27977],[5.088171667,47.279796667],[5.088168611,47.279782778],[5.088124444,47.279766111],[5.088112778,47.279732778],[5.088166944,47.279722778],[5.088129167,47.279626389]],[[5.082199167,47.264775833],[5.082230556,47.264770556],[5.0821925,47.264669444],[5.082158889,47.264674167],[5.082199167,47.264775833]],[[5.0821875,47.264809444],[5.082265833,47.264794167],[5.082203333,47.264635556],[5.082125,47.264651389],[5.0821875,47.264809444]],[[5.0823125,47.2646175],[5.082290556,47.264620556],[5.082341944,47.264751111],[5.082334167,47.264752778],[5.082341944,47.264774444],[5.082353611,47.264778333],[5.082374167,47.264774722],[5.0823125,47.2646175]],[[5.096191944,47.255620556],[5.0961875,47.255648056],[5.096265833,47.255651944],[5.0962725,47.255606667],[5.096241667,47.255585556],[5.096278056,47.2555675],[5.096288056,47.255490556],[5.096207778,47.255485556],[5.096205278,47.255512222],[5.096260278,47.2555175],[5.096256389,47.255559444],[5.096216111,47.255583611],[5.09625,47.255612222],[5.096248333,47.255623333],[5.096191944,47.255620556]],[[5.096346111,47.255494167],[5.096343611,47.255521111],[5.096399722,47.255525278],[5.096393056,47.2555825],[5.096335833,47.255579722],[5.096324722,47.255655833],[5.096403333,47.255660278],[5.096406944,47.255633889],[5.096350833,47.255629444],[5.096353333,47.255609722],[5.096409722,47.2556125],[5.096425278,47.255498889],[5.096346111,47.255494167]],[[5.0937075,47.276143611],[5.093729444,47.276144722],[5.093744444,47.276011944],[5.0937525,47.276011667],[5.093756389,47.275992222],[5.093746944,47.275984722],[5.093729722,47.275983889],[5.0937075,47.276143611]],[[5.093583611,47.275975833],[5.093625,47.276138889],[5.093646944,47.27614],[5.0936125,47.276005],[5.093671389,47.276007222],[5.093673056,47.275981667],[5.093583611,47.275975833]]]}},{"type":"Feature","id":"LFSD-15d5dc8bf85ff0302620","properties":{"airport":"LFSD","name":"E5","layer":"Labels","category":"Taxiways","object_type":"Label","style_id":"label.taxiways","source_group":"LFSD Taxiways","vsmr_group_ids":[],"geometry_role":"text_label","text-field":"E5"},"geometry":{"type":"Point","coordinates":[5.090688611,47.278641389]}},{"type":"Feature","id":"LFSD-8b46eeba1e1ed431b584","properties":{"airport":"LFSD","name":"D","layer":"Labels","category":"Taxiways","object_type":"Label","style_id":"label.taxiways","source_group":"LFSD Taxiways","vsmr_group_ids":[],"geometry_role":"text_label","text-field":"D"},"geometry":{"type":"Point","coordinates":[5.085717222,47.280191111]}},{"type":"Feature","id":"LFSD-25d4c85082730d8247b9","properties":{"airport":"LFSD","name":"B","layer":"Labels","category":"Taxiways","object_type":"Label","style_id":"label.taxiways","source_group":"LFSD Taxiways","vsmr_group_ids":[],"geometry_role":"text_label","text-field":"B"},"geometry":{"type":"Point","coordinates":[5.093453056,47.264314722]}},{"type":"Feature","id":"LFSD-efabf39c46bceb9457f6","properties":{"airport":"LFSD","name":"B","layer":"Labels","category":"Taxiways","object_type":"Label","style_id":"label.taxiways","source_group":"LFSD Taxiways","vsmr_group_ids":[],"geometry_role":"text_label","text-field":"B"},"geometry":{"type":"Point","coordinates":[5.087706389,47.266460833]}},{"type":"Feature","id":"LFSD-b7894fd4cb01ed5a9531","properties":{"airport":"LFSD","name":"A","layer":"Labels","category":"Taxiways","object_type":"Label","style_id":"label.taxiways","source_group":"LFSD Taxiways","vsmr_group_ids":[],"geometry_role":"text_label","text-field":"A"},"geometry":{"type":"Point","coordinates":[5.093739167,47.256670833]}},{"type":"Feature","id":"LFSD-901d5e7620f2cfdb3ded","properties":{"airport":"LFSD","name":"C","layer":"Labels","category":"Taxiways","object_type":"Label","style_id":"label.taxiways","source_group":"LFSD Taxiways","vsmr_group_ids":[],"geometry_role":"text_label","text-field":"C"},"geometry":{"type":"Point","coordinates":[5.077509444,47.275336389]}},{"type":"Feature","id":"LFSD-22cae5b60a4114387796","properties":{"airport":"LFSD","name":"X","layer":"Labels","category":"Taxiways","object_type":"Label","style_id":"label.taxiways","source_group":"LFSD Taxiways","vsmr_group_ids":[],"geometry_role":"text_label","text-field":"X"},"geometry":{"type":"Point","coordinates":[5.081426667,47.264483333]}},{"type":"Feature","id":"LFSD-7cb04504be6722493a16","properties":{"airport":"LFSD","name":"X","layer":"Labels","category":"Taxiways","object_type":"Label","style_id":"label.taxiways","source_group":"LFSD Taxiways","vsmr_group_ids":[],"geometry_role":"text_label","text-field":"X"},"geometry":{"type":"Point","coordinates":[5.0808775,47.264564444]}},{"type":"Feature","id":"LFSD-6cf110fea8f26073a639","properties":{"airport":"LFSD","name":"X","layer":"Labels","category":"Taxiways","object_type":"Label","style_id":"label.taxiways","source_group":"LFSD Taxiways","vsmr_group_ids":[],"geometry_role":"text_label","text-field":"X"},"geometry":{"type":"Point","coordinates":[5.080337778,47.264966944]}},{"type":"Feature","id":"LFSD-23d5abb2af93065ae146","properties":{"airport":"LFSD","name":"X","layer":"Labels","category":"Taxiways","object_type":"Label","style_id":"label.taxiways","source_group":"LFSD Taxiways","vsmr_group_ids":[],"geometry_role":"text_label","text-field":"X"},"geometry":{"type":"Point","coordinates":[5.082249167,47.269945278]}},{"type":"Feature","id":"LFSD-a6a98baac3f20fcf19ca","properties":{"airport":"LFSD","name":"X","layer":"Labels","category":"Taxiways","object_type":"Label","style_id":"label.taxiways","source_group":"LFSD Taxiways","vsmr_group_ids":[],"geometry_role":"text_label","text-field":"X"},"geometry":{"type":"Point","coordinates":[5.082125556,47.269631389]}},{"type":"Feature","id":"LFSD-2b8bfc574f20d7afb615","properties":{"airport":"LFSD","name":"X","layer":"Labels","category":"Taxiways","object_type":"Label","style_id":"label.taxiways","source_group":"LFSD Taxiways","vsmr_group_ids":[],"geometry_role":"text_label","text-field":"X"},"geometry":{"type":"Point","coordinates":[5.081845833,47.268921389]}}]}
