{"type":"FeatureCollection","name":"LFSF AVISO","bbox":[6.136972222,49.072833333,6.137638889,49.073472222],"metadata":{"schema":"vSMR AVISO","schema_version":2,"geometry_mode":"shared","airport":"LFSF","coordinate_reference_system":"WGS84","coordinate_order":"longitude, latitude","default_color_palette":"dark","color_palettes":["dark","light"],"background_colors":{"dark":"#434A4F","light":"#434A4F"},"runways":[],"saved_active_runways":[],"saved_active_airport_modes":[],"feature_count":3,"style_count":1,"layer_counts":{"Labels":3},"category_counts":{"Gates":3},"geometry_source":"local GNG/KMZ","geometry_source_url":"","geometry_license":"GPL-3.0"},"styles":{"label.gates":{"name":"Gates","layer":"Labels","object_type":"Label","paint":{"text-color":"#CCCCCC","text-font":"Arial","text-size":12,"text-halo-color":"#000000","text-halo-width":1,"text-anchor":"center","zoomLevel":9},"feature_count":3}},"vsmr_groups":[],"features":[{"type":"Feature","id":"LFSF-a452c9f8830e182bf51d","properties":{"airport":"LFSF","name":"1","layer":"Labels","category":"Gates","object_type":"Label","style_id":"label.gates","source_group":"LFSF Gates","vsmr_group_ids":[],"geometry_role":"text_label","text-field":"1"},"geometry":{"type":"Point","coordinates":[6.137638889,49.073388889]}},{"type":"Feature","id":"LFSF-0c60e6185db6b1b5148f","properties":{"airport":"LFSF","name":"2","layer":"Labels","category":"Gates","object_type":"Label","style_id":"label.gates","source_group":"LFSF Gates","vsmr_group_ids":[],"geometry_role":"text_label","text-field":"2"},"geometry":{"type":"Point","coordinates":[6.136972222,49.073472222]}},{"type":"Feature","id":"LFSF-772dc354829403750296","properties":{"airport":"LFSF","name":"3","layer":"Labels","category":"Gates","object_type":"Label","style_id":"label.gates","source_group":"LFSF Gates","vsmr_group_ids":[],"geometry_role":"text_label","text-field":"3"},"geometry":{"type":"Point","coordinates":[6.137055556,49.072833333]}}]}
