{"type":"FeatureCollection","name":"LFSG AVISO","bbox":[6.048572222,48.318090556,6.088118889,48.326430833],"metadata":{"schema":"vSMR AVISO","schema_version":2,"geometry_mode":"shared","airport":"LFSG","coordinate_reference_system":"WGS84","coordinate_order":"longitude, latitude","default_color_palette":"dark","color_palettes":["dark","light"],"background_colors":{"dark":"#434A4F","light":"#434A4F"},"runways":[{"ends":["08","26"],"headings":[83,263],"thresholds":[[6.051818889,48.324146944],[6.084632778,48.326032778]]}],"saved_active_runways":[],"saved_active_airport_modes":[],"airport_reference":[6.066666944,48.325],"feature_count":22,"style_count":9,"layer_counts":{"Guidance lines":7,"Labels":15},"category_counts":{"Apron Surface":1,"Centerlines":1,"Gates":7,"Labels":1,"Runways":1,"Stopbars":1,"TWR-CTR":1,"Taxiways":9},"geometry_source":"local GNG/KMZ","geometry_source_url":"","geometry_license":"GPL-3.0"},"styles":{"line.runwayconcrete.555555":{"name":"Runways","layer":"Guidance lines","object_type":"Line","paint":{"stroke":"#111318","stroke-opacity":1,"stroke-width":1,"palette-overrides":{"light":{"stroke":"#555555"}}},"feature_count":1},"line.taxiway.c0b631":{"name":"Taxiways","layer":"Guidance lines","object_type":"Line","paint":{"stroke":"#4E5A69","stroke-opacity":1,"stroke-width":1,"palette-overrides":{"light":{"stroke":"#C0B631"}}},"feature_count":1},"line.apronsurface.808080":{"name":"Apron Surface","layer":"Guidance lines","object_type":"Line","paint":{"stroke":"#808080","stroke-opacity":1,"stroke-width":1,"palette-overrides":{"light":{"stroke":"#808080"}}},"feature_count":1},"line.stopbar.7e0000":{"name":"Stopbars","layer":"Guidance lines","object_type":"Line","paint":{"stroke":"#7E0000","stroke-opacity":1,"stroke-width":1,"palette-overrides":{"light":{"stroke":"#7E0000"}}},"feature_count":1},"line.twr-ctr.000000":{"name":"TWR-CTR","layer":"Guidance lines","object_type":"Line","paint":{"stroke":"#000000","stroke-opacity":1,"stroke-width":1,"palette-overrides":{"light":{"stroke":"#000000"}}},"feature_count":1},"line.centerlines.ffff00":{"name":"Centerlines","layer":"Guidance lines","object_type":"Line","paint":{"stroke":"#FFFF00","stroke-opacity":1,"stroke-width":1,"palette-overrides":{"light":{"stroke":"#FFFF00"}}},"feature_count":1},"line.labels.808080":{"name":"Labels","layer":"Guidance lines","object_type":"Line","paint":{"stroke":"#808080","stroke-opacity":1,"stroke-width":1,"palette-overrides":{"light":{"stroke":"#808080"}}},"feature_count":1},"label.gates":{"name":"Gates","layer":"Labels","object_type":"Label","paint":{"text-color":"#CCCCCC","text-font":"Arial","text-size":12,"text-halo-color":"#000000","text-halo-width":1,"text-anchor":"center","zoomLevel":9},"feature_count":7},"label.taxiways":{"name":"Taxiways","layer":"Labels","object_type":"Label","paint":{"text-color":"#CCCCCC","text-font":"Arial","text-size":12,"text-halo-color":"#000000","text-halo-width":1,"text-anchor":"center","zoomLevel":7},"feature_count":8}},"vsmr_groups":[],"features":[{"type":"Feature","id":"LFSG-d5735ca05b1da809551b","properties":{"airport":"LFSG","name":"TWR","layer":"Labels","category":"Gates","object_type":"Label","style_id":"label.gates","source_group":"LFSG Gates","vsmr_group_ids":[],"geometry_role":"text_label","text-field":"TWR"},"geometry":{"type":"Point","coordinates":[6.062891389,48.321031111]}},{"type":"Feature","id":"LFSG-4ff1f070eb99d045181b","properties":{"airport":"LFSG","name":"1","layer":"Labels","category":"Gates","object_type":"Label","style_id":"label.gates","source_group":"LFSG Gates","vsmr_group_ids":[],"geometry_role":"text_label","text-field":"1"},"geometry":{"type":"Point","coordinates":[6.063766111,48.3225425]}},{"type":"Feature","id":"LFSG-9f49d2c90e83d74d33fb","properties":{"airport":"LFSG","name":"2","layer":"Labels","category":"Gates","object_type":"Label","style_id":"label.gates","source_group":"LFSG Gates","vsmr_group_ids":[],"geometry_role":"text_label","text-field":"2"},"geometry":{"type":"Point","coordinates":[6.062820833,48.322489167]}},{"type":"Feature","id":"LFSG-d058c1b17d12260e982d","properties":{"airport":"LFSG","name":"3","layer":"Labels","category":"Gates","object_type":"Label","style_id":"label.gates","source_group":"LFSG Gates","vsmr_group_ids":[],"geometry_role":"text_label","text-field":"3"},"geometry":{"type":"Point","coordinates":[6.06404,48.322447778]}},{"type":"Feature","id":"LFSG-5c54ba2d1d55cdc2424a","properties":{"airport":"LFSG","name":"Terminal","layer":"Labels","category":"Gates","object_type":"Label","style_id":"label.gates","source_group":"LFSG Gates","vsmr_group_ids":[],"geometry_role":"text_label","text-field":"Terminal"},"geometry":{"type":"Point","coordinates":[6.063752222,48.321822222]}},{"type":"Feature","id":"LFSG-64d57b5abd91a1a16f95","properties":{"airport":"LFSG","name":"ACB","layer":"Labels","category":"Gates","object_type":"Label","style_id":"label.gates","source_group":"LFSG Gates","vsmr_group_ids":[],"geometry_role":"text_label","text-field":"ACB"},"geometry":{"type":"Point","coordinates":[6.062497778,48.320791667]}},{"type":"Feature","id":"LFSG-e9ec7e89085d11a1c4e3","properties":{"airport":"LFSG","name":"Hangars","layer":"Labels","category":"Gates","object_type":"Label","style_id":"label.gates","source_group":"LFSG Gates","vsmr_group_ids":[],"geometry_role":"text_label","text-field":"Hangars"},"geometry":{"type":"Point","coordinates":[6.061794167,48.319639722]}},{"type":"Feature","id":"LFSG-1442a29ce36488994d7f","properties":{"airport":"LFSG","name":"LFSG Groundlayout","layer":"Guidance lines","category":"Runways","object_type":"Line","style_id":"line.runwayconcrete.555555","source_group":"LFSG Groundlayout","vsmr_group_ids":[],"geometry_role":"linework"},"geometry":{"type":"MultiLineString","coordinates":[[[6.0750325,48.325286944],[6.083944722,48.325798889]],[[6.084811667,48.325845556],[6.086986111,48.325971667],[6.0870125,48.325966944],[6.087055556,48.325950556],[6.087778889,48.325730833],[6.087813056,48.3257425],[6.087889167,48.325768889],[6.087948056,48.325804167],[6.087995,48.325838611],[6.088035,48.325875833],[6.08807,48.325923611],[6.088088889,48.325962222],[6.088105833,48.326003333],[6.088118889,48.32604],[6.088064722,48.326430833],[6.087535833,48.326400556],[6.0771975,48.325810556],[6.067768611,48.325267222],[6.056998611,48.324646944],[6.053160556,48.32443],[6.053123611,48.324434444],[6.053078333,48.324446111],[6.052880278,48.324506944],[6.052380833,48.324663333],[6.052349722,48.324655278],[6.052296111,48.324632778],[6.052245278,48.324598333],[6.052191944,48.324555278],[6.052154167,48.324515278],[6.052114722,48.324465833],[6.052094444,48.324428889],[6.052061111,48.324373056],[6.051881111,48.324360833],[6.048572222,48.324169167],[6.048624444,48.323766389],[6.049566667,48.323818611],[6.051780833,48.323954167],[6.051863056,48.323954167]],[[6.052797778,48.324008889],[6.061004444,48.324483056]]]}},{"type":"Feature","id":"LFSG-abeb093f246b1e694bc6","properties":{"airport":"LFSG","name":"LFSG Groundlayout","layer":"Guidance lines","category":"Taxiways","object_type":"Line","style_id":"line.taxiway.c0b631","source_group":"LFSG Groundlayout","vsmr_group_ids":[],"geometry_role":"linework"},"geometry":{"type":"MultiLineString","coordinates":[[[6.074971944,48.322908889],[6.074867222,48.323157222],[6.074874167,48.323234444],[6.074905833,48.323310278],[6.074963056,48.323367778],[6.075035833,48.323413333],[6.075111111,48.323438889],[6.075179444,48.323451111],[6.075464167,48.323473889],[6.076293611,48.323519167],[6.084201944,48.323969722],[6.084312222,48.323953056],[6.084396944,48.323925556],[6.084456667,48.323891944],[6.084507222,48.323851667],[6.084561111,48.323797222],[6.084575278,48.323734722],[6.084624444,48.323391667]],[[6.051861389,48.323954722],[6.051920556,48.323951111],[6.052000833,48.323940833],[6.052066944,48.323927222],[6.0521125,48.3239125],[6.05215,48.323893333],[6.052195556,48.323866667],[6.052231389,48.323831667],[6.052261667,48.323798611],[6.0522825,48.323761944],[6.052297778,48.323688611],[6.052311944,48.323565278],[6.052066389,48.323396111],[6.052275278,48.321779722]],[[6.052800833,48.324007778],[6.052724722,48.323988056],[6.052653889,48.323953889],[6.052586944,48.323918611],[6.052541944,48.323875],[6.052503333,48.323820833],[6.052489167,48.323778889],[6.052489167,48.323734444],[6.052580278,48.323092778],[6.05263,48.322654167],[6.052658611,48.322566111],[6.052722778,48.322483889],[6.052811111,48.322429722],[6.052936667,48.322395833],[6.053064722,48.322385556],[6.053216944,48.322394444],[6.054136944,48.3224475],[6.057033889,48.322615],[6.061488056,48.322868056],[6.061564722,48.322876944],[6.061633056,48.322899167],[6.0617,48.322931389],[6.061765833,48.322978611],[6.061799167,48.323019444],[6.061824722,48.323062222],[6.061834167,48.3231025],[6.061836667,48.323144444],[6.061831389,48.323191667],[6.061764167,48.323703056],[6.061733611,48.323895],[6.061712222,48.323993611],[6.061686667,48.324078889],[6.061655278,48.324168889],[6.061611111,48.324250833],[6.061563611,48.324308611],[6.061510556,48.324351389],[6.061454444,48.324385278],[6.061377222,48.324421111],[6.0612925,48.324446389],[6.061188611,48.324465556],[6.061107778,48.324476944],[6.061052222,48.324479167],[6.0610025,48.324483056]],[[6.052738611,48.321810833],[6.052720278,48.321966111],[6.052746111,48.322012778],[6.052791944,48.322061389],[6.052836111,48.322107222],[6.052897222,48.322138611],[6.052956667,48.322161944],[6.053019167,48.322175],[6.053065,48.322182222],[6.053170278,48.322190278],[6.055802778,48.322339167],[6.061552778,48.322671667],[6.061615278,48.322664444],[6.061706389,48.322643611],[6.061758056,48.322621111],[6.061803056,48.322598333],[6.061839722,48.322568611],[6.061866944,48.322546111],[6.06189,48.322510833],[6.061914722,48.322476389],[6.061916111,48.322439167],[6.062035833,48.321588056],[6.062041389,48.321485278]],[[6.062605278,48.324572222],[6.062521667,48.324558611],[6.062396667,48.324523333],[6.0622875,48.324473611],[6.062202778,48.324419722],[6.062133889,48.324356111],[6.062092222,48.324295],[6.062080278,48.324248056],[6.06207,48.32416],[6.062076389,48.323974722],[6.062099722,48.323721944],[6.0621125,48.323655556],[6.062145833,48.323525278],[6.062193611,48.323349722],[6.062259444,48.323221389],[6.062342778,48.323136111],[6.062482222,48.323068611],[6.062615,48.3230225],[6.062794722,48.322983611],[6.062911667,48.32297],[6.063048889,48.322965556],[6.063222222,48.322968611],[6.063730278,48.322995556],[6.065806944,48.323118611],[6.068560278,48.323273889],[6.072926667,48.323526667],[6.074108056,48.323593889],[6.074295278,48.323623889],[6.074407222,48.323678333],[6.074480556,48.323749722],[6.074517222,48.323814167],[6.074516667,48.323866111],[6.074489722,48.324098611],[6.074462778,48.324339722],[6.074376944,48.325010833],[6.0743425,48.325066667],[6.074288889,48.325116389],[6.074214444,48.325168611],[6.074120833,48.325200278],[6.074046111,48.325214167],[6.073975278,48.325221944],[6.073937222,48.325224444]],[[6.062153889,48.322550556],[6.062136667,48.322523333],[6.062121111,48.322487222],[6.062123056,48.322449722],[6.062175556,48.322042778]],[[6.06431,48.322824444],[6.074293333,48.323403611],[6.074350278,48.323401111],[6.074397222,48.32339],[6.074444444,48.323374444],[6.074496944,48.323352222],[6.074557778,48.323318333],[6.074589722,48.323296944],[6.074615833,48.323275833],[6.074631111,48.323242778],[6.074647778,48.323208611],[6.074665556,48.323158056],[6.0746975,48.323085556],[6.074733333,48.322993333],[6.074803333,48.322851944]],[[6.075039722,48.325285833],[6.074856111,48.325265],[6.074739167,48.325227778],[6.074655833,48.325176389],[6.074595278,48.325115278],[6.074578611,48.325051667],[6.074570278,48.324996111],[6.074582778,48.324925278],[6.074611944,48.324743611],[6.074653889,48.324400556],[6.074714722,48.32389],[6.074741667,48.323828889],[6.074799722,48.323754444],[6.074863333,48.323715833],[6.074955,48.323675833],[6.075041111,48.323658611],[6.075128889,48.323651111],[6.0752825,48.323661111],[6.075894167,48.323695833],[6.084121111,48.32417],[6.084225278,48.324184444],[6.084308611,48.324217222],[6.084376944,48.324256389],[6.084422222,48.324300833],[6.084459167,48.324354444],[6.084475556,48.324400833],[6.084479722,48.324459167],[6.084479722,48.324535556],[6.084339444,48.325511389],[6.084325,48.325578889],[6.084306667,48.32562],[6.084276667,48.325661111],[6.084228056,48.325705833],[6.084164444,48.325739167],[6.084093889,48.325765],[6.084023611,48.325782778],[6.083976667,48.325790556],[6.083941389,48.325799444]],[[6.084808056,48.325846389],[6.084730833,48.325809444],[6.084628889,48.325754722],[6.084571944,48.325689444],[6.0845425,48.325630833],[6.084534722,48.325595556],[6.084534722,48.325533056],[6.084554167,48.325426111],[6.084840278,48.325273056],[6.084875278,48.325035556],[6.084948889,48.324464722],[6.084700556,48.3242825],[6.084730556,48.324033889],[6.084813333,48.323418333]]]}},{"type":"Feature","id":"LFSG-fd95571dde59b0189e85","properties":{"airport":"LFSG","name":"LFSG Groundlayout","layer":"Guidance lines","category":"Apron Surface","object_type":"Line","style_id":"line.apronsurface.808080","source_group":"LFSG Groundlayout","vsmr_group_ids":[],"geometry_role":"linework"},"geometry":{"type":"MultiLineString","coordinates":[[[6.074801111,48.322856944],[6.074851667,48.322764444],[6.074935556,48.322613333],[6.0750125,48.322499167],[6.075091944,48.322390556],[6.07518,48.322281944],[6.075263333,48.322191944],[6.0753625,48.322093611],[6.075454722,48.321995278],[6.075553889,48.321919722],[6.075536944,48.321718056],[6.075343056,48.321603889],[6.075209722,48.321629444],[6.074991667,48.321508611],[6.075036667,48.321372778],[6.075056111,48.321352222],[6.075090833,48.321331667],[6.075295278,48.321275278],[6.075517222,48.321399722],[6.075480556,48.321495833],[6.075669722,48.32161],[6.075939722,48.321601111],[6.076080556,48.321513611],[6.076117222,48.321334167],[6.075741111,48.321000556],[6.076157222,48.320790556],[6.076546389,48.321113056],[6.076815833,48.321135833],[6.0769825,48.321068333],[6.077061389,48.320897222],[6.076942778,48.320739444],[6.0767875,48.320703889],[6.076677222,48.320566667],[6.076783889,48.320462222],[6.076813056,48.320447222],[6.076889167,48.320420556],[6.076962778,48.3204175],[6.077083611,48.320420556],[6.077208889,48.320594444],[6.077130556,48.320676111],[6.077249167,48.320836667],[6.077519722,48.320888889],[6.077870833,48.320795],[6.077986944,48.320646389],[6.077916389,48.320473333],[6.077784444,48.320430278],[6.077753611,48.320406111],[6.077691667,48.320277222],[6.077832222,48.320181944],[6.077930278,48.320157778],[6.078140833,48.3201875],[6.078211111,48.3203425],[6.078208333,48.320378056],[6.078113056,48.320441389],[6.0781775,48.320605833],[6.078424722,48.320691667],[6.078525556,48.320682222],[6.078638056,48.320663611],[6.078789444,48.320650556],[6.078958056,48.320516111],[6.078935556,48.320340556],[6.078823056,48.320299444],[6.078781111,48.320114722],[6.078856667,48.3200775],[6.078929722,48.320045556],[6.079019722,48.320030556],[6.079061667,48.3200325],[6.079235833,48.320084722],[6.079258333,48.320275278],[6.079151667,48.3203275],[6.079157222,48.320497222],[6.079362778,48.320620278],[6.079494444,48.320623056],[6.079592778,48.320621667],[6.079714722,48.320626944],[6.079934722,48.320511667],[6.079964167,48.320340556],[6.079854167,48.320283056],[6.079881667,48.320093333],[6.080083056,48.320046389],[6.080163333,48.320050278],[6.080221111,48.320071111],[6.080336667,48.32013],[6.080305556,48.320319167],[6.080165556,48.320354722],[6.080134722,48.320528889],[6.08031,48.320667778],[6.080626944,48.320708056],[6.080877778,48.320746111],[6.081070833,48.320774167],[6.081303611,48.320808333],[6.081538889,48.320707778],[6.081590278,48.320547222],[6.081490556,48.320480833],[6.081541944,48.320300278],[6.081677778,48.320266111],[6.081762222,48.32026],[6.081846944,48.32027],[6.081985833,48.3203625],[6.081931389,48.320535],[6.081795556,48.320573333],[6.081735278,48.320738056],[6.081880278,48.320888611],[6.082022222,48.320906667],[6.082128056,48.3209225],[6.082260833,48.320950833],[6.082525833,48.3208675],[6.082615278,48.3207025],[6.082543056,48.320631389],[6.082554444,48.320569722],[6.082583333,48.3205025],[6.082615278,48.320445],[6.082811667,48.320425556],[6.082869444,48.320443056],[6.082935833,48.320469722],[6.083045833,48.320556389],[6.082938889,48.320731111],[6.082803056,48.320746667],[6.082707778,48.320911667],[6.082823333,48.321080833],[6.082965,48.321126944],[6.083100833,48.321182778],[6.083381111,48.321151944],[6.083543056,48.321003889],[6.083482222,48.320919444],[6.083629444,48.320765556],[6.083817222,48.320773333],[6.083872222,48.320796389],[6.083921944,48.320829722],[6.084000556,48.320932222],[6.083852222,48.321085278],[6.083700833,48.3210775],[6.083540833,48.321222778],[6.083581667,48.321398889],[6.083677778,48.321456944],[6.083765,48.321511111],[6.083820278,48.321547778],[6.084096944,48.321567222],[6.084294722,48.321455],[6.084280278,48.321383333],[6.084286111,48.321358056],[6.084326667,48.321333056],[6.084486944,48.321241944],[6.084591667,48.321261389],[6.084658611,48.321274722],[6.084696389,48.321301944],[6.084734167,48.321334722],[6.084775,48.321468333],[6.084559722,48.321590278],[6.084440278,48.321555556],[6.084230833,48.321671667],[6.084192222,48.321847778],[6.084372222,48.322034167],[6.084649722,48.322093056],[6.084882778,48.322018611],[6.084894444,48.321924167],[6.085130556,48.321847778],[6.085228056,48.321879167],[6.085284167,48.321914444],[6.085328333,48.321945833],[6.085334444,48.321994722],[6.085316667,48.322118611],[6.085033333,48.322214722],[6.0849625,48.322138056],[6.084708611,48.322214722],[6.084617222,48.3223875],[6.0847375,48.322642222],[6.084780833,48.322799444],[6.084804167,48.3229375],[6.084818611,48.323050556],[6.084833056,48.323146389],[6.084827222,48.323253889],[6.08481,48.323422222]],[[6.052738056,48.321814722],[6.052761389,48.321675278],[6.052784722,48.321540278],[6.052818611,48.321402222],[6.052858889,48.321299444],[6.052908611,48.321145278],[6.052994722,48.320977222],[6.053086667,48.320815],[6.053175833,48.320679444],[6.053296389,48.320515278],[6.053409444,48.32038],[6.053531667,48.320260556],[6.053671944,48.320116944],[6.053805,48.320009444],[6.053930833,48.319899444],[6.054110556,48.319796667],[6.054258056,48.319701111],[6.054384444,48.319696389],[6.0544825,48.319705833],[6.054545556,48.3197175],[6.054608889,48.319773333],[6.054678889,48.319824722],[6.054665,48.319876111],[6.054636667,48.319913333],[6.054689444,48.319971667],[6.054780556,48.32003],[6.054836667,48.320069722],[6.054931389,48.320069722],[6.055011944,48.320058056],[6.055096389,48.320013611],[6.055166389,48.319966944],[6.055176944,48.319918056],[6.055180556,48.319894722],[6.054994722,48.319733889],[6.054864722,48.319747778],[6.054693056,48.319631111],[6.054728056,48.319463333],[6.054759722,48.319421111],[6.054847222,48.319381667],[6.0549525,48.319341944],[6.055054444,48.319295278],[6.055163056,48.319251111],[6.055257778,48.319220833],[6.055327778,48.319216111],[6.055380556,48.319234722],[6.055513889,48.319262778],[6.0556225,48.319421389],[6.055534722,48.319500556],[6.055678611,48.319689444],[6.055752222,48.319703611],[6.055832778,48.319696667],[6.055903056,48.319677778],[6.055980278,48.319652222],[6.056039722,48.319624167],[6.0560925,48.319582222],[6.056088889,48.319551944],[6.055959167,48.319374722],[6.0558175,48.319364444],[6.055713333,48.319214167],[6.055822778,48.319048889],[6.055912222,48.319020833],[6.056013889,48.318995833],[6.056140833,48.318964444],[6.056240278,48.318948056],[6.056346944,48.318923333],[6.056433889,48.318911667],[6.05667,48.3190275],[6.056702222,48.319181111],[6.056585556,48.319235556],[6.056635278,48.319420556],[6.0566825,48.319451944],[6.056749444,48.319473611],[6.056826389,48.319473611],[6.056906111,48.319461944],[6.056975556,48.319453611],[6.057026389,48.319436944],[6.057094722,48.319402222],[6.057046944,48.319184444],[6.056901389,48.319155833],[6.056865,48.319],[6.057026389,48.318853611],[6.0572175,48.318836944],[6.057378889,48.318833889],[6.057537778,48.318830833],[6.057619722,48.318833889],[6.057682222,48.318856667],[6.057741667,48.318896111],[6.057790278,48.318932222],[6.057830556,48.318962222],[6.057835833,48.318979722],[6.057825278,48.319130556],[6.057690833,48.319166667],[6.05767,48.319368611],[6.057708333,48.319390556],[6.057758889,48.319412778],[6.057804167,48.3194325],[6.057867222,48.319435833],[6.057933333,48.319438333],[6.0579875,48.319440556],[6.058036389,48.3194325],[6.05808,48.319423056],[6.058123611,48.319411667],[6.058144722,48.319201389],[6.058118611,48.319182778],[6.058027778,48.319143333],[6.058048611,48.318986667],[6.058253056,48.318868333],[6.058451944,48.3188775],[6.058724167,48.318914444],[6.058881389,48.318945278],[6.0590175,48.319123333],[6.0589275,48.319273611],[6.058775,48.319288889],[6.058664167,48.319480833],[6.058721667,48.319526667],[6.058788611,48.319558333],[6.058857778,48.319572778],[6.058900833,48.319590278],[6.058965278,48.319596667],[6.059036944,48.319596667],[6.059086944,48.319595],[6.059213611,48.319399722],[6.059115833,48.319318611],[6.059208889,48.3191725],[6.059464444,48.319096389],[6.059581389,48.319123333],[6.059708056,48.319159722],[6.0598275,48.319204167],[6.0599375,48.319243889],[6.059992222,48.319267778],[6.060020833,48.319301111],[6.060075833,48.319466389],[6.059941944,48.319598611],[6.059801667,48.319585],[6.059614444,48.3197675],[6.059640833,48.319810833],[6.059675278,48.319844722],[6.059724167,48.319866389],[6.059777222,48.319888056],[6.059874722,48.319924444],[6.059933611,48.319935278],[6.059996667,48.319934167],[6.060169722,48.319765],[6.060110833,48.319679722],[6.060246944,48.319544444],[6.060513611,48.319518889],[6.060582778,48.319537778],[6.060655833,48.319582222],[6.060999722,48.3197975],[6.0609875,48.319982778],[6.060798889,48.320090278],[6.060666667,48.320049722],[6.060598056,48.320083889],[6.060419444,48.320194444],[6.060424167,48.32025],[6.060448889,48.320293889],[6.060502778,48.320326389],[6.060556389,48.320363889],[6.0606275,48.320396389],[6.060681389,48.320407778],[6.060730278,48.320399722],[6.060789167,48.320381667],[6.060950833,48.3202825],[6.060931111,48.320181667],[6.061114722,48.320091944],[6.061393889,48.320106667],[6.061482222,48.320183056],[6.0615825,48.3202825],[6.0617,48.320406389],[6.061771111,48.320510556],[6.06185,48.320637222],[6.061919444,48.32076],[6.061986111,48.320896944],[6.062007222,48.321001667],[6.062019444,48.321068056],[6.062005833,48.321093333],[6.061976944,48.321128611],[6.061921389,48.321160833],[6.061851389,48.321192778],[6.061762222,48.321216944],[6.061730833,48.321220278],[6.061721111,48.321367778],[6.061783889,48.321385556],[6.061858611,48.3214],[6.061931111,48.321419167],[6.061986667,48.321438333],[6.062025278,48.321464167],[6.062042222,48.321489722]],[[6.052278333,48.321786389],[6.052375,48.321723889],[6.052496667,48.321664167],[6.05256,48.321608056],[6.052581111,48.321495556],[6.052655,48.321277778],[6.052739722,48.321074167],[6.052850556,48.320866944],[6.052972222,48.320670278],[6.053056944,48.320555],[6.053156667,48.320424444],[6.053288333,48.320290278],[6.053406667,48.3201525],[6.053554722,48.320030833],[6.053691944,48.3199075],[6.053829167,48.319801944],[6.054062778,48.319639444],[6.054233333,48.319539722],[6.054357222,48.319467222],[6.0544925,48.319392778],[6.054545556,48.319218611],[6.054405278,48.319068333],[6.054253611,48.319081944],[6.054083056,48.31891],[6.054101944,48.318866389],[6.0541375,48.318825278],[6.054205,48.318786667],[6.054276111,48.318756944],[6.054349167,48.318730556],[6.054405278,48.318728333],[6.054450278,48.318725833],[6.054626389,48.318901389],[6.054613333,48.31893],[6.054583333,48.3189625],[6.054553333,48.318993611],[6.054710833,48.319130556],[6.054976667,48.319164167],[6.055061111,48.319135556],[6.055145278,48.319101944],[6.055224167,48.319075833],[6.055300833,48.319047222],[6.055403611,48.318883056],[6.055297222,48.318728611],[6.055161667,48.318711667],[6.055065,48.318548611],[6.055119722,48.318505556],[6.055210278,48.31848],[6.055303611,48.318447778],[6.055400556,48.318430556],[6.055461667,48.318426389],[6.055565,48.318595833],[6.055484167,48.318666667],[6.0555875,48.318831667],[6.055835833,48.318900278],[6.055945556,48.318870278],[6.056055,48.318846667],[6.056174444,48.318821111],[6.056322778,48.318679444],[6.056271389,48.318499167],[6.056123056,48.31845],[6.056058333,48.318263333],[6.056145556,48.3182225],[6.056232778,48.318190556],[6.056313333,48.318175556],[6.056400278,48.3181775],[6.056468056,48.318175556],[6.05651,48.3181925],[6.056580833,48.318413611],[6.056468056,48.318477778],[6.056519722,48.318632222],[6.056755,48.318731111],[6.056855556,48.318723611],[6.056975,48.3187175],[6.057109722,48.3187075],[6.057293333,48.318562778],[6.057287222,48.318410278],[6.057177222,48.318351111],[6.057158889,48.318281944],[6.057158889,48.318200556],[6.057152778,48.318149722],[6.057244444,48.318115],[6.057330278,48.318096667],[6.057434444,48.318090556],[6.057504722,48.318096667],[6.057581389,48.318121111],[6.057618056,48.3181375],[6.057618056,48.318349167],[6.057498611,48.318401944],[6.057495556,48.318565],[6.057703611,48.318699167],[6.057829167,48.318700833],[6.057968611,48.318707222],[6.058082222,48.318715833],[6.058176389,48.318730833],[6.058406667,48.318621111],[6.058445556,48.318459167],[6.058341667,48.318405278],[6.058393611,48.318178889],[6.0584975,48.318153056],[6.058588333,48.318150833],[6.058669167,48.318159444],[6.058711389,48.318170278],[6.058776389,48.318196111],[6.058825,48.31822],[6.0588475,48.318241389],[6.058769722,48.318437778],[6.058646667,48.318474444],[6.058604444,48.318638333],[6.058763333,48.318793611],[6.058883333,48.318810833],[6.058986944,48.318836667],[6.0590875,48.318856111],[6.059184722,48.318881944],[6.059457222,48.318823611],[6.059557778,48.318664167],[6.059469722,48.318586111],[6.059614722,48.318385],[6.0596875,48.318376944],[6.059775,48.318382778],[6.059847778,48.318405],[6.059920278,48.318423056],[6.059968611,48.318443333],[6.060005,48.318471389],[6.060029167,48.318493611],[6.059902222,48.318700556],[6.059747778,48.318710833],[6.059638889,48.318869722],[6.059763056,48.319040556],[6.060059444,48.319141111],[6.060346667,48.319111111],[6.060485833,48.318972222],[6.060425278,48.318897778],[6.060603889,48.318706667],[6.060706667,48.318712778],[6.06077,48.318726944],[6.060836667,48.318759167],[6.060878889,48.318783056],[6.060912222,48.318805278],[6.060948611,48.318841389],[6.060978889,48.318879722],[6.060803333,48.319050556],[6.060652222,48.319050556],[6.060590833,48.319110278],[6.060521667,48.319191111],[6.060566389,48.319366944],[6.0608425,48.319526111],[6.061118889,48.319520833],[6.061281389,48.31941],[6.061236667,48.319312778],[6.061484444,48.319156111],[6.061594167,48.319166944],[6.061667222,48.3192075],[6.061736389,48.319256111],[6.061781111,48.3193075],[6.061805278,48.319375],[6.061573889,48.319526111],[6.061439722,48.319504722],[6.061273056,48.319618056],[6.061256944,48.319699167],[6.061261111,48.319771944],[6.061301667,48.319831389],[6.061390833,48.319888333],[6.061618333,48.319915278],[6.061789167,48.319842222],[6.062114167,48.320158333],[6.061968889,48.320219444],[6.061920833,48.320406667],[6.061973611,48.320478611],[6.062226111,48.320561667],[6.062466667,48.320508889],[6.062488333,48.320413056],[6.062793889,48.320342778],[6.062897222,48.320405],[6.062974167,48.320534722],[6.0629525,48.320632222],[6.062671111,48.320696111],[6.062644722,48.320696111],[6.062608611,48.320681667],[6.062538889,48.320636944],[6.062286389,48.320693056],[6.062173056,48.320853056],[6.062195,48.320960278],[6.062228056,48.321065278],[6.062235556,48.321145556],[6.062242778,48.321253056],[6.062242778,48.321391944],[6.062239167,48.321486944],[6.062228056,48.321616389],[6.062273889,48.321689722],[6.0623475,48.321733611],[6.062452222,48.3217825],[6.062673333,48.321875278],[6.0627625,48.321898611],[6.062855833,48.321911389],[6.063006944,48.321929444],[6.063778889,48.321983889],[6.064411111,48.32202],[6.064308889,48.322824444]],[[6.062051944,48.321396389],[6.062029722,48.321389722],[6.062003611,48.321375],[6.061973611,48.321350833],[6.061963611,48.321328333],[6.061958611,48.321305556],[6.061958611,48.321282778],[6.0619575,48.321255556],[6.061966667,48.321234722],[6.061979722,48.321213333],[6.061995833,48.321196667],[6.062017778,48.321183889],[6.062041944,48.321177222],[6.062048889,48.321213333],[6.062051944,48.321272778],[6.062053889,48.3213175],[6.062055,48.321356389],[6.062051944,48.321396389]],[[6.062174444,48.322043056],[6.062206111,48.322010833],[6.062237778,48.321981111],[6.062282778,48.32196],[6.062326111,48.321944444],[6.062372778,48.321945556],[6.0624675,48.321957778],[6.0625575,48.321967778],[6.0625775,48.321981111],[6.062585833,48.321998889],[6.062584167,48.322039722],[6.062544167,48.322412778],[6.062525833,48.322455],[6.0624925,48.322495833],[6.0624575,48.322528056],[6.0624175,48.322543611],[6.062396667,48.322554722],[6.062353056,48.322563056],[6.062320833,48.322571389],[6.062285556,48.3225725],[6.062247778,48.3225725],[6.062195833,48.322565],[6.062155,48.32255]],[[6.074973056,48.322908889],[6.075033333,48.322784444],[6.0751,48.322676389],[6.075137778,48.322617778],[6.075233056,48.322491944],[6.0753775,48.322308333],[6.075540278,48.322141667],[6.075681111,48.322007778],[6.075885278,48.321839722],[6.076043333,48.321734444],[6.076211389,48.321618611],[6.076379167,48.3215175],[6.076572778,48.321421111],[6.076789167,48.321311389],[6.077057222,48.321356667],[6.077186389,48.321493889],[6.077105833,48.321577778],[6.077228333,48.321697778],[6.077276944,48.321721389],[6.077360833,48.321736667],[6.077441667,48.321732222],[6.077503056,48.321725833],[6.077551389,48.321697778],[6.077593333,48.321652778],[6.077631944,48.321605556],[6.077651389,48.321573333],[6.077502778,48.321416667],[6.077363889,48.321420833],[6.077238056,48.321287778],[6.077295833,48.321116667],[6.077424444,48.321059722],[6.077549444,48.321023889],[6.077696111,48.320986111],[6.0778175,48.320950278],[6.077913889,48.320931389],[6.078146111,48.321019167],[6.078221389,48.321180833],[6.078114167,48.321247222],[6.078196389,48.321425556],[6.078317778,48.321451667],[6.078392778,48.321461111],[6.078471389,48.321444444],[6.078535833,48.321411111],[6.078596667,48.321373056],[6.078625,48.321346944],[6.078564444,48.321164167],[6.078414167,48.321140278],[6.07835,48.320990556],[6.078475,48.320831389],[6.078617778,48.320807778],[6.078760833,48.320783889],[6.078889444,48.320771944],[6.079003611,48.3207625],[6.079082222,48.32076],[6.079132222,48.320757778],[6.079328889,48.320895556],[6.079325278,48.321054722],[6.079200278,48.321102222],[6.079196667,48.321294722],[6.079374167,48.321356944],[6.07948,48.321361111],[6.079661389,48.321294722],[6.079667222,48.321107778],[6.079537222,48.321053611],[6.079534167,48.320902778],[6.079733611,48.320768056],[6.079872778,48.320764167],[6.080002778,48.320778056],[6.0801325,48.320784167],[6.080253611,48.320796111],[6.080359444,48.320814167],[6.080510556,48.320970833],[6.080453056,48.321133889],[6.080317222,48.321157778],[6.080253611,48.321338889],[6.080305,48.321381111],[6.080356389,48.321403056],[6.080398889,48.321431111],[6.080471389,48.321437222],[6.080516667,48.321447222],[6.080716111,48.321401111],[6.080764444,48.321214167],[6.080658611,48.32116],[6.08071,48.321001111],[6.080939722,48.320896667],[6.081096944,48.320910556],[6.081220833,48.320930556],[6.081329722,48.320948611],[6.081411111,48.320960833],[6.0815625,48.3211175],[6.081514167,48.3212825],[6.081368889,48.321310556],[6.081311667,48.321495556],[6.081387222,48.321531667],[6.081441667,48.321561667],[6.081478056,48.321581944],[6.081544444,48.32159],[6.081606944,48.321586111],[6.081668611,48.321577778],[6.081714167,48.321568333],[6.081761667,48.321558889],[6.081821389,48.321372222],[6.081706389,48.321305278],[6.0817625,48.321143333],[6.081989444,48.321042222],[6.082151944,48.321063056],[6.082291389,48.321089444],[6.082426944,48.321115556],[6.082531111,48.321141944],[6.082643611,48.321171111],[6.082720833,48.321355278],[6.0826075,48.321496111],[6.082457778,48.321486111],[6.082323333,48.321663889],[6.082428056,48.321773333],[6.08252,48.321801944],[6.082624722,48.321804722],[6.082725278,48.321801667],[6.08286,48.321633889],[6.082787222,48.321558611],[6.082898611,48.321415],[6.083159444,48.321362222],[6.083291944,48.321420556],[6.0834525,48.321498611],[6.083606389,48.321596944],[6.083743333,48.321683611],[6.083871944,48.321784444],[6.084050278,48.321936389],[6.084173333,48.322067222],[6.084259722,48.322169167],[6.084341944,48.322278333],[6.084426389,48.322408889],[6.0845525,48.322657222],[6.084614167,48.322854722],[6.084635833,48.323004167],[6.084643056,48.323139167],[6.084643056,48.323293333],[6.084625,48.323404167]]]}},{"type":"Feature","id":"LFSG-15f66e696171a0443d63","properties":{"airport":"LFSG","name":"LFSG Groundlayout","layer":"Guidance lines","category":"Stopbars","object_type":"Line","style_id":"line.stopbar.7e0000","source_group":"LFSG Groundlayout","vsmr_group_ids":[],"geometry_role":"linework"},"geometry":{"type":"MultiLineString","coordinates":[[[6.084413889,48.325005278],[6.084874444,48.325034444]],[[6.0521,48.323154167],[6.052566111,48.323180833]],[[6.061765833,48.323709167],[6.062100278,48.323729444]],[[6.074452222,48.324436944],[6.074646944,48.324449722]]]}},{"type":"Feature","id":"LFSG-313390533ad109edface","properties":{"airport":"LFSG","name":"LFSG Groundlayout","layer":"Guidance lines","category":"TWR-CTR","object_type":"Line","style_id":"line.twr-ctr.000000","source_group":"LFSG Groundlayout","vsmr_group_ids":[],"geometry_role":"linework"},"geometry":{"type":"LineString","coordinates":[[6.062824722,48.321201667],[6.062906944,48.3211875],[6.062886111,48.321130833],[6.062797222,48.321148056],[6.062824722,48.321201667]]}},{"type":"Feature","id":"LFSG-b428cfcc70b584e70c44","properties":{"airport":"LFSG","name":"LFSG Groundlayout","layer":"Guidance lines","category":"Centerlines","object_type":"Line","style_id":"line.centerlines.ffff00","source_group":"LFSG Groundlayout","vsmr_group_ids":[],"geometry_role":"linework"},"geometry":{"type":"MultiLineString","coordinates":[[[6.063432222,48.322348611],[6.0641,48.322386667]],[[6.063666389,48.322539167],[6.063989444,48.322283611]],[[6.062697222,48.322469722],[6.062971389,48.322251111]]]}},{"type":"Feature","id":"LFSG-16d0783d2505153ac1b3","properties":{"airport":"LFSG","name":"LFSG Groundlayout","layer":"Guidance lines","category":"Labels","object_type":"Line","style_id":"line.labels.808080","source_group":"LFSG Groundlayout","vsmr_group_ids":[],"geometry_role":"linework"},"geometry":{"type":"MultiLineString","coordinates":[[[6.083744167,48.325962778],[6.083827778,48.325966667],[6.083928056,48.325933333],[6.083949722,48.325934722],[6.083945556,48.325973333],[6.083987778,48.325975],[6.083996111,48.32592],[6.0839225,48.325916389],[6.083825556,48.325949722],[6.083788056,48.325948333],[6.083790833,48.325926111],[6.083813056,48.325925556],[6.083815278,48.325912222],[6.083751944,48.325908889],[6.083744167,48.325962778]],[[6.052663611,48.324259167],[6.052666111,48.324235],[6.052508889,48.324226389],[6.052506111,48.324251667],[6.052663611,48.324259167]],[[6.0527025,48.3242775],[6.052710556,48.324220833],[6.052468056,48.3242075],[6.0524625,48.324263889],[6.0527025,48.3242775]],[[6.052676111,48.324163611],[6.052678611,48.324140833],[6.052634444,48.324139167],[6.0526325,48.324161111],[6.052676111,48.324163611]],[[6.052519444,48.324155278],[6.052598889,48.324158889],[6.052602778,48.324136944],[6.052520833,48.3241325],[6.052519444,48.324155278]],[[6.052716389,48.324183056],[6.052725,48.324125556],[6.052633056,48.324120556],[6.052619167,48.324130833],[6.052605278,48.324120278],[6.0524825,48.324116667],[6.052475278,48.324168611],[6.052600833,48.324176389],[6.052612778,48.324168611],[6.052625278,48.324179167],[6.052716389,48.324183056]],[[6.083870278,48.326048333],[6.083934444,48.326051389],[6.083937778,48.326030556],[6.083871667,48.326026944],[6.083870278,48.326048333]],[[6.083825,48.326063056],[6.0839775,48.326070833],[6.083984444,48.326017222],[6.083780278,48.326004722],[6.0837225,48.326041389],[6.083747778,48.326043333],[6.083785278,48.326021389],[6.083828333,48.326024167],[6.083825,48.326063056]]]}},{"type":"Feature","id":"LFSG-dee6e6900ab729c572a9","properties":{"airport":"LFSG","name":"D","layer":"Labels","category":"Taxiways","object_type":"Label","style_id":"label.taxiways","source_group":"LFSG Taxiways","vsmr_group_ids":[],"geometry_role":"text_label","text-field":"D"},"geometry":{"type":"Point","coordinates":[6.051488333,48.323126111]}},{"type":"Feature","id":"LFSG-2e14e4ef5f4af9d150a6","properties":{"airport":"LFSG","name":"C","layer":"Labels","category":"Taxiways","object_type":"Label","style_id":"label.taxiways","source_group":"LFSG Taxiways","vsmr_group_ids":[],"geometry_role":"text_label","text-field":"C"},"geometry":{"type":"Point","coordinates":[6.060906389,48.323725]}},{"type":"Feature","id":"LFSG-8624f9b165878bacc165","properties":{"airport":"LFSG","name":"B","layer":"Labels","category":"Taxiways","object_type":"Label","style_id":"label.taxiways","source_group":"LFSG Taxiways","vsmr_group_ids":[],"geometry_role":"text_label","text-field":"B"},"geometry":{"type":"Point","coordinates":[6.073817778,48.324486667]}},{"type":"Feature","id":"LFSG-ceaa3b25142feb401e81","properties":{"airport":"LFSG","name":"A","layer":"Labels","category":"Taxiways","object_type":"Label","style_id":"label.taxiways","source_group":"LFSG Taxiways","vsmr_group_ids":[],"geometry_role":"text_label","text-field":"A"},"geometry":{"type":"Point","coordinates":[6.083884167,48.325131944]}},{"type":"Feature","id":"LFSG-e7a44eeda133ca008775","properties":{"airport":"LFSG","name":"T3","layer":"Labels","category":"Taxiways","object_type":"Label","style_id":"label.taxiways","source_group":"LFSG Taxiways","vsmr_group_ids":[],"geometry_role":"text_label","text-field":"T3"},"geometry":{"type":"Point","coordinates":[6.057173333,48.3228675]}},{"type":"Feature","id":"LFSG-4eb5b3b26a31837370a6","properties":{"airport":"LFSG","name":"T2","layer":"Labels","category":"Taxiways","object_type":"Label","style_id":"label.taxiways","source_group":"LFSG Taxiways","vsmr_group_ids":[],"geometry_role":"text_label","text-field":"T2"},"geometry":{"type":"Point","coordinates":[6.068938056,48.323550833]}},{"type":"Feature","id":"LFSG-947d21a8eabe2c24110f","properties":{"airport":"LFSG","name":"T1","layer":"Labels","category":"Taxiways","object_type":"Label","style_id":"label.taxiways","source_group":"LFSG Taxiways","vsmr_group_ids":[],"geometry_role":"text_label","text-field":"T1"},"geometry":{"type":"Point","coordinates":[6.079246111,48.324113611]}},{"type":"Feature","id":"LFSG-d2855c41279e91595b6f","properties":{"airport":"LFSG","name":"E","layer":"Labels","category":"Taxiways","object_type":"Label","style_id":"label.taxiways","source_group":"LFSG Taxiways","vsmr_group_ids":[],"geometry_role":"text_label","text-field":"E"},"geometry":{"type":"Point","coordinates":[6.061343056,48.322145278]}}]}
