{"type":"FeatureCollection","name":"LFSL AVISO","bbox":[1.4714625,45.035776111,1.497323056,45.044459722],"metadata":{"schema":"vSMR AVISO","schema_version":2,"geometry_mode":"shared","airport":"LFSL","coordinate_reference_system":"WGS84","coordinate_order":"longitude, latitude","default_color_palette":"dark","color_palettes":["dark","light"],"background_colors":{"dark":"#434A4F","light":"#434A4F"},"runways":[{"ends":["11","29"],"headings":[114,294],"thresholds":[[1.472257778,45.044002778],[1.496496944,45.036146944]]}],"saved_active_runways":[],"saved_active_airport_modes":[],"airport_reference":[1.485555833,45.039721944],"feature_count":33,"style_count":8,"layer_counts":{"Guidance lines":6,"Labels":27},"category_counts":{"Apron Surface":1,"Centerlines":1,"Gates":22,"Labels":1,"Runways":1,"Stopbars":1,"Taxiways":6},"geometry_source":"local GNG/KMZ","geometry_source_url":"","geometry_license":"GPL-3.0"},"styles":{"line.runwayconcrete.555555":{"name":"Runways","layer":"Guidance lines","object_type":"Line","paint":{"stroke":"#111318","stroke-opacity":1,"stroke-width":1,"palette-overrides":{"light":{"stroke":"#555555"}}},"feature_count":1},"line.taxiway.c0b631":{"name":"Taxiways","layer":"Guidance lines","object_type":"Line","paint":{"stroke":"#4E5A69","stroke-opacity":1,"stroke-width":1,"palette-overrides":{"light":{"stroke":"#C0B631"}}},"feature_count":1},"line.apronsurface.808080":{"name":"Apron Surface","layer":"Guidance lines","object_type":"Line","paint":{"stroke":"#808080","stroke-opacity":1,"stroke-width":1,"palette-overrides":{"light":{"stroke":"#808080"}}},"feature_count":1},"line.stopbar.7e0000":{"name":"Stopbars","layer":"Guidance lines","object_type":"Line","paint":{"stroke":"#7E0000","stroke-opacity":1,"stroke-width":1,"palette-overrides":{"light":{"stroke":"#7E0000"}}},"feature_count":1},"line.centerlines.ffff00":{"name":"Centerlines","layer":"Guidance lines","object_type":"Line","paint":{"stroke":"#FFFF00","stroke-opacity":1,"stroke-width":1,"palette-overrides":{"light":{"stroke":"#FFFF00"}}},"feature_count":1},"line.labels.808080":{"name":"Labels","layer":"Guidance lines","object_type":"Line","paint":{"stroke":"#808080","stroke-opacity":1,"stroke-width":1,"palette-overrides":{"light":{"stroke":"#808080"}}},"feature_count":1},"label.gates":{"name":"Gates","layer":"Labels","object_type":"Label","paint":{"text-color":"#CCCCCC","text-font":"Arial","text-size":12,"text-halo-color":"#000000","text-halo-width":1,"text-anchor":"center","zoomLevel":9},"feature_count":22},"label.taxiways":{"name":"Taxiways","layer":"Labels","object_type":"Label","paint":{"text-color":"#CCCCCC","text-font":"Arial","text-size":12,"text-halo-color":"#000000","text-halo-width":1,"text-anchor":"center","zoomLevel":7},"feature_count":5}},"vsmr_groups":[],"features":[{"type":"Feature","id":"LFSL-81d09f6f0317d49c8cf1","properties":{"airport":"LFSL","name":"P - Aviation Commerciale","layer":"Labels","category":"Gates","object_type":"Label","style_id":"label.gates","source_group":"LFSL Gates","vsmr_group_ids":[],"geometry_role":"text_label","text-field":"P - Aviation Commerciale"},"geometry":{"type":"Point","coordinates":[1.489846944,45.0409375]}},{"type":"Feature","id":"LFSL-1257c2c19a14f9400a1d","properties":{"airport":"LFSL","name":"Terminal","layer":"Labels","category":"Gates","object_type":"Label","style_id":"label.gates","source_group":"LFSL Gates","vsmr_group_ids":[],"geometry_role":"text_label","text-field":"Terminal"},"geometry":{"type":"Point","coordinates":[1.490119444,45.041286667]}},{"type":"Feature","id":"LFSL-6bd1a222242c73e32571","properties":{"airport":"LFSL","name":"Bloc Technique - TWR","layer":"Labels","category":"Gates","object_type":"Label","style_id":"label.gates","source_group":"LFSL Gates","vsmr_group_ids":[],"geometry_role":"text_label","text-field":"Bloc Technique - TWR"},"geometry":{"type":"Point","coordinates":[1.488785278,45.041713056]}},{"type":"Feature","id":"LFSL-9a1e0030e957d6901b67","properties":{"airport":"LFSL","name":"ACB","layer":"Labels","category":"Gates","object_type":"Label","style_id":"label.gates","source_group":"LFSL Gates","vsmr_group_ids":[],"geometry_role":"text_label","text-field":"ACB"},"geometry":{"type":"Point","coordinates":[1.4880325,45.042011111]}},{"type":"Feature","id":"LFSL-af17d1640d10134ca9fc","properties":{"airport":"LFSL","name":"Hangars","layer":"Labels","category":"Gates","object_type":"Label","style_id":"label.gates","source_group":"LFSL Gates","vsmr_group_ids":[],"geometry_role":"text_label","text-field":"Hangars"},"geometry":{"type":"Point","coordinates":[1.486841389,45.042661667]}},{"type":"Feature","id":"LFSL-27660e1496567887cb0c","properties":{"airport":"LFSL","name":"AVT","layer":"Labels","category":"Gates","object_type":"Label","style_id":"label.gates","source_group":"LFSL Gates","vsmr_group_ids":[],"geometry_role":"text_label","text-field":"AVT"},"geometry":{"type":"Point","coordinates":[1.485629167,45.042312778]}},{"type":"Feature","id":"LFSL-b650de83959bbaab051d","properties":{"airport":"LFSL","name":"Parking Aviation Generale","layer":"Labels","category":"Gates","object_type":"Label","style_id":"label.gates","source_group":"LFSL Gates","vsmr_group_ids":[],"geometry_role":"text_label","text-field":"Parking Aviation Generale"},"geometry":{"type":"Point","coordinates":[1.487536667,45.041709167]}},{"type":"Feature","id":"LFSL-5de9b4cfe633fdae8b32","properties":{"airport":"LFSL","name":"Hangars","layer":"Labels","category":"Gates","object_type":"Label","style_id":"label.gates","source_group":"LFSL Gates","vsmr_group_ids":[],"geometry_role":"text_label","text-field":"Hangars"},"geometry":{"type":"Point","coordinates":[1.483220833,45.038175278]}},{"type":"Feature","id":"LFSL-94bd24514f8fba04086e","properties":{"airport":"LFSL","name":"X","layer":"Labels","category":"Gates","object_type":"Label","style_id":"label.gates","source_group":"LFSL Gates","vsmr_group_ids":[],"geometry_role":"text_label","text-field":"X"},"geometry":{"type":"Point","coordinates":[1.4873,45.039668056]}},{"type":"Feature","id":"LFSL-00100ec8889acce2b4f9","properties":{"airport":"LFSL","name":"X","layer":"Labels","category":"Gates","object_type":"Label","style_id":"label.gates","source_group":"LFSL Gates","vsmr_group_ids":[],"geometry_role":"text_label","text-field":"X"},"geometry":{"type":"Point","coordinates":[1.487835556,45.040494722]}},{"type":"Feature","id":"LFSL-393faa5c0508682c1adf","properties":{"airport":"LFSL","name":"X","layer":"Labels","category":"Gates","object_type":"Label","style_id":"label.gates","source_group":"LFSL Gates","vsmr_group_ids":[],"geometry_role":"text_label","text-field":"X"},"geometry":{"type":"Point","coordinates":[1.488192222,45.040996944]}},{"type":"Feature","id":"LFSL-31b5d69c798d94130b2d","properties":{"airport":"LFSL","name":"X","layer":"Labels","category":"Gates","object_type":"Label","style_id":"label.gates","source_group":"LFSL Gates","vsmr_group_ids":[],"geometry_role":"text_label","text-field":"X"},"geometry":{"type":"Point","coordinates":[1.488501944,45.041535278]}},{"type":"Feature","id":"LFSL-b1809b871681299de797","properties":{"airport":"LFSL","name":"Avions Classe A et B","layer":"Labels","category":"Gates","object_type":"Label","style_id":"label.gates","source_group":"LFSL Gates","vsmr_group_ids":[],"geometry_role":"text_label","text-field":"Avions Classe A et B"},"geometry":{"type":"Point","coordinates":[1.487035,45.041852222]}},{"type":"Feature","id":"LFSL-2fbd4debba76e9075a68","properties":{"airport":"LFSL","name":"Avions Classe B","layer":"Labels","category":"Gates","object_type":"Label","style_id":"label.gates","source_group":"LFSL Gates","vsmr_group_ids":[],"geometry_role":"text_label","text-field":"Avions Classe B"},"geometry":{"type":"Point","coordinates":[1.487743611,45.0415875]}},{"type":"Feature","id":"LFSL-42b205c59a8d0aeff53f","properties":{"airport":"LFSL","name":"Voie Meeting","layer":"Labels","category":"Gates","object_type":"Label","style_id":"label.gates","source_group":"LFSL Gates","vsmr_group_ids":[],"geometry_role":"text_label","text-field":"Voie Meeting"},"geometry":{"type":"Point","coordinates":[1.490871111,45.039841944]}},{"type":"Feature","id":"LFSL-e3f18913a00d73e244b7","properties":{"airport":"LFSL","name":"C1","layer":"Labels","category":"Gates","object_type":"Label","style_id":"label.gates","source_group":"LFSL Gates","vsmr_group_ids":[],"geometry_role":"text_label","text-field":"C1"},"geometry":{"type":"Point","coordinates":[1.488905556,45.040764722]}},{"type":"Feature","id":"LFSL-5a742bc3268b51fc5c59","properties":{"airport":"LFSL","name":"C2","layer":"Labels","category":"Gates","object_type":"Label","style_id":"label.gates","source_group":"LFSL Gates","vsmr_group_ids":[],"geometry_role":"text_label","text-field":"C2"},"geometry":{"type":"Point","coordinates":[1.489654444,45.040613333]}},{"type":"Feature","id":"LFSL-2db6d0181b2290746226","properties":{"airport":"LFSL","name":"C3","layer":"Labels","category":"Gates","object_type":"Label","style_id":"label.gates","source_group":"LFSL Gates","vsmr_group_ids":[],"geometry_role":"text_label","text-field":"C3"},"geometry":{"type":"Point","coordinates":[1.490123056,45.040212222]}},{"type":"Feature","id":"LFSL-23dc3e2e0a0a9620c075","properties":{"airport":"LFSL","name":"Voie Hangar Ouest","layer":"Labels","category":"Gates","object_type":"Label","style_id":"label.gates","source_group":"LFSL Gates","vsmr_group_ids":[],"geometry_role":"text_label","text-field":"Voie Hangar Ouest"},"geometry":{"type":"Point","coordinates":[1.486403056,45.042178889]}},{"type":"Feature","id":"LFSL-f82bbbdef0f0570254e9","properties":{"airport":"LFSL","name":"Voie Hangar Est","layer":"Labels","category":"Gates","object_type":"Label","style_id":"label.gates","source_group":"LFSL Gates","vsmr_group_ids":[],"geometry_role":"text_label","text-field":"Voie Hangar Est"},"geometry":{"type":"Point","coordinates":[1.487031667,45.041980833]}},{"type":"Feature","id":"LFSL-5af9e3de54f51e668ff7","properties":{"airport":"LFSL","name":"B2","layer":"Labels","category":"Gates","object_type":"Label","style_id":"label.gates","source_group":"LFSL Gates","vsmr_group_ids":[],"geometry_role":"text_label","text-field":"B2"},"geometry":{"type":"Point","coordinates":[1.487663333,45.041384444]}},{"type":"Feature","id":"LFSL-8c13ebf11cec5a59a071","properties":{"airport":"LFSL","name":"B1","layer":"Labels","category":"Gates","object_type":"Label","style_id":"label.gates","source_group":"LFSL Gates","vsmr_group_ids":[],"geometry_role":"text_label","text-field":"B1"},"geometry":{"type":"Point","coordinates":[1.487482778,45.041113889]}},{"type":"Feature","id":"LFSL-7c58a4d20eccb0092c97","properties":{"airport":"LFSL","name":"LFSL Groundlayout","layer":"Guidance lines","category":"Runways","object_type":"Line","style_id":"line.runwayconcrete.555555","source_group":"LFSL Groundlayout","vsmr_group_ids":[],"geometry_role":"linework"},"geometry":{"type":"MultiLineString","coordinates":[[[1.488129444,45.039123889],[1.487350833,45.039377778]],[[1.485531389,45.039968056],[1.471706667,45.044459722],[1.4714625,45.04409],[1.485374444,45.039584167]],[[1.485748056,45.039462222],[1.497083056,45.035776111],[1.497323056,45.036131667],[1.489482222,45.038683056]]]}},{"type":"Feature","id":"LFSL-20eb1b3906214bc34d72","properties":{"airport":"LFSL","name":"LFSL Groundlayout","layer":"Guidance lines","category":"Taxiways","object_type":"Line","style_id":"line.taxiway.c0b631","source_group":"LFSL Groundlayout","vsmr_group_ids":[],"geometry_role":"linework"},"geometry":{"type":"MultiLineString","coordinates":[[[1.487354722,45.039376667],[1.487339444,45.03939],[1.487319444,45.039404167],[1.487301389,45.039416944],[1.487283333,45.039433333],[1.487271389,45.039450278],[1.487260278,45.039466667],[1.487255278,45.039483889],[1.487259167,45.0395],[1.487265278,45.039518611],[1.487274167,45.039541944],[1.487289444,45.039565278],[1.488538611,45.041499444],[1.488548889,45.041519722],[1.488561389,45.041537222],[1.488575833,45.041552222],[1.488594722,45.041565556],[1.488614722,45.041578333],[1.488631111,45.041583889],[1.488646389,45.041588611],[1.488663611,45.041587222],[1.4886825,45.041581111]],[[1.485374167,45.039585833],[1.485410833,45.039558611],[1.485430833,45.039533889],[1.485449167,45.039511667],[1.485455833,45.039491389],[1.48546,45.039475556],[1.4854625,45.039458611],[1.485463611,45.039439722],[1.4854575,45.03942],[1.485452778,45.039408889],[1.484719722,45.038266667],[1.484703889,45.038247778],[1.484691667,45.03823],[1.484674722,45.038216944],[1.484659167,45.038204167],[1.484636111,45.038192222],[1.484613056,45.038182778],[1.484591111,45.038177778],[1.484564444,45.0381725],[1.484540278,45.03817],[1.484519722,45.038171667],[1.484491944,45.038177778],[1.484268889,45.038246111]],[[1.485753333,45.039460833],[1.485717222,45.039465278],[1.485697222,45.039461667],[1.485674444,45.039458056],[1.485655556,45.039453889],[1.485635556,45.0394475],[1.485615556,45.039440556],[1.485599722,45.039433611],[1.485582778,45.039424444],[1.48557,45.039411667],[1.485556944,45.039398333],[1.485010833,45.038541111],[1.484792222,45.038206667],[1.484775,45.038184167],[1.484760833,45.038168056],[1.484739167,45.038150278],[1.484718611,45.038133056],[1.484694167,45.038118333],[1.484662222,45.038107778],[1.484625833,45.038099722],[1.484588333,45.038093889],[1.484559167,45.0380925],[1.484531111,45.038093333],[1.484504722,45.038096667],[1.484460556,45.038106389],[1.484418333,45.038117778],[1.484236389,45.038174444]],[[1.485536667,45.039965833],[1.485569444,45.039956944],[1.485602222,45.039951944],[1.48563,45.039951111],[1.485656389,45.039953056],[1.485686944,45.0399575],[1.4857175,45.039964722],[1.485742778,45.039972778],[1.485765278,45.039981667],[1.485787778,45.039991944],[1.485805833,45.040003333],[1.485821111,45.040015],[1.485835556,45.0400275],[1.485847222,45.040041111],[1.485886111,45.040096389],[1.486488333,45.041033889],[1.486498333,45.0410575],[1.486503889,45.041078889],[1.486503889,45.0411],[1.486494444,45.04112],[1.486445278,45.041183333],[1.486426389,45.041205556],[1.486416944,45.041222778],[1.486411389,45.041238333],[1.486409444,45.041255],[1.486408333,45.0412775],[1.486411944,45.041299167],[1.486419444,45.041320833],[1.486428056,45.041341667],[1.486439167,45.041365278]],[[1.486103889,45.039781111],[1.486066111,45.039794167],[1.486030833,45.039814167],[1.486003333,45.039836667],[1.485988611,45.039856944],[1.485973611,45.039873889],[1.485966944,45.039896389],[1.485957778,45.039919722],[1.485955556,45.039941667],[1.485956667,45.039966667],[1.485961111,45.039988333],[1.485970278,45.040007778],[1.485980556,45.040032778],[1.486298333,45.040528333],[1.486562778,45.040930556],[1.486587222,45.040954167],[1.486615278,45.0409775],[1.486646944,45.0409925],[1.486680278,45.041006111],[1.486720556,45.041012222],[1.486761111,45.041018611],[1.486801389,45.041017222],[1.486850556,45.041011111],[1.486901667,45.041003611],[1.486961111,45.040995],[1.487006944,45.0409925],[1.487048889,45.040995],[1.487091111,45.041005],[1.487366944,45.041065556],[1.487387778,45.041068056]],[[1.488133333,45.039124444],[1.488205,45.039104444],[1.488264444,45.039094722],[1.488322222,45.039086111],[1.488378333,45.039082222],[1.488435833,45.039077222],[1.488498889,45.039081111],[1.488553056,45.039086111],[1.488600278,45.039094722],[1.488645833,45.039104444],[1.488684167,45.039118056],[1.488724444,45.039134167],[1.488762778,45.039147778],[1.488794444,45.039165],[1.488832778,45.039184722],[1.488866111,45.039206944],[1.4888975,45.039229444],[1.488925556,45.039249167],[1.488948333,45.039273889],[1.488974444,45.039307222],[1.489093333,45.039478889],[1.489229722,45.039696944],[1.489246944,45.039726944],[1.489266111,45.03976],[1.489275556,45.039788611],[1.4892875,45.039818056],[1.4892925,45.039851111],[1.4892925,45.039879722],[1.489291111,45.039915278],[1.489288889,45.039951667],[1.489281667,45.039975278],[1.489271667,45.040006667],[1.489266111,45.040025833]],[[1.489485833,45.038683611],[1.489429167,45.038702778],[1.489393333,45.038722222],[1.489362778,45.038739444],[1.4893375,45.038756389],[1.489316389,45.038773611],[1.489294444,45.038795],[1.489270278,45.038815278],[1.489249167,45.038839722],[1.489226944,45.038864167],[1.489201667,45.038899167],[1.489185,45.038928333],[1.489170556,45.038956667],[1.489158333,45.038993611],[1.489148611,45.039026389],[1.489141111,45.039059167],[1.489141111,45.039091111],[1.4891425,45.039120278],[1.489144722,45.039149722],[1.489150833,45.039178056],[1.489161944,45.039204722],[1.489176667,45.03924],[1.48919,45.039266667],[1.489206944,45.039296111],[1.489268333,45.039391111],[1.489304444,45.039445278],[1.489348333,45.039512222],[1.489378333,45.039554722],[1.489414444,45.039603611],[1.489456667,45.039640833],[1.489492778,45.039668611],[1.4895325,45.039695833],[1.489577778,45.039719167],[1.489623056,45.039743611],[1.489675833,45.039758611],[1.489740556,45.039781111],[1.489801111,45.039795833],[1.489896111,45.039819444]],[[1.486966667,45.039501389],[1.487010556,45.039496667],[1.487046389,45.039494167],[1.487078889,45.039495],[1.487108889,45.039495],[1.487138056,45.039503056],[1.48716,45.039514444],[1.487184167,45.03953],[1.487205,45.039550556],[1.488461667,45.041502778],[1.488471667,45.041531111],[1.488479167,45.0415525],[1.488486944,45.041576111],[1.488489722,45.041592778],[1.488485833,45.0416125],[1.488479167,45.041628611],[1.488468889,45.041638611],[1.4884575,45.041645278],[1.488448056,45.041654167]]]}},{"type":"Feature","id":"LFSL-642130d8fe1e7569a747","properties":{"airport":"LFSL","name":"LFSL Groundlayout","layer":"Guidance lines","category":"Apron Surface","object_type":"Line","style_id":"line.apronsurface.808080","source_group":"LFSL Groundlayout","vsmr_group_ids":[],"geometry_role":"linework"},"geometry":{"type":"MultiLineString","coordinates":[[[1.493023333,45.04017],[1.493070833,45.040154722],[1.493117222,45.040238056],[1.490726667,45.041018889],[1.490850833,45.041226389],[1.490711667,45.04127],[1.490586111,45.041081389],[1.490539722,45.041098611],[1.4905175,45.041067222],[1.489941667,45.041263889],[1.489955,45.041287222],[1.489864444,45.041318333],[1.489968056,45.041493333],[1.490040833,45.041470833],[1.490081944,45.041538056],[1.489851111,45.041607222],[1.489768611,45.041479722],[1.489695833,45.041504444],[1.489616944,45.041394722],[1.488506389,45.041744444],[1.488560278,45.041854444],[1.488441944,45.0419],[1.488356111,45.041801389],[1.487189444,45.042174167],[1.487245278,45.042259167],[1.487130556,45.042298611],[1.487180556,45.042383889],[1.487806389,45.042178333],[1.487985556,45.042452222],[1.487477222,45.042624722],[1.487594722,45.042790556],[1.487315833,45.042884167],[1.486919167,45.042265556],[1.486560833,45.0423775],[1.486957778,45.042993056],[1.486771111,45.0430525],[1.48636,45.042436389],[1.485499167,45.042710833],[1.485476944,45.042740556],[1.48534,45.042779444],[1.485282778,45.042680833],[1.485481944,45.042615833],[1.485563889,45.042545556],[1.486175833,45.042346944],[1.486305,45.042350556],[1.486310556,45.0423375],[1.486296111,45.042315],[1.486242222,45.0422825],[1.485891944,45.042388889],[1.485719167,45.042133333],[1.485789167,45.042101667],[1.485853889,45.042084722],[1.485905556,45.042075],[1.485958889,45.042070833],[1.486006667,45.042077778],[1.486054444,45.042085833],[1.486113333,45.042102778],[1.4861525,45.0421075],[1.486186111,45.042104722],[1.486459722,45.042014444],[1.486636389,45.041955],[1.486669444,45.041936667],[1.486690833,45.041915833],[1.486706667,45.041892778],[1.486715556,45.041864722],[1.486716944,45.0418375],[1.486711111,45.041808889],[1.486704444,45.041788056],[1.486691944,45.041765833],[1.486663611,45.041728056],[1.486439167,45.041364444]],[[1.484273889,45.038245],[1.483295556,45.038568333],[1.483150556,45.038348889],[1.483753889,45.0381525],[1.483706389,45.038079444],[1.484090833,45.037951944],[1.4842375,45.038174722]],[[1.489895833,45.039819167],[1.490179722,45.039891389],[1.490211944,45.039897778],[1.490237778,45.039900833],[1.490238611,45.039900833],[1.490266111,45.039898889],[1.490293889,45.039893889],[1.490330278,45.039885556],[1.490361389,45.0398775],[1.490396944,45.039868611],[1.490479722,45.039845556],[1.4906475,45.039792222],[1.490832778,45.039733056],[1.491647778,45.039465833],[1.491706111,45.039453056],[1.491744444,45.039445833],[1.491785278,45.039441944],[1.491818333,45.0394475],[1.491854167,45.039452222],[1.491883056,45.039461667],[1.491910833,45.039472778],[1.491933333,45.039488611],[1.491951667,45.039507222],[1.492361111,45.040113611],[1.492374722,45.040139444],[1.492389444,45.040153056],[1.492410278,45.040160833],[1.492441389,45.040165833],[1.492469444,45.040170278],[1.492471389,45.040171111],[1.492500556,45.040173056],[1.492531389,45.040173056],[1.492563333,45.040168333],[1.492591389,45.040158889],[1.492940278,45.040041667],[1.493023889,45.040170833],[1.492105833,45.040471389],[1.492016944,45.040347222],[1.492161111,45.040296389],[1.492200278,45.040280556],[1.492225556,45.040264167],[1.492244444,45.040246944],[1.492259444,45.040226944],[1.492263611,45.040204444],[1.492267778,45.040180556],[1.492266667,45.040164167],[1.492259444,45.040148611],[1.492250833,45.040131944],[1.491916389,45.039610278],[1.491902778,45.039595833],[1.491888333,45.039578056],[1.491874722,45.039561667],[1.491858333,45.039551389],[1.491842778,45.039540278],[1.491825278,45.039534167],[1.491804167,45.03953],[1.491776944,45.039525278],[1.491756667,45.039524722],[1.491733333,45.039523889],[1.491711944,45.039528611],[1.4905025,45.039920556],[1.490895,45.040538056],[1.490439167,45.040686667],[1.490554167,45.040870278],[1.490574444,45.0409],[1.490601111,45.040916389],[1.490630833,45.040924167],[1.490663333,45.040926389],[1.4907025,45.040925278],[1.490736667,45.040914167],[1.492105833,45.040471111]],[[1.488683333,45.041580833],[1.489313889,45.041376389],[1.489643889,45.041270278],[1.4896675,45.041261389],[1.489689722,45.041248333],[1.489703611,45.0412375],[1.489713333,45.041225],[1.48972,45.0412125],[1.489725833,45.041198333],[1.489727222,45.041183333],[1.489725833,45.0411675],[1.489722222,45.0411525],[1.489711667,45.0411375],[1.489599722,45.040961389],[1.488925278,45.041178056],[1.488446944,45.040453056],[1.488894167,45.040305],[1.488978333,45.040272778],[1.4890475,45.040236389],[1.489129444,45.040189167],[1.489166111,45.0401625],[1.489192778,45.040136389],[1.489214444,45.040107222],[1.489238611,45.040072222],[1.489251111,45.040050833],[1.489262222,45.040031389],[1.489266667,45.040024167]],[[1.488448889,45.041653611],[1.488244722,45.041721389],[1.4882275,45.041725],[1.488206111,45.041724444],[1.48819,45.041718611],[1.488176944,45.041705833],[1.487695,45.040965],[1.487388056,45.041068056]],[[1.488086389,45.041768056],[1.488100556,45.041749167],[1.488105833,45.041725278],[1.488098889,45.041703889],[1.488078611,45.041677222],[1.4880625,45.041661944],[1.488045556,45.041648056],[1.488033333,45.041638611],[1.488016389,45.0416325],[1.487994722,45.041630556],[1.487975,45.041633333],[1.487728611,45.041715],[1.487702222,45.041725833],[1.48769,45.041736389],[1.487678611,45.041748889],[1.487675,45.041764167],[1.487670278,45.041781667],[1.487669444,45.041798889],[1.487704167,45.041853889],[1.487720278,45.041863889],[1.487740833,45.0418725],[1.487758611,45.041879167],[1.488064444,45.041779444],[1.488078611,45.041773611],[1.488086389,45.041768056]],[[1.487583889,45.041936389],[1.487593611,45.041921944],[1.487599722,45.041900833],[1.487598611,45.041883056],[1.487590833,45.041865833],[1.487565556,45.041828056],[1.487543889,45.041811111],[1.487532778,45.041797222],[1.487520833,45.041788611],[1.487502222,45.041778611],[1.487480278,45.041773889],[1.487456111,45.041771667],[1.487427778,45.041776944],[1.487399167,45.041784722],[1.487061944,45.041895278],[1.487042222,45.041907778],[1.487018333,45.041923333],[1.486998611,45.041937222],[1.486983333,45.041955],[1.486974444,45.041973611],[1.4869675,45.041990833],[1.486968611,45.042008056],[1.4869725,45.042026667],[1.486978333,45.042043056],[1.486989167,45.042060278],[1.487006667,45.042083889],[1.487019167,45.042096944],[1.487035,45.042106389],[1.487044722,45.042110556],[1.487525556,45.041956944],[1.487555,45.0419475],[1.487577778,45.04194],[1.487583889,45.041936389]],[[1.486905556,45.042151389],[1.486910278,45.042139444],[1.486910278,45.042124167],[1.486905833,45.042113333],[1.486901111,45.042101389],[1.486892222,45.042083333],[1.486883333,45.042070833],[1.486868889,45.04206],[1.486850833,45.042049167],[1.486826389,45.042038333],[1.486796667,45.042028056],[1.486773333,45.042021667],[1.486753333,45.042017778],[1.486726389,45.042014167],[1.486703056,45.042016667],[1.486671389,45.042022222],[1.486640833,45.04203],[1.4864625,45.042091667],[1.486441667,45.042098611],[1.48642,45.042106389],[1.486401111,45.042117222],[1.486385833,45.04213],[1.486369444,45.042148333],[1.486359722,45.0421675],[1.486356111,45.042185278],[1.486353056,45.042209167],[1.486355,45.042230278],[1.486362778,45.042249167],[1.486377222,45.042271111],[1.486383889,45.042288611],[1.486390556,45.042309167],[1.486401389,45.042319444],[1.486886944,45.042161944],[1.486898611,45.0421575],[1.486905556,45.042151389]],[[1.486830556,45.041251944],[1.486920556,45.0412225],[1.486938889,45.041215],[1.486953611,45.041205],[1.486963611,45.041196111],[1.4869675,45.041186389],[1.486972222,45.041174722],[1.486972222,45.041163333],[1.486970833,45.041151667],[1.486966111,45.041143056],[1.486959167,45.041135833],[1.486949722,45.041127222],[1.486940556,45.041122778],[1.486923333,45.041115556],[1.486908611,45.041111667],[1.486885278,45.041109444],[1.486870556,45.04111],[1.486855833,45.041109444],[1.486841111,45.041109444],[1.486824722,45.04111],[1.486803889,45.041112778],[1.486780556,45.041118333],[1.486754167,45.041126667],[1.486688056,45.041146389],[1.486659444,45.041154444],[1.486638333,45.041163889],[1.4866175,45.041172222],[1.486599444,45.041179722],[1.486579444,45.041188611],[1.486560833,45.041198889],[1.486545833,45.041211111],[1.486531111,45.041224722],[1.486521944,45.041238611],[1.486514167,45.041251667],[1.486507222,45.041265278],[1.486507222,45.041279167],[1.486507778,45.041291667],[1.486511667,45.041302778],[1.486521111,45.041313056],[1.486534444,45.041321944],[1.486548333,45.041326389],[1.486561389,45.041328611],[1.486579444,45.041328611],[1.486596389,45.041326944],[1.486612778,45.041323056],[1.486633056,45.041316389],[1.486830556,45.041251944]]]}},{"type":"Feature","id":"LFSL-531a727e9badfc7b8fad","properties":{"airport":"LFSL","name":"LFSL Groundlayout","layer":"Guidance lines","category":"Stopbars","object_type":"Line","style_id":"line.stopbar.7e0000","source_group":"LFSL Groundlayout","vsmr_group_ids":[],"geometry_role":"linework"},"geometry":{"type":"MultiLineString","coordinates":[[[1.485179444,45.03898],[1.485268889,45.038950278]],[[1.486459444,45.041167778],[1.486549444,45.041208889]],[[1.486907222,45.041108333],[1.486861667,45.041010556]],[[1.486116389,45.040452222],[1.486225,45.040416111]],[[1.489091389,45.03948],[1.489285,45.039415556]]]}},{"type":"Feature","id":"LFSL-98b63760bafcd8eabeac","properties":{"airport":"LFSL","name":"LFSL Groundlayout","layer":"Guidance lines","category":"Centerlines","object_type":"Line","style_id":"line.centerlines.ffff00","source_group":"LFSL Groundlayout","vsmr_group_ids":[],"geometry_role":"linework"},"geometry":{"type":"MultiLineString","coordinates":[[[1.489976944,45.040255278],[1.490601389,45.040409722]],[[1.486926944,45.041853333],[1.487028889,45.041820278]],[[1.486822778,45.041702778],[1.486931944,45.041668889]],[[1.486727778,45.041552778],[1.486836111,45.041517222]],[[1.486635,45.041399167],[1.486738889,45.041365278]],[[1.487385556,45.041126667],[1.48765,45.041198611]],[[1.487565556,45.041405556],[1.487830833,45.041476944]],[[1.487129444,45.0417875],[1.4872725,45.041740556]],[[1.487046944,45.041655556],[1.487190833,45.041608611]],[[1.486964722,45.041524444],[1.487120278,45.041471944]],[[1.486879722,45.041401944],[1.48703,45.041351667]],[[1.488992778,45.040938889],[1.489231667,45.040498611]],[[1.489745556,45.040704444],[1.489845556,45.040486667]]]}},{"type":"Feature","id":"LFSL-69495c6034a7c7fbff1a","properties":{"airport":"LFSL","name":"LFSL Groundlayout","layer":"Guidance lines","category":"Labels","object_type":"Line","style_id":"line.labels.808080","source_group":"LFSL Groundlayout","vsmr_group_ids":[],"geometry_role":"linework"},"geometry":{"type":"MultiLineString","coordinates":[[[1.495790833,45.036500833],[1.495965556,45.036444444],[1.495987222,45.036396111],[1.495985556,45.036391111],[1.495960556,45.0363975],[1.495944444,45.036430833],[1.495909444,45.036442778],[1.495887222,45.036407778],[1.4957575,45.036450556],[1.495790833,45.036500833]],[[1.472847222,45.043913611],[1.472857778,45.043928056],[1.473028611,45.043871667],[1.473035278,45.043876389],[1.473060278,45.043868333],[1.473066667,45.043860556],[1.473056944,45.043845556],[1.472847222,45.043913611]],[[1.472791944,45.043828333],[1.472802778,45.043844167],[1.472975278,45.0437875],[1.472978333,45.043791944],[1.4730075,45.043783056],[1.473012222,45.043775556],[1.473003056,45.043759722],[1.472791944,45.043828333]],[[1.495733056,45.036413889],[1.495805556,45.036390556],[1.495865833,45.036329167],[1.495883056,45.036323056],[1.49591,45.036358333],[1.495941667,45.036346111],[1.495909722,45.036295556],[1.495849444,45.036315],[1.495790833,45.036376667],[1.495759722,45.036385833],[1.495748611,45.0363675],[1.4957675,45.036360278],[1.495757222,45.036345],[1.495700278,45.036363889],[1.495733056,45.036413889]],[[1.4958175,45.0364725],[1.495870278,45.036455],[1.495858611,45.036436667],[1.495805,45.036454167],[1.4958175,45.0364725]]]}},{"type":"Feature","id":"LFSL-f907327c00f7346e96cd","properties":{"airport":"LFSL","name":"B","layer":"Labels","category":"Taxiways","object_type":"Label","style_id":"label.taxiways","source_group":"LFSL Taxiways","vsmr_group_ids":[],"geometry_role":"text_label","text-field":"B"},"geometry":{"type":"Point","coordinates":[1.485866667,45.040506944]}},{"type":"Feature","id":"LFSL-fdf05434f53c3e296424","properties":{"airport":"LFSL","name":"C","layer":"Labels","category":"Taxiways","object_type":"Label","style_id":"label.taxiways","source_group":"LFSL Taxiways","vsmr_group_ids":[],"geometry_role":"text_label","text-field":"C"},"geometry":{"type":"Point","coordinates":[1.4888475,45.039540278]}},{"type":"Feature","id":"LFSL-f8c9743762ce5b0aa485","properties":{"airport":"LFSL","name":"D","layer":"Labels","category":"Taxiways","object_type":"Label","style_id":"label.taxiways","source_group":"LFSL Taxiways","vsmr_group_ids":[],"geometry_role":"text_label","text-field":"D"},"geometry":{"type":"Point","coordinates":[1.485030833,45.03903]}},{"type":"Feature","id":"LFSL-6fc0c54bf5d299b1e4be","properties":{"airport":"LFSL","name":"G2","layer":"Labels","category":"Taxiways","object_type":"Label","style_id":"label.taxiways","source_group":"LFSL Taxiways","vsmr_group_ids":[],"geometry_role":"text_label","text-field":"G2"},"geometry":{"type":"Point","coordinates":[1.4863775,45.041206111]}},{"type":"Feature","id":"LFSL-7594b129c141d0eef22d","properties":{"airport":"LFSL","name":"G1","layer":"Labels","category":"Taxiways","object_type":"Label","style_id":"label.taxiways","source_group":"LFSL Taxiways","vsmr_group_ids":[],"geometry_role":"text_label","text-field":"G1"},"geometry":{"type":"Point","coordinates":[1.486885278,45.040976667]}}]}
