{"type":"FeatureCollection","name":"LFSN AVISO","bbox":[6.22475,48.685444444,6.237666667,48.69825],"metadata":{"schema":"vSMR AVISO","schema_version":2,"geometry_mode":"shared","airport":"LFSN","coordinate_reference_system":"WGS84","coordinate_order":"longitude, latitude","default_color_palette":"dark","color_palettes":["dark","light"],"background_colors":{"dark":"#434A4F","light":"#434A4F"},"runways":[{"ends":["03R","21L"],"headings":[26,206],"thresholds":[[6.229043889,48.687660833],[6.232566944,48.691952778]]},{"ends":["03","21"],"headings":[26,206],"thresholds":[[6.226663889,48.686343889],[6.236977778,48.699027778]]}],"saved_active_runways":[],"saved_active_airport_modes":[],"airport_reference":[6.226110833,48.692221944],"feature_count":2,"style_count":2,"layer_counts":{"Guidance lines":2},"category_counts":{"Grass runways":1,"Runways":1},"geometry_source":"local GNG","geometry_source_url":"","geometry_license":"GPL-3.0"},"styles":{"line.runwayconcrete.555555":{"name":"Runways","layer":"Guidance lines","object_type":"Line","paint":{"stroke":"#111318","stroke-opacity":1,"stroke-width":1,"palette-overrides":{"light":{"stroke":"#555555"}}},"feature_count":1},"line.runwaygrass.008000":{"name":"Grass runways","layer":"Guidance lines","object_type":"Line","paint":{"stroke":"#859A77","stroke-opacity":1,"stroke-width":1,"palette-overrides":{"light":{"stroke":"#008000"}}},"feature_count":1}},"vsmr_groups":[],"features":[{"type":"Feature","id":"LFSN-f696ba19a94cabc11f21","properties":{"airport":"LFSN","name":"LFSN Groundlayout","layer":"Guidance lines","category":"Runways","object_type":"Line","style_id":"line.runwayconcrete.555555","source_group":"LFSN Groundlayout","vsmr_group_ids":[],"geometry_role":"linework"},"geometry":{"type":"MultiLineString","coordinates":[[[6.228666667,48.685444444],[6.237666667,48.696555556]],[[6.22475,48.687138889],[6.228666667,48.685444444]],[[6.23375,48.69825],[6.237666667,48.696555556]]]}},{"type":"Feature","id":"LFSN-4fc2d02b18d93449a5ce","properties":{"airport":"LFSN","name":"LFSN Groundlayout","layer":"Guidance lines","category":"Grass runways","object_type":"Line","style_id":"line.runwaygrass.008000","source_group":"LFSN Groundlayout","vsmr_group_ids":[],"geometry_role":"linework"},"geometry":{"type":"MultiLineString","coordinates":[[[6.227333333,48.688333333],[6.230833333,48.69275]],[[6.23125,48.686666667],[6.23475,48.691055556]],[[6.227333333,48.688333333],[6.23125,48.686666667]],[[6.230833333,48.69275],[6.23475,48.691055556]]]}}]}
