{"type":"FeatureCollection","name":"LFSO AVISO","bbox":[5.947527778,48.570583333,5.96175,48.595805556],"metadata":{"schema":"vSMR AVISO","schema_version":2,"geometry_mode":"shared","airport":"LFSO","coordinate_reference_system":"WGS84","coordinate_order":"longitude, latitude","default_color_palette":"dark","color_palettes":["dark","light"],"background_colors":{"dark":"#434A4F","light":"#434A4F"},"runways":[{"ends":["02","20"],"headings":[17,197],"thresholds":[[5.949099722,48.573016944],[5.959960833,48.593363889]]}],"saved_active_runways":[],"saved_active_airport_modes":[],"airport_reference":[5.954443889,48.583055833],"feature_count":3,"style_count":3,"layer_counts":{"Guidance lines":3},"category_counts":{"Apron Surface":1,"Runways":1,"Taxiways":1},"geometry_source":"local GNG/KMZ","geometry_source_url":"","geometry_license":"GPL-3.0"},"styles":{"line.taxiway.c0b631":{"name":"Taxiways","layer":"Guidance lines","object_type":"Line","paint":{"stroke":"#4E5A69","stroke-opacity":1,"stroke-width":1,"palette-overrides":{"light":{"stroke":"#C0B631"}}},"feature_count":1},"line.runwayconcrete.555555":{"name":"Runways","layer":"Guidance lines","object_type":"Line","paint":{"stroke":"#111318","stroke-opacity":1,"stroke-width":1,"palette-overrides":{"light":{"stroke":"#555555"}}},"feature_count":1},"line.apronsurface.808080":{"name":"Apron Surface","layer":"Guidance lines","object_type":"Line","paint":{"stroke":"#808080","stroke-opacity":1,"stroke-width":1,"palette-overrides":{"light":{"stroke":"#808080"}}},"feature_count":1}},"vsmr_groups":[],"features":[{"type":"Feature","id":"LFSO-80e55634b9e4020b02d2","properties":{"airport":"LFSO","name":"LFSO Groundlayout","layer":"Guidance lines","category":"Taxiways","object_type":"Line","style_id":"line.taxiway.c0b631","source_group":"LFSO Groundlayout","vsmr_group_ids":[],"geometry_role":"linework"},"geometry":{"type":"MultiLineString","coordinates":[[[5.949416667,48.573027778],[5.949916667,48.572916667]],[[5.950083333,48.573222222],[5.95075,48.573055556]],[[5.949888889,48.572916667],[5.951055556,48.572638889]],[[5.95075,48.573055556],[5.9545,48.580111111]],[[5.951055556,48.572638889],[5.955,48.58]],[[5.954722222,48.5805],[5.955611111,48.582166667]],[[5.955194444,48.580388889],[5.956166667,48.582194444]],[[5.95575,48.582416667],[5.956055556,48.583027778]],[[5.956166667,48.582194444],[5.956472222,48.58275]],[[5.956055556,48.583027778],[5.957472222,48.585694444]],[[5.956638889,48.583083333],[5.958027778,48.585666667]],[[5.957666667,48.586],[5.961083333,48.592444444]],[[5.95825,48.586111111],[5.96175,48.592666667]],[[5.961083333,48.592444444],[5.960444444,48.592583333]],[[5.96175,48.592666667],[5.960611111,48.592916667]],[[5.960444444,48.592583333],[5.959944444,48.592694444]],[[5.960611111,48.592916667],[5.960111111,48.593027778]],[[5.953555556,48.580777778],[5.954138889,48.580638889]],[[5.953361111,48.580388889],[5.953944444,48.58025]],[[5.954138889,48.580638889],[5.954722222,48.5805]],[[5.953944444,48.58025],[5.9545,48.580111111]],[[5.955194444,48.580388889],[5.957833333,48.579777778]],[[5.955,48.58],[5.957611111,48.579388889]],[[5.957833333,48.579777778],[5.957611111,48.579388889]],[[5.954555556,48.582638889],[5.954944444,48.582583333]],[[5.954416667,48.582388889],[5.954833333,48.582305556]],[[5.954944444,48.582583333],[5.95575,48.582416667]],[[5.954833333,48.582305556],[5.955611111,48.582166667]],[[5.9565,48.58625],[5.956972222,48.586138889]],[[5.956305556,48.585944444],[5.956833333,48.585833333]],[[5.956972222,48.586138889],[5.957666667,48.586]],[[5.956833333,48.585833333],[5.957472222,48.585694444]],[[5.95825,48.586111111],[5.960194444,48.586638889]],[[5.958027778,48.585666667],[5.959388889,48.586055556]],[[5.960194444,48.586638889],[5.959666667,48.585472222]],[[5.959388889,48.586055556],[5.959166667,48.585555556]],[[5.959666667,48.585472222],[5.959166667,48.585555556]],[[5.956638889,48.583083333],[5.958361111,48.58275]],[[5.956472222,48.58275],[5.958222222,48.582416667]],[[5.958361111,48.58275],[5.958222222,48.582416667]]]}},{"type":"Feature","id":"LFSO-8e085ab772199314f286","properties":{"airport":"LFSO","name":"LFSO Groundlayout","layer":"Guidance lines","category":"Runways","object_type":"Line","style_id":"line.runwayconcrete.555555","source_group":"LFSO Groundlayout","vsmr_group_ids":[],"geometry_role":"linework"},"geometry":{"type":"MultiLineString","coordinates":[[[5.961527778,48.595666667],[5.960111111,48.593027778]],[[5.960944444,48.595805556],[5.959444444,48.593]],[[5.961527778,48.595666667],[5.960944444,48.595805556]],[[5.959944444,48.592694444],[5.9565,48.58625]],[[5.959444444,48.593],[5.955833333,48.586222222]],[[5.956305556,48.585944444],[5.954555556,48.582638889]],[[5.955833333,48.586222222],[5.953916667,48.582638889]],[[5.954416667,48.582388889],[5.953555556,48.580777778]],[[5.953916667,48.582638889],[5.952888889,48.580722222]],[[5.953361111,48.580388889],[5.949583333,48.573333333]],[[5.952888889,48.580722222],[5.948916667,48.573305556]],[[5.949416667,48.573027778],[5.948111111,48.570583333]],[[5.948916667,48.573305556],[5.947527778,48.570722222]],[[5.948111111,48.570583333],[5.947527778,48.570722222]]]}},{"type":"Feature","id":"LFSO-703bfb076a9c015fafcd","properties":{"airport":"LFSO","name":"LFSO Groundlayout","layer":"Guidance lines","category":"Apron Surface","object_type":"Line","style_id":"line.apronsurface.808080","source_group":"LFSO Groundlayout","vsmr_group_ids":[],"geometry_role":"linework"},"geometry":{"type":"MultiLineString","coordinates":[[[5.959472222,48.586166667],[5.960611111,48.586],[5.959,48.582305556],[5.957916667,48.5825]],[[5.959472222,48.586166667],[5.957916667,48.5825]],[[5.957833333,48.580638889],[5.958611111,48.580777778],[5.959083333,48.581666667],[5.960583333,48.581333333],[5.958888889,48.577527778],[5.956666667,48.578]],[[5.957833333,48.580638889],[5.956666667,48.578]]]}}]}
