{"type":"FeatureCollection","name":"LFSR AVISO","bbox":[4.033361111,49.303583333,4.059222222,49.318583333],"metadata":{"schema":"vSMR AVISO","schema_version":2,"geometry_mode":"shared","airport":"LFSR","coordinate_reference_system":"WGS84","coordinate_order":"longitude, latitude","default_color_palette":"dark","color_palettes":["dark","light"],"background_colors":{"dark":"#434A4F","light":"#434A4F"},"runways":[],"saved_active_runways":[],"saved_active_airport_modes":[],"feature_count":13,"style_count":1,"layer_counts":{"Labels":13},"category_counts":{"Gates":13},"geometry_source":"local GNG","geometry_source_url":"","geometry_license":"GPL-3.0"},"styles":{"label.gates":{"name":"Gates","layer":"Labels","object_type":"Label","paint":{"text-color":"#CCCCCC","text-font":"Arial","text-size":12,"text-halo-color":"#000000","text-halo-width":1,"text-anchor":"center","zoomLevel":9},"feature_count":13}},"vsmr_groups":[],"features":[{"type":"Feature","id":"LFSR-f4f5f0ef2ea4b58e99ee","properties":{"airport":"LFSR","name":"1","layer":"Labels","category":"Gates","object_type":"Label","style_id":"label.gates","source_group":"LFSR Gates","vsmr_group_ids":[],"geometry_role":"text_label","text-field":"1"},"geometry":{"type":"Point","coordinates":[4.059222222,49.309333333]}},{"type":"Feature","id":"LFSR-06f2a122f483a5c97f21","properties":{"airport":"LFSR","name":"2","layer":"Labels","category":"Gates","object_type":"Label","style_id":"label.gates","source_group":"LFSR Gates","vsmr_group_ids":[],"geometry_role":"text_label","text-field":"2"},"geometry":{"type":"Point","coordinates":[4.058027778,49.309333333]}},{"type":"Feature","id":"LFSR-891d7a6347249117b04c","properties":{"airport":"LFSR","name":"3","layer":"Labels","category":"Gates","object_type":"Label","style_id":"label.gates","source_group":"LFSR Gates","vsmr_group_ids":[],"geometry_role":"text_label","text-field":"3"},"geometry":{"type":"Point","coordinates":[4.059083333,49.309583333]}},{"type":"Feature","id":"LFSR-a3b7be5c8e288efc2ce0","properties":{"airport":"LFSR","name":"1","layer":"Labels","category":"Gates","object_type":"Label","style_id":"label.gates","source_group":"LFSR Gates","vsmr_group_ids":[],"geometry_role":"text_label","text-field":"1"},"geometry":{"type":"Point","coordinates":[4.039361111,49.303611111]}},{"type":"Feature","id":"LFSR-b99263856eadf736a9d5","properties":{"airport":"LFSR","name":"2","layer":"Labels","category":"Gates","object_type":"Label","style_id":"label.gates","source_group":"LFSR Gates","vsmr_group_ids":[],"geometry_role":"text_label","text-field":"2"},"geometry":{"type":"Point","coordinates":[4.038222222,49.303583333]}},{"type":"Feature","id":"LFSR-33a8db4acfff93634566","properties":{"airport":"LFSR","name":"3","layer":"Labels","category":"Gates","object_type":"Label","style_id":"label.gates","source_group":"LFSR Gates","vsmr_group_ids":[],"geometry_role":"text_label","text-field":"3"},"geometry":{"type":"Point","coordinates":[4.037138889,49.303583333]}},{"type":"Feature","id":"LFSR-03d3ca327c1a0b80a682","properties":{"airport":"LFSR","name":"4","layer":"Labels","category":"Gates","object_type":"Label","style_id":"label.gates","source_group":"LFSR Gates","vsmr_group_ids":[],"geometry_role":"text_label","text-field":"4"},"geometry":{"type":"Point","coordinates":[4.036055556,49.303583333]}},{"type":"Feature","id":"LFSR-301d32f16632d40eed81","properties":{"airport":"LFSR","name":"5","layer":"Labels","category":"Gates","object_type":"Label","style_id":"label.gates","source_group":"LFSR Gates","vsmr_group_ids":[],"geometry_role":"text_label","text-field":"5"},"geometry":{"type":"Point","coordinates":[4.034944444,49.303583333]}},{"type":"Feature","id":"LFSR-dda62faf9278242da16f","properties":{"airport":"LFSR","name":"1","layer":"Labels","category":"Gates","object_type":"Label","style_id":"label.gates","source_group":"LFSR Gates","vsmr_group_ids":[],"geometry_role":"text_label","text-field":"1"},"geometry":{"type":"Point","coordinates":[4.033361111,49.317361111]}},{"type":"Feature","id":"LFSR-28bac49b04116d2fc6a6","properties":{"airport":"LFSR","name":"2","layer":"Labels","category":"Gates","object_type":"Label","style_id":"label.gates","source_group":"LFSR Gates","vsmr_group_ids":[],"geometry_role":"text_label","text-field":"2"},"geometry":{"type":"Point","coordinates":[4.033972222,49.317666667]}},{"type":"Feature","id":"LFSR-d86e416347eabc19f184","properties":{"airport":"LFSR","name":"3","layer":"Labels","category":"Gates","object_type":"Label","style_id":"label.gates","source_group":"LFSR Gates","vsmr_group_ids":[],"geometry_role":"text_label","text-field":"3"},"geometry":{"type":"Point","coordinates":[4.034555556,49.317944444]}},{"type":"Feature","id":"LFSR-0de726b447c928a84736","properties":{"airport":"LFSR","name":"4","layer":"Labels","category":"Gates","object_type":"Label","style_id":"label.gates","source_group":"LFSR Gates","vsmr_group_ids":[],"geometry_role":"text_label","text-field":"4"},"geometry":{"type":"Point","coordinates":[4.035111111,49.318277778]}},{"type":"Feature","id":"LFSR-3ac537db512d9388bcb2","properties":{"airport":"LFSR","name":"5","layer":"Labels","category":"Gates","object_type":"Label","style_id":"label.gates","source_group":"LFSR Gates","vsmr_group_ids":[],"geometry_role":"text_label","text-field":"5"},"geometry":{"type":"Point","coordinates":[4.035694444,49.318583333]}}]}
