{"type":"FeatureCollection","name":"LFSX AVISO","bbox":[6.330194444,47.775638889,6.376416667,47.794555556],"metadata":{"schema":"vSMR AVISO","schema_version":2,"geometry_mode":"shared","airport":"LFSX","coordinate_reference_system":"WGS84","coordinate_order":"longitude, latitude","default_color_palette":"dark","color_palettes":["dark","light"],"background_colors":{"dark":"#434A4F","light":"#434A4F"},"runways":[{"ends":["11","29"],"headings":[111,291],"thresholds":[[6.334532778,47.791591944],[6.364407778,47.783010833]]}],"saved_active_runways":[],"saved_active_airport_modes":[],"airport_reference":[6.365,47.787221944],"feature_count":3,"style_count":3,"layer_counts":{"Guidance lines":3},"category_counts":{"Apron Surface":1,"Runways":1,"Taxiways":1},"geometry_source":"local GNG","geometry_source_url":"","geometry_license":"GPL-3.0"},"styles":{"line.taxiway.c0b631":{"name":"Taxiways","layer":"Guidance lines","object_type":"Line","paint":{"stroke":"#4E5A69","stroke-opacity":1,"stroke-width":1,"palette-overrides":{"light":{"stroke":"#C0B631"}}},"feature_count":1},"line.runwayconcrete.555555":{"name":"Runways","layer":"Guidance lines","object_type":"Line","paint":{"stroke":"#111318","stroke-opacity":1,"stroke-width":1,"palette-overrides":{"light":{"stroke":"#555555"}}},"feature_count":1},"line.apronsurface.808080":{"name":"Apron Surface","layer":"Guidance lines","object_type":"Line","paint":{"stroke":"#808080","stroke-opacity":1,"stroke-width":1,"palette-overrides":{"light":{"stroke":"#808080"}}},"feature_count":1}},"vsmr_groups":[],"features":[{"type":"Feature","id":"LFSX-fd5599bb929a7e081af8","properties":{"airport":"LFSX","name":"LFSX Groundlayout","layer":"Guidance lines","category":"Taxiways","object_type":"Line","style_id":"line.taxiway.c0b631","source_group":"LFSX Groundlayout","vsmr_group_ids":[],"geometry_role":"linework"},"geometry":{"type":"MultiLineString","coordinates":[[[6.365416667,47.784611111],[6.364916667,47.78475]],[[6.364722222,47.784444444],[6.362861111,47.785]],[[6.364916667,47.78475],[6.363166667,47.78525]],[[6.362416667,47.785138889],[6.356472222,47.786833333]],[[6.362722222,47.785388889],[6.356666667,47.787138889]],[[6.356027778,47.786972222],[6.332361111,47.793805556]],[[6.356222222,47.787277778],[6.332111111,47.794222222]],[[6.332361111,47.793805556],[6.331861111,47.792944444]],[[6.332111111,47.794222222],[6.331416667,47.793055556]],[[6.331861111,47.792944444],[6.331694444,47.792611111]],[[6.331416667,47.793055556],[6.33125,47.79275]],[[6.331472222,47.79225],[6.331277778,47.791944444]],[[6.331027778,47.792388889],[6.330833333,47.792055556]],[[6.331277778,47.791944444],[6.330805556,47.791138889]],[[6.330833333,47.792055556],[6.330305556,47.791166667]],[[6.330805556,47.791138889],[6.331027778,47.790027778]],[[6.330305556,47.791166667],[6.330583333,47.789916667]],[[6.331027778,47.790027778],[6.332055556,47.789]],[[6.330583333,47.789916667],[6.331722222,47.788722222]],[[6.332055556,47.789],[6.333916667,47.788472222]],[[6.331722222,47.788722222],[6.333861111,47.788111111]],[[6.333916667,47.788472222],[6.335805556,47.788722222]],[[6.333861111,47.788111111],[6.336027778,47.788416667]],[[6.335805556,47.788722222],[6.337138889,47.7895]],[[6.336027778,47.788416667],[6.337527778,47.789277778]],[[6.337138889,47.7895],[6.337555556,47.790138889]],[[6.337527778,47.789277778],[6.338,47.790027778]],[[6.337555556,47.790138889],[6.33775,47.790444444]],[[6.338,47.790027778],[6.338194444,47.790305556]],[[6.337972222,47.790805556],[6.338166667,47.791111111]],[[6.338416667,47.790694444],[6.338611111,47.791]],[[6.338166667,47.791111111],[6.340138889,47.794194444]],[[6.338611111,47.791],[6.340416667,47.793777778]],[[6.340138889,47.794194444],[6.358027778,47.789194444]],[[6.340416667,47.793777778],[6.357388889,47.789]],[[6.355277778,47.785861111],[6.3555,47.786166667]],[[6.355722222,47.785722222],[6.355916667,47.786027778]],[[6.3555,47.786166667],[6.356027778,47.786972222]],[[6.355916667,47.786027778],[6.356472222,47.786833333]],[[6.356222222,47.787277778],[6.357388889,47.789]],[[6.356666667,47.787138889],[6.358027778,47.789194444]],[[6.362194444,47.781805556],[6.361888889,47.781888889]],[[6.362416667,47.782],[6.362027778,47.782111111]],[[6.361888889,47.781888889],[6.359888889,47.782472222]],[[6.362027778,47.782111111],[6.360138889,47.782666667]],[[6.368777778,47.787527778],[6.368388889,47.787694444]],[[6.369083333,47.787777778],[6.368666667,47.787972222]],[[6.368388889,47.787694444],[6.366833333,47.788444444]],[[6.368666667,47.787972222],[6.367138889,47.788694444]],[[6.356694444,47.777055556],[6.356416667,47.777194444]],[[6.356916667,47.77725],[6.356638889,47.777416667]],[[6.356416667,47.777194444],[6.3545,47.778138889]],[[6.356638889,47.777416667],[6.355027778,47.778194444]],[[6.3545,47.778138889],[6.359694444,47.782694444]],[[6.355027778,47.778194444],[6.359888889,47.782472222]],[[6.359694444,47.782694444],[6.36075,47.783611111]],[[6.360138889,47.782666667],[6.361055556,47.783472222]],[[6.36075,47.783611111],[6.360972222,47.783777778]],[[6.361055556,47.783472222],[6.361305556,47.783694444]],[[6.361277778,47.784138889],[6.361611111,47.784444444]],[[6.361722222,47.784],[6.362,47.784222222]],[[6.361611111,47.784444444],[6.362416667,47.785138889]],[[6.362,47.784222222],[6.362861111,47.785]],[[6.362722222,47.785388889],[6.366611111,47.78875]],[[6.363166667,47.78525],[6.366833333,47.788444444]],[[6.366611111,47.78875],[6.372916667,47.794222222]],[[6.367138889,47.788694444],[6.373194444,47.793944444]],[[6.372916667,47.794222222],[6.374472222,47.794555556]],[[6.373194444,47.793944444],[6.374388889,47.794194444]],[[6.374472222,47.794555556],[6.375638889,47.793972222]],[[6.374388889,47.794194444],[6.375361111,47.793722222]],[[6.375638889,47.793972222],[6.376055556,47.793805556]],[[6.375361111,47.793722222],[6.37575,47.793527778]]]}},{"type":"Feature","id":"LFSX-a61ce7cbbb207cac2fad","properties":{"airport":"LFSX","name":"LFSX Groundlayout","layer":"Guidance lines","category":"Runways","object_type":"Line","style_id":"line.runwayconcrete.555555","source_group":"LFSX Groundlayout","vsmr_group_ids":[],"geometry_role":"linework"},"geometry":{"type":"MultiLineString","coordinates":[[[6.368805556,47.781527778],[6.364055556,47.782888889]],[[6.369055556,47.781916667],[6.364444444,47.783222222]],[[6.368805556,47.781527778],[6.369055556,47.781916667]],[[6.363611111,47.783027778],[6.361305556,47.783694444]],[[6.363972222,47.783361111],[6.361722222,47.784]],[[6.360972222,47.783777778],[6.355277778,47.785416667]],[[6.361277778,47.784138889],[6.355722222,47.785722222]],[[6.355277778,47.785416667],[6.338194444,47.790305556]],[[6.355277778,47.785861111],[6.338416667,47.790694444]],[[6.33775,47.790444444],[6.331472222,47.79225]],[[6.337972222,47.790805556],[6.331694444,47.792611111]],[[6.331027778,47.792388889],[6.331027778,47.792361111],[6.33125,47.79275]],[[6.376416667,47.793583333],[6.376277778,47.793472222]],[[6.376027778,47.793777778],[6.376055556,47.793805556]],[[6.376416667,47.793583333],[6.376027778,47.793777778]],[[6.376277778,47.793472222],[6.369305556,47.787444444]],[[6.37575,47.793527778],[6.369083333,47.787777778]],[[6.369305556,47.787444444],[6.365694444,47.784305556]],[[6.368777778,47.787527778],[6.365416667,47.784611111]],[[6.365694444,47.784305556],[6.364444444,47.783222222]],[[6.365111111,47.784333333],[6.363972222,47.783361111]],[[6.364055556,47.782888889],[6.362722222,47.78175]],[[6.363611111,47.783027778],[6.362416667,47.782]],[[6.362722222,47.78175],[6.357194444,47.776972222]],[[6.362194444,47.781805556],[6.356916667,47.77725]],[[6.357194444,47.776972222],[6.355666667,47.775638889]],[[6.356694444,47.777055556],[6.355277778,47.775833333]],[[6.355666667,47.775638889],[6.355277778,47.775833333]]]}},{"type":"Feature","id":"LFSX-9733e4329eba62a0fdca","properties":{"airport":"LFSX","name":"LFSX Groundlayout","layer":"Guidance lines","category":"Apron Surface","object_type":"Line","style_id":"line.apronsurface.808080","source_group":"LFSX Groundlayout","vsmr_group_ids":[],"geometry_role":"linework"},"geometry":{"type":"MultiLineString","coordinates":[[[6.357138889,47.789055556],[6.358777778,47.788611111],[6.359416667,47.789638889],[6.346666667,47.793277778],[6.344972222,47.792694444]],[[6.357138889,47.789055556],[6.344972222,47.792694444]],[[6.367277778,47.789083333],[6.365722222,47.789555556],[6.365138889,47.789083333],[6.366277778,47.788166667]],[[6.367277778,47.789083333],[6.366277778,47.788166667]],[[6.331666667,47.793138889],[6.331222222,47.793222222],[6.331611111,47.793861111],[6.332,47.79375]],[[6.331666667,47.793138889],[6.332,47.79375]],[[6.331055556,47.792222222],[6.330666667,47.792166667],[6.330194444,47.791472222],[6.330583333,47.791361111]]]}}]}
