{"type":"FeatureCollection","name":"LFTF AVISO","bbox":[6.115052222,43.242434722,6.138310278,43.25126],"metadata":{"schema":"vSMR AVISO","schema_version":2,"geometry_mode":"shared","airport":"LFTF","coordinate_reference_system":"WGS84","coordinate_order":"longitude, latitude","default_color_palette":"dark","color_palettes":["dark","light"],"background_colors":{"dark":"#434A4F","light":"#434A4F"},"runways":[{"ends":["11","29"],"headings":[108,288],"thresholds":[[6.118830833,43.249868889],[6.134671944,43.2456]]}],"saved_active_runways":[],"saved_active_airport_modes":[],"airport_reference":[6.127293889,43.247588889],"feature_count":18,"style_count":8,"layer_counts":{"Guidance lines":6,"Labels":12},"category_counts":{"Apron Surface":1,"Gates":8,"Labels":1,"Runways":1,"Stopbars":1,"TWR-CTR":1,"Taxiways":5},"geometry_source":"local GNG/KMZ","geometry_source_url":"","geometry_license":"GPL-3.0"},"styles":{"line.runwayconcrete.555555":{"name":"Runways","layer":"Guidance lines","object_type":"Line","paint":{"stroke":"#111318","stroke-opacity":1,"stroke-width":1,"palette-overrides":{"light":{"stroke":"#555555"}}},"feature_count":1},"line.taxiway.c0b631":{"name":"Taxiways","layer":"Guidance lines","object_type":"Line","paint":{"stroke":"#4E5A69","stroke-opacity":1,"stroke-width":1,"palette-overrides":{"light":{"stroke":"#C0B631"}}},"feature_count":1},"line.apronsurface.808080":{"name":"Apron Surface","layer":"Guidance lines","object_type":"Line","paint":{"stroke":"#808080","stroke-opacity":1,"stroke-width":1,"palette-overrides":{"light":{"stroke":"#808080"}}},"feature_count":1},"line.stopbar.7e0000":{"name":"Stopbars","layer":"Guidance lines","object_type":"Line","paint":{"stroke":"#7E0000","stroke-opacity":1,"stroke-width":1,"palette-overrides":{"light":{"stroke":"#7E0000"}}},"feature_count":1},"line.twr-ctr.000000":{"name":"TWR-CTR","layer":"Guidance lines","object_type":"Line","paint":{"stroke":"#000000","stroke-opacity":1,"stroke-width":1,"palette-overrides":{"light":{"stroke":"#000000"}}},"feature_count":1},"line.labels.808080":{"name":"Labels","layer":"Guidance lines","object_type":"Line","paint":{"stroke":"#808080","stroke-opacity":1,"stroke-width":1,"palette-overrides":{"light":{"stroke":"#808080"}}},"feature_count":1},"label.gates":{"name":"Gates","layer":"Labels","object_type":"Label","paint":{"text-color":"#CCCCCC","text-font":"Arial","text-size":12,"text-halo-color":"#000000","text-halo-width":1,"text-anchor":"center","zoomLevel":9},"feature_count":8},"label.taxiways":{"name":"Taxiways","layer":"Labels","object_type":"Label","paint":{"text-color":"#CCCCCC","text-font":"Arial","text-size":12,"text-halo-color":"#000000","text-halo-width":1,"text-anchor":"center","zoomLevel":7},"feature_count":4}},"vsmr_groups":[],"features":[{"type":"Feature","id":"LFTF-ca433b84769ec8eab22b","properties":{"airport":"LFTF","name":"TWR","layer":"Labels","category":"Gates","object_type":"Label","style_id":"label.gates","source_group":"LFTF Gates","vsmr_group_ids":[],"geometry_role":"text_label","text-field":"TWR"},"geometry":{"type":"Point","coordinates":[6.120445,43.246655]}},{"type":"Feature","id":"LFTF-37b1ed03165614c72769","properties":{"airport":"LFTF","name":"Hangars","layer":"Labels","category":"Gates","object_type":"Label","style_id":"label.gates","source_group":"LFTF Gates","vsmr_group_ids":[],"geometry_role":"text_label","text-field":"Hangars"},"geometry":{"type":"Point","coordinates":[6.122054167,43.244052778]}},{"type":"Feature","id":"LFTF-c5d93f1f36b7222d60a8","properties":{"airport":"LFTF","name":"Aire de compensation","layer":"Labels","category":"Gates","object_type":"Label","style_id":"label.gates","source_group":"LFTF Gates","vsmr_group_ids":[],"geometry_role":"text_label","text-field":"Aire de compensation"},"geometry":{"type":"Point","coordinates":[6.137644722,43.243585]}},{"type":"Feature","id":"LFTF-21ef10c2a34405e2e25e","properties":{"airport":"LFTF","name":"P-CIV","layer":"Labels","category":"Gates","object_type":"Label","style_id":"label.gates","source_group":"LFTF Gates","vsmr_group_ids":[],"geometry_role":"text_label","text-field":"P-CIV"},"geometry":{"type":"Point","coordinates":[6.130933611,43.247529167]}},{"type":"Feature","id":"LFTF-de7fded0c38e680e245f","properties":{"airport":"LFTF","name":"Hangars-CIV","layer":"Labels","category":"Gates","object_type":"Label","style_id":"label.gates","source_group":"LFTF Gates","vsmr_group_ids":[],"geometry_role":"text_label","text-field":"Hangars-CIV"},"geometry":{"type":"Point","coordinates":[6.130858056,43.249243056]}},{"type":"Feature","id":"LFTF-f2b894ffba246dcc45a1","properties":{"airport":"LFTF","name":"Ravitaillement","layer":"Labels","category":"Gates","object_type":"Label","style_id":"label.gates","source_group":"LFTF Gates","vsmr_group_ids":[],"geometry_role":"text_label","text-field":"Ravitaillement"},"geometry":{"type":"Point","coordinates":[6.130064722,43.249991667]}},{"type":"Feature","id":"LFTF-eca0fd70091d49336dca","properties":{"airport":"LFTF","name":"P-ACB","layer":"Labels","category":"Gates","object_type":"Label","style_id":"label.gates","source_group":"LFTF Gates","vsmr_group_ids":[],"geometry_role":"text_label","text-field":"P-ACB"},"geometry":{"type":"Point","coordinates":[6.129569167,43.250499167]}},{"type":"Feature","id":"LFTF-20198e6e0d423fc52b40","properties":{"airport":"LFTF","name":"Hangars-ACB","layer":"Labels","category":"Gates","object_type":"Label","style_id":"label.gates","source_group":"LFTF Gates","vsmr_group_ids":[],"geometry_role":"text_label","text-field":"Hangars-ACB"},"geometry":{"type":"Point","coordinates":[6.128360833,43.25126]}},{"type":"Feature","id":"LFTF-440dd23dad3c8f59f755","properties":{"airport":"LFTF","name":"LFTF Groundlayout","layer":"Guidance lines","category":"Runways","object_type":"Line","style_id":"line.runwayconcrete.555555","source_group":"LFTF Groundlayout","vsmr_group_ids":[],"geometry_role":"linework"},"geometry":{"type":"MultiLineString","coordinates":[[[6.138120556,43.244313889],[6.138310278,43.244743889],[6.127842778,43.247666389]],[[6.127143611,43.247888333],[6.122899444,43.24908]],[[6.122190833,43.249210833],[6.115052222,43.251198333],[6.115052222,43.250171389],[6.115352222,43.250040278],[6.115532222,43.250105833],[6.115562222,43.250280833],[6.115532222,43.250455556],[6.116131944,43.250368056],[6.122130833,43.248730278]]]}},{"type":"Feature","id":"LFTF-2f9eae942255f5c8b7c1","properties":{"airport":"LFTF","name":"LFTF Groundlayout","layer":"Guidance lines","category":"Taxiways","object_type":"Line","style_id":"line.taxiway.c0b631","source_group":"LFTF Groundlayout","vsmr_group_ids":[],"geometry_role":"linework"},"geometry":{"type":"MultiLineString","coordinates":[[[6.123394444,43.249513333],[6.126580556,43.248710833]],[[6.122901944,43.248513889],[6.122747778,43.24855],[6.122688889,43.248553333],[6.122648056,43.248533611],[6.122620833,43.2484775],[6.122620833,43.248434444],[6.122626667,43.247126667],[6.122783333,43.247025278],[6.122974722,43.246936667],[6.123357778,43.246809722],[6.123775278,43.246670278],[6.1318675,43.244464444],[6.133217222,43.244100278],[6.1337075,43.243996389],[6.134229444,43.243892778],[6.134561389,43.243858333],[6.135004167,43.243846667],[6.135494444,43.243858056],[6.13706,43.243846389],[6.137265556,43.243903889],[6.137328611,43.244065278],[6.137328889,43.244238056],[6.137313056,43.244376389],[6.137315833,43.244505833],[6.137252778,43.244541389],[6.13714,43.244572222]],[[6.138077778,43.244305556],[6.137919722,43.244103889],[6.137721944,43.243945556],[6.137563889,43.2438125],[6.137432778,43.243761111],[6.137362222,43.243673056],[6.137352222,43.243526389],[6.137352222,43.243379444],[6.137331944,43.2432475],[6.137331944,43.243056667],[6.137301667,43.242975833],[6.137180833,43.242961111],[6.137110278,43.242990556],[6.13708,43.243063889],[6.13707,43.243174167],[6.137090278,43.243342778],[6.137110278,43.243548333],[6.137080278,43.243607222],[6.136989444,43.243629167],[6.136818056,43.243658611],[6.136677222,43.243687778],[6.134480556,43.243666111],[6.134148056,43.243680833],[6.133936389,43.243761389],[6.133825556,43.243805556],[6.133573611,43.243878889],[6.130393056,43.244692222],[6.129752778,43.244843333]],[[6.129493056,43.244906389],[6.128108333,43.245284722]],[[6.127762222,43.245373056],[6.122811389,43.246709444],[6.1224825,43.2467475],[6.122309444,43.246659167],[6.121934167,43.246288611]],[[6.122101389,43.248730278],[6.122319444,43.2486325],[6.122363333,43.248577778],[6.122406944,43.248514444],[6.122425556,43.248432778],[6.122438056,43.247038889],[6.122425556,43.246943889],[6.122369722,43.246907778],[6.121804444,43.246400833]],[[6.127112778,43.247862778],[6.127334167,43.247950833],[6.127454722,43.248126667],[6.127454722,43.248258333],[6.127213333,43.248361111],[6.123271111,43.249357222],[6.12307,43.249386389],[6.122960833,43.24937],[6.12291,43.249302222],[6.122825278,43.249166389],[6.122850556,43.249110833],[6.122943889,43.249067778]],[[6.122176389,43.249210833],[6.122432222,43.249210833],[6.122553889,43.249286667],[6.122595278,43.249377222],[6.122645,43.249516111]],[[6.127850278,43.247663611],[6.127673611,43.247709722],[6.127635556,43.247773889],[6.127626111,43.247849722],[6.127682778,43.248053889],[6.127722778,43.2482],[6.127823056,43.248375]]]}},{"type":"Feature","id":"LFTF-9931ab0cae245254b8e4","properties":{"airport":"LFTF","name":"LFTF Groundlayout","layer":"Guidance lines","category":"Apron Surface","object_type":"Line","style_id":"line.apronsurface.808080","source_group":"LFTF Groundlayout","vsmr_group_ids":[],"geometry_role":"linework"},"geometry":{"type":"MultiLineString","coordinates":[[[6.121933889,43.246292778],[6.121823611,43.246064167],[6.1219575,43.245934167],[6.122191667,43.245788056],[6.123708611,43.245113889],[6.125231389,43.245106944],[6.125231389,43.244879722],[6.126752222,43.244851111],[6.127181389,43.244879722],[6.127439722,43.244875278],[6.127618889,43.244984167],[6.127678611,43.245136389],[6.127738333,43.245256111],[6.127753333,43.245365]],[[6.1226475,43.249514722],[6.1216825,43.249605833],[6.1213425,43.24972],[6.120584444,43.250234167],[6.120558333,43.250367222],[6.122617222,43.2503975],[6.122673056,43.250655278],[6.123920833,43.2510625],[6.123939444,43.249882222],[6.123399444,43.249868611],[6.123384444,43.249618611],[6.123401111,43.249512778]],[[6.126573611,43.248717222],[6.126635556,43.248979167],[6.126938056,43.249478611],[6.128127778,43.250800278],[6.12841,43.2509325],[6.128954444,43.250594722],[6.129761111,43.249904444],[6.131071667,43.248567778],[6.131131944,43.248141944],[6.131011111,43.247833611],[6.130728611,43.247833611],[6.130325556,43.247892222],[6.128793056,43.248200833],[6.127820833,43.24837]],[[6.121806667,43.246413333],[6.120768333,43.2450325],[6.115786667,43.247136389],[6.115875556,43.244259167],[6.117231389,43.244044722],[6.119,43.243379167],[6.120532778,43.243357778],[6.124099167,43.243250556],[6.125425556,43.242456111],[6.129168889,43.242434722],[6.129198333,43.243250556],[6.129755556,43.244843056]],[[6.129424722,43.244908889],[6.129171944,43.244249444],[6.129029722,43.2438625],[6.128206944,43.244009722],[6.127745,43.244156944],[6.127730556,43.244398889],[6.128116111,43.245284722]]]}},{"type":"Feature","id":"LFTF-d84018a0b533759d0983","properties":{"airport":"LFTF","name":"LFTF Groundlayout","layer":"Guidance lines","category":"Stopbars","object_type":"Line","style_id":"line.stopbar.7e0000","source_group":"LFTF Groundlayout","vsmr_group_ids":[],"geometry_role":"linework"},"geometry":{"type":"MultiLineString","coordinates":[[[6.137324167,43.244262778],[6.138057222,43.244276389]],[[6.122578889,43.249340833],[6.122864167,43.249241944]],[[6.127407778,43.248055556],[6.127662778,43.247986111]],[[6.122427222,43.248271389],[6.122619444,43.248273056]]]}},{"type":"Feature","id":"LFTF-7bdf0df09f1601bfeb98","properties":{"airport":"LFTF","name":"LFTF Groundlayout","layer":"Guidance lines","category":"TWR-CTR","object_type":"Line","style_id":"line.twr-ctr.000000","source_group":"LFTF Groundlayout","vsmr_group_ids":[],"geometry_role":"linework"},"geometry":{"type":"LineString","coordinates":[[6.120251111,43.246808056],[6.120251111,43.246498333],[6.120729722,43.246498333],[6.120729722,43.2468275],[6.120251111,43.246808056]]}},{"type":"Feature","id":"LFTF-0ee3633deb3b0a4b59fb","properties":{"airport":"LFTF","name":"LFTF Groundlayout","layer":"Guidance lines","category":"Labels","object_type":"Line","style_id":"line.labels.808080","source_group":"LFTF Groundlayout","vsmr_group_ids":[],"geometry_role":"linework"},"geometry":{"type":"MultiLineString","coordinates":[[[6.136205556,43.245050833],[6.136147222,43.245071667],[6.136182222,43.245116389],[6.136306667,43.245065556],[6.136271111,43.2450225],[6.136261667,43.245026667],[6.136274167,43.245059167],[6.136229722,43.245078333],[6.136205556,43.245050833]],[[6.136195556,43.245062778],[6.136167778,43.245073333],[6.136185833,43.245095833],[6.136212778,43.245085],[6.136195556,43.245062778]],[[6.116543889,43.250648889],[6.116789444,43.250580278],[6.116812222,43.25062],[6.116838611,43.250613611],[6.116836667,43.250595833],[6.116806944,43.250549722],[6.116534444,43.250626389],[6.116543889,43.250648889]],[[6.116480278,43.250495278],[6.116705833,43.250430278],[6.116721667,43.250455833],[6.116741944,43.25045],[6.1167475,43.250439722],[6.116726111,43.250406389],[6.116470833,43.250480278],[6.116480278,43.250495278]],[[6.136078889,43.244923056],[6.136037222,43.244936111],[6.136061389,43.244976944],[6.136106111,43.244962222],[6.136148611,43.244914722],[6.136181389,43.244903333],[6.136201111,43.244940556],[6.136230833,43.244930278],[6.136195556,43.244881667],[6.136143056,43.244901389],[6.136096111,43.244946944],[6.136078889,43.244923056]]]}},{"type":"Feature","id":"LFTF-0a247f5423c720b7a46b","properties":{"airport":"LFTF","name":"C1","layer":"Labels","category":"Taxiways","object_type":"Label","style_id":"label.taxiways","source_group":"LFTF Taxiways","vsmr_group_ids":[],"geometry_role":"text_label","text-field":"C1"},"geometry":{"type":"Point","coordinates":[6.122305833,43.2493925]}},{"type":"Feature","id":"LFTF-bc65b16e5131554e6e76","properties":{"airport":"LFTF","name":"C2","layer":"Labels","category":"Taxiways","object_type":"Label","style_id":"label.taxiways","source_group":"LFTF Taxiways","vsmr_group_ids":[],"geometry_role":"text_label","text-field":"C2"},"geometry":{"type":"Point","coordinates":[6.126983056,43.248158889]}},{"type":"Feature","id":"LFTF-27b455378b421beb5ffb","properties":{"airport":"LFTF","name":"M1","layer":"Labels","category":"Taxiways","object_type":"Label","style_id":"label.taxiways","source_group":"LFTF Taxiways","vsmr_group_ids":[],"geometry_role":"text_label","text-field":"M1"},"geometry":{"type":"Point","coordinates":[6.122143889,43.248232778]}},{"type":"Feature","id":"LFTF-2f50672528731b0d7d3a","properties":{"airport":"LFTF","name":"M2","layer":"Labels","category":"Taxiways","object_type":"Label","style_id":"label.taxiways","source_group":"LFTF Taxiways","vsmr_group_ids":[],"geometry_role":"text_label","text-field":"M2"},"geometry":{"type":"Point","coordinates":[6.136676111,43.244306111]}}]}
