{"type":"FeatureCollection","name":"LFTH AVISO","bbox":[6.13689677678652,43.08545252583686,6.163000753553007,43.10705793625184],"metadata":{"schema":"vSMR AVISO","schema_version":2,"geometry_mode":"shared","airport":"LFTH","coordinate_reference_system":"WGS84","coordinate_order":"longitude, latitude","default_color_palette":"dark","color_palettes":["dark","light"],"background_colors":{"dark":"#434A4F","light":"#434A4F"},"runways":[{"ends":["13","31"],"headings":[133,313],"thresholds":[[6.142380833,43.100025],[6.155493889,43.090388889]]},{"ends":["05","23"],"headings":[49,229],"thresholds":[[6.143227778,43.0957],[6.160952778,43.106105833]]}],"saved_active_runways":[],"saved_active_airport_modes":[],"airport_reference":[6.146110833,43.097221944],"feature_count":136,"style_count":14,"layer_counts":{"Airfield surfaces":35,"Buildings and structures":14,"Guidance lines":43,"Labels":42,"Operational restrictions":1,"Terrain":1},"category_counts":{"Buildings":14,"Danger Area":1,"Gates":27,"Grass":1,"Hard Surface 2":7,"Hard Surface 3":6,"Hard Surface 4":8,"Runway Border":27,"Runways":2,"Taxiways":31,"prohibitedarea":12},"geometry_source":"local GNG/KMZ","geometry_source_url":"","geometry_license":"GPL-3.0"},"styles":{"polygon.grassurface.00512f":{"name":"Grass","layer":"Terrain","object_type":"Area","paint":{"fill":"#010D19","fill-opacity":1,"palette-overrides":{"light":{"fill":"#00512F"}}},"feature_count":1},"polygon.terrain1.574242":{"name":"Terrain 1","layer":"Terrain","object_type":"Area","paint":{"fill":"#574242","fill-opacity":1,"palette-overrides":{"light":{"fill":"#574242"}}},"feature_count":0},"polygon.hardsurface4.969393":{"name":"Hard Surface 4","layer":"Airfield surfaces","object_type":"Area","paint":{"fill":"#152841","fill-opacity":1,"palette-overrides":{"light":{"fill":"#969393"}}},"feature_count":8},"polygon.hardsurface3.8a807f":{"name":"Hard Surface 3","layer":"Airfield surfaces","object_type":"Area","paint":{"fill":"#222D3C","fill-opacity":1,"palette-overrides":{"light":{"fill":"#8A807F"}}},"feature_count":6},"polygon.hardsurface2.595e5b":{"name":"Hard Surface 2","layer":"Airfield surfaces","object_type":"Area","paint":{"fill":"#2F3949","fill-opacity":1,"palette-overrides":{"light":{"fill":"#595E5B"}}},"feature_count":7},"polygon.runwayconcrete.555555":{"name":"Runways","layer":"Airfield surfaces","object_type":"Area","paint":{"fill":"#111318","fill-opacity":1,"palette-overrides":{"light":{"fill":"#555555"}}},"feature_count":2},"polygon.building.394446":{"name":"Buildings","layer":"Buildings and structures","object_type":"Area","paint":{"fill":"#475570","fill-opacity":1,"palette-overrides":{"light":{"fill":"#394446"}}},"feature_count":14},"polygon.stopbar.7e0000":{"name":"Stopbars","layer":"Surface markings","object_type":"Area","paint":{"fill":"#7E0000","fill-opacity":1,"palette-overrides":{"light":{"fill":"#7E0000"}}},"feature_count":0},"line.runwayborder.808080":{"name":"Runway Border","layer":"Guidance lines","object_type":"Line","paint":{"stroke":"#808080","stroke-opacity":1,"stroke-width":1,"palette-overrides":{"light":{"stroke":"#808080"}}},"feature_count":27},"line.taxiway.c0b631":{"name":"Taxiways","layer":"Guidance lines","object_type":"Line","paint":{"stroke":"#4E5A69","stroke-opacity":1,"stroke-width":1,"palette-overrides":{"light":{"stroke":"#C0B631"}}},"feature_count":16},"label.gates":{"name":"Gates","layer":"Labels","object_type":"Label","paint":{"text-color":"#CCCCCC","text-font":"Arial","text-size":12,"text-halo-color":"#000000","text-halo-width":1,"text-anchor":"center","zoomLevel":9},"feature_count":27},"label.taxiways":{"name":"Taxiways","layer":"Labels","object_type":"Label","paint":{"text-color":"#CCCCCC","text-font":"Arial","text-size":12,"text-halo-color":"#000000","text-halo-width":1,"text-anchor":"center","zoomLevel":7},"feature_count":15},"polygon.dangerarea.280908":{"name":"Danger Area","layer":"Operational restrictions","object_type":"Area","paint":{"fill":"#280908","fill-opacity":1,"palette-overrides":{"light":{"fill":"#280908"}}},"feature_count":1},"polygon.prohibitedarea":{"name":"prohibitedarea","layer":"Airfield surfaces","object_type":"Area","paint":{"fill":"#7E0000","fill-opacity":1},"feature_count":12}},"vsmr_groups":[],"features":[{"type":"Feature","id":"LFTH-2b11a70ba2c0f9964a0e","properties":{"airport":"LFTH","name":"COLOR_GrasSurface","layer":"Terrain","category":"Grass","object_type":"Area","style_id":"polygon.grassurface.00512f","source_group":"COLOR_GrasSurface","vsmr_group_ids":[],"geometry_role":"filled_region"},"geometry":{"type":"Polygon","coordinates":[[[6.139494781906356,43.10191405977661],[6.136912892530619,43.09536361989162],[6.13689677678652,43.0952694072589],[6.136925014187438,43.09515164482008],[6.137001634338642,43.09502505360069],[6.137193478341125,43.09484365316641],[6.137641710450135,43.09454949657691],[6.138180579915824,43.09426637634743],[6.138633829380245,43.09402369966837],[6.140540417914176,43.09297966806949],[6.141134088496489,43.09260597736839],[6.141857396983895,43.09211270291662],[6.142457869830141,43.09161444075575],[6.14292186508372,43.09117098398848],[6.14527604877309,43.08827887281721],[6.14597373605042,43.0875216573455],[6.146733796289208,43.0870026155992],[6.147444483965236,43.08654845042821],[6.148451277688087,43.08609427442715],[6.14934948360535,43.08577706026296],[6.150287171330997,43.08559680416089],[6.15128408004086,43.08548141505156],[6.152211900388831,43.08545252583686],[6.153327280644127,43.0855894159318],[6.154195907099311,43.08574794056122],[6.155074432350817,43.08604342333501],[6.155646968340576,43.08628125866823],[6.156259010202467,43.08661280112766],[6.156693372770501,43.08687227141496],[6.15705864283102,43.08712453916023],[6.157734232238217,43.08772546498341],[6.159393772049309,43.08934667109418],[6.158069832581652,43.09026667337962],[6.159758821663186,43.09214730504211],[6.160107287787882,43.09277499559742],[6.160490556693574,43.0941857141045],[6.158340454178363,43.0952442904775],[6.160262802747971,43.09883038317273],[6.160308132855379,43.09909477717517],[6.160333340564039,43.09933713996175],[6.160479238229508,43.09953174723623],[6.160620090346239,43.09966025512454],[6.160745859903307,43.09980712575758],[6.162937274952931,43.10432679347492],[6.161776802103915,43.10522985562506],[6.162850237472108,43.10612639150974],[6.163000753553007,43.10647411111128],[6.162715030769174,43.10664693299876],[6.162237306544915,43.10683282252418],[6.161652404324958,43.10697634614045],[6.161228230120317,43.10705138567148],[6.161009436821059,43.10705793625184],[6.160460183806329,43.10692761342202],[6.160000226879642,43.10675489760864],[6.159607245324206,43.10656261209064],[6.158865931946123,43.10614543243576],[6.157830167004247,43.10550541556146],[6.156743990892575,43.10485030493],[6.154031973221299,43.10327424205766],[6.149915991530122,43.10083178732454],[6.148856184463556,43.10123334957255],[6.147856350240641,43.10155094628826],[6.146003790546612,43.10213419074059],[6.145644080324104,43.10160322883802],[6.145160906138663,43.10116422430172],[6.14485333195486,43.10075859369875],[6.139841642153301,43.10223441326416],[6.139494781906356,43.10191405977661]]]}},{"type":"Feature","id":"LFTH-a14901013e0a599ca06e","properties":{"airport":"LFTH","name":"COLOR_DangerArea","layer":"Operational restrictions","category":"Danger Area","object_type":"Area","style_id":"polygon.dangerarea.280908","source_group":"COLOR_DangerArea","vsmr_group_ids":[],"geometry_role":"filled_region"},"geometry":{"type":"Polygon","coordinates":[[[6.139844119179385,43.10169978661771],[6.139702668802514,43.10135518267824],[6.139646215117248,43.10120786319711],[6.139603372556508,43.1011217080756],[6.139580326920509,43.10103464478055],[6.139569363914146,43.10094914025961],[6.139570699418493,43.1008489944271],[6.139586154053345,43.10074894889387],[6.139605937046289,43.10062684086142],[6.139639466093827,43.10053281508657],[6.139692224221173,43.10045288076628],[6.14045088690297,43.0995197041837],[6.142228866009553,43.09740343150064],[6.144650515534103,43.09446336550099],[6.144931972877874,43.09444855691397],[6.144115122424276,43.09543123035245],[6.144045583894382,43.09550851675427],[6.144020794572427,43.09557300563529],[6.14401721908582,43.09566211210436],[6.144032927946013,43.09574086893804],[6.144072568532906,43.09581979500781],[6.144258337571438,43.09606927990456],[6.143514756387212,43.09619160284424],[6.140139233917992,43.10026988303687],[6.13994228953457,43.10049762182874],[6.139889767942854,43.10058169168708],[6.139857929534525,43.10065652600844],[6.139851964144762,43.1007184086417],[6.139848568507311,43.10078030956989],[6.1398604414505,43.10085357814932],[6.139908316674266,43.10092522611999],[6.139969366369784,43.10097257291264],[6.140081712045786,43.10102779023419],[6.140158530961615,43.10104897769023],[6.14028689607919,43.10105927216433],[6.140430879893222,43.1010546652515],[6.1406526824539,43.10099619175381],[6.1408489113646,43.10092815391894],[6.139844119179385,43.10169978661771]]]}},{"type":"Feature","id":"LFTH-c7f947f224642e780ea2","properties":{"airport":"LFTH","name":"COLOR_HardSurface4","layer":"Airfield surfaces","category":"Hard Surface 4","object_type":"Area","style_id":"polygon.hardsurface4.969393","source_group":"COLOR_HardSurface4","vsmr_group_ids":[],"geometry_role":"filled_region"},"geometry":{"type":"Polygon","coordinates":[[[6.142223643463797,43.0941389078857],[6.142217338876086,43.09408702316934],[6.142233949851541,43.09401251854182],[6.142264627620387,43.09394744235718],[6.142307661441073,43.09391354753162],[6.142354952696005,43.0938796830953],[6.142420610046861,43.09385216851162],[6.142514720283005,43.09381967502858],[6.142595863440219,43.0938015988873],[6.142683838690624,43.09380326377602],[6.142788497084835,43.09383095860382],[6.14289456079423,43.0938596997692],[6.14296382303797,43.09388092300873],[6.14300073950929,43.09398586639026],[6.142995788216934,43.09403765269927],[6.143653238043594,43.09438599766279],[6.143002344769135,43.09448018192309],[6.14269063102296,43.09474555527703],[6.142353542791592,43.09503963579748],[6.14224164917506,43.09495775928713],[6.142632535878025,43.09460131380529],[6.142622513809231,43.09423656142269],[6.142547677357555,43.0941282996503],[6.142223643463797,43.0941389078857]]]}},{"type":"Feature","id":"LFTH-72edb627206d8cc6acb2","properties":{"airport":"LFTH","name":"COLOR_HardSurface4","layer":"Airfield surfaces","category":"Hard Surface 4","object_type":"Area","style_id":"polygon.hardsurface4.969393","source_group":"COLOR_HardSurface4","vsmr_group_ids":[],"geometry_role":"filled_region"},"geometry":{"type":"Polygon","coordinates":[[[6.140221522548281,43.09368047625649],[6.141337187865393,43.09435353211731],[6.141004968107788,43.09466509039547],[6.139878971795298,43.09400237310067],[6.140221522548281,43.09368047625649]]]}},{"type":"Feature","id":"LFTH-9e444459217698260424","properties":{"airport":"LFTH","name":"COLOR_HardSurface4","layer":"Airfield surfaces","category":"Hard Surface 4","object_type":"Area","style_id":"polygon.hardsurface4.969393","source_group":"COLOR_HardSurface4","vsmr_group_ids":[],"geometry_role":"filled_region"},"geometry":{"type":"Polygon","coordinates":[[[6.143259358438642,43.09554736482931],[6.145359981813807,43.09636916235868],[6.145496487537452,43.09643029790831],[6.145580536809534,43.09647769020859],[6.145666651642598,43.09654180928626],[6.146253709502883,43.09701034124345],[6.145662903459295,43.09756562484323],[6.144880019753771,43.09724376208395],[6.144747132397193,43.09718726714926],[6.144657578284168,43.09711907037888],[6.144527667113666,43.09701661048427],[6.143006046379993,43.09582060619681],[6.143259358438642,43.09554736482931]]]}},{"type":"Feature","id":"LFTH-6b32271d045a7a3f21e4","properties":{"airport":"LFTH","name":"COLOR_HardSurface4","layer":"Airfield surfaces","category":"Hard Surface 4","object_type":"Area","style_id":"polygon.hardsurface4.969393","source_group":"COLOR_HardSurface4","vsmr_group_ids":[],"geometry_role":"filled_region"},"geometry":{"type":"Polygon","coordinates":[[[6.154835060825357,43.10231449423507],[6.156771405151458,43.10307065463555],[6.156920892714086,43.10313243323844],[6.157011149931966,43.10320039015818],[6.157789629937884,43.10384906972565],[6.157833033427487,43.10388185469979],[6.157894994992265,43.10390927095762],[6.158739927025305,43.10425196925237],[6.158851913543463,43.10429365780022],[6.158948674865719,43.10433455516345],[6.159033554324001,43.10439280411877],[6.160535904588993,43.10566750654689],[6.160325490773682,43.10555928469574],[6.161322471499298,43.10490811900225],[6.161601073362877,43.10619735785244],[6.1621516405473,43.10653340502477],[6.162248801986334,43.10660770821597],[6.162308950296287,43.10665836983922],[6.162318207378488,43.1066989011569],[6.162276574036374,43.10673774629873],[6.162209494762978,43.10676983748298],[6.162133161619292,43.10679179611962],[6.161892593660219,43.1068340288145],[6.161776933997012,43.10683403446896],[6.161716790343115,43.10682728204938],[6.161309834464259,43.10657354658003],[6.161565527890051,43.10621179975997],[6.161234394956738,43.10549501449999],[6.160300208744951,43.10597088037983],[6.158392650180044,43.10519070430021],[6.158245563014537,43.10513365783562],[6.158151334508459,43.10507661021611],[6.158029307021364,43.10499680587689],[6.157330731094519,43.10440721423297],[6.157282838795053,43.10437707143011],[6.157208523434448,43.10434331161473],[6.156242245297223,43.10394363176668],[6.156154340879398,43.10390181736901],[6.156099733608514,43.10387069956819],[6.15602647998049,43.10382402277582],[6.154439294858818,43.10248873284736],[6.154835060825357,43.10231449423507]]]}},{"type":"Feature","id":"LFTH-b68d8e256b3b0a38a22f","properties":{"airport":"LFTH","name":"COLOR_HardSurface4","layer":"Airfield surfaces","category":"Hard Surface 4","object_type":"Area","style_id":"polygon.hardsurface4.969393","source_group":"COLOR_HardSurface4","vsmr_group_ids":[],"geometry_role":"filled_region"},"geometry":{"type":"Polygon","coordinates":[[[6.15760128163501,43.09248027229678],[6.157855927924764,43.09258775192637],[6.15807310097257,43.09256595857406],[6.158152680837647,43.09277902622627],[6.158206814141607,43.09310100881864],[6.158569443484961,43.09421758007974],[6.159025483597594,43.09414921573947],[6.159170381763359,43.09466437812841],[6.158501813594192,43.09471537842191],[6.158423260889652,43.09471665442721],[6.158346453351882,43.09470008459174],[6.158292338447085,43.09466439389764],[6.15823124017896,43.09458153954666],[6.158196327139819,43.09454329918089],[6.15760128163501,43.09248027229678]]]}},{"type":"Feature","id":"LFTH-419920abdd34cd7ae6e4","properties":{"airport":"LFTH","name":"COLOR_HardSurface4","layer":"Airfield surfaces","category":"Hard Surface 4","object_type":"Area","style_id":"polygon.hardsurface4.969393","source_group":"COLOR_HardSurface4","vsmr_group_ids":[],"geometry_role":"filled_region"},"geometry":{"type":"Polygon","coordinates":[[[6.156814260175767,43.09113694007801],[6.157026490003119,43.0911849809868],[6.157050996460902,43.09118555822133],[6.157069178631751,43.0911815170854],[6.15726760048366,43.09104873777746],[6.157878255084405,43.09153640424971],[6.157811112520697,43.09158921445066],[6.157248095117738,43.09131307604847],[6.15666960533532,43.0916954846497],[6.156814260175767,43.09113694007801]]]}},{"type":"Feature","id":"LFTH-252397bf1b402748133a","properties":{"airport":"LFTH","name":"COLOR_HardSurface4","layer":"Airfield surfaces","category":"Hard Surface 4","object_type":"Area","style_id":"polygon.hardsurface4.969393","source_group":"COLOR_HardSurface4","vsmr_group_ids":[],"geometry_role":"filled_region"},"geometry":{"type":"Polygon","coordinates":[[[6.160318148700272,43.10404348317599],[6.160837326390352,43.10435320523383],[6.160711579962522,43.104577563208],[6.160633795179167,43.10468169659176],[6.160581937647098,43.10474133698162],[6.160504147424495,43.1047877256662],[6.160399674100323,43.10482790713579],[6.16027669781249,43.10487879276867],[6.160169093218435,43.10492144704197],[6.160093259601888,43.10497906471512],[6.160030748561585,43.10503443715636],[6.159955011335954,43.10511298236004],[6.159897111366595,43.10518344586082],[6.159234783499603,43.10462682868022],[6.159383166097672,43.10464003501775],[6.159491738082994,43.10464355418397],[6.159577388695796,43.10464002800666],[6.159647356476645,43.10463297929817],[6.159687164830179,43.1046171240801],[6.159758336297879,43.10457572556344],[6.159866900507421,43.10448412211268],[6.15993293877991,43.10437248360245],[6.159979784724474,43.10427755452967],[6.15999617618982,43.10418519226354],[6.159997340353225,43.10409283057245],[6.159990307083538,43.10402441479112],[6.159961017810092,43.10394488216323],[6.159939929948514,43.1038927156492],[6.159908300513863,43.10384482549073],[6.160318148700272,43.10404348317599]]]}},{"type":"Feature","id":"LFTH-771050a8e2db02e672f8","properties":{"airport":"LFTH","name":"COLOR_HardSurface4","layer":"Airfield surfaces","category":"Hard Surface 4","object_type":"Area","style_id":"polygon.hardsurface4.969393","source_group":"COLOR_HardSurface4","vsmr_group_ids":[],"geometry_role":"filled_region"},"geometry":{"type":"Polygon","coordinates":[[[6.156236628759569,43.08956621734757],[6.157509629508542,43.08864702474573],[6.15795240166666,43.08895147706986],[6.156680520251172,43.0898836953367],[6.156236628759569,43.08956621734757]]]}},{"type":"Feature","id":"LFTH-8ee500aaec13d2af2f86","properties":{"airport":"LFTH","name":"COLOR_HardSurface3","layer":"Airfield surfaces","category":"Hard Surface 3","object_type":"Area","style_id":"polygon.hardsurface3.8a807f","source_group":"COLOR_HardSurface3","vsmr_group_ids":[],"geometry_role":"filled_region"},"geometry":{"type":"Polygon","coordinates":[[[6.14276611389821,43.09340796349647],[6.142649553472578,43.09338722502487],[6.142504022811117,43.09349425936824],[6.141644985698454,43.09307220775741],[6.141401633975681,43.09288924207934],[6.141563220065409,43.09279759820461],[6.142178886756417,43.09246173632097],[6.142834237432464,43.09187207465157],[6.143035968617281,43.09171885313415],[6.143315600242816,43.09139606123448],[6.144990283688953,43.08931764272899],[6.145197417095661,43.08905759698737],[6.145688327467953,43.08860411952311],[6.146209650873677,43.08830713442247],[6.14682547747567,43.08890734162484],[6.14709540464079,43.08891775660525],[6.147585024313815,43.08939049329872],[6.147900410810674,43.08941980009642],[6.147841306186139,43.08969066647795],[6.147459479283164,43.08966613399109],[6.147459878914631,43.08988243431583],[6.147614614878094,43.09022504739745],[6.146360289723132,43.09173624745325],[6.14619633667993,43.09166745274129],[6.146128694258167,43.09164743683351],[6.146038177860788,43.09164529168623],[6.145826000389436,43.09166181872359],[6.145755740377328,43.09168386132676],[6.145693390795691,43.0917300042358],[6.14489960614516,43.09269116850178],[6.144888838110436,43.0925409667481],[6.144878280440917,43.09248829340162],[6.144854708022899,43.09245525278233],[6.144825126516535,43.0924227176155],[6.144795255162505,43.09241209659765],[6.14473235928406,43.09240233831954],[6.144635736400506,43.09241314927876],[6.144539780776039,43.09242782244711],[6.143923251573968,43.09256708036342],[6.143820664810404,43.09261460555709],[6.143748283104875,43.09266234566367],[6.14276611389821,43.09340796349647]]]}},{"type":"Feature","id":"LFTH-e8c234dd98ed8e68377b","properties":{"airport":"LFTH","name":"COLOR_HardSurface3","layer":"Airfield surfaces","category":"Hard Surface 3","object_type":"Area","style_id":"polygon.hardsurface3.8a807f","source_group":"COLOR_HardSurface3","vsmr_group_ids":[],"geometry_role":"filled_region"},"geometry":{"type":"Polygon","coordinates":[[[6.147477409948197,43.09302819093473],[6.147589999457992,43.09315219208743],[6.147658216657002,43.09321670257912],[6.147718761805717,43.09325884668975],[6.147788812283894,43.09328553722838],[6.147861726465846,43.09329672691297],[6.147942688112014,43.09330215337039],[6.147982368884382,43.09331504665252],[6.148008598424742,43.09334045516926],[6.148185840203634,43.09369676297485],[6.148213525017336,43.09374542003171],[6.14821147143747,43.09379974839712],[6.148176172616065,43.09385578112624],[6.148101976730908,43.09393870869049],[6.148064020124111,43.0939947225388],[6.148047608703148,43.09402954062707],[6.148044407392932,43.09407027517382],[6.148056763045114,43.09414023281006],[6.148061534428042,43.0941810240919],[6.147872885606778,43.09394812635633],[6.147761171132506,43.09386692365124],[6.14773319505761,43.09385596765825],[6.147705153694298,43.0938499006909],[6.147674290746041,43.09385457052792],[6.147655465994784,43.09386030393983],[6.147530377912132,43.09360026995056],[6.14756554499222,43.09357411699545],[6.147588569461691,43.09355472289215],[6.147607694296107,43.09352649990328],[6.147613650735648,43.0934815588585],[6.147618411643895,43.09342585232301],[6.147477409948197,43.09302819093473]]]}},{"type":"Feature","id":"LFTH-a408f5fcb5eb5cdc8dde","properties":{"airport":"LFTH","name":"COLOR_HardSurface3","layer":"Airfield surfaces","category":"Hard Surface 3","object_type":"Area","style_id":"polygon.hardsurface3.8a807f","source_group":"COLOR_HardSurface3","vsmr_group_ids":[],"geometry_role":"filled_region"},"geometry":{"type":"Polygon","coordinates":[[[6.15129327575479,43.09872346305779],[6.151658404650608,43.09838026719778],[6.152433391984435,43.09882981054588],[6.152084895870868,43.09917191381577],[6.15129327575479,43.09872346305779]]]}},{"type":"Feature","id":"LFTH-1af0d040ce3bd064fa3a","properties":{"airport":"LFTH","name":"COLOR_HardSurface3","layer":"Airfield surfaces","category":"Hard Surface 3","object_type":"Area","style_id":"polygon.hardsurface3.8a807f","source_group":"COLOR_HardSurface3","vsmr_group_ids":[],"geometry_role":"filled_region"},"geometry":{"type":"Polygon","coordinates":[[[6.147887459226768,43.09025831978294],[6.147905559195932,43.09023849731106],[6.148152873515176,43.09032992626394],[6.148145331658677,43.09033983763694],[6.148195087852802,43.09041803547156],[6.148198088837102,43.09052706690308],[6.148128703968871,43.09061516778105],[6.147974870556084,43.09066471588339],[6.147784852200253,43.09064597878327],[6.147647629370534,43.09054684863183],[6.14762653649167,43.09040807972569],[6.147703463847956,43.09031116903213],[6.147887459226768,43.09025831978294]]]}},{"type":"Feature","id":"LFTH-18a0515cda7f88fb0e21","properties":{"airport":"LFTH","name":"COLOR_HardSurface3","layer":"Airfield surfaces","category":"Hard Surface 3","object_type":"Area","style_id":"polygon.hardsurface3.8a807f","source_group":"COLOR_HardSurface3","vsmr_group_ids":[],"geometry_role":"filled_region"},"geometry":{"type":"Polygon","coordinates":[[[6.150394198715512,43.08951176285714],[6.150277635226851,43.08911791500947],[6.151485337650218,43.08889596644237],[6.151499904991971,43.08899024556698],[6.152999113913418,43.08873027585314],[6.15310528336229,43.0891104358837],[6.150394198715512,43.08951176285714]]]}},{"type":"Feature","id":"LFTH-a4a14d0c8d33cb3bf488","properties":{"airport":"LFTH","name":"COLOR_HardSurface3","layer":"Airfield surfaces","category":"Hard Surface 3","object_type":"Area","style_id":"polygon.hardsurface3.8a807f","source_group":"COLOR_HardSurface3","vsmr_group_ids":[],"geometry_role":"filled_region"},"geometry":{"type":"Polygon","coordinates":[[[6.156453066265685,43.09178320092167],[6.157292258615477,43.09117786630453],[6.157817201931612,43.09158623095097],[6.157351457556026,43.09191156403533],[6.157512469946386,43.09243535685585],[6.157880711911147,43.09259174766447],[6.157913069917802,43.09269863532047],[6.15783549971656,43.09296537024206],[6.158178940795576,43.09443718058364],[6.157230566716887,43.09457992421563],[6.156658643922523,43.0945561367429],[6.156315035701487,43.09337250446962],[6.156266824211487,43.09325157721762],[6.156189266559366,43.09309697382948],[6.156109612648359,43.09296686177332],[6.156029958504918,43.09288573274426],[6.155845496130263,43.09273265825306],[6.155502492209717,43.09249313321538],[6.155708796171611,43.09234384068088],[6.155859338737883,43.09245377730588],[6.155937398148379,43.09249585185393],[6.1560061648904,43.09252571126495],[6.156067497473112,43.09254607001162],[6.15612325455934,43.09254742753767],[6.156188304563084,43.09253792734464],[6.156236627535387,43.09251621199505],[6.156260789084209,43.09249449652066],[6.156292384969078,43.09246192330099],[6.156310971007186,43.09240763442184],[6.156453066265685,43.09178320092167]]]}},{"type":"Feature","id":"LFTH-b403a1693e316f8b7b84","properties":{"airport":"LFTH","name":"COLOR_HardSurface2","layer":"Airfield surfaces","category":"Hard Surface 2","object_type":"Area","style_id":"polygon.hardsurface2.595e5b","source_group":"COLOR_HardSurface2","vsmr_group_ids":[],"geometry_role":"filled_region"},"geometry":{"type":"Polygon","coordinates":[[[6.144897837481045,43.09268546577405],[6.145160753275601,43.09236923858234],[6.145217971392684,43.09298331614167],[6.145304007247705,43.09400990231191],[6.145307296985328,43.09411020661513],[6.145328981092797,43.09417192263754],[6.145346750150322,43.09422941783418],[6.145378621586033,43.09428538874737],[6.145423056009873,43.09434415430786],[6.14546401392833,43.09438557613164],[6.145513893735115,43.09442489592473],[6.145657820253918,43.09450945428606],[6.147304251741403,43.09547844421033],[6.14718463461398,43.09557740169501],[6.146123410541042,43.09495028905918],[6.145421971928089,43.09453607251538],[6.145339074907481,43.09449809307539],[6.145245739157252,43.09447499795858],[6.145171252995214,43.09446485683846],[6.145092208263295,43.09446750465663],[6.145030620641531,43.09447775455192],[6.144968948180494,43.09449441438769],[6.144915983070296,43.09451647777471],[6.144854263567627,43.09455582088577],[6.14481031179097,43.09452070354696],[6.144750059342419,43.09448942655668],[6.144691732702161,43.09447635781568],[6.144626770713653,43.09447352617299],[6.144487967533044,43.09447442515139],[6.143336961416286,43.09449719350629],[6.143228051631395,43.09450460307818],[6.143157464848237,43.09451812593051],[6.143097985227048,43.09453873821723],[6.143028962448676,43.09457637847669],[6.142851135831164,43.09444078905315],[6.142862846652957,43.09438250477958],[6.142876673909057,43.09435495499878],[6.142902213982233,43.09433240317652],[6.142922616700668,43.09431657331311],[6.142966640599434,43.09429599536218],[6.143036785071585,43.09427253014126],[6.143091672310639,43.09425755846105],[6.143148160663394,43.09424874197459],[6.143208847295794,43.09424056953241],[6.142983316629371,43.09415343132402],[6.142919230491614,43.09414055752283],[6.142821129301243,43.09412744312067],[6.142732385346998,43.09412129516073],[6.142669033752428,43.0941242972051],[6.142597105175933,43.09413275880016],[6.142535533474835,43.09414405376096],[6.142476677320206,43.09416433834047],[6.142432993876383,43.09418059005207],[6.14236076305316,43.09421182047573],[6.142289217736209,43.09407958340781],[6.142463017448412,43.09403846546918],[6.14257891588548,43.09401817645349],[6.142660170651215,43.09400853724968],[6.142724560792834,43.09400490711878],[6.142797284164239,43.09400519007566],[6.142855188067471,43.09401070923116],[6.142909055187136,43.09401911958378],[6.142980816650388,43.09403495587922],[6.143016682887648,43.09404396881978],[6.143866947939074,43.09430881162454],[6.143938469943812,43.09433147737251],[6.144003077908831,43.09434153657667],[6.144078919765425,43.09434354952141],[6.144165887970743,43.09434564099812],[6.144466880387254,43.0943431247078],[6.144584867326932,43.09432494225295],[6.144677424940006,43.09430797798893],[6.144769061811816,43.09428177413406],[6.144840536296467,43.09424616932696],[6.144893030412682,43.09420765301983],[6.14495460725065,43.09415346098817],[6.144999849557911,43.09408804335771],[6.145012361897995,43.09400480339104],[6.145008674610279,43.09390015424965],[6.144984541093155,43.09366412839044],[6.144897837481045,43.09268546577405]]]}},{"type":"Feature","id":"LFTH-800241594e180b8570d0","properties":{"airport":"LFTH","name":"COLOR_HardSurface2","layer":"Airfield surfaces","category":"Hard Surface 2","object_type":"Area","style_id":"polygon.hardsurface2.595e5b","source_group":"COLOR_HardSurface2","vsmr_group_ids":[],"geometry_role":"filled_region"},"geometry":{"type":"Polygon","coordinates":[[[6.147459881188613,43.08988498000236],[6.148657562227758,43.0897130289007],[6.148694594195529,43.08984281555909],[6.148461799659922,43.08987819233511],[6.148555322692579,43.09019326088627],[6.148347538774668,43.09022006045795],[6.148339735894107,43.09018297664336],[6.148302539885853,43.09017299068275],[6.148150392307836,43.09033140112267],[6.147905667980953,43.09024003876549],[6.147957795608548,43.09015697241662],[6.147891005657778,43.09014413033617],[6.147612322743172,43.09022731228144],[6.147459881188613,43.08988498000236]]]}},{"type":"Feature","id":"LFTH-20578ad4a9976057058c","properties":{"airport":"LFTH","name":"COLOR_HardSurface2","layer":"Airfield surfaces","category":"Hard Surface 2","object_type":"Area","style_id":"polygon.hardsurface2.595e5b","source_group":"COLOR_HardSurface2","vsmr_group_ids":[],"geometry_role":"filled_region"},"geometry":{"type":"Polygon","coordinates":[[[6.149081012805119,43.08965755790128],[6.150435163351975,43.08945367271178],[6.153074175177043,43.089072221765],[6.153588050114285,43.08899136288397],[6.153848955155336,43.08895367497544],[6.154032202779851,43.08892505381461],[6.154177289712139,43.08890577852117],[6.154303232758132,43.08889598340511],[6.154415939743556,43.08889143664499],[6.154549097764965,43.08888917079926],[6.154695209164684,43.08890302183613],[6.154844203918239,43.08892009814611],[6.154987262879137,43.08894354269161],[6.155115609184321,43.08897329364896],[6.155246810838921,43.08900840649354],[6.155360459020248,43.08904339553736],[6.155482714992873,43.08909126572481],[6.155573217681756,43.08912866928106],[6.155656732551476,43.08916885307542],[6.155516987829881,43.08927396416219],[6.155440067053273,43.08922969989133],[6.155363389540833,43.08919493240489],[6.155281849344658,43.08915870446808],[6.155155520862204,43.08911289093164],[6.155054322463442,43.08908650720304],[6.154927777333987,43.08905709239099],[6.154830389972192,43.08903786596044],[6.154681200728234,43.08902255249267],[6.154523886760002,43.08901576139791],[6.154357305962145,43.08901866308601],[6.154169183676037,43.08903228399004],[6.152716708970427,43.0892452960355],[6.150765003933383,43.08953157583629],[6.149077041028033,43.08977439013054],[6.149081012805119,43.08965755790128]]]}},{"type":"Feature","id":"LFTH-9b1204e9327733d04d38","properties":{"airport":"LFTH","name":"COLOR_HardSurface2","layer":"Airfield surfaces","category":"Hard Surface 2","object_type":"Area","style_id":"polygon.hardsurface2.595e5b","source_group":"COLOR_HardSurface2","vsmr_group_ids":[],"geometry_role":"filled_region"},"geometry":{"type":"Polygon","coordinates":[[[6.146697420734339,43.09132784625329],[6.146702183639889,43.09135721238173],[6.146713191522954,43.09138714177189],[6.146732615252979,43.09142754424984],[6.146813223081371,43.09159320830188],[6.147087780215779,43.09212792814637],[6.147581611494928,43.09315016899479],[6.148008421157021,43.09401248828978],[6.148351283330333,43.09472153325322],[6.148226719038172,43.0947491987614],[6.147803999928656,43.0938697315316],[6.147621307519156,43.09353642428771],[6.146742658351972,43.09168657298476],[6.146680012839174,43.09157392543763],[6.146643891669918,43.0915133434339],[6.146610543611044,43.09146342667048],[6.146595423594725,43.09145004086091],[6.146697420734339,43.09132784625329]]]}},{"type":"Feature","id":"LFTH-9026fdce26f81b577244","properties":{"airport":"LFTH","name":"COLOR_HardSurface2","layer":"Airfield surfaces","category":"Hard Surface 2","object_type":"Area","style_id":"polygon.hardsurface2.595e5b","source_group":"COLOR_HardSurface2","vsmr_group_ids":[],"geometry_role":"filled_region"},"geometry":{"type":"Polygon","coordinates":[[[6.156554805131318,43.09078397338936],[6.15692035267883,43.09073297835016],[6.156918153702748,43.09082842079723],[6.156902717899532,43.09092926413568],[6.156871847596619,43.09105952912805],[6.156847867284563,43.09116649328742],[6.156767368621907,43.09155962212262],[6.156452769986005,43.09178447864529],[6.156571931521604,43.09123562903554],[6.156587230693553,43.09116549402753],[6.156594540633387,43.09112133069337],[6.156602885539733,43.09107156006058],[6.156609336311529,43.09101967062207],[6.156611010035609,43.09096564209223],[6.156613487338731,43.09092355015255],[6.156601716924907,43.09086872514296],[6.156585871291023,43.09083141700128],[6.156554805131318,43.09078397338936]]]}},{"type":"Feature","id":"LFTH-7f3bee075f7d6c340a97","properties":{"airport":"LFTH","name":"COLOR_HardSurface2","layer":"Airfield surfaces","category":"Hard Surface 2","object_type":"Area","style_id":"polygon.hardsurface2.595e5b","source_group":"COLOR_HardSurface2","vsmr_group_ids":[],"geometry_role":"filled_region"},"geometry":{"type":"Polygon","coordinates":[[[6.154865830032938,43.09203100451185],[6.155068520003047,43.09188380254147],[6.155712029329092,43.09234712364798],[6.155507634309303,43.09249604063509],[6.154865830032938,43.09203100451185]]]}},{"type":"Feature","id":"LFTH-d6a1c4e17510ff60e9a1","properties":{"airport":"LFTH","name":"COLOR_HardSurface2","layer":"Airfield surfaces","category":"Hard Surface 2","object_type":"Area","style_id":"polygon.hardsurface2.595e5b","source_group":"COLOR_HardSurface2","vsmr_group_ids":[],"geometry_role":"filled_region"},"geometry":{"type":"Polygon","coordinates":[[[6.148573035682594,43.09642143149646],[6.148722895566216,43.09635712265435],[6.14879495468325,43.09642812667712],[6.148973383142977,43.09664447734384],[6.149929039251985,43.09773616391175],[6.150064957974701,43.097872978188],[6.150146432057242,43.0979471079392],[6.150251949310617,43.09802709080796],[6.150377503316708,43.09810512383837],[6.152155141546684,43.09914015312135],[6.153583510197183,43.09997829426275],[6.154754877013087,43.10065922892539],[6.157140358838539,43.10206783486505],[6.159976182074775,43.10373306477737],[6.160411020286434,43.10398313565036],[6.16092192799885,43.10427128374271],[6.161135521203914,43.10440350812077],[6.161237216814406,43.10447879386938],[6.161295556805384,43.10454425300437],[6.161348497083585,43.10462390901899],[6.161387395399314,43.10471539632081],[6.161416575421952,43.10484474188426],[6.161494468205994,43.10528319023103],[6.161236931685046,43.10527072814952],[6.161255236579526,43.10523686464116],[6.161271100011733,43.10519943677254],[6.161280860791698,43.10516290035148],[6.161283295510584,43.10509784847638],[6.161261307916959,43.10491517000716],[6.161245431705193,43.10482071203231],[6.161220394997187,43.10474433505916],[6.16118857754913,43.10466537342162],[6.161145310800507,43.10460777891268],[6.161074050411437,43.10453718011195],[6.160813197063075,43.10437833754231],[6.160345394770372,43.10410283245871],[6.160359883342794,43.10424592596205],[6.160359889694393,43.10432153812248],[6.160339851581944,43.10439715110572],[6.160304223230715,43.10447195172547],[6.16024521002847,43.10455244459318],[6.160169491564231,43.10461830359576],[6.160030286696358,43.10453050179277],[6.160084476551502,43.10447624988004],[6.160120227212394,43.10442738578065],[6.160155977001063,43.10436848142633],[6.160166974196737,43.10431627163321],[6.160175219110928,43.10423996534126],[6.1601715468659,43.10417570784377],[6.160158707916077,43.10412483772323],[6.160126615554649,43.10405991201448],[6.160079854728677,43.1039936481201],[6.159992858076935,43.10391686250726],[6.157837377144673,43.10264808991536],[6.156833010017966,43.10206054703235],[6.155979006261234,43.10155925440548],[6.155768625945726,43.10143324973945],[6.15566343631402,43.10138524797273],[6.155556603388195,43.10135884709148],[6.155434978390842,43.1013468467825],[6.15531499703523,43.10135884740452],[6.155226243666096,43.10137684819488],[6.155155569594841,43.10140204926707],[6.155070103144704,43.10144885124255],[6.154915605589554,43.10153885493748],[6.154752890970416,43.10145485047299],[6.154793981161326,43.10139484790783],[6.154851507194983,43.10131204436525],[6.154889310040737,43.10123884116658],[6.154902458912927,43.10119083897867],[6.154905746297372,43.10114403681911],[6.154900815895346,43.10107563359496],[6.154882736903602,43.10100603020044],[6.154844934985166,43.1009316263638],[6.154751650932065,43.10083788620957],[6.154643206754347,43.10076539571001],[6.153110105152997,43.09987208005456],[6.151908006442524,43.09916915995439],[6.151002160281882,43.09863176124769],[6.150381925527246,43.09825966651334],[6.150192186751955,43.09814419905162],[6.150082338837111,43.09807127251218],[6.149992463956073,43.09800563892745],[6.149885946924338,43.09791448185014],[6.149128309556215,43.09706137703301],[6.14866406198475,43.0965262940215],[6.148573035682594,43.09642143149646]]]}},{"type":"Feature","id":"LFTH-14f4284cb64a06742944","properties":{"airport":"LFTH","name":"COLOR_RunwayConcrete","layer":"Airfield surfaces","category":"Runways","object_type":"Area","style_id":"polygon.runwayconcrete.555555","source_group":"COLOR_RunwayConcrete","vsmr_group_ids":[],"geometry_role":"filled_region"},"geometry":{"type":"Polygon","coordinates":[[[6.155656775598581,43.0896950200674],[6.155650122496972,43.08948255736135],[6.155641769275856,43.089399788297],[6.155619931139658,43.08936391965575],[6.155568262452309,43.08931280413443],[6.155511306585726,43.08927230372058],[6.155650846115696,43.08916550472555],[6.155771297569828,43.08922559241634],[6.155826450986222,43.08925774063513],[6.155905429886721,43.08931564194384],[6.156257658686948,43.08955755470883],[6.156701682479062,43.08987200490927],[6.156668900793196,43.08989549142829],[6.156677983548125,43.08992519908911],[6.156715051881787,43.08998771076752],[6.156748113095714,43.09004624186304],[6.156788787832892,43.0901433635628],[6.156826873135484,43.09023157390431],[6.156867488772198,43.09035196348445],[6.1568854683561,43.09042274639648],[6.156901202677205,43.09049513789787],[6.156912605880567,43.0905585654459],[6.156918183320796,43.09064225614009],[6.156918261460591,43.09073689330543],[6.156560754746239,43.09078964826158],[6.15654432768229,43.09075593754554],[6.156461078168267,43.09067248615306],[6.156391306431379,43.0906137659013],[6.156305922660605,43.09057621407103],[6.156214391021077,43.09053973915383],[6.156108927452719,43.09051324560781],[6.155987881040225,43.09050568090893],[6.155888184249023,43.09050722414143],[6.155820555643987,43.09051907014037],[6.155780497922247,43.09053334849596],[6.155729501273384,43.09056322851628],[6.154914936946674,43.09116406657656],[6.154850491132208,43.09123690189615],[6.154806582888668,43.09130539400136],[6.15478112511294,43.09137251958052],[6.154769708115653,43.09146217803134],[6.154772861872848,43.09153399080143],[6.154803981892909,43.0916113038926],[6.154832294612937,43.09167051062438],[6.154880019407953,43.09172827959045],[6.154935357636493,43.09178059429067],[6.155076157653518,43.09188858142487],[6.154871898342793,43.09203165144609],[6.154662623590205,43.09186701205613],[6.154576676653338,43.09182517814833],[6.154459267807932,43.09180066963899],[6.154354934318564,43.09178677994942],[6.154249203858758,43.09178779422081],[6.154142053307146,43.09180546685887],[6.154064898668228,43.09182598130697],[6.153974323148024,43.09186219279679],[6.153885977097309,43.09191157911026],[6.148455170734133,43.09587820163636],[6.148444778603617,43.09589240987552],[6.148430812940591,43.09591963258451],[6.148424401184984,43.09595435979408],[6.14842341526276,43.09604044682636],[6.148422051431073,43.09609031753894],[6.148429382319369,43.09612173727317],[6.148441696713974,43.09614907830593],[6.148464593890688,43.09617495128353],[6.148500802090746,43.09620606041426],[6.148553246758874,43.09623419864671],[6.148614655155182,43.09627679848341],[6.148720626769506,43.09635776548146],[6.148578226996692,43.09642206866398],[6.148550766338885,43.09638698950209],[6.148502418697534,43.09635009704212],[6.148456512673633,43.09631322179168],[6.148387506335609,43.09626905160572],[6.148132493830396,43.09611923207909],[6.146455212591418,43.09734172563433],[6.153930026427112,43.10173577042294],[6.154223561464029,43.10173278061524],[6.154289074713855,43.10172038138025],[6.154353553284198,43.10170499357731],[6.154414872212632,43.10168547716253],[6.154498144274658,43.10164616870236],[6.154548315889201,43.10161894789951],[6.154611518711737,43.10157832559661],[6.154658522972161,43.10154756272581],[6.154699083912387,43.10150753825763],[6.154764292327435,43.10144595900831],[6.154922860280044,43.10153470413616],[6.154840019235399,43.10158947330726],[6.154778959283085,43.10163864246299],[6.154739760164533,43.10170020139476],[6.154665347236234,43.10182163335882],[6.154645291291249,43.10188109951216],[6.154637760842205,43.10193651397521],[6.154642690699069,43.10199284348649],[6.154666119160339,43.10205009418716],[6.154689466443266,43.10210858131005],[6.154718986304582,43.10215610708797],[6.15478564879429,43.10223205446967],[6.159192704089547,43.10481861349912],[6.159238548660067,43.10482714946281],[6.159321065372629,43.10482840833581],[6.159411084323382,43.10482971933111],[6.159492934543984,43.10482569545759],[6.159544365414067,43.10481733917057],[6.159598228545661,43.10480551415647],[6.159666594583692,43.10477984752988],[6.15973869991196,43.10474200724065],[6.159816829071103,43.10469985174732],[6.159868623378387,43.10466361293462],[6.15994576349568,43.10460576516746],[6.160033882889202,43.10452969407946],[6.160173615512514,43.10461431995951],[6.159648181469999,43.10509342413826],[6.160355767616315,43.10551657701123],[6.160403761479278,43.105534805871],[6.160483342092437,43.10555614048231],[6.160560343438837,43.10556721941582],[6.160638180231189,43.10556835204714],[6.160707915782362,43.10556883630639],[6.160770469099548,43.10556038958841],[6.160852575951266,43.10554497375821],[6.160927485040856,43.10552181099806],[6.161007398049327,43.10548802567102],[6.161072753739467,43.10545117890672],[6.161134966057544,43.1054066133816],[6.161172921463902,43.10535655083443],[6.161240592351255,43.10526643368727],[6.161493438069778,43.10527943746276],[6.161633041151213,43.1060730654134],[6.161645776872371,43.10618161311736],[6.161653010138797,43.10625999511529],[6.161673961237732,43.10627395570398],[6.161322250351877,43.10660181755637],[6.146042452248713,43.09763803655517],[6.140317917988451,43.10184819862018],[6.140156770320921,43.10195804831892],[6.139742681214977,43.10166456581672],[6.145602063699165,43.09736003513224],[6.140945538939341,43.09463359306758],[6.141289365437135,43.09432272292522],[6.142298721627004,43.09407794344469],[6.142375699763969,43.0942050477816],[6.142309658985383,43.09425182903542],[6.142252149972352,43.09429867089982],[6.142216032884891,43.09434099165514],[6.142175407573555,43.09440145368663],[6.142142375486531,43.09446057572325],[6.142118909913465,43.09452532802526],[6.142118308551865,43.09457043702804],[6.142120309839221,43.09464637363133],[6.142156700937815,43.09474236054153],[6.142200977573053,43.09481199568619],[6.142245371582322,43.09487282909887],[6.142269229324564,43.09489170418364],[6.142363315875894,43.09494487097867],[6.142822033803197,43.09453469824992],[6.142832429146264,43.09451906760886],[6.142852748426102,43.09443820996832],[6.143034284224136,43.09457587981345],[6.142967300836859,43.09460821904204],[6.142925634128796,43.09463935626448],[6.142887362331464,43.09468492442831],[6.142865274691028,43.0947273332399],[6.142846206333934,43.09477841307999],[6.142837448405512,43.0948333019902],[6.142838362162822,43.09491536882499],[6.142855453448687,43.09506349200729],[6.142879091355359,43.09517209700967],[6.142911226717791,43.09523132749769],[6.142955527346436,43.09528035142195],[6.143018776431026,43.09532209757212],[6.144091608122171,43.09595895033837],[6.145988150707509,43.09707286214073],[6.147410378764873,43.09603534236106],[6.147468524638189,43.09598289271093],[6.147486239350785,43.09594342498379],[6.147497393478467,43.09590004821968],[6.147497917727951,43.09586045910731],[6.147485372033947,43.09580918956853],[6.147463736232098,43.09574530198997],[6.147419224322719,43.095711188934],[6.147180362533011,43.09557334107821],[6.147300664399181,43.09547665703454],[6.147489534414847,43.09559312911487],[6.147546277802176,43.09562585332188],[6.14760406486651,43.09563427393746],[6.147692571941079,43.09564165844213],[6.147783826063257,43.09564133682584],[6.147880484606587,43.09563236214345],[6.147966641242252,43.09561751915618],[6.148024470090164,43.09558882408339],[6.148471234159143,43.09526536669264],[6.148224769117547,43.09474506791049],[6.1483470035042,43.09471789981625],[6.148576910805676,43.09518412329935],[6.155310841269818,43.09026307791626],[6.155447504642257,43.0901596129079],[6.155535289957934,43.09009458933136],[6.15561154261944,43.09001011660417],[6.155644674544143,43.08995547102931],[6.155655678721033,43.08990282279752],[6.155656775598581,43.0896950200674]]]}},{"type":"Feature","id":"LFTH-79af657220069bfff09d","properties":{"airport":"LFTH","name":"COLOR_RunwayConcrete","layer":"Airfield surfaces","category":"Runways","object_type":"Area","style_id":"polygon.runwayconcrete.555555","source_group":"COLOR_RunwayConcrete","vsmr_group_ids":[],"geometry_role":"filled_region"},"geometry":{"type":"Polygon","coordinates":[[[6.148696766334898,43.08997925500056],[6.148569482026824,43.0895656551812],[6.149150588387355,43.0894775226703],[6.149269874645967,43.08989408988489],[6.148696766334898,43.08997925500056]]]}},{"type":"Feature","id":"LFTH-67637cf6e16fba106915","properties":{"airport":"LFTH","name":"COLOR_Building","layer":"Buildings and structures","category":"Buildings","object_type":"Area","style_id":"polygon.building.394446","source_group":"COLOR_Building","vsmr_group_ids":[],"geometry_role":"filled_region"},"geometry":{"type":"Polygon","coordinates":[[[6.142103951315345,43.09235917701649],[6.142159194171195,43.09240031112907],[6.142251442082705,43.09232874328456],[6.142171138304137,43.09226520842934],[6.142791386981896,43.09177330937072],[6.143055218056364,43.09195666804212],[6.141656604296397,43.09300600862533],[6.141432848954322,43.09285997016792],[6.142103951315345,43.09235917701649]]]}},{"type":"Feature","id":"LFTH-d8899e87173b74fb5f5e","properties":{"airport":"LFTH","name":"COLOR_Building","layer":"Buildings and structures","category":"Buildings","object_type":"Area","style_id":"polygon.building.394446","source_group":"COLOR_Building","vsmr_group_ids":[],"geometry_role":"filled_region"},"geometry":{"type":"Polygon","coordinates":[[[6.143074268431262,43.09164728917298],[6.143256644683581,43.09178308586252],[6.143097974843115,43.09190049954258],[6.142924785830424,43.09176839702356],[6.143074268431262,43.09164728917298]]]}},{"type":"Feature","id":"LFTH-eb1b04060bc2df766d3f","properties":{"airport":"LFTH","name":"COLOR_Building","layer":"Buildings and structures","category":"Buildings","object_type":"Area","style_id":"polygon.building.394446","source_group":"COLOR_Building","vsmr_group_ids":[],"geometry_role":"filled_region"},"geometry":{"type":"Polygon","coordinates":[[[6.143346931939053,43.09187658369976],[6.143512090917267,43.09176100610218],[6.143729167729292,43.09187382302087],[6.143699094602024,43.09189622912074],[6.143650536897846,43.09191798952473],[6.143604592192267,43.09192781987528],[6.143537442301518,43.09193272031371],[6.143476947906386,43.09192930394642],[6.143434489894119,43.09192302838166],[6.143401117647073,43.09191024556703],[6.143346931939053,43.09187658369976]]]}},{"type":"Feature","id":"LFTH-3c18e96e8c9c623a6c34","properties":{"airport":"LFTH","name":"COLOR_Building","layer":"Buildings and structures","category":"Buildings","object_type":"Area","style_id":"polygon.building.394446","source_group":"COLOR_Building","vsmr_group_ids":[],"geometry_role":"filled_region"},"geometry":{"type":"Polygon","coordinates":[[[6.143776138286537,43.09180327422524],[6.143157954579812,43.0915453352575],[6.143235644028846,43.09145864248512],[6.143183671312236,43.0914364626349],[6.143568870087752,43.09096617028166],[6.144246595593648,43.09123816113019],[6.143776138286537,43.09180327422524]]]}},{"type":"Feature","id":"LFTH-b86a04d6b3c4087fb614","properties":{"airport":"LFTH","name":"COLOR_Building","layer":"Buildings and structures","category":"Buildings","object_type":"Area","style_id":"polygon.building.394446","source_group":"COLOR_Building","vsmr_group_ids":[],"geometry_role":"filled_region"},"geometry":{"type":"Polygon","coordinates":[[[6.143616711509097,43.09087790256388],[6.143726673264558,43.09075054309902],[6.144394901401342,43.09103473465586],[6.144277420159668,43.09116613085811],[6.143616711509097,43.09087790256388]]]}},{"type":"Feature","id":"LFTH-0f37d04b673f7458aab1","properties":{"airport":"LFTH","name":"COLOR_Building","layer":"Buildings and structures","category":"Buildings","object_type":"Area","style_id":"polygon.building.394446","source_group":"COLOR_Building","vsmr_group_ids":[],"geometry_role":"filled_region"},"geometry":{"type":"Polygon","coordinates":[[[6.144456840388381,43.09097965052234],[6.143780257206702,43.09070046647611],[6.14422915581049,43.09015318154993],[6.144385433195064,43.09021922319821],[6.144423112184492,43.09018475819161],[6.144653100878442,43.09015014588218],[6.144760194738101,43.09002707740827],[6.144455971796743,43.08989052359269],[6.145185240971431,43.08901422537356],[6.145816476575659,43.08928378345588],[6.145023865688055,43.09024978341981],[6.144891064941975,43.09019146208892],[6.144856007974426,43.09022793748393],[6.144804459037747,43.09020462002594],[6.144887848616689,43.09043358654141],[6.144456840388381,43.09097965052234]]]}},{"type":"Feature","id":"LFTH-b3b93732df545149939e","properties":{"airport":"LFTH","name":"COLOR_Building","layer":"Buildings and structures","category":"Buildings","object_type":"Area","style_id":"polygon.building.394446","source_group":"COLOR_Building","vsmr_group_ids":[],"geometry_role":"filled_region"},"geometry":{"type":"Polygon","coordinates":[[[6.146106317678157,43.0890970337179],[6.145583119956671,43.08860839024394],[6.145722350886096,43.0884357778165],[6.14613328284046,43.08821512571149],[6.146772376730469,43.0888315318556],[6.146625989674432,43.08891318460221],[6.146551445108573,43.0888423733782],[6.146106317678157,43.0890970337179]]]}},{"type":"Feature","id":"LFTH-13516f908d480b5b6d48","properties":{"airport":"LFTH","name":"COLOR_Building","layer":"Buildings and structures","category":"Buildings","object_type":"Area","style_id":"polygon.building.394446","source_group":"COLOR_Building","vsmr_group_ids":[],"geometry_role":"filled_region"},"geometry":{"type":"Polygon","coordinates":[[[6.150431740504589,43.08913665184415],[6.150380668877043,43.08895595019004],[6.150425835651583,43.08894304115086],[6.150453322861811,43.08885699084163],[6.150508305157567,43.08879675431152],[6.150614353636565,43.0888369066868],[6.150683086463415,43.08883260159816],[6.150791099921394,43.08888852936987],[6.150850028204906,43.08907353276248],[6.150431740504589,43.08913665184415]]]}},{"type":"Feature","id":"LFTH-06a6755a198dc43f6903","properties":{"airport":"LFTH","name":"COLOR_Building","layer":"Buildings and structures","category":"Buildings","object_type":"Area","style_id":"polygon.building.394446","source_group":"COLOR_Building","vsmr_group_ids":[],"geometry_role":"filled_region"},"geometry":{"type":"Polygon","coordinates":[[[6.151030455400949,43.08904275119944],[6.150970504925426,43.08877724041667],[6.152227000397595,43.08861233025132],[6.152296942397466,43.0888647095373],[6.15185347425232,43.08893038102543],[6.15180751574496,43.08879033263841],[6.151491893795504,43.08883557229185],[6.151525866038283,43.08897708029487],[6.151030455400949,43.08904275119944]]]}},{"type":"Feature","id":"LFTH-6f03b81b6923f1f8b278","properties":{"airport":"LFTH","name":"COLOR_Building","layer":"Buildings and structures","category":"Buildings","object_type":"Area","style_id":"polygon.building.394446","source_group":"COLOR_Building","vsmr_group_ids":[],"geometry_role":"filled_region"},"geometry":{"type":"Polygon","coordinates":[[[6.152722818971952,43.08876372046222],[6.152673383097438,43.08862176223629],[6.152932012237462,43.08857121887971],[6.152978153893198,43.08871317714367],[6.152722818971952,43.08876372046222]]]}},{"type":"Feature","id":"LFTH-737dbb91c91131582467","properties":{"airport":"LFTH","name":"COLOR_Building","layer":"Buildings and structures","category":"Buildings","object_type":"Area","style_id":"polygon.building.394446","source_group":"COLOR_Building","vsmr_group_ids":[],"geometry_role":"filled_region"},"geometry":{"type":"Polygon","coordinates":[[[6.157525038727383,43.09237311047598],[6.157549892985974,43.0921367402271],[6.157665494884988,43.0921497160674],[6.15764064083413,43.09238478754222],[6.157525038727383,43.09237311047598]]]}},{"type":"Feature","id":"LFTH-babc23f3269b700479b5","properties":{"airport":"LFTH","name":"COLOR_Building","layer":"Buildings and structures","category":"Buildings","object_type":"Area","style_id":"polygon.building.394446","source_group":"COLOR_Building","vsmr_group_ids":[],"geometry_role":"filled_region"},"geometry":{"type":"Polygon","coordinates":[[[6.158529848998731,43.0942719569743],[6.158478016501876,43.09407445257318],[6.158103964272126,43.09411861702841],[6.158069553211885,43.09398181386086],[6.15837405769777,43.09393683543005],[6.158330289787415,43.09376178603235],[6.158393457475915,43.09374995135495],[6.15825754520162,43.09334527901587],[6.158442313458574,43.09331180564294],[6.158419393214132,43.0932404399725],[6.158321664045873,43.09325494698279],[6.15822684279848,43.0928378763263],[6.158645063772951,43.09278868538228],[6.158688380198278,43.09303792489368],[6.15887105526795,43.09303439442768],[6.15888796269317,43.09342932107101],[6.159121276199064,43.0941875592899],[6.158529848998731,43.0942719569743]]]}},{"type":"Feature","id":"LFTH-4bb743f423cf62e6e16f","properties":{"airport":"LFTH","name":"COLOR_Building","layer":"Buildings and structures","category":"Buildings","object_type":"Area","style_id":"polygon.building.394446","source_group":"COLOR_Building","vsmr_group_ids":[],"geometry_role":"filled_region"},"geometry":{"type":"Polygon","coordinates":[[[6.147009114621261,43.09386807935098],[6.147145832015726,43.09376824127882],[6.146960417197247,43.09363968537646],[6.147072787475009,43.09356720014582],[6.147231982036203,43.09368071218601],[6.147344351845301,43.09359865328718],[6.147439868909618,43.09367250431772],[6.147106504387052,43.09392688670344],[6.147009114621261,43.09386807935098]]]}},{"type":"Feature","id":"LFTH-1c29a486f6c9553eca51","properties":{"airport":"LFTH","name":"COLOR_Building","layer":"Buildings and structures","category":"Buildings","object_type":"Area","style_id":"polygon.building.394446","source_group":"COLOR_Building","vsmr_group_ids":[],"geometry_role":"filled_region"},"geometry":{"type":"Polygon","coordinates":[[[6.143333576755914,43.09318628987866],[6.143439074194679,43.09325477339495],[6.143251510950602,43.09339315726152],[6.143147967363718,43.09332039358576],[6.143333576755914,43.09318628987866]]]}},{"type":"Feature","id":"LFTH-4c27172f8441e731a9f2","properties":{"airport":"LFTH","name":"COLOR_ProhibitedArea","layer":"Airfield surfaces","category":"prohibitedarea","object_type":"Area","style_id":"polygon.prohibitedarea","source_group":"COLOR_ProhibitedArea","vsmr_group_ids":[],"geometry_role":"filled_region"},"geometry":{"type":"Polygon","coordinates":[[[6.144059319461506,43.09448422215553],[6.144057806113159,43.0943419661555],[6.144108201060274,43.0943430629668],[6.144108210045527,43.09448312200331],[6.144059319461506,43.09448422215553]]]}},{"type":"Feature","id":"LFTH-a793091a896ecb55a42f","properties":{"airport":"LFTH","name":"COLOR_ProhibitedArea","layer":"Airfield surfaces","category":"prohibitedarea","object_type":"Area","style_id":"polygon.prohibitedarea","source_group":"COLOR_ProhibitedArea","vsmr_group_ids":[],"geometry_role":"filled_region"},"geometry":{"type":"Polygon","coordinates":[[[6.161229695450614,43.10527897675031],[6.161242157405821,43.10525874568977],[6.161494990520446,43.10527488679287],[6.161497767285424,43.10529410388054],[6.161229695450614,43.10527897675031]]]}},{"type":"Feature","id":"LFTH-0e44852f3aeb1422edb9","properties":{"airport":"LFTH","name":"COLOR_ProhibitedArea","layer":"Airfield surfaces","category":"prohibitedarea","object_type":"Area","style_id":"polygon.prohibitedarea","source_group":"COLOR_ProhibitedArea","vsmr_group_ids":[],"geometry_role":"filled_region"},"geometry":{"type":"Polygon","coordinates":[[[6.160017072384793,43.1045411477803],[6.16003551229765,43.1045247508147],[6.160179887715691,43.10461313953292],[6.1601606460623,43.1046301221528],[6.160017072384793,43.1045411477803]]]}},{"type":"Feature","id":"LFTH-53383466fac147687c82","properties":{"airport":"LFTH","name":"COLOR_ProhibitedArea","layer":"Airfield surfaces","category":"prohibitedarea","object_type":"Area","style_id":"polygon.prohibitedarea","source_group":"COLOR_ProhibitedArea","vsmr_group_ids":[],"geometry_role":"filled_region"},"geometry":{"type":"Polygon","coordinates":[[[6.15474306531133,43.10146191676293],[6.15476381992194,43.10143673263561],[6.154934123739668,43.10153024879314],[6.154901435352212,43.1015515311782],[6.15474306531133,43.10146191676293]]]}},{"type":"Feature","id":"LFTH-08d16170be43091e5334","properties":{"airport":"LFTH","name":"COLOR_ProhibitedArea","layer":"Airfield surfaces","category":"prohibitedarea","object_type":"Area","style_id":"polygon.prohibitedarea","source_group":"COLOR_ProhibitedArea","vsmr_group_ids":[],"geometry_role":"filled_region"},"geometry":{"type":"Polygon","coordinates":[[[6.148583009242492,43.09643619325898],[6.14857019716895,43.09641561542716],[6.148712807338184,43.09634825955906],[6.148735012920237,43.09636447171241],[6.148583009242492,43.09643619325898]]]}},{"type":"Feature","id":"LFTH-c39d5b45c082a82d5d74","properties":{"airport":"LFTH","name":"COLOR_ProhibitedArea","layer":"Airfield surfaces","category":"prohibitedarea","object_type":"Area","style_id":"polygon.prohibitedarea","source_group":"COLOR_ProhibitedArea","vsmr_group_ids":[],"geometry_role":"filled_region"},"geometry":{"type":"Polygon","coordinates":[[[6.147298157785263,43.09547215630997],[6.147318395291514,43.09548591326311],[6.147192100306045,43.09558324261575],[6.147171165121119,43.09557152388211],[6.147298157785263,43.09547215630997]]]}},{"type":"Feature","id":"LFTH-e89ec9d69dd793b96d25","properties":{"airport":"LFTH","name":"COLOR_ProhibitedArea","layer":"Airfield surfaces","category":"prohibitedarea","object_type":"Area","style_id":"polygon.prohibitedarea","source_group":"COLOR_ProhibitedArea","vsmr_group_ids":[],"geometry_role":"filled_region"},"geometry":{"type":"Polygon","coordinates":[[[6.148227745600787,43.09475815467068],[6.148220516934401,43.09474069931547],[6.148350043719379,43.09471308810916],[6.148356716506043,43.09473054348065],[6.148227745600787,43.09475815467068]]]}},{"type":"Feature","id":"LFTH-f4bad36ed27d5e395bf2","properties":{"airport":"LFTH","name":"COLOR_ProhibitedArea","layer":"Airfield surfaces","category":"prohibitedarea","object_type":"Area","style_id":"polygon.prohibitedarea","source_group":"COLOR_ProhibitedArea","vsmr_group_ids":[],"geometry_role":"filled_region"},"geometry":{"type":"Polygon","coordinates":[[[6.154882594139501,43.09204494953948],[6.154854003100565,43.09202042443331],[6.155066223429815,43.09187531896944],[6.155094099262397,43.09189723472844],[6.154882594139501,43.09204494953948]]]}},{"type":"Feature","id":"LFTH-6529ea113efe4b2e025b","properties":{"airport":"LFTH","name":"COLOR_ProhibitedArea","layer":"Airfield surfaces","category":"prohibitedarea","object_type":"Area","style_id":"polygon.prohibitedarea","source_group":"COLOR_ProhibitedArea","vsmr_group_ids":[],"geometry_role":"filled_region"},"geometry":{"type":"Polygon","coordinates":[[[6.156563379955409,43.0908056738128],[6.156553799268705,43.09078003725694],[6.156924804286373,43.09072580167982],[6.156925608452346,43.09075202200135],[6.156563379955409,43.0908056738128]]]}},{"type":"Feature","id":"LFTH-7212fa3778d467e971ad","properties":{"airport":"LFTH","name":"COLOR_ProhibitedArea","layer":"Airfield surfaces","category":"prohibitedarea","object_type":"Area","style_id":"polygon.prohibitedarea","source_group":"COLOR_ProhibitedArea","vsmr_group_ids":[],"geometry_role":"filled_region"},"geometry":{"type":"Polygon","coordinates":[[[6.155519178042552,43.08928010726493],[6.15550274115682,43.08926810738252],[6.155645525586739,43.08916007481242],[6.155664795304441,43.08916917737076],[6.155519178042552,43.08928010726493]]]}},{"type":"Feature","id":"LFTH-79c833186048a154e7be","properties":{"airport":"LFTH","name":"COLOR_ProhibitedArea","layer":"Airfield surfaces","category":"prohibitedarea","object_type":"Area","style_id":"polygon.prohibitedarea","source_group":"COLOR_ProhibitedArea","vsmr_group_ids":[],"geometry_role":"filled_region"},"geometry":{"type":"Polygon","coordinates":[[[6.146616882029415,43.09661418009158],[6.146658015458437,43.09658482245006],[6.147073155033594,43.09689610129182],[6.147023607739825,43.09692955563333],[6.146616882029415,43.09661418009158]]]}},{"type":"Feature","id":"LFTH-cd6dbf88a22d02f34596","properties":{"airport":"LFTH","name":"COLOR_ProhibitedArea","layer":"Airfield surfaces","category":"prohibitedarea","object_type":"Area","style_id":"polygon.prohibitedarea","source_group":"COLOR_ProhibitedArea","vsmr_group_ids":[],"geometry_role":"filled_region"},"geometry":{"type":"Polygon","coordinates":[[[6.14497500403729,43.09781845284586],[6.145016656495173,43.09778838485459],[6.145424803452244,43.09809217995462],[6.145376304406445,43.09812921264005],[6.14497500403729,43.09781845284586]]]}},{"type":"Feature","id":"LFTH-5d6c3cfece9748215b46","properties":{"airport":"LFTH","name":"COLOR_RunwayBorder","layer":"Guidance lines","category":"Runway Border","object_type":"Line","style_id":"line.runwayborder.808080","source_group":"COLOR_RunwayBorder","vsmr_group_ids":[],"geometry_role":"linework"},"geometry":{"type":"LineString","coordinates":[[6.143086145913239,43.09588908338702],[6.143432455978584,43.09556746973033]]}},{"type":"Feature","id":"LFTH-02bc9060b45207dda4cf","properties":{"airport":"LFTH","name":"COLOR_RunwayBorder","layer":"Guidance lines","category":"Runway Border","object_type":"Line","style_id":"line.runwayborder.808080","source_group":"COLOR_RunwayBorder","vsmr_group_ids":[],"geometry_role":"linework"},"geometry":{"type":"LineString","coordinates":[[6.14272805857194,43.09541856929196],[6.142929792761853,43.09553938816143]]}},{"type":"Feature","id":"LFTH-fc80867cfbdc6f91c96d","properties":{"airport":"LFTH","name":"COLOR_RunwayBorder","layer":"Guidance lines","category":"Runway Border","object_type":"Line","style_id":"line.runwayborder.808080","source_group":"COLOR_RunwayBorder","vsmr_group_ids":[],"geometry_role":"linework"},"geometry":{"type":"LineString","coordinates":[[6.142903541492375,43.0955475997485],[6.143002905845661,43.09558526252334],[6.142941983824173,43.09552227558461]]}},{"type":"Feature","id":"LFTH-356839c1a4f1c91d0e47","properties":{"airport":"LFTH","name":"COLOR_RunwayBorder","layer":"Guidance lines","category":"Runway Border","object_type":"Line","style_id":"line.runwayborder.808080","source_group":"COLOR_RunwayBorder","vsmr_group_ids":[],"geometry_role":"linework"},"geometry":{"type":"LineString","coordinates":[[6.142150790192742,43.09508144668314],[6.14234609177233,43.09520068742327]]}},{"type":"Feature","id":"LFTH-9e16b269658a3f9e437e","properties":{"airport":"LFTH","name":"COLOR_RunwayBorder","layer":"Guidance lines","category":"Runway Border","object_type":"Line","style_id":"line.runwayborder.808080","source_group":"COLOR_RunwayBorder","vsmr_group_ids":[],"geometry_role":"linework"},"geometry":{"type":"LineString","coordinates":[[6.142323737976096,43.09521203852007],[6.142436456071014,43.0952525008624],[6.142369419193365,43.09518153062848]]}},{"type":"Feature","id":"LFTH-3fe3e59eff5d920e2722","properties":{"airport":"LFTH","name":"COLOR_RunwayBorder","layer":"Guidance lines","category":"Runway Border","object_type":"Line","style_id":"line.runwayborder.808080","source_group":"COLOR_RunwayBorder","vsmr_group_ids":[],"geometry_role":"linework"},"geometry":{"type":"LineString","coordinates":[[6.141577174698439,43.09474936066029],[6.141766563784971,43.09486135591557]]}},{"type":"Feature","id":"LFTH-450ce5a83d79515f2885","properties":{"airport":"LFTH","name":"COLOR_RunwayBorder","layer":"Guidance lines","category":"Runway Border","object_type":"Line","style_id":"line.runwayborder.808080","source_group":"COLOR_RunwayBorder","vsmr_group_ids":[],"geometry_role":"linework"},"geometry":{"type":"LineString","coordinates":[[6.141747518500682,43.09487525826265],[6.141853742213648,43.09491625467452],[6.141787613283755,43.09484818566071]]}},{"type":"Feature","id":"LFTH-b301dc7b69e51a6768de","properties":{"airport":"LFTH","name":"COLOR_RunwayBorder","layer":"Guidance lines","category":"Runway Border","object_type":"Line","style_id":"line.runwayborder.808080","source_group":"COLOR_RunwayBorder","vsmr_group_ids":[],"geometry_role":"linework"},"geometry":{"type":"LineString","coordinates":[[6.142191798448233,43.09986215430938],[6.142602198222238,43.10017039909648]]}},{"type":"Feature","id":"LFTH-97d9c1ab97ef0bc27e77","properties":{"airport":"LFTH","name":"COLOR_RunwayBorder","layer":"Guidance lines","category":"Runway Border","object_type":"Line","style_id":"line.runwayborder.808080","source_group":"COLOR_RunwayBorder","vsmr_group_ids":[],"geometry_role":"linework"},"geometry":{"type":"LineString","coordinates":[[6.141923921364838,43.10036122413222],[6.142106189725562,43.10022818597567]]}},{"type":"Feature","id":"LFTH-f3e4bdca7ca181398793","properties":{"airport":"LFTH","name":"COLOR_RunwayBorder","layer":"Guidance lines","category":"Runway Border","object_type":"Line","style_id":"line.runwayborder.808080","source_group":"COLOR_RunwayBorder","vsmr_group_ids":[],"geometry_role":"linework"},"geometry":{"type":"LineString","coordinates":[[6.142072114070924,43.1002238544304],[6.14218028176067,43.10017626894182],[6.142118036048965,43.10025523250044]]}},{"type":"Feature","id":"LFTH-a7fc2ad3b366c08a834d","properties":{"airport":"LFTH","name":"COLOR_RunwayBorder","layer":"Guidance lines","category":"Runway Border","object_type":"Line","style_id":"line.runwayborder.808080","source_group":"COLOR_RunwayBorder","vsmr_group_ids":[],"geometry_role":"linework"},"geometry":{"type":"LineString","coordinates":[[6.141403784869404,43.10074303175556],[6.141581609521967,43.10061432104461]]}},{"type":"Feature","id":"LFTH-0eddeb829b0834a11149","properties":{"airport":"LFTH","name":"COLOR_RunwayBorder","layer":"Guidance lines","category":"Runway Border","object_type":"Line","style_id":"line.runwayborder.808080","source_group":"COLOR_RunwayBorder","vsmr_group_ids":[],"geometry_role":"linework"},"geometry":{"type":"LineString","coordinates":[[6.141546053967406,43.10060241655207],[6.141674966231649,43.10055050705292],[6.141602345317468,43.10064136879655]]}},{"type":"Feature","id":"LFTH-85454547982fdf40ae5b","properties":{"airport":"LFTH","name":"COLOR_RunwayBorder","layer":"Guidance lines","category":"Runway Border","object_type":"Line","style_id":"line.runwayborder.808080","source_group":"COLOR_RunwayBorder","vsmr_group_ids":[],"geometry_role":"linework"},"geometry":{"type":"LineString","coordinates":[[6.140877711056111,43.1011410633408],[6.141054057463249,43.10100802599342]]}},{"type":"Feature","id":"LFTH-3bbd44907cd5d9806fb6","properties":{"airport":"LFTH","name":"COLOR_RunwayBorder","layer":"Guidance lines","category":"Runway Border","object_type":"Line","style_id":"line.runwayborder.808080","source_group":"COLOR_RunwayBorder","vsmr_group_ids":[],"geometry_role":"linework"},"geometry":{"type":"LineString","coordinates":[[6.14102442849447,43.10099504030288],[6.141116299283047,43.1009528625672],[6.141074795656372,43.1010253376388]]}},{"type":"Feature","id":"LFTH-c547ec72828fae5ac034","properties":{"airport":"LFTH","name":"COLOR_RunwayBorder","layer":"Guidance lines","category":"Runway Border","object_type":"Line","style_id":"line.runwayborder.808080","source_group":"COLOR_RunwayBorder","vsmr_group_ids":[],"geometry_role":"linework"},"geometry":{"type":"LineString","coordinates":[[6.140360526242256,43.10151204889678],[6.140523536805384,43.10139523724293]]}},{"type":"Feature","id":"LFTH-7b7783d5f8c204aace9b","properties":{"airport":"LFTH","name":"COLOR_RunwayBorder","layer":"Guidance lines","category":"Runway Border","object_type":"Line","style_id":"line.runwayborder.808080","source_group":"COLOR_RunwayBorder","vsmr_group_ids":[],"geometry_role":"linework"},"geometry":{"type":"LineString","coordinates":[[6.140493908263604,43.10138008785157],[6.14059911635932,43.10133250336916],[6.140553164249363,43.10141471383766]]}},{"type":"Feature","id":"LFTH-ff74a8bdf28b22c2b713","properties":{"airport":"LFTH","name":"COLOR_RunwayBorder","layer":"Guidance lines","category":"Runway Border","object_type":"Line","style_id":"line.runwayborder.808080","source_group":"COLOR_RunwayBorder","vsmr_group_ids":[],"geometry_role":"linework"},"geometry":{"type":"LineString","coordinates":[[6.155308401257187,43.09026336290475],[6.155727498150156,43.09056537380262]]}},{"type":"Feature","id":"LFTH-7f54a0a204bcbfd830df","properties":{"airport":"LFTH","name":"COLOR_RunwayBorder","layer":"Guidance lines","category":"Runway Border","object_type":"Line","style_id":"line.runwayborder.808080","source_group":"COLOR_RunwayBorder","vsmr_group_ids":[],"geometry_role":"linework"},"geometry":{"type":"LineString","coordinates":[[6.155998116907599,43.09005561313131],[6.155826034534588,43.09018634628892]]}},{"type":"Feature","id":"LFTH-bcff6f3a85c003f4d1dc","properties":{"airport":"LFTH","name":"COLOR_RunwayBorder","layer":"Guidance lines","category":"Runway Border","object_type":"Line","style_id":"line.runwayborder.808080","source_group":"COLOR_RunwayBorder","vsmr_group_ids":[],"geometry_role":"linework"},"geometry":{"type":"LineString","coordinates":[[6.155802442983155,43.09017317131637],[6.155737217487451,43.09025627322825],[6.15584546278142,43.09020458843003]]}},{"type":"Feature","id":"LFTH-88bf5c3bb8247f5ad77a","properties":{"airport":"LFTH","name":"COLOR_RunwayBorder","layer":"Guidance lines","category":"Runway Border","object_type":"Line","style_id":"line.runwayborder.808080","source_group":"COLOR_RunwayBorder","vsmr_group_ids":[],"geometry_role":"linework"},"geometry":{"type":"LineString","coordinates":[[6.148678234329868,43.08967268903518],[6.148660827556885,43.08961228230881],[6.148753255705898,43.0895990819763]]}},{"type":"Feature","id":"LFTH-b1c5680f232f05f9ac18","properties":{"airport":"LFTH","name":"COLOR_RunwayBorder","layer":"Guidance lines","category":"Runway Border","object_type":"Line","style_id":"line.runwayborder.808080","source_group":"COLOR_RunwayBorder","vsmr_group_ids":[],"geometry_role":"linework"},"geometry":{"type":"LineString","coordinates":[[6.148831618545795,43.08958808171364],[6.148919023283844,43.08957463635933]]}},{"type":"Feature","id":"LFTH-513a9615331cb699598d","properties":{"airport":"LFTH","name":"COLOR_RunwayBorder","layer":"Guidance lines","category":"Runway Border","object_type":"Line","style_id":"line.runwayborder.808080","source_group":"COLOR_RunwayBorder","vsmr_group_ids":[],"geometry_role":"linework"},"geometry":{"type":"LineString","coordinates":[[6.14900192588151,43.08956294298945],[6.149090297889062,43.08954960349612],[6.149109163150495,43.08961457796234]]}},{"type":"Feature","id":"LFTH-b1dd237d0e448e820b3b","properties":{"airport":"LFTH","name":"COLOR_RunwayBorder","layer":"Guidance lines","category":"Runway Border","object_type":"Line","style_id":"line.runwayborder.808080","source_group":"COLOR_RunwayBorder","vsmr_group_ids":[],"geometry_role":"linework"},"geometry":{"type":"LineString","coordinates":[[6.149122338883519,43.08966030071549],[6.149148690866175,43.08974737091987]]}},{"type":"Feature","id":"LFTH-80e509dd5085731743ae","properties":{"airport":"LFTH","name":"COLOR_RunwayBorder","layer":"Guidance lines","category":"Runway Border","object_type":"Line","style_id":"line.runwayborder.808080","source_group":"COLOR_RunwayBorder","vsmr_group_ids":[],"geometry_role":"linework"},"geometry":{"type":"LineString","coordinates":[[6.149163064464247,43.08979703151378],[6.149181630476635,43.08986047458529],[6.149094456343363,43.08987337671767]]}},{"type":"Feature","id":"LFTH-78d48240c6a3f6796106","properties":{"airport":"LFTH","name":"COLOR_RunwayBorder","layer":"Guidance lines","category":"Runway Border","object_type":"Line","style_id":"line.runwayborder.808080","source_group":"COLOR_RunwayBorder","vsmr_group_ids":[],"geometry_role":"linework"},"geometry":{"type":"LineString","coordinates":[[6.148920107856634,43.08989961829805],[6.149005784213104,43.0898869349977]]}},{"type":"Feature","id":"LFTH-1c0e63cf64a6ba2bed43","properties":{"airport":"LFTH","name":"COLOR_RunwayBorder","layer":"Guidance lines","category":"Runway Border","object_type":"Line","style_id":"line.runwayborder.808080","source_group":"COLOR_RunwayBorder","vsmr_group_ids":[],"geometry_role":"linework"},"geometry":{"type":"LineString","coordinates":[[6.148852105981804,43.08990967742302],[6.148754446792188,43.08992432878198],[6.148736779279236,43.08986613606351]]}},{"type":"Feature","id":"LFTH-7183d1f7a8e37724b261","properties":{"airport":"LFTH","name":"COLOR_RunwayBorder","layer":"Guidance lines","category":"Runway Border","object_type":"Line","style_id":"line.runwayborder.808080","source_group":"COLOR_RunwayBorder","vsmr_group_ids":[],"geometry_role":"linework"},"geometry":{"type":"LineString","coordinates":[[6.148716716229094,43.08980006764765],[6.148698150568985,43.08973793709491]]}},{"type":"Feature","id":"LFTH-39e81a4569335f4569c3","properties":{"airport":"LFTH","name":"COLOR_Taxiway","layer":"Guidance lines","category":"Taxiways","object_type":"Line","style_id":"line.taxiway.c0b631","source_group":"COLOR_Taxiway","vsmr_group_ids":[],"geometry_role":"linework"},"geometry":{"type":"LineString","coordinates":[[6.140071000645159,43.09403214087245],[6.140328382127547,43.094017171928],[6.140300704379773,43.09383521374743]]}},{"type":"Feature","id":"LFTH-176e5fd03d7353ae3b72","properties":{"airport":"LFTH","name":"COLOR_Taxiway","layer":"Guidance lines","category":"Taxiways","object_type":"Line","style_id":"line.taxiway.c0b631","source_group":"COLOR_Taxiway","vsmr_group_ids":[],"geometry_role":"linework"},"geometry":{"type":"LineString","coordinates":[[6.140376568389327,43.09419763281569],[6.140605238043239,43.09418416000592],[6.140591914730027,43.09401942480568]]}},{"type":"Feature","id":"LFTH-9f3c906d0f368ffc64cf","properties":{"airport":"LFTH","name":"COLOR_Taxiway","layer":"Guidance lines","category":"Taxiways","object_type":"Line","style_id":"line.taxiway.c0b631","source_group":"COLOR_Taxiway","vsmr_group_ids":[],"geometry_role":"linework"},"geometry":{"type":"LineString","coordinates":[[6.140653424886735,43.09437061110994],[6.140898502033172,43.09435339413886],[6.140880051059064,43.0941804220582]]}},{"type":"Feature","id":"LFTH-150aadf3a50ff87cb113","properties":{"airport":"LFTH","name":"COLOR_Taxiway","layer":"Guidance lines","category":"Taxiways","object_type":"Line","style_id":"line.taxiway.c0b631","source_group":"COLOR_Taxiway","vsmr_group_ids":[],"geometry_role":"linework"},"geometry":{"type":"LineString","coordinates":[[6.14095320113492,43.09453485242994],[6.141056231066027,43.09453384460653]]}},{"type":"Feature","id":"LFTH-6945dd0dcaee2fe94f97","properties":{"airport":"LFTH","name":"COLOR_Taxiway","layer":"Guidance lines","category":"Taxiways","object_type":"Line","style_id":"line.taxiway.c0b631","source_group":"COLOR_Taxiway","vsmr_group_ids":[],"geometry_role":"linework"},"geometry":{"type":"LineString","coordinates":[[6.141163416233688,43.09434399117759],[6.141172402583692,43.09442730555185]]}},{"type":"Feature","id":"LFTH-27964f64690a9eb114b6","properties":{"airport":"LFTH","name":"COLOR_Taxiway","layer":"Guidance lines","category":"Taxiways","object_type":"Line","style_id":"line.taxiway.c0b631","source_group":"COLOR_Taxiway","vsmr_group_ids":[],"geometry_role":"linework"},"geometry":{"type":"LineString","coordinates":[[6.157441776859542,43.0887954761405],[6.157443254495057,43.08900829842116],[6.157710390427651,43.08901139473686]]}},{"type":"Feature","id":"LFTH-1b43c4c81366f1a5eb98","properties":{"airport":"LFTH","name":"COLOR_Taxiway","layer":"Guidance lines","category":"Taxiways","object_type":"Line","style_id":"line.taxiway.c0b631","source_group":"COLOR_Taxiway","vsmr_group_ids":[],"geometry_role":"linework"},"geometry":{"type":"LineString","coordinates":[[6.157187543015146,43.08898746482139],[6.157189020672702,43.08920341646792],[6.157459012979114,43.0892012969076]]}},{"type":"Feature","id":"LFTH-56bff6ce603279c5375f","properties":{"airport":"LFTH","name":"COLOR_Taxiway","layer":"Guidance lines","category":"Taxiways","object_type":"Line","style_id":"line.taxiway.c0b631","source_group":"COLOR_Taxiway","vsmr_group_ids":[],"geometry_role":"linework"},"geometry":{"type":"LineString","coordinates":[[6.15692759110331,43.08916797751768],[6.156924784065307,43.08939227559119],[6.157217634133643,43.08939119709058]]}},{"type":"Feature","id":"LFTH-42f3611281adc5eccb45","properties":{"airport":"LFTH","name":"COLOR_Taxiway","layer":"Guidance lines","category":"Taxiways","object_type":"Line","style_id":"line.taxiway.c0b631","source_group":"COLOR_Taxiway","vsmr_group_ids":[],"geometry_role":"linework"},"geometry":{"type":"LineString","coordinates":[[6.156684779561177,43.08934744438725],[6.15667197315696,43.08957904661317],[6.156979110265926,43.08957901011934]]}},{"type":"Feature","id":"LFTH-1ea5fc4056380a8ebf89","properties":{"airport":"LFTH","name":"COLOR_Taxiway","layer":"Guidance lines","category":"Taxiways","object_type":"Line","style_id":"line.taxiway.c0b631","source_group":"COLOR_Taxiway","vsmr_group_ids":[],"geometry_role":"linework"},"geometry":{"type":"LineString","coordinates":[[6.156430541448534,43.08954569087796],[6.156421997615034,43.08967505470335]]}},{"type":"Feature","id":"LFTH-e1c494684eba67a6276d","properties":{"airport":"LFTH","name":"COLOR_Taxiway","layer":"Guidance lines","category":"Taxiways","object_type":"Line","style_id":"line.taxiway.c0b631","source_group":"COLOR_Taxiway","vsmr_group_ids":[],"geometry_role":"linework"},"geometry":{"type":"LineString","coordinates":[[6.15653915644735,43.08975745771718],[6.156719154958985,43.08976160948129]]}},{"type":"Feature","id":"LFTH-3a517dd9bb88d4a99f85","properties":{"airport":"LFTH","name":"COLOR_Taxiway","layer":"Guidance lines","category":"Taxiways","object_type":"Line","style_id":"line.taxiway.c0b631","source_group":"COLOR_Taxiway","vsmr_group_ids":[],"geometry_role":"linework"},"geometry":{"type":"LineString","coordinates":[[6.157712084053191,43.09403039583986],[6.157253475749657,43.09422201723791],[6.156824670481525,43.09427599013044]]}},{"type":"Feature","id":"LFTH-8e37c7e67a48df6dd3c0","properties":{"airport":"LFTH","name":"COLOR_Taxiway","layer":"Guidance lines","category":"Taxiways","object_type":"Line","style_id":"line.taxiway.c0b631","source_group":"COLOR_Taxiway","vsmr_group_ids":[],"geometry_role":"linework"},"geometry":{"type":"LineString","coordinates":[[6.15662292724333,43.09354129264411],[6.157865757302936,43.09374808091653]]}},{"type":"Feature","id":"LFTH-eb9cf441878ce5fce8de","properties":{"airport":"LFTH","name":"COLOR_Taxiway","layer":"Guidance lines","category":"Taxiways","object_type":"Line","style_id":"line.taxiway.c0b631","source_group":"COLOR_Taxiway","vsmr_group_ids":[],"geometry_role":"linework"},"geometry":{"type":"LineString","coordinates":[[6.156581035103413,43.09339086922142],[6.157899611343787,43.09326248805097]]}},{"type":"Feature","id":"LFTH-5d6b32130d92d53c3ec1","properties":{"airport":"LFTH","name":"COLOR_Taxiway","layer":"Guidance lines","category":"Taxiways","object_type":"Line","style_id":"line.taxiway.c0b631","source_group":"COLOR_Taxiway","vsmr_group_ids":[],"geometry_role":"linework"},"geometry":{"type":"LineString","coordinates":[[6.156501811425974,43.0930475342652],[6.156792569336902,43.09299753120798],[6.15729229186452,43.09264495602172],[6.157326488242589,43.09260331692582],[6.157335981534202,43.09257139610945],[6.157335969496631,43.09252837431233],[6.157332157742498,43.09248951647974],[6.157284580865601,43.0922535974703]]}},{"type":"Feature","id":"LFTH-be694c362bae47c485f0","properties":{"airport":"LFTH","name":"COLOR_Taxiway","layer":"Guidance lines","category":"Taxiways","object_type":"Line","style_id":"line.taxiway.c0b631","source_group":"COLOR_Taxiway","vsmr_group_ids":[],"geometry_role":"linework"},"geometry":{"type":"LineString","coordinates":[[6.156792110310425,43.09299848796339],[6.157784386670404,43.09288662667784]]}},{"type":"Feature","id":"LFTH-1e48f87da52b4c9f36be","properties":{"airport":"LFTH","name":"Aire transbordement Cargo","layer":"Labels","category":"Gates","object_type":"Label","style_id":"label.gates","source_group":"LFTH Gates","vsmr_group_ids":[],"geometry_role":"text_label","text-field":"Aire transbordement Cargo"},"geometry":{"type":"Point","coordinates":[6.152655,43.09829]}},{"type":"Feature","id":"LFTH-bdb152e5ac116280e709","properties":{"airport":"LFTH","name":"P-Civ","layer":"Labels","category":"Gates","object_type":"Label","style_id":"label.gates","source_group":"LFTH Gates","vsmr_group_ids":[],"geometry_role":"text_label","text-field":"P-Civ"},"geometry":{"type":"Point","coordinates":[6.157342222,43.094935]}},{"type":"Feature","id":"LFTH-2373d2a0c4ae3a98cfa7","properties":{"airport":"LFTH","name":"Terminal","layer":"Labels","category":"Gates","object_type":"Label","style_id":"label.gates","source_group":"LFTH Gates","vsmr_group_ids":[],"geometry_role":"text_label","text-field":"Terminal"},"geometry":{"type":"Point","coordinates":[6.159438889,43.093465556]}},{"type":"Feature","id":"LFTH-1d4c1c211c7364818b16","properties":{"airport":"LFTH","name":"TWR","layer":"Labels","category":"Gates","object_type":"Label","style_id":"label.gates","source_group":"LFTH Gates","vsmr_group_ids":[],"geometry_role":"text_label","text-field":"TWR"},"geometry":{"type":"Point","coordinates":[6.146674167,43.093789167]}},{"type":"Feature","id":"LFTH-660fda970a45a8c6e51a","properties":{"airport":"LFTH","name":"P-Douanes-Gendarmerie","layer":"Labels","category":"Gates","object_type":"Label","style_id":"label.gates","source_group":"LFTH Gates","vsmr_group_ids":[],"geometry_role":"text_label","text-field":"P-Douanes-Gendarmerie"},"geometry":{"type":"Point","coordinates":[6.151442778,43.088423056]}},{"type":"Feature","id":"LFTH-0a2a864cdf3ae90625b4","properties":{"airport":"LFTH","name":"P-Mil","layer":"Labels","category":"Gates","object_type":"Label","style_id":"label.gates","source_group":"LFTH Gates","vsmr_group_ids":[],"geometry_role":"text_label","text-field":"P-Mil"},"geometry":{"type":"Point","coordinates":[6.145893056,43.090809444]}},{"type":"Feature","id":"LFTH-cb77d8b0a506fcf9efd9","properties":{"airport":"LFTH","name":"VIP","layer":"Labels","category":"Gates","object_type":"Label","style_id":"label.gates","source_group":"LFTH Gates","vsmr_group_ids":[],"geometry_role":"text_label","text-field":"VIP"},"geometry":{"type":"Point","coordinates":[6.148483056,43.093505833]}},{"type":"Feature","id":"LFTH-d0cb78071c0af6c6d2d8","properties":{"airport":"LFTH","name":"HS","layer":"Labels","category":"Gates","object_type":"Label","style_id":"label.gates","source_group":"LFTH Gates","vsmr_group_ids":[],"geometry_role":"text_label","text-field":"HS"},"geometry":{"type":"Point","coordinates":[6.148914444,43.089717222]}},{"type":"Feature","id":"LFTH-61deee054ee321ced03b","properties":{"airport":"LFTH","name":"HN","layer":"Labels","category":"Gates","object_type":"Label","style_id":"label.gates","source_group":"LFTH Gates","vsmr_group_ids":[],"geometry_role":"text_label","text-field":"HN"},"geometry":{"type":"Point","coordinates":[6.145009167,43.094328333]}},{"type":"Feature","id":"LFTH-145dde2e94f9a9fcc4eb","properties":{"airport":"LFTH","name":"X","layer":"Labels","category":"Gates","object_type":"Label","style_id":"label.gates","source_group":"LFTH Gates","vsmr_group_ids":[],"geometry_role":"text_label","text-field":"X"},"geometry":{"type":"Point","coordinates":[6.139847222,43.101157222]}},{"type":"Feature","id":"LFTH-fdef3106aeecc2c9a774","properties":{"airport":"LFTH","name":"X","layer":"Labels","category":"Gates","object_type":"Label","style_id":"label.gates","source_group":"LFTH Gates","vsmr_group_ids":[],"geometry_role":"text_label","text-field":"X"},"geometry":{"type":"Point","coordinates":[6.140206944,43.100011389]}},{"type":"Feature","id":"LFTH-b05ef0a90ffcd8302eea","properties":{"airport":"LFTH","name":"X","layer":"Labels","category":"Gates","object_type":"Label","style_id":"label.gates","source_group":"LFTH Gates","vsmr_group_ids":[],"geometry_role":"text_label","text-field":"X"},"geometry":{"type":"Point","coordinates":[6.14162,43.098292222]}},{"type":"Feature","id":"LFTH-e1ad188107e1482e8fcd","properties":{"airport":"LFTH","name":"X","layer":"Labels","category":"Gates","object_type":"Label","style_id":"label.gates","source_group":"LFTH Gates","vsmr_group_ids":[],"geometry_role":"text_label","text-field":"X"},"geometry":{"type":"Point","coordinates":[6.143110278,43.096472222]}},{"type":"Feature","id":"LFTH-f1d5383159ecf2ae90f6","properties":{"airport":"LFTH","name":"X","layer":"Labels","category":"Gates","object_type":"Label","style_id":"label.gates","source_group":"LFTH Gates","vsmr_group_ids":[],"geometry_role":"text_label","text-field":"X"},"geometry":{"type":"Point","coordinates":[6.144017222,43.095393611]}},{"type":"Feature","id":"LFTH-19c1368ae60e442122fb","properties":{"airport":"LFTH","name":"X","layer":"Labels","category":"Gates","object_type":"Label","style_id":"label.gates","source_group":"LFTH Gates","vsmr_group_ids":[],"geometry_role":"text_label","text-field":"X"},"geometry":{"type":"Point","coordinates":[6.144527222,43.094767778]}},{"type":"Feature","id":"LFTH-9e9ba4c2dc0983bf9696","properties":{"airport":"LFTH","name":"Escale Militaire","layer":"Labels","category":"Gates","object_type":"Label","style_id":"label.gates","source_group":"LFTH Gates","vsmr_group_ids":[],"geometry_role":"text_label","text-field":"Escale Militaire"},"geometry":{"type":"Point","coordinates":[6.142016389,43.093261667]}},{"type":"Feature","id":"LFTH-5c600979300d438016a3","properties":{"airport":"LFTH","name":"H1","layer":"Labels","category":"Gates","object_type":"Label","style_id":"label.gates","source_group":"LFTH Gates","vsmr_group_ids":[],"geometry_role":"text_label","text-field":"H1"},"geometry":{"type":"Point","coordinates":[6.141792222,43.092696944]}},{"type":"Feature","id":"LFTH-4ffdba8a869f14ab3eda","properties":{"airport":"LFTH","name":"H2","layer":"Labels","category":"Gates","object_type":"Label","style_id":"label.gates","source_group":"LFTH Gates","vsmr_group_ids":[],"geometry_role":"text_label","text-field":"H2"},"geometry":{"type":"Point","coordinates":[6.142598056,43.092093056]}},{"type":"Feature","id":"LFTH-8215185adf237a2e8d1d","properties":{"airport":"LFTH","name":"H3","layer":"Labels","category":"Gates","object_type":"Label","style_id":"label.gates","source_group":"LFTH Gates","vsmr_group_ids":[],"geometry_role":"text_label","text-field":"H3"},"geometry":{"type":"Point","coordinates":[6.143633889,43.091370278]}},{"type":"Feature","id":"LFTH-f351940830d604fb1b77","properties":{"airport":"LFTH","name":"H4","layer":"Labels","category":"Gates","object_type":"Label","style_id":"label.gates","source_group":"LFTH Gates","vsmr_group_ids":[],"geometry_role":"text_label","text-field":"H4"},"geometry":{"type":"Point","coordinates":[6.144308056,43.090550556]}},{"type":"Feature","id":"LFTH-acb5d436086233a10b59","properties":{"airport":"LFTH","name":"H5","layer":"Labels","category":"Gates","object_type":"Label","style_id":"label.gates","source_group":"LFTH Gates","vsmr_group_ids":[],"geometry_role":"text_label","text-field":"H5"},"geometry":{"type":"Point","coordinates":[6.144900278,43.089838611]}},{"type":"Feature","id":"LFTH-54cba2c990468e032d8b","properties":{"airport":"LFTH","name":"H6","layer":"Labels","category":"Gates","object_type":"Label","style_id":"label.gates","source_group":"LFTH Gates","vsmr_group_ids":[],"geometry_role":"text_label","text-field":"H6"},"geometry":{"type":"Point","coordinates":[6.145294722,43.089331667]}},{"type":"Feature","id":"LFTH-407c8464171f99fd75a4","properties":{"airport":"LFTH","name":"H7","layer":"Labels","category":"Gates","object_type":"Label","style_id":"label.gates","source_group":"LFTH Gates","vsmr_group_ids":[],"geometry_role":"text_label","text-field":"H7"},"geometry":{"type":"Point","coordinates":[6.146133611,43.088630556]}},{"type":"Feature","id":"LFTH-b3a673d72993ec6e7a6f","properties":{"airport":"LFTH","name":"A1","layer":"Labels","category":"Gates","object_type":"Label","style_id":"label.gates","source_group":"LFTH Gates","vsmr_group_ids":[],"geometry_role":"text_label","text-field":"A1"},"geometry":{"type":"Point","coordinates":[6.156584444,43.093099444]}},{"type":"Feature","id":"LFTH-8887835b3d3f68013485","properties":{"airport":"LFTH","name":"A2","layer":"Labels","category":"Gates","object_type":"Label","style_id":"label.gates","source_group":"LFTH Gates","vsmr_group_ids":[],"geometry_role":"text_label","text-field":"A2"},"geometry":{"type":"Point","coordinates":[6.156643333,43.093298056]}},{"type":"Feature","id":"LFTH-067cb896b3361a635c84","properties":{"airport":"LFTH","name":"A3","layer":"Labels","category":"Gates","object_type":"Label","style_id":"label.gates","source_group":"LFTH Gates","vsmr_group_ids":[],"geometry_role":"text_label","text-field":"A3"},"geometry":{"type":"Point","coordinates":[6.156761111,43.093651667]}},{"type":"Feature","id":"LFTH-d22ab09febb97922e3db","properties":{"airport":"LFTH","name":"A4","layer":"Labels","category":"Gates","object_type":"Label","style_id":"label.gates","source_group":"LFTH Gates","vsmr_group_ids":[],"geometry_role":"text_label","text-field":"A4"},"geometry":{"type":"Point","coordinates":[6.156946389,43.0943475]}},{"type":"Feature","id":"LFTH-576a3bf8504bde3a71b0","properties":{"airport":"LFTH","name":"A2","layer":"Labels","category":"Taxiways","object_type":"Label","style_id":"label.taxiways","source_group":"LFTH Taxiways","vsmr_group_ids":[],"geometry_role":"text_label","text-field":"A2"},"geometry":{"type":"Point","coordinates":[6.141553056,43.094036389]}},{"type":"Feature","id":"LFTH-37be3082321a6dfc96cd","properties":{"airport":"LFTH","name":"B2","layer":"Labels","category":"Taxiways","object_type":"Label","style_id":"label.taxiways","source_group":"LFTH Taxiways","vsmr_group_ids":[],"geometry_role":"text_label","text-field":"B2"},"geometry":{"type":"Point","coordinates":[6.1431975,43.094845278]}},{"type":"Feature","id":"LFTH-c3a79ac6b49ec962a813","properties":{"airport":"LFTH","name":"C3","layer":"Labels","category":"Taxiways","object_type":"Label","style_id":"label.taxiways","source_group":"LFTH Taxiways","vsmr_group_ids":[],"geometry_role":"text_label","text-field":"C3"},"geometry":{"type":"Point","coordinates":[6.154317778,43.1013575]}},{"type":"Feature","id":"LFTH-8414ef9daaa6a87e66fc","properties":{"airport":"LFTH","name":"D3","layer":"Labels","category":"Taxiways","object_type":"Label","style_id":"label.taxiways","source_group":"LFTH Taxiways","vsmr_group_ids":[],"geometry_role":"text_label","text-field":"D3"},"geometry":{"type":"Point","coordinates":[6.159538611,43.104269722]}},{"type":"Feature","id":"LFTH-c69253b923c811550b1d","properties":{"airport":"LFTH","name":"T3","layer":"Labels","category":"Taxiways","object_type":"Label","style_id":"label.taxiways","source_group":"LFTH Taxiways","vsmr_group_ids":[],"geometry_role":"text_label","text-field":"T3"},"geometry":{"type":"Point","coordinates":[6.158243611,43.102301111]}},{"type":"Feature","id":"LFTH-bea55ff059457f79659e","properties":{"airport":"LFTH","name":"T3","layer":"Labels","category":"Taxiways","object_type":"Label","style_id":"label.taxiways","source_group":"LFTH Taxiways","vsmr_group_ids":[],"geometry_role":"text_label","text-field":"T3"},"geometry":{"type":"Point","coordinates":[6.150494444,43.097878889]}},{"type":"Feature","id":"LFTH-ad1c80b23a0b4f76a995","properties":{"airport":"LFTH","name":"T1","layer":"Labels","category":"Taxiways","object_type":"Label","style_id":"label.taxiways","source_group":"LFTH Taxiways","vsmr_group_ids":[],"geometry_role":"text_label","text-field":"T1"},"geometry":{"type":"Point","coordinates":[6.152362222,43.089597222]}},{"type":"Feature","id":"LFTH-f582c56b1dcf8d5615bf","properties":{"airport":"LFTH","name":"E3","layer":"Labels","category":"Taxiways","object_type":"Label","style_id":"label.taxiways","source_group":"LFTH Taxiways","vsmr_group_ids":[],"geometry_role":"text_label","text-field":"E3"},"geometry":{"type":"Point","coordinates":[6.162050278,43.105190833]}},{"type":"Feature","id":"LFTH-f2c7cbc31cb4b68addc7","properties":{"airport":"LFTH","name":"T10","layer":"Labels","category":"Taxiways","object_type":"Label","style_id":"label.taxiways","source_group":"LFTH Taxiways","vsmr_group_ids":[],"geometry_role":"text_label","text-field":"T10"},"geometry":{"type":"Point","coordinates":[6.154570556,43.092494722]}},{"type":"Feature","id":"LFTH-d77208384d1b7f90061e","properties":{"airport":"LFTH","name":"T8","layer":"Labels","category":"Taxiways","object_type":"Label","style_id":"label.taxiways","source_group":"LFTH Taxiways","vsmr_group_ids":[],"geometry_role":"text_label","text-field":"T8"},"geometry":{"type":"Point","coordinates":[6.157328333,43.090717778]}},{"type":"Feature","id":"LFTH-2cc555fab35afd7b9c0b","properties":{"airport":"LFTH","name":"T2","layer":"Labels","category":"Taxiways","object_type":"Label","style_id":"label.taxiways","source_group":"LFTH Taxiways","vsmr_group_ids":[],"geometry_role":"text_label","text-field":"T2"},"geometry":{"type":"Point","coordinates":[6.146218056,43.095391944]}},{"type":"Feature","id":"LFTH-14052179852da70972ef","properties":{"airport":"LFTH","name":"T2","layer":"Labels","category":"Taxiways","object_type":"Label","style_id":"label.taxiways","source_group":"LFTH Taxiways","vsmr_group_ids":[],"geometry_role":"text_label","text-field":"T2"},"geometry":{"type":"Point","coordinates":[6.143918611,43.094185556]}},{"type":"Feature","id":"LFTH-a4a7d2d7fa15fbde1c02","properties":{"airport":"LFTH","name":"T4","layer":"Labels","category":"Taxiways","object_type":"Label","style_id":"label.taxiways","source_group":"LFTH Taxiways","vsmr_group_ids":[],"geometry_role":"text_label","text-field":"T4"},"geometry":{"type":"Point","coordinates":[6.147318889,43.09206]}},{"type":"Feature","id":"LFTH-11a9f9a8cde43fd50720","properties":{"airport":"LFTH","name":"T4","layer":"Labels","category":"Taxiways","object_type":"Label","style_id":"label.taxiways","source_group":"LFTH Taxiways","vsmr_group_ids":[],"geometry_role":"text_label","text-field":"T4"},"geometry":{"type":"Point","coordinates":[6.148500833,43.094368889]}},{"type":"Feature","id":"LFTH-26dc5c8439da6e9ffd20","properties":{"airport":"LFTH","name":"T6","layer":"Labels","category":"Taxiways","object_type":"Label","style_id":"label.taxiways","source_group":"LFTH Taxiways","vsmr_group_ids":[],"geometry_role":"text_label","text-field":"T6"},"geometry":{"type":"Point","coordinates":[6.1455975,43.093172222]}}]}
