{"type":"FeatureCollection","name":"LFTZ AVISO","bbox":[6.474269443199638,43.20248527251102,6.489107466808997,43.20907420190863],"metadata":{"schema":"vSMR AVISO","schema_version":2,"geometry_mode":"shared","airport":"LFTZ","coordinate_reference_system":"WGS84","coordinate_order":"longitude, latitude","default_color_palette":"dark","color_palettes":["dark","light"],"background_colors":{"dark":"#434A4F","light":"#434A4F"},"runways":[{"ends":["06","24"],"headings":[60,240],"thresholds":[[6.477557778,43.203738889],[6.487675,43.207675]]}],"saved_active_runways":[],"saved_active_airport_modes":[],"airport_reference":[6.481943889,43.205277778],"feature_count":24,"style_count":11,"layer_counts":{"Airfield surfaces":6,"Buildings and structures":2,"Guidance lines":6,"Labels":7,"Surface markings":2,"Terrain":1},"category_counts":{"Buildings":2,"Gates":3,"Grass":1,"Grass runways":2,"Hard Surface 3":1,"Hard Surface 4":2,"Runway Border":5,"Runways":1,"Stopbars":2,"Taxiways":5},"geometry_source":"local GNG/KMZ","geometry_source_url":"","geometry_license":"GPL-3.0"},"styles":{"polygon.grassurface.00512f":{"name":"Grass","layer":"Terrain","object_type":"Area","paint":{"fill":"#010D19","fill-opacity":1,"palette-overrides":{"light":{"fill":"#00512F"}}},"feature_count":1},"polygon.hardsurface4.969393":{"name":"Hard Surface 4","layer":"Airfield surfaces","object_type":"Area","paint":{"fill":"#152841","fill-opacity":1,"palette-overrides":{"light":{"fill":"#969393"}}},"feature_count":2},"polygon.runwaygrass.008000":{"name":"Grass runways","layer":"Airfield surfaces","object_type":"Area","paint":{"fill":"#859A77","fill-opacity":1,"palette-overrides":{"light":{"fill":"#008000"}}},"feature_count":2},"polygon.hardsurface3.8a807f":{"name":"Hard Surface 3","layer":"Airfield surfaces","object_type":"Area","paint":{"fill":"#222D3C","fill-opacity":1,"palette-overrides":{"light":{"fill":"#8A807F"}}},"feature_count":1},"polygon.runwayconcrete.555555":{"name":"Runways","layer":"Airfield surfaces","object_type":"Area","paint":{"fill":"#111318","fill-opacity":1,"palette-overrides":{"light":{"fill":"#555555"}}},"feature_count":1},"polygon.building.394446":{"name":"Buildings","layer":"Buildings and structures","object_type":"Area","paint":{"fill":"#475570","fill-opacity":1,"palette-overrides":{"light":{"fill":"#394446"}}},"feature_count":2},"polygon.stopbar.7e0000":{"name":"Stopbars","layer":"Surface markings","object_type":"Area","paint":{"fill":"#7E0000","fill-opacity":1,"palette-overrides":{"light":{"fill":"#7E0000"}}},"feature_count":2},"line.runwayborder.808080":{"name":"Runway Border","layer":"Guidance lines","object_type":"Line","paint":{"stroke":"#808080","stroke-opacity":1,"stroke-width":1,"palette-overrides":{"light":{"stroke":"#808080"}}},"feature_count":5},"line.taxiway.c0b631":{"name":"Taxiways","layer":"Guidance lines","object_type":"Line","paint":{"stroke":"#4E5A69","stroke-opacity":1,"stroke-width":1,"palette-overrides":{"light":{"stroke":"#C0B631"}}},"feature_count":1},"label.gates":{"name":"Gates","layer":"Labels","object_type":"Label","paint":{"text-color":"#CCCCCC","text-font":"Arial","text-size":12,"text-halo-color":"#000000","text-halo-width":1,"text-anchor":"center","zoomLevel":9},"feature_count":3},"label.taxiways":{"name":"Taxiways","layer":"Labels","object_type":"Label","paint":{"text-color":"#CCCCCC","text-font":"Arial","text-size":12,"text-halo-color":"#000000","text-halo-width":1,"text-anchor":"center","zoomLevel":7},"feature_count":4}},"vsmr_groups":[],"features":[{"type":"Feature","id":"LFTZ-5f855fc7e1321aa51561","properties":{"airport":"LFTZ","name":"COLOR_GrasSurface","layer":"Terrain","category":"Grass","object_type":"Area","style_id":"polygon.grassurface.00512f","source_group":"COLOR_GrasSurface","vsmr_group_ids":[],"geometry_role":"filled_region"},"geometry":{"type":"Polygon","coordinates":[[[6.474375702393242,43.20439709846695],[6.474291001205438,43.20435311731877],[6.474269443199638,43.20429103303567],[6.47428930629153,43.20416942538138],[6.474385856154655,43.20391037702615],[6.474424276030715,43.20376367520699],[6.474434870872178,43.20364202720835],[6.474429598492886,43.20349691027419],[6.474401778771639,43.20336105956995],[6.474341965886055,43.2032110328223],[6.474272317941143,43.20308670711451],[6.474912832854951,43.2027929105962],[6.475383424039631,43.20263096542202],[6.475745873622198,43.20254339867881],[6.476225753849674,43.20248527251102],[6.477056830687003,43.20252281268196],[6.478140579036724,43.20276526564322],[6.479009676553218,43.2032343978675],[6.481020572150616,43.20444518320422],[6.48119951978039,43.2045160178976],[6.48697428904075,43.20653516595342],[6.487193100780018,43.20685534328832],[6.487458388778067,43.20700454878894],[6.487804352704753,43.20723308033561],[6.488929718524805,43.20796669794127],[6.489013633605889,43.20806659200701],[6.489107466808997,43.20829793475276],[6.489087153768446,43.20845315289996],[6.489003646527244,43.20865589882189],[6.48879676851934,43.20896082196271],[6.488656185740062,43.20907420190863],[6.488202635100818,43.20879110467433],[6.487821482428354,43.20861013198169],[6.48739995296334,43.20841430771672],[6.487115529645362,43.20825583914138],[6.486704854286462,43.20800663387747],[6.486292429042606,43.20776052700771],[6.485868503390444,43.20752303557433],[6.485273315037801,43.20723913150737],[6.483047063046325,43.20639250083827],[6.480125253207072,43.20528023162495],[6.479813083777546,43.20523942225137],[6.479678964010094,43.20526443108071],[6.479589138211055,43.20533378444487],[6.476598542749223,43.2042075019781],[6.476302837005951,43.20420045320171],[6.475040980451285,43.20431223484015],[6.474375702393242,43.20439709846695]]]}},{"type":"Feature","id":"LFTZ-69af928057a8f9462fd6","properties":{"airport":"LFTZ","name":"COLOR_HardSurface4","layer":"Airfield surfaces","category":"Hard Surface 4","object_type":"Area","style_id":"polygon.hardsurface4.969393","source_group":"COLOR_HardSurface4","vsmr_group_ids":[],"geometry_role":"filled_region"},"geometry":{"type":"Polygon","coordinates":[[[6.487730918364305,43.20754429160985],[6.488824318922999,43.20797143073977],[6.488917368833416,43.20801512975333],[6.488979405916226,43.20807540838926],[6.489035243610974,43.20816432167557],[6.48904766040231,43.20825323782741],[6.489029061011562,43.20833311367056],[6.488981629257538,43.20839170149661],[6.488918414869794,43.20843918094491],[6.488826462623876,43.2084754914973],[6.488705770244465,43.2084810843639],[6.488613812035037,43.20846712663711],[6.488542926287186,43.20844478954778],[6.488683486112386,43.20825221314048],[6.488685856672294,43.2082271290706],[6.48866449309033,43.20820377636955],[6.487554765455465,43.20777499851352],[6.487730918364305,43.20754429160985]]]}},{"type":"Feature","id":"LFTZ-8ba23cfd5f3381923ca3","properties":{"airport":"LFTZ","name":"COLOR_HardSurface4","layer":"Airfield surfaces","category":"Hard Surface 4","object_type":"Area","style_id":"polygon.hardsurface4.969393","source_group":"COLOR_HardSurface4","vsmr_group_ids":[],"geometry_role":"filled_region"},"geometry":{"type":"Polygon","coordinates":[[[6.475931224722126,43.20398569104972],[6.475875853270763,43.2040529853411],[6.475403493658218,43.20389849949447],[6.475232301908063,43.20387646939842],[6.474868222770425,43.20371160701784],[6.47461827960486,43.2036063373649],[6.474609702669318,43.20341627570794],[6.474631251788208,43.20341470753931],[6.474642787843159,43.20323906582291],[6.4746541213648,43.20317306218652],[6.474665446198791,43.20314595434026],[6.474704261087254,43.20311177779129],[6.475931224722126,43.20398569104972]]]}},{"type":"Feature","id":"LFTZ-49f5537f730db9199a46","properties":{"airport":"LFTZ","name":"COLOR_RunwayGrass","layer":"Airfield surfaces","category":"Grass runways","object_type":"Area","style_id":"polygon.runwaygrass.008000","source_group":"COLOR_RunwayGrass","vsmr_group_ids":[],"geometry_role":"filled_region"},"geometry":{"type":"Polygon","coordinates":[[[6.477548505524227,43.20414932329358],[6.479928374782748,43.20507585431981],[6.479892049450586,43.20510656235565],[6.479839744816063,43.20512244336634],[6.479758676304678,43.20512185687078],[6.479629294259142,43.20513666669688],[6.479488820602595,43.20516360062749],[6.479418583284913,43.20517976199516],[6.479390859537415,43.2051757181733],[6.477610104873229,43.20449801764374],[6.477556827203133,43.20446564683973],[6.477519830754548,43.20443219866848],[6.477388114450204,43.20436421791628],[6.477548505524227,43.20414932329358]]]}},{"type":"Feature","id":"LFTZ-f6e9e2a4e711cfbc0cd4","properties":{"airport":"LFTZ","name":"COLOR_RunwayGrass","layer":"Airfield surfaces","category":"Grass runways","object_type":"Area","style_id":"polygon.runwaygrass.008000","source_group":"COLOR_RunwayGrass","vsmr_group_ids":[],"geometry_role":"filled_region"},"geometry":{"type":"Polygon","coordinates":[[[6.47711747041696,43.20302447284436],[6.477226505010694,43.20284964754225],[6.477565574884312,43.20290788018861],[6.477869784892675,43.20299052429928],[6.478206795564425,43.20312100065441],[6.478917975338156,43.20341535446831],[6.479689265747737,43.20378631275696],[6.479909634719947,43.20390208715462],[6.479931341456275,43.20392285316862],[6.479931337367626,43.20395270907251],[6.479851108425356,43.20407959088591],[6.47711747041696,43.20302447284436]]]}},{"type":"Feature","id":"LFTZ-df698d510431f2087065","properties":{"airport":"LFTZ","name":"COLOR_HardSurface3","layer":"Airfield surfaces","category":"Hard Surface 3","object_type":"Area","style_id":"polygon.hardsurface3.8a807f","source_group":"COLOR_HardSurface3","vsmr_group_ids":[],"geometry_role":"filled_region"},"geometry":{"type":"Polygon","coordinates":[[[6.474784129397539,43.2030547058452],[6.477608716798413,43.20415513421753],[6.477453947426614,43.20435505274106],[6.477423418308941,43.20437632039665],[6.477387864624404,43.20438718784646],[6.477345429810422,43.20438718742264],[6.47730299516904,43.20437882713546],[6.477226154322315,43.20435207480708],[6.476723104357951,43.2041525560958],[6.47667404234316,43.20413696649452],[6.476624980043038,43.20413146375565],[6.476273994358421,43.20413145745623],[6.476238770028009,43.20412870579946],[6.476190965729629,43.20412045193726],[6.475656279510709,43.20393137981043],[6.47564829019384,43.20394535505833],[6.475287209955791,43.20380209706691],[6.475242470412521,43.20385799764391],[6.474798383098619,43.203666432061],[6.474787635126747,43.20321761645888],[6.47469655438158,43.20322026903696],[6.474688759820824,43.20312117841605],[6.474784129397539,43.2030547058452]]]}},{"type":"Feature","id":"LFTZ-f65daecba9fe20a8af0f","properties":{"airport":"LFTZ","name":"COLOR_RunwayConcrete","layer":"Airfield surfaces","category":"Runways","object_type":"Area","style_id":"polygon.runwayconcrete.555555","source_group":"COLOR_RunwayConcrete","vsmr_group_ids":[],"geometry_role":"filled_region"},"geometry":{"type":"Polygon","coordinates":[[[6.474776896103016,43.20305800384673],[6.475072810263431,43.20289453267276],[6.475205268958564,43.20283145267857],[6.47528827605594,43.20280184383094],[6.475355388012871,43.20278510850824],[6.475440160680817,43.20278510908282],[6.47551610277449,43.20279283375809],[6.475581448196504,43.20281085728955],[6.487743974808251,43.20754757685541],[6.487570358159473,43.20778266674127],[6.477857863368808,43.20400086037671],[6.477793827513169,43.20401382723131],[6.477738685682208,43.20403262859669],[6.47769243788048,43.2040579127852],[6.477648858488065,43.20409616286857],[6.477604581557623,43.20416149279865],[6.477433652471238,43.20409379731888],[6.47747547184686,43.20403914414878],[6.47749876503358,43.20400108643321],[6.477498763886977,43.20395014800405],[6.477478927535256,43.20389010699324],[6.477473345541489,43.2038511944838],[6.475404629821842,43.20303773007489],[6.475383334365223,43.20303647544885],[6.475362885674802,43.20304858609892],[6.47530792927639,43.20311659246068],[6.475286201708665,43.20318180427206],[6.475274698308273,43.20325353737679],[6.474776896103016,43.20305800384673]]]}},{"type":"Feature","id":"LFTZ-98f7ed00209c47ab5de8","properties":{"airport":"LFTZ","name":"COLOR_Building","layer":"Buildings and structures","category":"Buildings","object_type":"Area","style_id":"polygon.building.394446","source_group":"COLOR_Building","vsmr_group_ids":[],"geometry_role":"filled_region"},"geometry":{"type":"Polygon","coordinates":[[[6.474603274834534,43.20326545377673],[6.474733906275219,43.20326070029759],[6.474739333987058,43.20340353154796],[6.47463156325532,43.20340352538956],[6.474630477785885,43.20337495913111],[6.474603262847323,43.20337575106259],[6.474603274834534,43.20326545377673]]]}},{"type":"Feature","id":"LFTZ-a871207dc8f00cdcaea3","properties":{"airport":"LFTZ","name":"COLOR_Building","layer":"Buildings and structures","category":"Buildings","object_type":"Area","style_id":"polygon.building.394446","source_group":"COLOR_Building","vsmr_group_ids":[],"geometry_role":"filled_region"},"geometry":{"type":"Polygon","coordinates":[[[6.474768587746054,43.20364745571974],[6.47527111287808,43.20383718718994],[6.475249500281448,43.20386718943652],[6.475290659943306,43.20388369344647],[6.475314330731856,43.20385219114193],[6.475451186645278,43.20390695430408],[6.475356503386845,43.20403446371209],[6.475223763158096,43.20398195094616],[6.475228909143733,43.20397370029247],[6.475186700052811,43.2039582023701],[6.475118535845292,43.20404626765863],[6.47466470083452,43.20387349200418],[6.474706529907106,43.20381365267225],[6.474656964794432,43.20379106804275],[6.474656966863018,43.20377187352491],[6.474681756428717,43.20371767866364],[6.474734429023144,43.2036499363146],[6.474768587746054,43.20364745571974]]]}},{"type":"Feature","id":"LFTZ-2b8b2458ad86af6ba058","properties":{"airport":"LFTZ","name":"COLOR_Stopbar","layer":"Surface markings","category":"Stopbars","object_type":"Area","style_id":"polygon.stopbar.7e0000","source_group":"COLOR_Stopbar","vsmr_group_ids":[],"geometry_role":"filled_region"},"geometry":{"type":"Polygon","coordinates":[[[6.474769368745479,43.20306346980824],[6.474786341039209,43.20305255372502],[6.475276531753449,43.20324463178011],[6.47527382767125,43.20325974378891],[6.474769368745479,43.20306346980824]]]}},{"type":"Feature","id":"LFTZ-495bfc560ed92f3316ad","properties":{"airport":"LFTZ","name":"COLOR_Stopbar","layer":"Surface markings","category":"Stopbars","object_type":"Area","style_id":"polygon.stopbar.7e0000","source_group":"COLOR_Stopbar","vsmr_group_ids":[],"geometry_role":"filled_region"},"geometry":{"type":"Polygon","coordinates":[[[6.47742460244487,43.2040971198153],[6.477432368846172,43.20408476741075],[6.477611010246205,43.20415373018476],[6.477602537743525,43.20416505325282],[6.47742460244487,43.2040971198153]]]}},{"type":"Feature","id":"LFTZ-390a6e3bc931d629a8f9","properties":{"airport":"LFTZ","name":"COLOR_RunwayBorder","layer":"Guidance lines","category":"Runway Border","object_type":"Line","style_id":"line.runwayborder.808080","source_group":"COLOR_RunwayBorder","vsmr_group_ids":[],"geometry_role":"linework"},"geometry":{"type":"LineString","coordinates":[[6.476321413492161,43.20324999714588],[6.476539972636603,43.20333414211771]]}},{"type":"Feature","id":"LFTZ-eba413c7c0cd96cad3c8","properties":{"airport":"LFTZ","name":"COLOR_RunwayBorder","layer":"Guidance lines","category":"Runway Border","object_type":"Line","style_id":"line.runwayborder.808080","source_group":"COLOR_RunwayBorder","vsmr_group_ids":[],"geometry_role":"linework"},"geometry":{"type":"LineString","coordinates":[[6.476526844823787,43.20335021081669],[6.476653381772746,43.20337952575795],[6.476549908350934,43.20331917845103]]}},{"type":"Feature","id":"LFTZ-4b29d74232e79fbc3efd","properties":{"airport":"LFTZ","name":"COLOR_RunwayBorder","layer":"Guidance lines","category":"Runway Border","object_type":"Line","style_id":"line.runwayborder.808080","source_group":"COLOR_RunwayBorder","vsmr_group_ids":[],"geometry_role":"linework"},"geometry":{"type":"LineString","coordinates":[[6.476974005075434,43.20350305361067],[6.477193820588944,43.20358954378752]]}},{"type":"Feature","id":"LFTZ-f382a0e3533edc3e7609","properties":{"airport":"LFTZ","name":"COLOR_RunwayBorder","layer":"Guidance lines","category":"Runway Border","object_type":"Line","style_id":"line.runwayborder.808080","source_group":"COLOR_RunwayBorder","vsmr_group_ids":[],"geometry_role":"linework"},"geometry":{"type":"LineString","coordinates":[[6.477179025470674,43.20360377778071],[6.477302110000942,43.20363225170375],[6.477203289983033,43.20357315282906]]}},{"type":"Feature","id":"LFTZ-c4b4a965b86f4ec301f1","properties":{"airport":"LFTZ","name":"COLOR_RunwayBorder","layer":"Guidance lines","category":"Runway Border","object_type":"Line","style_id":"line.runwayborder.808080","source_group":"COLOR_RunwayBorder","vsmr_group_ids":[],"geometry_role":"linework"},"geometry":{"type":"LineString","coordinates":[[6.477473114382397,43.20385095303656],[6.477644937545715,43.20361462976217]]}},{"type":"Feature","id":"LFTZ-1f72a53522623424c445","properties":{"airport":"LFTZ","name":"COLOR_Taxiway","layer":"Guidance lines","category":"Taxiways","object_type":"Line","style_id":"line.taxiway.c0b631","source_group":"COLOR_Taxiway","vsmr_group_ids":[],"geometry_role":"linework"},"geometry":{"type":"LineString","coordinates":[[6.476124479436718,43.20302150653854],[6.475956879842015,43.20325561056215],[6.476039480221452,43.2031398256736],[6.475599565037031,43.20296941515137],[6.475488412836487,43.20292541006565],[6.475446287452026,43.20291364944242],[6.475397887758014,43.20291103540491],[6.475343213781728,43.20291756796509],[6.47528495409865,43.20294043386173],[6.475199844810713,43.20298793009021],[6.4751477659359,43.20302755770538],[6.475093875387056,43.2030807021858],[6.475030474390763,43.20314771052279]]}},{"type":"Feature","id":"LFTZ-17f8425b282c75f5dddd","properties":{"airport":"LFTZ","name":"PRKG AVION","layer":"Labels","category":"Gates","object_type":"Label","style_id":"label.gates","source_group":"LFTZ Gates","vsmr_group_ids":[],"geometry_role":"text_label","text-field":"PRKG AVION"},"geometry":{"type":"Point","coordinates":[6.475809444,43.203733889]}},{"type":"Feature","id":"LFTZ-d96d2ba280e379fdee94","properties":{"airport":"LFTZ","name":"PRKG HERBE","layer":"Labels","category":"Gates","object_type":"Label","style_id":"label.gates","source_group":"LFTZ Gates","vsmr_group_ids":[],"geometry_role":"text_label","text-field":"PRKG HERBE"},"geometry":{"type":"Point","coordinates":[6.478674167,43.204755]}},{"type":"Feature","id":"LFTZ-11f67c4252c0eacab395","properties":{"airport":"LFTZ","name":"PRKG HEL HERBE","layer":"Labels","category":"Gates","object_type":"Label","style_id":"label.gates","source_group":"LFTZ Gates","vsmr_group_ids":[],"geometry_role":"text_label","text-field":"PRKG HEL HERBE"},"geometry":{"type":"Point","coordinates":[6.478439722,43.203362222]}},{"type":"Feature","id":"LFTZ-fa4ad5bd4a8dfe6dd451","properties":{"airport":"LFTZ","name":"06","layer":"Labels","category":"Taxiways","object_type":"Label","style_id":"label.taxiways","source_group":"LFTZ Taxiways","vsmr_group_ids":[],"geometry_role":"text_label","text-field":"06"},"geometry":{"type":"Point","coordinates":[6.477734722,43.203812222]}},{"type":"Feature","id":"LFTZ-869d95182546df3ac0e4","properties":{"airport":"LFTZ","name":"24","layer":"Labels","category":"Taxiways","object_type":"Label","style_id":"label.taxiways","source_group":"LFTZ Taxiways","vsmr_group_ids":[],"geometry_role":"text_label","text-field":"24"},"geometry":{"type":"Point","coordinates":[6.4874325,43.207566667]}},{"type":"Feature","id":"LFTZ-74577d9067e6fb49ddb3","properties":{"airport":"LFTZ","name":"A","layer":"Labels","category":"Taxiways","object_type":"Label","style_id":"label.taxiways","source_group":"LFTZ Taxiways","vsmr_group_ids":[],"geometry_role":"text_label","text-field":"A"},"geometry":{"type":"Point","coordinates":[6.475445833,43.203171944]}},{"type":"Feature","id":"LFTZ-f67ae17b575a23c6e797","properties":{"airport":"LFTZ","name":"B","layer":"Labels","category":"Taxiways","object_type":"Label","style_id":"label.taxiways","source_group":"LFTZ Taxiways","vsmr_group_ids":[],"geometry_role":"text_label","text-field":"B"},"geometry":{"type":"Point","coordinates":[6.477904167,43.204156667]}}]}
