{"type":"FeatureCollection","name":"LFXA AVISO","bbox":[5.32425,45.977055556,5.339277778,45.995527778],"metadata":{"schema":"vSMR AVISO","schema_version":2,"geometry_mode":"shared","airport":"LFXA","coordinate_reference_system":"WGS84","coordinate_order":"longitude, latitude","default_color_palette":"dark","color_palettes":["dark","light"],"background_colors":{"dark":"#434A4F","light":"#434A4F"},"runways":[],"saved_active_runways":[],"saved_active_airport_modes":[],"feature_count":2,"style_count":2,"layer_counts":{"Guidance lines":2},"category_counts":{"Grass runways":1,"Runways":1},"geometry_source":"local GNG","geometry_source_url":"","geometry_license":"GPL-3.0"},"styles":{"line.runwayconcrete.555555":{"name":"Runways","layer":"Guidance lines","object_type":"Line","paint":{"stroke":"#111318","stroke-opacity":1,"stroke-width":1,"palette-overrides":{"light":{"stroke":"#555555"}}},"feature_count":1},"line.runwaygrass.008000":{"name":"Grass runways","layer":"Guidance lines","object_type":"Line","paint":{"stroke":"#859A77","stroke-opacity":1,"stroke-width":1,"palette-overrides":{"light":{"stroke":"#008000"}}},"feature_count":1}},"vsmr_groups":[],"features":[{"type":"Feature","id":"LFXA-9143764a7bf3095b0304","properties":{"airport":"LFXA","name":"LFXA Groundlayout","layer":"Guidance lines","category":"Runways","object_type":"Line","style_id":"line.runwayconcrete.555555","source_group":"LFXA Groundlayout","vsmr_group_ids":[],"geometry_role":"linework"},"geometry":{"type":"MultiLineString","coordinates":[[[5.337083333,45.977055556],[5.339277778,45.982861111]],[[5.332722222,45.977944444],[5.337083333,45.977055556]],[[5.334916667,45.98375],[5.339277778,45.982861111]]]}},{"type":"Feature","id":"LFXA-0772d3807b2195c9037d","properties":{"airport":"LFXA","name":"LFXA Groundlayout","layer":"Guidance lines","category":"Grass runways","object_type":"Line","style_id":"line.runwaygrass.008000","source_group":"LFXA Groundlayout","vsmr_group_ids":[],"geometry_role":"linework"},"geometry":{"type":"MultiLineString","coordinates":[[[5.32425,45.979638889],[5.32725,45.995527778]],[[5.32875,45.979166667],[5.33175,45.995083333]],[[5.32425,45.979638889],[5.32875,45.979166667]],[[5.32725,45.995527778],[5.33175,45.995083333]]]}}]}
